<?xml version="1.0" encoding="UTF-8"?>
<gpx xmlns="http://www.topografix.com/GPX/1/1" xmlns:gpxtpx="http://www.garmin.com/xmlschemas/TrackPointExtension/v1" xmlns:xsi="http://www.w3.org/2001/XMLSchema-instance" xsi:schemaLocation="http://www.topografix.com/GPX/1/1 http://www.topografix.com/GPX/1/1/gpx.xsd" version="1.1" creator="gpx.py -- https://github.com/tkrajina/gpxpy">
  <trk>
    <name>gpx from keep</name>
    <type>Run</type>
    <trkseg>
      <trkpt lat="37.847379362226874" lon="112.02896832446002">
        <ele>1104.0</ele>
        <time>2018-10-29T02:08:16.328000Z</time>
      </trkpt>
      <trkpt lat="37.84739793921391" lon="112.02881118400886">
        <ele>1106.0</ele>
        <time>2018-10-29T02:08:22.328000Z</time>
      </trkpt>
      <trkpt lat="37.84733967839948" lon="112.02874632797412">
        <ele>1107.0</ele>
        <time>2018-10-29T02:08:25.328000Z</time>
      </trkpt>
      <trkpt lat="37.84735440321587" lon="112.02862688295463">
        <ele>1107.0</ele>
        <time>2018-10-29T02:08:31.328000Z</time>
      </trkpt>
      <trkpt lat="37.84740293618454" lon="112.02858544425094">
        <ele>1108.0</ele>
        <time>2018-10-29T02:08:34.328000Z</time>
      </trkpt>
      <trkpt lat="37.84742562752385" lon="112.02851504635852">
        <ele>1109.0</ele>
        <time>2018-10-29T02:08:37.328000Z</time>
      </trkpt>
      <trkpt lat="37.847384587192" lon="112.028335200261">
        <ele>1108.0</ele>
        <time>2018-10-29T02:08:43.328000Z</time>
      </trkpt>
      <trkpt lat="37.847333564458935" lon="112.0281791097394">
        <ele>1105.0</ele>
        <time>2018-10-29T02:08:49.328000Z</time>
      </trkpt>
      <trkpt lat="37.8473282817705" lon="112.02807096169833">
        <ele>1106.0</ele>
        <time>2018-10-29T02:08:52.328000Z</time>
      </trkpt>
      <trkpt lat="37.847382635056114" lon="112.02776634405728">
        <ele>1104.0</ele>
        <time>2018-10-29T02:09:01.328000Z</time>
      </trkpt>
      <trkpt lat="37.84744539180902" lon="112.0276549812021">
        <ele>1104.0</ele>
        <time>2018-10-29T02:09:04.328000Z</time>
      </trkpt>
      <trkpt lat="37.84747877597523" lon="112.02754463376442">
        <ele>1105.0</ele>
        <time>2018-10-29T02:09:07.328000Z</time>
      </trkpt>
      <trkpt lat="37.847509981918954" lon="112.02744471488874">
        <ele>1105.0</ele>
        <time>2018-10-29T02:09:13.828000Z</time>
      </trkpt>
      <trkpt lat="37.84747877597523" lon="112.02754463376442">
        <ele>1105.0</ele>
        <time>2018-10-29T02:09:16.528000Z</time>
      </trkpt>
      <trkpt lat="37.824495681417716" lon="112.00635632447386">
        <ele>1186.0</ele>
        <time>2018-10-29T02:36:32.928000Z</time>
      </trkpt>
      <trkpt lat="37.82479214948977" lon="112.00638007645654">
        <ele>1185.0</ele>
        <time>2018-10-29T02:36:45.328000Z</time>
      </trkpt>
      <trkpt lat="37.824938121611495" lon="112.00648365278286">
        <ele>1181.0</ele>
        <time>2018-10-29T02:36:55.928000Z</time>
      </trkpt>
      <trkpt lat="37.824982930780244" lon="112.00645357818361">
        <ele>1188.0</ele>
        <time>2018-10-29T02:36:59.328000Z</time>
      </trkpt>
      <trkpt lat="37.82505052662112" lon="112.00644005459692">
        <ele>1188.0</ele>
        <time>2018-10-29T02:37:02.328000Z</time>
      </trkpt>
      <trkpt lat="37.82528262083912" lon="112.00648868286396">
        <ele>1188.0</ele>
        <time>2018-10-29T02:37:20.328000Z</time>
      </trkpt>
      <trkpt lat="37.82528786980048" lon="112.0065481506361">
        <ele>1187.0</ele>
        <time>2018-10-29T02:37:26.328000Z</time>
      </trkpt>
      <trkpt lat="37.82530161800423" lon="112.0064867884246">
        <ele>1187.0</ele>
        <time>2018-10-29T02:37:35.328000Z</time>
      </trkpt>
      <trkpt lat="37.825623228487785" lon="112.00654054196254">
        <ele>1182.0</ele>
        <time>2018-10-29T02:38:02.328000Z</time>
      </trkpt>
      <trkpt lat="37.825915171589" lon="112.00653510095108">
        <ele>1184.0</ele>
        <time>2018-10-29T02:38:26.328000Z</time>
      </trkpt>
      <trkpt lat="37.82606111497515" lon="112.00654184133235">
        <ele>1184.0</ele>
        <time>2018-10-29T02:38:38.328000Z</time>
      </trkpt>
      <trkpt lat="37.82611302494398" lon="112.00651156032295">
        <ele>1185.0</ele>
        <time>2018-10-29T02:38:47.328000Z</time>
      </trkpt>
      <trkpt lat="37.82629176758801" lon="112.00652802798558">
        <ele>1181.0</ele>
        <time>2018-10-29T02:38:59.328000Z</time>
      </trkpt>
      <trkpt lat="37.826507707840264" lon="112.00645053468378">
        <ele>1179.0</ele>
        <time>2018-10-29T02:39:11.328000Z</time>
      </trkpt>
      <trkpt lat="37.82664782552596" lon="112.00644598964368">
        <ele>1171.0</ele>
        <time>2018-10-29T02:39:17.328000Z</time>
      </trkpt>
      <trkpt lat="37.8268461031573" lon="112.00638080888876">
        <ele>1162.0</ele>
        <time>2018-10-29T02:39:26.328000Z</time>
      </trkpt>
      <trkpt lat="37.82712707793823" lon="112.00636141710709">
        <ele>1164.0</ele>
        <time>2018-10-29T02:39:38.328000Z</time>
      </trkpt>
      <trkpt lat="37.82744870065189" lon="112.0062937836506">
        <ele>1167.0</ele>
        <time>2018-10-29T02:39:50.328000Z</time>
      </trkpt>
      <trkpt lat="37.82780378471403" lon="112.00630329583049">
        <ele>1169.0</ele>
        <time>2018-10-29T02:39:59.328000Z</time>
      </trkpt>
      <trkpt lat="37.82798698424375" lon="112.00630882981511">
        <ele>1171.0</ele>
        <time>2018-10-29T02:40:02.328000Z</time>
      </trkpt>
      <trkpt lat="37.828328902545515" lon="112.00624117151793">
        <ele>1168.0</ele>
        <time>2018-10-29T02:40:11.328000Z</time>
      </trkpt>
      <trkpt lat="37.828413004549866" lon="112.00622061416189">
        <ele>1169.0</ele>
        <time>2018-10-29T02:40:14.328000Z</time>
      </trkpt>
      <trkpt lat="37.82873090180391" lon="112.00621912505305">
        <ele>1165.0</ele>
        <time>2018-10-29T02:40:23.328000Z</time>
      </trkpt>
      <trkpt lat="37.82903068831994" lon="112.00620694454278">
        <ele>1159.0</ele>
        <time>2018-10-29T02:40:32.328000Z</time>
      </trkpt>
      <trkpt lat="37.82931559439154" lon="112.0061906642707">
        <ele>1161.0</ele>
        <time>2018-10-29T02:40:41.328000Z</time>
      </trkpt>
      <trkpt lat="37.82941463061045" lon="112.00618189553764">
        <ele>1161.0</ele>
        <time>2018-10-29T02:40:44.328000Z</time>
      </trkpt>
      <trkpt lat="37.829481208488296" lon="112.00620630187638">
        <ele>1161.0</ele>
        <time>2018-10-29T02:40:47.328000Z</time>
      </trkpt>
      <trkpt lat="37.829850661189035" lon="112.00620566428643">
        <ele>1158.0</ele>
        <time>2018-10-29T02:40:59.328000Z</time>
      </trkpt>
      <trkpt lat="37.83015783392807" lon="112.00618832786125">
        <ele>1164.0</ele>
        <time>2018-10-29T02:41:08.328000Z</time>
      </trkpt>
      <trkpt lat="37.83043314026861" lon="112.00621235260802">
        <ele>1164.0</ele>
        <time>2018-10-29T02:41:17.328000Z</time>
      </trkpt>
      <trkpt lat="37.83075168551274" lon="112.00620258349493">
        <ele>1168.0</ele>
        <time>2018-10-29T02:41:26.328000Z</time>
      </trkpt>
      <trkpt lat="37.831032067337176" lon="112.0061991752764">
        <ele>1166.0</ele>
        <time>2018-10-29T02:41:35.328000Z</time>
      </trkpt>
      <trkpt lat="37.83112801069594" lon="112.00619578090212">
        <ele>1168.0</ele>
        <time>2018-10-29T02:41:38.328000Z</time>
      </trkpt>
      <trkpt lat="37.831203381281036" lon="112.00621361235567">
        <ele>1170.0</ele>
        <time>2018-10-29T02:41:41.328000Z</time>
      </trkpt>
      <trkpt lat="37.831570090481634" lon="112.00617521155105">
        <ele>1170.0</ele>
        <time>2018-10-29T02:41:53.328000Z</time>
      </trkpt>
      <trkpt lat="37.83188997070856" lon="112.00616443963256">
        <ele>1168.0</ele>
        <time>2018-10-29T02:42:02.328000Z</time>
      </trkpt>
      <trkpt lat="37.832069210516586" lon="112.00616867055328">
        <ele>1164.0</ele>
        <time>2018-10-29T02:42:08.328000Z</time>
      </trkpt>
      <trkpt lat="37.83217870525506" lon="112.00614614715275">
        <ele>1166.0</ele>
        <time>2018-10-29T02:42:11.328000Z</time>
      </trkpt>
      <trkpt lat="37.83244773355872" lon="112.00619457156277">
        <ele>1168.0</ele>
        <time>2018-10-29T02:42:20.328000Z</time>
      </trkpt>
      <trkpt lat="37.832514297220726" lon="112.00624171479633">
        <ele>1165.0</ele>
        <time>2018-10-29T02:42:23.328000Z</time>
      </trkpt>
      <trkpt lat="37.83277357572483" lon="112.006353214348">
        <ele>1163.0</ele>
        <time>2018-10-29T02:42:32.328000Z</time>
      </trkpt>
      <trkpt lat="37.83303957945729" lon="112.00643506897701">
        <ele>1165.0</ele>
        <time>2018-10-29T02:42:41.328000Z</time>
      </trkpt>
      <trkpt lat="37.83336862309041" lon="112.0065663484057">
        <ele>1170.0</ele>
        <time>2018-10-29T02:42:53.328000Z</time>
      </trkpt>
      <trkpt lat="37.833458168301114" lon="112.00661744661481">
        <ele>1169.0</ele>
        <time>2018-10-29T02:42:56.428000Z</time>
      </trkpt>
      <trkpt lat="37.83373887974251" lon="112.00668689447257">
        <ele>1169.0</ele>
        <time>2018-10-29T02:43:05.328000Z</time>
      </trkpt>
      <trkpt lat="37.83404154883024" lon="112.00677498334889">
        <ele>1165.0</ele>
        <time>2018-10-29T02:43:14.328000Z</time>
      </trkpt>
      <trkpt lat="37.83423688094046" lon="112.00686460968976">
        <ele>1164.0</ele>
        <time>2018-10-29T02:43:20.328000Z</time>
      </trkpt>
      <trkpt lat="37.834498688852236" lon="112.00694991481738">
        <ele>1165.0</ele>
        <time>2018-10-29T02:43:29.328000Z</time>
      </trkpt>
      <trkpt lat="37.83484291153065" lon="112.0069851436439">
        <ele>1164.0</ele>
        <time>2018-10-29T02:43:41.328000Z</time>
      </trkpt>
      <trkpt lat="37.83499868850024" lon="112.00695537934737">
        <ele>1163.0</ele>
        <time>2018-10-29T02:43:47.328000Z</time>
      </trkpt>
      <trkpt lat="37.83516910444529" lon="112.00693831204734">
        <ele>1162.0</ele>
        <time>2018-10-29T02:43:53.328000Z</time>
      </trkpt>
      <trkpt lat="37.83525810388987" lon="112.00693864375833">
        <ele>1162.0</ele>
        <time>2018-10-29T02:43:56.328000Z</time>
      </trkpt>
      <trkpt lat="37.83534944349275" lon="112.006969448486">
        <ele>1162.0</ele>
        <time>2018-10-29T02:43:59.328000Z</time>
      </trkpt>
      <trkpt lat="37.83541047081995" lon="112.00706648346814">
        <ele>1159.0</ele>
        <time>2018-10-29T02:44:02.328000Z</time>
      </trkpt>
      <trkpt lat="37.83546257845228" lon="112.00728749062513">
        <ele>1153.0</ele>
        <time>2018-10-29T02:44:08.328000Z</time>
      </trkpt>
      <trkpt lat="37.835521891838596" lon="112.00736544406263">
        <ele>1157.0</ele>
        <time>2018-10-29T02:44:11.328000Z</time>
      </trkpt>
      <trkpt lat="37.83569157974474" lon="112.00742999995184">
        <ele>1160.0</ele>
        <time>2018-10-29T02:44:17.328000Z</time>
      </trkpt>
      <trkpt lat="37.83577074651818" lon="112.0074366202711">
        <ele>1160.0</ele>
        <time>2018-10-29T02:44:20.328000Z</time>
      </trkpt>
      <trkpt lat="37.83585090911054" lon="112.00740621468907">
        <ele>1156.0</ele>
        <time>2018-10-29T02:44:23.328000Z</time>
      </trkpt>
      <trkpt lat="37.8361488686472" lon="112.00746754091513">
        <ele>1155.0</ele>
        <time>2018-10-29T02:44:35.428000Z</time>
      </trkpt>
      <trkpt lat="37.836313992663015" lon="112.00750239179793">
        <ele>1152.0</ele>
        <time>2018-10-29T02:44:41.328000Z</time>
      </trkpt>
      <trkpt lat="37.83634857416659" lon="112.00746021860482">
        <ele>1153.0</ele>
        <time>2018-10-29T02:44:44.328000Z</time>
      </trkpt>
      <trkpt lat="37.83643890742529" lon="112.00746453286182">
        <ele>1152.0</ele>
        <time>2018-10-29T02:44:47.328000Z</time>
      </trkpt>
      <trkpt lat="37.836746373740226" lon="112.00762290065562">
        <ele>1154.0</ele>
        <time>2018-10-29T02:44:56.428000Z</time>
      </trkpt>
      <trkpt lat="37.8369753593971" lon="112.00771423991209">
        <ele>1153.0</ele>
        <time>2018-10-29T02:45:05.328000Z</time>
      </trkpt>
      <trkpt lat="37.83720991207105" lon="112.00784964012996">
        <ele>1157.0</ele>
        <time>2018-10-29T02:45:14.328000Z</time>
      </trkpt>
      <trkpt lat="37.83750621491773" lon="112.00793015901196">
        <ele>1157.0</ele>
        <time>2018-10-29T02:45:23.328000Z</time>
      </trkpt>
      <trkpt lat="37.83778896441976" lon="112.00800662485814">
        <ele>1153.0</ele>
        <time>2018-10-29T02:45:32.328000Z</time>
      </trkpt>
      <trkpt lat="37.83813727404579" lon="112.00812783701224">
        <ele>1154.0</ele>
        <time>2018-10-29T02:45:44.328000Z</time>
      </trkpt>
      <trkpt lat="37.83829005174007" lon="112.00816083183528">
        <ele>1150.0</ele>
        <time>2018-10-29T02:45:50.328000Z</time>
      </trkpt>
      <trkpt lat="37.83848003203685" lon="112.00826389695624">
        <ele>1151.0</ele>
        <time>2018-10-29T02:45:56.328000Z</time>
      </trkpt>
      <trkpt lat="37.8385687176415" lon="112.00826852410512">
        <ele>1148.0</ele>
        <time>2018-10-29T02:45:59.328000Z</time>
      </trkpt>
      <trkpt lat="37.838749388630156" lon="112.00823596102435">
        <ele>1148.0</ele>
        <time>2018-10-29T02:46:05.328000Z</time>
      </trkpt>
      <trkpt lat="37.83905157174953" lon="112.00817724501778">
        <ele>1146.0</ele>
        <time>2018-10-29T02:46:14.328000Z</time>
      </trkpt>
      <trkpt lat="37.83932491013498" lon="112.00808771376238">
        <ele>1143.0</ele>
        <time>2018-10-29T02:46:23.328000Z</time>
      </trkpt>
      <trkpt lat="37.83961469702061" lon="112.00806465183263">
        <ele>1145.0</ele>
        <time>2018-10-29T02:46:32.328000Z</time>
      </trkpt>
      <trkpt lat="37.83999588963306" lon="112.00804195047348">
        <ele>1139.0</ele>
        <time>2018-10-29T02:46:44.328000Z</time>
      </trkpt>
      <trkpt lat="37.84017960703357" lon="112.00804572295067">
        <ele>1138.0</ele>
        <time>2018-10-29T02:46:50.328000Z</time>
      </trkpt>
      <trkpt lat="37.84037206325684" lon="112.00802648665106">
        <ele>1135.0</ele>
        <time>2018-10-29T02:46:56.328000Z</time>
      </trkpt>
      <trkpt lat="37.84056406803961" lon="112.0080684484413">
        <ele>1137.0</ele>
        <time>2018-10-29T02:47:02.328000Z</time>
      </trkpt>
      <trkpt lat="37.84066403493059" lon="112.00811470362984">
        <ele>1134.0</ele>
        <time>2018-10-29T02:47:05.328000Z</time>
      </trkpt>
      <trkpt lat="37.840778703026665" lon="112.00815825608471">
        <ele>1133.0</ele>
        <time>2018-10-29T02:47:08.328000Z</time>
      </trkpt>
      <trkpt lat="37.841050755889235" lon="112.00822523966448">
        <ele>1130.0</ele>
        <time>2018-10-29T02:47:17.328000Z</time>
      </trkpt>
      <trkpt lat="37.84122113107678" lon="112.00823533706723">
        <ele>1130.0</ele>
        <time>2018-10-29T02:47:23.328000Z</time>
      </trkpt>
      <trkpt lat="37.84137379336284" lon="112.00820645146827">
        <ele>1125.0</ele>
        <time>2018-10-29T02:47:29.328000Z</time>
      </trkpt>
      <trkpt lat="37.8414596353353" lon="112.00819291117429">
        <ele>1126.0</ele>
        <time>2018-10-29T02:47:32.328000Z</time>
      </trkpt>
      <trkpt lat="37.841550159790145" lon="112.00817345884143">
        <ele>1124.0</ele>
        <time>2018-10-29T02:47:35.328000Z</time>
      </trkpt>
      <trkpt lat="37.84173403379166" lon="112.00812045973757">
        <ele>1126.0</ele>
        <time>2018-10-29T02:47:41.328000Z</time>
      </trkpt>
      <trkpt lat="37.84198383802369" lon="112.00796223410332">
        <ele>1128.0</ele>
        <time>2018-10-29T02:47:50.328000Z</time>
      </trkpt>
      <trkpt lat="37.84214427962515" lon="112.00781849308761">
        <ele>1128.0</ele>
        <time>2018-10-29T02:47:56.328000Z</time>
      </trkpt>
      <trkpt lat="37.84237979366738" lon="112.0076391736837">
        <ele>1131.0</ele>
        <time>2018-10-29T02:48:05.328000Z</time>
      </trkpt>
      <trkpt lat="37.842520822810414" lon="112.0075525404038">
        <ele>1135.0</ele>
        <time>2018-10-29T02:48:11.328000Z</time>
      </trkpt>
      <trkpt lat="37.84273394102322" lon="112.00736144806287">
        <ele>1125.0</ele>
        <time>2018-10-29T02:48:20.328000Z</time>
      </trkpt>
      <trkpt lat="37.84300656099666" lon="112.00720180247195">
        <ele>1121.0</ele>
        <time>2018-10-29T02:48:29.328000Z</time>
      </trkpt>
      <trkpt lat="37.84309242052127" lon="112.00713720222251">
        <ele>1118.0</ele>
        <time>2018-10-29T02:48:32.328000Z</time>
      </trkpt>
      <trkpt lat="37.843244321363336" lon="112.00696683568066">
        <ele>1123.0</ele>
        <time>2018-10-29T02:48:38.328000Z</time>
      </trkpt>
      <trkpt lat="37.843330669705374" lon="112.0068909347398">
        <ele>1122.0</ele>
        <time>2018-10-29T02:48:41.328000Z</time>
      </trkpt>
      <trkpt lat="37.84342426830903" lon="112.0068172459613">
        <ele>1126.0</ele>
        <time>2018-10-29T02:48:44.328000Z</time>
      </trkpt>
      <trkpt lat="37.84369108975335" lon="112.0066880699798">
        <ele>1125.0</ele>
        <time>2018-10-29T02:48:53.328000Z</time>
      </trkpt>
      <trkpt lat="37.84383738549391" lon="112.0065674302988">
        <ele>1125.0</ele>
        <time>2018-10-29T02:48:59.328000Z</time>
      </trkpt>
      <trkpt lat="37.84391744775901" lon="112.00647619495949">
        <ele>1122.0</ele>
        <time>2018-10-29T02:49:02.328000Z</time>
      </trkpt>
      <trkpt lat="37.84399366846185" lon="112.00640832624123">
        <ele>1121.0</ele>
        <time>2018-10-29T02:49:05.328000Z</time>
      </trkpt>
      <trkpt lat="37.8442679765519" lon="112.00626927312287">
        <ele>1130.0</ele>
        <time>2018-10-29T02:49:14.328000Z</time>
      </trkpt>
      <trkpt lat="37.844439592377874" lon="112.0061701692675">
        <ele>1130.0</ele>
        <time>2018-10-29T02:49:20.328000Z</time>
      </trkpt>
      <trkpt lat="37.84465716928764" lon="112.00613344550865">
        <ele>1130.0</ele>
        <time>2018-10-29T02:49:26.328000Z</time>
      </trkpt>
      <trkpt lat="37.84499475854049" lon="112.00625197393784">
        <ele>1129.0</ele>
        <time>2018-10-29T02:49:38.328000Z</time>
      </trkpt>
      <trkpt lat="37.845096701349455" lon="112.0062604491917">
        <ele>1136.0</ele>
        <time>2018-10-29T02:49:41.328000Z</time>
      </trkpt>
      <trkpt lat="37.845363666462106" lon="112.00636816318037">
        <ele>1137.0</ele>
        <time>2018-10-29T02:49:50.328000Z</time>
      </trkpt>
      <trkpt lat="37.845455344671144" lon="112.00637653185893">
        <ele>1131.0</ele>
        <time>2018-10-29T02:49:53.328000Z</time>
      </trkpt>
      <trkpt lat="37.84572021412997" lon="112.00648099891133">
        <ele>1132.0</ele>
        <time>2018-10-29T02:50:02.328000Z</time>
      </trkpt>
      <trkpt lat="37.846007134299796" lon="112.00657784735347">
        <ele>1132.0</ele>
        <time>2018-10-29T02:50:11.328000Z</time>
      </trkpt>
      <trkpt lat="37.84623102764582" lon="112.00666545700976">
        <ele>1128.0</ele>
        <time>2018-10-29T02:50:17.328000Z</time>
      </trkpt>
      <trkpt lat="37.84650246258946" lon="112.00668279269915">
        <ele>1127.0</ele>
        <time>2018-10-29T02:50:26.328000Z</time>
      </trkpt>
      <trkpt lat="37.846767014423904" lon="112.00669684529468">
        <ele>1130.0</ele>
        <time>2018-10-29T02:50:35.328000Z</time>
      </trkpt>
      <trkpt lat="37.84707205258136" lon="112.00675288197205">
        <ele>1134.0</ele>
        <time>2018-10-29T02:50:44.328000Z</time>
      </trkpt>
      <trkpt lat="37.847344302103416" lon="112.00680231651862">
        <ele>1135.0</ele>
        <time>2018-10-29T02:50:53.328000Z</time>
      </trkpt>
      <trkpt lat="37.84763670276657" lon="112.00682688000468">
        <ele>1128.0</ele>
        <time>2018-10-29T02:51:02.328000Z</time>
      </trkpt>
      <trkpt lat="37.84794373823157" lon="112.00685684799032">
        <ele>1127.0</ele>
        <time>2018-10-29T02:51:11.328000Z</time>
      </trkpt>
      <trkpt lat="37.84823414091381" lon="112.00691466011588">
        <ele>1126.0</ele>
        <time>2018-10-29T02:51:20.328000Z</time>
      </trkpt>
      <trkpt lat="37.84833248633838" lon="112.00696195302142">
        <ele>1124.0</ele>
        <time>2018-10-29T02:51:23.328000Z</time>
      </trkpt>
      <trkpt lat="37.84840768588912" lon="112.00703763153894">
        <ele>1125.0</ele>
        <time>2018-10-29T02:51:26.328000Z</time>
      </trkpt>
      <trkpt lat="37.84860843653069" lon="112.0074095587539">
        <ele>1121.0</ele>
        <time>2018-10-29T02:51:38.328000Z</time>
      </trkpt>
      <trkpt lat="37.84880247862397" lon="112.00766552353578">
        <ele>1120.0</ele>
        <time>2018-10-29T02:51:47.328000Z</time>
      </trkpt>
      <trkpt lat="37.84903562545863" lon="112.0080012279694">
        <ele>1119.0</ele>
        <time>2018-10-29T02:51:59.328000Z</time>
      </trkpt>
      <trkpt lat="37.84921143908742" lon="112.00830405034523">
        <ele>1119.0</ele>
        <time>2018-10-29T02:52:08.328000Z</time>
      </trkpt>
      <trkpt lat="37.84938296902656" lon="112.00859079455782">
        <ele>1115.0</ele>
        <time>2018-10-29T02:52:17.328000Z</time>
      </trkpt>
      <trkpt lat="37.8495744551184" lon="112.00885105556108">
        <ele>1114.0</ele>
        <time>2018-10-29T02:52:26.328000Z</time>
      </trkpt>
      <trkpt lat="37.84977884679132" lon="112.00914328887752">
        <ele>1112.0</ele>
        <time>2018-10-29T02:52:35.328000Z</time>
      </trkpt>
      <trkpt lat="37.8498843466377" lon="112.00936976173858">
        <ele>1111.0</ele>
        <time>2018-10-29T02:52:41.328000Z</time>
      </trkpt>
      <trkpt lat="37.84990796184443" lon="112.00948694252952">
        <ele>1110.0</ele>
        <time>2018-10-29T02:52:44.328000Z</time>
      </trkpt>
      <trkpt lat="37.84990298863065" lon="112.00961601539136">
        <ele>1110.0</ele>
        <time>2018-10-29T02:52:47.328000Z</time>
      </trkpt>
      <trkpt lat="37.84993142725297" lon="112.00972712604532">
        <ele>1110.0</ele>
        <time>2018-10-29T02:52:50.428000Z</time>
      </trkpt>
      <trkpt lat="37.849901331913564" lon="112.01008955379672">
        <ele>1109.0</ele>
        <time>2018-10-29T02:52:59.328000Z</time>
      </trkpt>
      <trkpt lat="37.849903586738535" lon="112.01032874875527">
        <ele>1109.0</ele>
        <time>2018-10-29T02:53:05.428000Z</time>
      </trkpt>
      <trkpt lat="37.84983245824192" lon="112.01065830167923">
        <ele>1108.0</ele>
        <time>2018-10-29T02:53:14.328000Z</time>
      </trkpt>
      <trkpt lat="37.84983435203973" lon="112.0110126845097">
        <ele>1108.0</ele>
        <time>2018-10-29T02:53:23.328000Z</time>
      </trkpt>
      <trkpt lat="37.84978946708936" lon="112.0113750856203">
        <ele>1107.0</ele>
        <time>2018-10-29T02:53:32.428000Z</time>
      </trkpt>
      <trkpt lat="37.84979934960403" lon="112.01160807931043">
        <ele>1107.0</ele>
        <time>2018-10-29T02:53:38.328000Z</time>
      </trkpt>
      <trkpt lat="37.84978610416622" lon="112.01172051033532">
        <ele>1107.0</ele>
        <time>2018-10-29T02:53:41.428000Z</time>
      </trkpt>
      <trkpt lat="37.84972284441105" lon="112.01193525731028">
        <ele>1106.0</ele>
        <time>2018-10-29T02:53:47.328000Z</time>
      </trkpt>
      <trkpt lat="37.84972062382106" lon="112.01216389782451">
        <ele>1106.0</ele>
        <time>2018-10-29T02:53:53.428000Z</time>
      </trkpt>
      <trkpt lat="37.8497029037581" lon="112.01227757653116">
        <ele>1106.0</ele>
        <time>2018-10-29T02:53:56.328000Z</time>
      </trkpt>
      <trkpt lat="37.84970539885117" lon="112.0124042352945">
        <ele>1105.0</ele>
        <time>2018-10-29T02:53:59.328000Z</time>
      </trkpt>
      <trkpt lat="37.849731428471046" lon="112.01252296432727">
        <ele>1105.0</ele>
        <time>2018-10-29T02:54:02.328000Z</time>
      </trkpt>
      <trkpt lat="37.849713607302775" lon="112.0128888970302">
        <ele>1104.0</ele>
        <time>2018-10-29T02:54:11.428000Z</time>
      </trkpt>
      <trkpt lat="37.84970433526714" lon="112.01301265548655">
        <ele>1104.0</ele>
        <time>2018-10-29T02:54:14.428000Z</time>
      </trkpt>
      <trkpt lat="37.84967634479267" lon="112.01312717556033">
        <ele>1104.0</ele>
        <time>2018-10-29T02:54:17.328000Z</time>
      </trkpt>
      <trkpt lat="37.849635965924044" lon="112.01348193889672">
        <ele>1104.0</ele>
        <time>2018-10-29T02:54:26.328000Z</time>
      </trkpt>
      <trkpt lat="37.84962151532906" lon="112.01371160940289">
        <ele>1104.0</ele>
        <time>2018-10-29T02:54:32.328000Z</time>
      </trkpt>
      <trkpt lat="37.84963963177127" lon="112.01382392319115">
        <ele>1104.0</ele>
        <time>2018-10-29T02:54:35.328000Z</time>
      </trkpt>
      <trkpt lat="37.84959354281629" lon="112.0141928293236">
        <ele>1104.0</ele>
        <time>2018-10-29T02:54:44.428000Z</time>
      </trkpt>
      <trkpt lat="37.84954581683375" lon="112.01441393606491">
        <ele>1104.0</ele>
        <time>2018-10-29T02:54:50.328000Z</time>
      </trkpt>
      <trkpt lat="37.849495944124314" lon="112.01484981810802">
        <ele>1103.0</ele>
        <time>2018-10-29T02:55:02.328000Z</time>
      </trkpt>
      <trkpt lat="37.849456564378194" lon="112.01519498718332">
        <ele>1103.0</ele>
        <time>2018-10-29T02:55:11.328000Z</time>
      </trkpt>
      <trkpt lat="37.84941519597491" lon="112.01556009678163">
        <ele>1102.0</ele>
        <time>2018-10-29T02:55:20.428000Z</time>
      </trkpt>
      <trkpt lat="37.849367231791106" lon="112.01591527533719">
        <ele>1102.0</ele>
        <time>2018-10-29T02:55:29.328000Z</time>
      </trkpt>
      <trkpt lat="37.84935479157909" lon="112.01626899156">
        <ele>1103.0</ele>
        <time>2018-10-29T02:55:38.328000Z</time>
      </trkpt>
      <trkpt lat="37.849320732661006" lon="112.01661456168716">
        <ele>1103.0</ele>
        <time>2018-10-29T02:55:47.328000Z</time>
      </trkpt>
      <trkpt lat="37.84930517745507" lon="112.01685255959484">
        <ele>1103.0</ele>
        <time>2018-10-29T02:55:53.428000Z</time>
      </trkpt>
      <trkpt lat="37.84931591315186" lon="112.01696256049452">
        <ele>1103.0</ele>
        <time>2018-10-29T02:55:56.328000Z</time>
      </trkpt>
      <trkpt lat="37.84929313426264" lon="112.01707594852961">
        <ele>1103.0</ele>
        <time>2018-10-29T02:55:59.328000Z</time>
      </trkpt>
      <trkpt lat="37.84925077156219" lon="112.01718572228931">
        <ele>1103.0</ele>
        <time>2018-10-29T02:56:02.328000Z</time>
      </trkpt>
      <trkpt lat="37.84920607401141" lon="112.01754693901718">
        <ele>1103.0</ele>
        <time>2018-10-29T02:56:11.328000Z</time>
      </trkpt>
      <trkpt lat="37.84918730250321" lon="112.01767347970448">
        <ele>1103.0</ele>
        <time>2018-10-29T02:56:14.428000Z</time>
      </trkpt>
      <trkpt lat="37.84919005399969" lon="112.01784137387587">
        <ele>1103.0</ele>
        <time>2018-10-29T02:56:23.328000Z</time>
      </trkpt>
      <trkpt lat="37.84917496092004" lon="112.01770889411051">
        <ele>1104.0</ele>
        <time>2018-10-29T02:56:26.328000Z</time>
      </trkpt>
      <trkpt lat="37.84918452870175" lon="112.0175866858629">
        <ele>1104.0</ele>
        <time>2018-10-29T02:56:29.328000Z</time>
      </trkpt>
      <trkpt lat="37.84921524693931" lon="112.01746880135065">
        <ele>1104.0</ele>
        <time>2018-10-29T02:56:32.328000Z</time>
      </trkpt>
      <trkpt lat="37.84927197563267" lon="112.01736362135216">
        <ele>1104.0</ele>
        <time>2018-10-29T02:56:35.328000Z</time>
      </trkpt>
      <trkpt lat="37.849304850414235" lon="112.01725087420947">
        <ele>1103.0</ele>
        <time>2018-10-29T02:56:38.328000Z</time>
      </trkpt>
      <trkpt lat="37.84934301336703" lon="112.01689858294017">
        <ele>1103.0</ele>
        <time>2018-10-29T02:56:47.328000Z</time>
      </trkpt>
      <trkpt lat="37.849374822927174" lon="112.01668309904508">
        <ele>1104.0</ele>
        <time>2018-10-29T02:56:53.328000Z</time>
      </trkpt>
      <trkpt lat="37.84940781479652" lon="112.01624213494644">
        <ele>1103.0</ele>
        <time>2018-10-29T02:57:05.328000Z</time>
      </trkpt>
      <trkpt lat="37.849446205007546" lon="112.01581225948425">
        <ele>1103.0</ele>
        <time>2018-10-29T02:57:17.328000Z</time>
      </trkpt>
      <trkpt lat="37.849496910178566" lon="112.01544159464281">
        <ele>1103.0</ele>
        <time>2018-10-29T02:57:29.328000Z</time>
      </trkpt>
      <trkpt lat="37.84953088306216" lon="112.01514250413695">
        <ele>1103.0</ele>
        <time>2018-10-29T02:57:38.328000Z</time>
      </trkpt>
      <trkpt lat="37.8495969628296" lon="112.01470324840795">
        <ele>1102.0</ele>
        <time>2018-10-29T02:57:50.328000Z</time>
      </trkpt>
      <trkpt lat="37.84961841163489" lon="112.01460321614405">
        <ele>1102.0</ele>
        <time>2018-10-29T02:57:53.328000Z</time>
      </trkpt>
      <trkpt lat="37.849644902301065" lon="112.014164436668">
        <ele>1102.0</ele>
        <time>2018-10-29T02:58:05.328000Z</time>
      </trkpt>
      <trkpt lat="37.84966611641469" lon="112.01395761865784">
        <ele>1103.0</ele>
        <time>2018-10-29T02:58:11.328000Z</time>
      </trkpt>
      <trkpt lat="37.84964925688871" lon="112.0136880860752">
        <ele>1102.0</ele>
        <time>2018-10-29T02:58:20.328000Z</time>
      </trkpt>
      <trkpt lat="37.84968507227065" lon="112.01331095221622">
        <ele>1102.0</ele>
        <time>2018-10-29T02:58:32.328000Z</time>
      </trkpt>
      <trkpt lat="37.8497180752041" lon="112.01296896595696">
        <ele>1102.0</ele>
        <time>2018-10-29T02:58:41.328000Z</time>
      </trkpt>
      <trkpt lat="37.84972279267448" lon="112.01274512372962">
        <ele>1102.0</ele>
        <time>2018-10-29T02:58:47.328000Z</time>
      </trkpt>
      <trkpt lat="37.84975482900196" lon="112.0126445937616">
        <ele>1102.0</ele>
        <time>2018-10-29T02:58:50.328000Z</time>
      </trkpt>
      <trkpt lat="37.84979728376396" lon="112.01218843512481">
        <ele>1101.0</ele>
        <time>2018-10-29T02:59:02.328000Z</time>
      </trkpt>
      <trkpt lat="37.849824960186226" lon="112.01175757087667">
        <ele>1100.0</ele>
        <time>2018-10-29T02:59:14.328000Z</time>
      </trkpt>
      <trkpt lat="37.84983920665864" lon="112.01133774176768">
        <ele>1100.0</ele>
        <time>2018-10-29T02:59:26.328000Z</time>
      </trkpt>
      <trkpt lat="37.84984281368846" lon="112.01112444975219">
        <ele>1099.0</ele>
        <time>2018-10-29T02:59:32.328000Z</time>
      </trkpt>
      <trkpt lat="37.84988844312603" lon="112.0109219667644">
        <ele>1099.0</ele>
        <time>2018-10-29T02:59:38.328000Z</time>
      </trkpt>
      <trkpt lat="37.84988476083187" lon="112.01069678280079">
        <ele>1101.0</ele>
        <time>2018-10-29T02:59:47.428000Z</time>
      </trkpt>
      <trkpt lat="37.84990080636145" lon="112.01059108240227">
        <ele>1103.0</ele>
        <time>2018-10-29T02:59:53.328000Z</time>
      </trkpt>
      <trkpt lat="37.84993877763485" lon="112.0105026805702">
        <ele>1106.0</ele>
        <time>2018-10-29T02:59:59.328000Z</time>
      </trkpt>
      <trkpt lat="37.849867932801324" lon="112.0103285981396">
        <ele>1107.0</ele>
        <time>2018-10-29T03:00:08.328000Z</time>
      </trkpt>
      <trkpt lat="37.84988324026494" lon="112.01010476595629">
        <ele>1110.0</ele>
        <time>2018-10-29T03:00:20.328000Z</time>
      </trkpt>
      <trkpt lat="37.849874179126445" lon="112.01004907991491">
        <ele>1109.0</ele>
        <time>2018-10-29T03:00:23.328000Z</time>
      </trkpt>
      <trkpt lat="37.849897115379946" lon="112.00999933726571">
        <ele>1109.0</ele>
        <time>2018-10-29T03:00:26.328000Z</time>
      </trkpt>
      <trkpt lat="37.84990270245747" lon="112.00966764820302">
        <ele>1109.0</ele>
        <time>2018-10-29T03:00:38.328000Z</time>
      </trkpt>
      <trkpt lat="37.84986669115425" lon="112.00941267408841">
        <ele>1109.0</ele>
        <time>2018-10-29T03:00:47.328000Z</time>
      </trkpt>
      <trkpt lat="37.84987707580347" lon="112.00934083057003">
        <ele>1110.0</ele>
        <time>2018-10-29T03:00:50.328000Z</time>
      </trkpt>
      <trkpt lat="37.84979379815615" lon="112.00933570439084">
        <ele>1110.0</ele>
        <time>2018-10-29T03:00:53.328000Z</time>
      </trkpt>
      <trkpt lat="37.84973259871032" lon="112.00929597432352">
        <ele>1111.0</ele>
        <time>2018-10-29T03:00:56.328000Z</time>
      </trkpt>
      <trkpt lat="37.84970888053663" lon="112.00915054399094">
        <ele>1112.0</ele>
        <time>2018-10-29T03:00:59.328000Z</time>
      </trkpt>
      <trkpt lat="37.84952006438948" lon="112.00877698332918">
        <ele>1119.0</ele>
        <time>2018-10-29T03:01:11.328000Z</time>
      </trkpt>
      <trkpt lat="37.8493367237761" lon="112.00847911344229">
        <ele>1122.0</ele>
        <time>2018-10-29T03:01:20.328000Z</time>
      </trkpt>
      <trkpt lat="37.84913011068931" lon="112.00816124427604">
        <ele>1127.0</ele>
        <time>2018-10-29T03:01:32.328000Z</time>
      </trkpt>
      <trkpt lat="37.84898763449596" lon="112.00799069135404">
        <ele>1128.0</ele>
        <time>2018-10-29T03:01:38.328000Z</time>
      </trkpt>
      <trkpt lat="37.84891722263481" lon="112.00785554165682">
        <ele>1129.0</ele>
        <time>2018-10-29T03:01:44.328000Z</time>
      </trkpt>
      <trkpt lat="37.84869521542705" lon="112.00751470066331">
        <ele>1125.0</ele>
        <time>2018-10-29T03:01:56.328000Z</time>
      </trkpt>
      <trkpt lat="37.84849533104511" lon="112.00721629795095">
        <ele>1131.0</ele>
        <time>2018-10-29T03:02:08.328000Z</time>
      </trkpt>
      <trkpt lat="37.848431212532006" lon="112.0071549445059">
        <ele>1131.0</ele>
        <time>2018-10-29T03:02:11.328000Z</time>
      </trkpt>
      <trkpt lat="37.84832695558155" lon="112.0069970942913">
        <ele>1128.0</ele>
        <time>2018-10-29T03:02:17.428000Z</time>
      </trkpt>
      <trkpt lat="37.84817752925997" lon="112.00688358098188">
        <ele>1130.0</ele>
        <time>2018-10-29T03:02:23.328000Z</time>
      </trkpt>
      <trkpt lat="37.84810625713553" lon="112.00685574735344">
        <ele>1131.0</ele>
        <time>2018-10-29T03:02:26.328000Z</time>
      </trkpt>
      <trkpt lat="37.84778403542885" lon="112.00682334837443">
        <ele>1136.0</ele>
        <time>2018-10-29T03:02:38.328000Z</time>
      </trkpt>
      <trkpt lat="37.84746670947667" lon="112.00678689415014">
        <ele>1129.0</ele>
        <time>2018-10-29T03:02:50.328000Z</time>
      </trkpt>
      <trkpt lat="37.847248162222044" lon="112.00677402614967">
        <ele>1133.0</ele>
        <time>2018-10-29T03:02:59.328000Z</time>
      </trkpt>
      <trkpt lat="37.84708026354822" lon="112.00672882327154">
        <ele>1133.0</ele>
        <time>2018-10-29T03:03:05.328000Z</time>
      </trkpt>
      <trkpt lat="37.84674666633321" lon="112.00668993823216">
        <ele>1134.0</ele>
        <time>2018-10-29T03:03:17.328000Z</time>
      </trkpt>
      <trkpt lat="37.84647242522208" lon="112.00667158978126">
        <ele>1131.0</ele>
        <time>2018-10-29T03:03:26.328000Z</time>
      </trkpt>
      <trkpt lat="37.84617816427999" lon="112.0066340516336">
        <ele>1129.0</ele>
        <time>2018-10-29T03:03:38.328000Z</time>
      </trkpt>
      <trkpt lat="37.84583471560144" lon="112.00653245570925">
        <ele>1131.0</ele>
        <time>2018-10-29T03:03:50.328000Z</time>
      </trkpt>
      <trkpt lat="37.84552386071373" lon="112.00641869207578">
        <ele>1134.0</ele>
        <time>2018-10-29T03:04:02.328000Z</time>
      </trkpt>
      <trkpt lat="37.84537492480767" lon="112.00632302006929">
        <ele>1136.0</ele>
        <time>2018-10-29T03:04:08.328000Z</time>
      </trkpt>
      <trkpt lat="37.84502516312451" lon="112.00624602349987">
        <ele>1139.0</ele>
        <time>2018-10-29T03:04:20.328000Z</time>
      </trkpt>
      <trkpt lat="37.8447372427707" lon="112.00617496643979">
        <ele>1134.0</ele>
        <time>2018-10-29T03:04:29.328000Z</time>
      </trkpt>
      <trkpt lat="37.84444952824382" lon="112.00612828383295">
        <ele>1131.0</ele>
        <time>2018-10-29T03:04:38.428000Z</time>
      </trkpt>
      <trkpt lat="37.84428123871488" lon="112.00619460488706">
        <ele>1132.0</ele>
        <time>2018-10-29T03:04:44.328000Z</time>
      </trkpt>
      <trkpt lat="37.84421991185405" lon="112.00624611953182">
        <ele>1133.0</ele>
        <time>2018-10-29T03:04:47.328000Z</time>
      </trkpt>
      <trkpt lat="37.84415677118914" lon="112.00626652656193">
        <ele>1131.0</ele>
        <time>2018-10-29T03:04:50.328000Z</time>
      </trkpt>
      <trkpt lat="37.844013678614935" lon="112.0063913514333">
        <ele>1128.0</ele>
        <time>2018-10-29T03:04:56.328000Z</time>
      </trkpt>
      <trkpt lat="37.84380459932336" lon="112.00647477117914">
        <ele>1133.0</ele>
        <time>2018-10-29T03:05:05.328000Z</time>
      </trkpt>
      <trkpt lat="37.84371763656024" lon="112.00653904473742">
        <ele>1134.0</ele>
        <time>2018-10-29T03:05:08.328000Z</time>
      </trkpt>
      <trkpt lat="37.84352771667159" lon="112.00673870827474">
        <ele>1141.0</ele>
        <time>2018-10-29T03:05:17.328000Z</time>
      </trkpt>
      <trkpt lat="37.84327714216379" lon="112.00687173121447">
        <ele>1143.0</ele>
        <time>2018-10-29T03:05:26.328000Z</time>
      </trkpt>
      <trkpt lat="37.84300284293582" lon="112.00709656003751">
        <ele>1144.0</ele>
        <time>2018-10-29T03:05:38.328000Z</time>
      </trkpt>
      <trkpt lat="37.842862358640005" lon="112.00720543911771">
        <ele>1147.0</ele>
        <time>2018-10-29T03:05:44.328000Z</time>
      </trkpt>
      <trkpt lat="37.84272161967226" lon="112.00730069672846">
        <ele>1147.0</ele>
        <time>2018-10-29T03:05:50.328000Z</time>
      </trkpt>
      <trkpt lat="37.84248889883353" lon="112.0075166646352">
        <ele>1144.0</ele>
        <time>2018-10-29T03:05:59.328000Z</time>
      </trkpt>
      <trkpt lat="37.84242194794255" lon="112.00758243772646">
        <ele>1141.0</ele>
        <time>2018-10-29T03:06:02.328000Z</time>
      </trkpt>
      <trkpt lat="37.84211130177697" lon="112.00779332650431">
        <ele>1133.0</ele>
        <time>2018-10-29T03:06:14.328000Z</time>
      </trkpt>
      <trkpt lat="37.84187262336206" lon="112.00791821520647">
        <ele>1135.0</ele>
        <time>2018-10-29T03:06:23.328000Z</time>
      </trkpt>
      <trkpt lat="37.84170243630976" lon="112.00803926711262">
        <ele>1131.0</ele>
        <time>2018-10-29T03:06:29.328000Z</time>
      </trkpt>
      <trkpt lat="37.841356710809585" lon="112.00818352713195">
        <ele>1127.0</ele>
        <time>2018-10-29T03:06:41.328000Z</time>
      </trkpt>
      <trkpt lat="37.84124755117534" lon="112.00821489698458">
        <ele>1126.0</ele>
        <time>2018-10-29T03:06:44.328000Z</time>
      </trkpt>
      <trkpt lat="37.84103775999392" lon="112.00823476228655">
        <ele>1130.0</ele>
        <time>2018-10-29T03:06:53.328000Z</time>
      </trkpt>
      <trkpt lat="37.840946801759905" lon="112.00821896570167">
        <ele>1130.0</ele>
        <time>2018-10-29T03:06:56.328000Z</time>
      </trkpt>
      <trkpt lat="37.84087691684328" lon="112.00817857461912">
        <ele>1130.0</ele>
        <time>2018-10-29T03:06:59.328000Z</time>
      </trkpt>
      <trkpt lat="37.84060198500585" lon="112.00812903979836">
        <ele>1131.0</ele>
        <time>2018-10-29T03:07:08.328000Z</time>
      </trkpt>
      <trkpt lat="37.84050418886796" lon="112.00811153282531">
        <ele>1132.0</ele>
        <time>2018-10-29T03:07:11.328000Z</time>
      </trkpt>
      <trkpt lat="37.840336800695646" lon="112.00812008426686">
        <ele>1132.0</ele>
        <time>2018-10-29T03:07:17.328000Z</time>
      </trkpt>
      <trkpt lat="37.84021600239372" lon="112.00803140432058">
        <ele>1142.0</ele>
        <time>2018-10-29T03:07:29.328000Z</time>
      </trkpt>
      <trkpt lat="37.840152238899435" lon="112.00798526408191">
        <ele>1144.0</ele>
        <time>2018-10-29T03:07:35.328000Z</time>
      </trkpt>
      <trkpt lat="37.84009017907123" lon="112.00799839080116">
        <ele>1143.0</ele>
        <time>2018-10-29T03:07:38.328000Z</time>
      </trkpt>
      <trkpt lat="37.83999805165598" lon="112.00812429667027">
        <ele>1143.0</ele>
        <time>2018-10-29T03:07:44.328000Z</time>
      </trkpt>
      <trkpt lat="37.84003600147232" lon="112.00817368299049">
        <ele>1145.0</ele>
        <time>2018-10-29T03:07:59.328000Z</time>
      </trkpt>
      <trkpt lat="37.8401014377019" lon="112.00806500769114">
        <ele>1150.0</ele>
        <time>2018-10-29T03:08:50.228000Z</time>
      </trkpt>
      <trkpt lat="37.83995622907065" lon="112.0080844878385">
        <ele>1149.0</ele>
        <time>2018-10-29T03:08:59.328000Z</time>
      </trkpt>
      <trkpt lat="37.8398296849035" lon="112.00805236093785">
        <ele>1147.0</ele>
        <time>2018-10-29T03:09:05.328000Z</time>
      </trkpt>
      <trkpt lat="37.83972142153414" lon="112.00806022572596">
        <ele>1146.0</ele>
        <time>2018-10-29T03:09:11.328000Z</time>
      </trkpt>
      <trkpt lat="37.83965566906755" lon="112.00813492381444">
        <ele>1144.0</ele>
        <time>2018-10-29T03:09:20.328000Z</time>
      </trkpt>
      <trkpt lat="37.839616234483664" lon="112.00809406871694">
        <ele>1143.0</ele>
        <time>2018-10-29T03:09:23.328000Z</time>
      </trkpt>
      <trkpt lat="37.83956930978207" lon="112.00808627649947">
        <ele>1145.0</ele>
        <time>2018-10-29T03:09:26.328000Z</time>
      </trkpt>
      <trkpt lat="37.839451733513336" lon="112.00812500649039">
        <ele>1145.0</ele>
        <time>2018-10-29T03:09:32.328000Z</time>
      </trkpt>
      <trkpt lat="37.83928886707286" lon="112.0081430259939">
        <ele>1150.0</ele>
        <time>2018-10-29T03:09:44.328000Z</time>
      </trkpt>
      <trkpt lat="37.839623758556634" lon="112.00805034928598">
        <ele>1146.0</ele>
        <time>2018-10-29T03:09:53.328000Z</time>
      </trkpt>
      <trkpt lat="37.839859305771945" lon="112.00802883866938">
        <ele>1138.0</ele>
        <time>2018-10-29T03:10:02.328000Z</time>
      </trkpt>
      <trkpt lat="37.840224240030594" lon="112.00796212580518">
        <ele>1126.0</ele>
        <time>2018-10-29T03:10:11.328000Z</time>
      </trkpt>
      <trkpt lat="37.84041104318944" lon="112.00796887138902">
        <ele>1125.0</ele>
        <time>2018-10-29T03:10:17.328000Z</time>
      </trkpt>
      <trkpt lat="37.840505766044764" lon="112.00799249499882">
        <ele>1125.0</ele>
        <time>2018-10-29T03:10:20.328000Z</time>
      </trkpt>
      <trkpt lat="37.840670870412175" lon="112.00809029489548">
        <ele>1124.0</ele>
        <time>2018-10-29T03:10:26.328000Z</time>
      </trkpt>
      <trkpt lat="37.84074682213695" lon="112.00811938001169">
        <ele>1133.0</ele>
        <time>2018-10-29T03:10:29.328000Z</time>
      </trkpt>
      <trkpt lat="37.84082495699575" lon="112.0081539567475">
        <ele>1129.0</ele>
        <time>2018-10-29T03:10:32.328000Z</time>
      </trkpt>
      <trkpt lat="37.841167283206175" lon="112.00824979081467">
        <ele>1117.0</ele>
        <time>2018-10-29T03:10:44.328000Z</time>
      </trkpt>
      <trkpt lat="37.841438102269805" lon="112.00828524693833">
        <ele>1113.0</ele>
        <time>2018-10-29T03:10:53.328000Z</time>
      </trkpt>
      <trkpt lat="37.841724688161165" lon="112.00821832998194">
        <ele>1108.0</ele>
        <time>2018-10-29T03:11:02.328000Z</time>
      </trkpt>
      <trkpt lat="37.841975615205214" lon="112.00806749960408">
        <ele>1111.0</ele>
        <time>2018-10-29T03:11:11.328000Z</time>
      </trkpt>
      <trkpt lat="37.84205088900567" lon="112.00799892114001">
        <ele>1112.0</ele>
        <time>2018-10-29T03:11:14.328000Z</time>
      </trkpt>
      <trkpt lat="37.8422616156623" lon="112.00782420113325">
        <ele>1112.0</ele>
        <time>2018-10-29T03:11:23.328000Z</time>
      </trkpt>
      <trkpt lat="37.84241731984786" lon="112.00771052733887">
        <ele>1108.0</ele>
        <time>2018-10-29T03:11:29.328000Z</time>
      </trkpt>
      <trkpt lat="37.84249707195922" lon="112.00762093422506">
        <ele>1112.0</ele>
        <time>2018-10-29T03:11:32.328000Z</time>
      </trkpt>
      <trkpt lat="37.84257502488076" lon="112.00755294948168">
        <ele>1109.0</ele>
        <time>2018-10-29T03:11:35.328000Z</time>
      </trkpt>
      <trkpt lat="37.842819395726046" lon="112.00743021982046">
        <ele>1105.0</ele>
        <time>2018-10-29T03:11:44.328000Z</time>
      </trkpt>
      <trkpt lat="37.843075915548226" lon="112.00725956720969">
        <ele>1101.0</ele>
        <time>2018-10-29T03:11:53.328000Z</time>
      </trkpt>
      <trkpt lat="37.843163880277324" lon="112.00722456183294">
        <ele>1100.0</ele>
        <time>2018-10-29T03:11:56.328000Z</time>
      </trkpt>
      <trkpt lat="37.84323729420996" lon="112.00716815157733">
        <ele>1101.0</ele>
        <time>2018-10-29T03:11:59.328000Z</time>
      </trkpt>
      <trkpt lat="37.84338274755732" lon="112.00698794983441">
        <ele>1100.0</ele>
        <time>2018-10-29T03:12:05.328000Z</time>
      </trkpt>
      <trkpt lat="37.84360482282148" lon="112.00676213462198">
        <ele>1105.0</ele>
        <time>2018-10-29T03:12:14.328000Z</time>
      </trkpt>
      <trkpt lat="37.84381581244025" lon="112.00651294713471">
        <ele>1111.0</ele>
        <time>2018-10-29T03:12:23.328000Z</time>
      </trkpt>
      <trkpt lat="37.84397298944487" lon="112.00638606189123">
        <ele>1112.0</ele>
        <time>2018-10-29T03:12:29.328000Z</time>
      </trkpt>
      <trkpt lat="37.844143891402275" lon="112.00629960093897">
        <ele>1112.0</ele>
        <time>2018-10-29T03:12:35.328000Z</time>
      </trkpt>
      <trkpt lat="37.844334207945465" lon="112.00620528652401">
        <ele>1122.0</ele>
        <time>2018-10-29T03:12:41.328000Z</time>
      </trkpt>
      <trkpt lat="37.84444320334105" lon="112.00619690407557">
        <ele>1121.0</ele>
        <time>2018-10-29T03:12:44.328000Z</time>
      </trkpt>
      <trkpt lat="37.844726698902775" lon="112.00617897488108">
        <ele>1129.0</ele>
        <time>2018-10-29T03:12:53.328000Z</time>
      </trkpt>
      <trkpt lat="37.8450575575147" lon="112.00625449848225">
        <ele>1131.0</ele>
        <time>2018-10-29T03:13:05.328000Z</time>
      </trkpt>
      <trkpt lat="37.8453531626894" lon="112.0063422146706">
        <ele>1131.0</ele>
        <time>2018-10-29T03:13:14.328000Z</time>
      </trkpt>
      <trkpt lat="37.84562865440971" lon="112.00642279428331">
        <ele>1129.0</ele>
        <time>2018-10-29T03:13:23.328000Z</time>
      </trkpt>
      <trkpt lat="37.84591658817942" lon="112.00649568400705">
        <ele>1127.0</ele>
        <time>2018-10-29T03:13:32.328000Z</time>
      </trkpt>
      <trkpt lat="37.84612608197625" lon="112.00659211576411">
        <ele>1125.0</ele>
        <time>2018-10-29T03:13:38.328000Z</time>
      </trkpt>
      <trkpt lat="37.84628290556263" lon="112.00658460454645">
        <ele>1128.0</ele>
        <time>2018-10-29T03:13:44.328000Z</time>
      </trkpt>
      <trkpt lat="37.846579697608945" lon="112.00665057862317">
        <ele>1124.0</ele>
        <time>2018-10-29T03:13:53.328000Z</time>
      </trkpt>
      <trkpt lat="37.84692478355609" lon="112.00673505898233">
        <ele>1123.0</ele>
        <time>2018-10-29T03:14:05.328000Z</time>
      </trkpt>
      <trkpt lat="37.847296734467335" lon="112.00675540421916">
        <ele>1125.0</ele>
        <time>2018-10-29T03:14:17.328000Z</time>
      </trkpt>
      <trkpt lat="37.84763327811147" lon="112.00680097096337">
        <ele>1126.0</ele>
        <time>2018-10-29T03:14:29.328000Z</time>
      </trkpt>
      <trkpt lat="37.84793844777668" lon="112.00680286414246">
        <ele>1120.0</ele>
        <time>2018-10-29T03:14:38.328000Z</time>
      </trkpt>
      <trkpt lat="37.84811685469351" lon="112.00684535156635">
        <ele>1119.0</ele>
        <time>2018-10-29T03:14:44.328000Z</time>
      </trkpt>
      <trkpt lat="37.848210502667676" lon="112.00688603568193">
        <ele>1120.0</ele>
        <time>2018-10-29T03:14:47.328000Z</time>
      </trkpt>
      <trkpt lat="37.848397511304405" lon="112.00707261929043">
        <ele>1119.0</ele>
        <time>2018-10-29T03:14:56.328000Z</time>
      </trkpt>
      <trkpt lat="37.84849712736428" lon="112.00725722895825">
        <ele>1117.0</ele>
        <time>2018-10-29T03:15:02.328000Z</time>
      </trkpt>
      <trkpt lat="37.84872479116816" lon="112.00760181757431">
        <ele>1108.0</ele>
        <time>2018-10-29T03:15:14.328000Z</time>
      </trkpt>
      <trkpt lat="37.84895137962283" lon="112.00795663581329">
        <ele>1111.0</ele>
        <time>2018-10-29T03:15:26.328000Z</time>
      </trkpt>
      <trkpt lat="37.84913584190978" lon="112.00824152785266">
        <ele>1115.0</ele>
        <time>2018-10-29T03:15:35.328000Z</time>
      </trkpt>
      <trkpt lat="37.849317025502" lon="112.00853453112526">
        <ele>1114.0</ele>
        <time>2018-10-29T03:15:44.328000Z</time>
      </trkpt>
      <trkpt lat="37.84944567394997" lon="112.00870238397276">
        <ele>1110.0</ele>
        <time>2018-10-29T03:15:50.328000Z</time>
      </trkpt>
      <trkpt lat="37.849572554317724" lon="112.00889942176171">
        <ele>1112.0</ele>
        <time>2018-10-29T03:15:56.328000Z</time>
      </trkpt>
      <trkpt lat="37.84968790493783" lon="112.00902624940768">
        <ele>1114.0</ele>
        <time>2018-10-29T03:15:59.328000Z</time>
      </trkpt>
      <trkpt lat="37.84976366368105" lon="112.00913247633073">
        <ele>1113.0</ele>
        <time>2018-10-29T03:16:02.328000Z</time>
      </trkpt>
      <trkpt lat="37.84986777864747" lon="112.0093474001002">
        <ele>1113.0</ele>
        <time>2018-10-29T03:16:08.328000Z</time>
      </trkpt>
      <trkpt lat="37.84990838988768" lon="112.00958603106545">
        <ele>1116.0</ele>
        <time>2018-10-29T03:16:14.328000Z</time>
      </trkpt>
      <trkpt lat="37.849949166288695" lon="112.00995033389515">
        <ele>1117.0</ele>
        <time>2018-10-29T03:16:23.328000Z</time>
      </trkpt>
      <trkpt lat="37.849924447387274" lon="112.01030755545673">
        <ele>1115.0</ele>
        <time>2018-10-29T03:16:32.328000Z</time>
      </trkpt>
      <trkpt lat="37.84994588015878" lon="112.01057477688428">
        <ele>1113.0</ele>
        <time>2018-10-29T03:16:38.328000Z</time>
      </trkpt>
      <trkpt lat="37.849914334846446" lon="112.01081388022351">
        <ele>1112.0</ele>
        <time>2018-10-29T03:16:44.328000Z</time>
      </trkpt>
      <trkpt lat="37.84979515854789" lon="112.01113380320467">
        <ele>1110.0</ele>
        <time>2018-10-29T03:16:53.328000Z</time>
      </trkpt>
      <trkpt lat="37.849775534532306" lon="112.01123729376128">
        <ele>1109.0</ele>
        <time>2018-10-29T03:16:56.328000Z</time>
      </trkpt>
      <trkpt lat="37.84977224099894" lon="112.01133846518304">
        <ele>1107.0</ele>
        <time>2018-10-29T03:16:59.328000Z</time>
      </trkpt>
      <trkpt lat="37.849787854462754" lon="112.01144585451772">
        <ele>1107.0</ele>
        <time>2018-10-29T03:17:02.328000Z</time>
      </trkpt>
      <trkpt lat="37.849724138582495" lon="112.01179632479361">
        <ele>1105.0</ele>
        <time>2018-10-29T03:17:11.328000Z</time>
      </trkpt>
      <trkpt lat="37.849726021839146" lon="112.01214359175188">
        <ele>1109.0</ele>
        <time>2018-10-29T03:17:20.328000Z</time>
      </trkpt>
      <trkpt lat="37.849718585172276" lon="112.01239207248273">
        <ele>1110.0</ele>
        <time>2018-10-29T03:17:26.328000Z</time>
      </trkpt>
      <trkpt lat="37.8496917798072" lon="112.01274809483047">
        <ele>1106.0</ele>
        <time>2018-10-29T03:17:35.328000Z</time>
      </trkpt>
      <trkpt lat="37.84965422007691" lon="112.01309630427521">
        <ele>1105.0</ele>
        <time>2018-10-29T03:17:44.328000Z</time>
      </trkpt>
      <trkpt lat="37.849615792181424" lon="112.0133590468553">
        <ele>1108.0</ele>
        <time>2018-10-29T03:17:50.328000Z</time>
      </trkpt>
      <trkpt lat="37.849625847461105" lon="112.01362050270968">
        <ele>1109.0</ele>
        <time>2018-10-29T03:17:56.328000Z</time>
      </trkpt>
      <trkpt lat="37.84959658126216" lon="112.01398520232092">
        <ele>1108.0</ele>
        <time>2018-10-29T03:18:05.328000Z</time>
      </trkpt>
      <trkpt lat="37.84952642445209" lon="112.01432368587525">
        <ele>1105.0</ele>
        <time>2018-10-29T03:18:14.328000Z</time>
      </trkpt>
      <trkpt lat="37.849484911004616" lon="112.0147032618193">
        <ele>1101.0</ele>
        <time>2018-10-29T03:18:23.328000Z</time>
      </trkpt>
      <trkpt lat="37.849447213107766" lon="112.0150777038059">
        <ele>1097.0</ele>
        <time>2018-10-29T03:18:32.328000Z</time>
      </trkpt>
      <trkpt lat="37.849441382393515" lon="112.01521936975907">
        <ele>1096.0</ele>
        <time>2018-10-29T03:18:35.328000Z</time>
      </trkpt>
      <trkpt lat="37.849372026256994" lon="112.01557132281746">
        <ele>1099.0</ele>
        <time>2018-10-29T03:18:44.328000Z</time>
      </trkpt>
      <trkpt lat="37.84936672157206" lon="112.01581089478394">
        <ele>1099.0</ele>
        <time>2018-10-29T03:18:50.328000Z</time>
      </trkpt>
      <trkpt lat="37.849324466179006" lon="112.01616617372206">
        <ele>1099.0</ele>
        <time>2018-10-29T03:18:59.328000Z</time>
      </trkpt>
      <trkpt lat="37.84927590050028" lon="112.01654955165601">
        <ele>1098.0</ele>
        <time>2018-10-29T03:19:08.428000Z</time>
      </trkpt>
      <trkpt lat="37.849232571114996" lon="112.01690508492288">
        <ele>1098.0</ele>
        <time>2018-10-29T03:19:17.328000Z</time>
      </trkpt>
      <trkpt lat="37.84923051305984" lon="112.01715382147195">
        <ele>1106.0</ele>
        <time>2018-10-29T03:19:23.328000Z</time>
      </trkpt>
      <trkpt lat="37.8491803335756" lon="112.0175347754978">
        <ele>1104.0</ele>
        <time>2018-10-29T03:19:32.328000Z</time>
      </trkpt>
      <trkpt lat="37.84915219003772" lon="112.0178954526525">
        <ele>1102.0</ele>
        <time>2018-10-29T03:19:41.428000Z</time>
      </trkpt>
      <trkpt lat="37.84912630937616" lon="112.01773327788601">
        <ele>1107.0</ele>
        <time>2018-10-29T03:19:50.328000Z</time>
      </trkpt>
      <trkpt lat="37.84912890598427" lon="112.01765927308105">
        <ele>1110.0</ele>
        <time>2018-10-29T03:19:53.328000Z</time>
      </trkpt>
      <trkpt lat="37.849238957864074" lon="112.01736565684998">
        <ele>1115.0</ele>
        <time>2018-10-29T03:20:05.328000Z</time>
      </trkpt>
      <trkpt lat="37.84924880466151" lon="112.0172672082897">
        <ele>1116.0</ele>
        <time>2018-10-29T03:20:11.328000Z</time>
      </trkpt>
      <trkpt lat="37.849276912560605" lon="112.01720350220727">
        <ele>1107.0</ele>
        <time>2018-10-29T03:20:14.328000Z</time>
      </trkpt>
      <trkpt lat="37.849238376298075" lon="112.01707844289247">
        <ele>1114.0</ele>
        <time>2018-10-29T03:20:20.328000Z</time>
      </trkpt>
      <trkpt lat="37.84932079708335" lon="112.0168875006511">
        <ele>1115.0</ele>
        <time>2018-10-29T03:20:35.328000Z</time>
      </trkpt>
      <trkpt lat="37.84932076613729" lon="112.01670635676734">
        <ele>1108.0</ele>
        <time>2018-10-29T03:20:47.328000Z</time>
      </trkpt>
      <trkpt lat="37.849348648618445" lon="112.01663254428061">
        <ele>1107.0</ele>
        <time>2018-10-29T03:20:53.328000Z</time>
      </trkpt>
      <trkpt lat="37.84935577566425" lon="112.0165430689634">
        <ele>1103.0</ele>
        <time>2018-10-29T03:20:59.328000Z</time>
      </trkpt>
      <trkpt lat="37.849385024171475" lon="112.01641488713457">
        <ele>1104.0</ele>
        <time>2018-10-29T03:21:05.328000Z</time>
      </trkpt>
      <trkpt lat="37.849383912467935" lon="112.01633417225302">
        <ele>1105.0</ele>
        <time>2018-10-29T03:21:08.328000Z</time>
      </trkpt>
      <trkpt lat="37.84945706599026" lon="112.01590472060678">
        <ele>1103.0</ele>
        <time>2018-10-29T03:21:23.328000Z</time>
      </trkpt>
      <trkpt lat="37.84950289111413" lon="112.01562786916178">
        <ele>1100.0</ele>
        <time>2018-10-29T03:21:32.328000Z</time>
      </trkpt>
      <trkpt lat="37.84948908543929" lon="112.01552162083655">
        <ele>1099.0</ele>
        <time>2018-10-29T03:21:35.328000Z</time>
      </trkpt>
      <trkpt lat="37.84955402815328" lon="112.01510634845789">
        <ele>1099.0</ele>
        <time>2018-10-29T03:21:47.328000Z</time>
      </trkpt>
      <trkpt lat="37.849593662195396" lon="112.01471892915403">
        <ele>1100.0</ele>
        <time>2018-10-29T03:21:59.328000Z</time>
      </trkpt>
      <trkpt lat="37.84962775027311" lon="112.01427960695433">
        <ele>1102.0</ele>
        <time>2018-10-29T03:22:11.328000Z</time>
      </trkpt>
      <trkpt lat="37.84965050820426" lon="112.01392650111659">
        <ele>1108.0</ele>
        <time>2018-10-29T03:22:20.328000Z</time>
      </trkpt>
      <trkpt lat="37.84964754385681" lon="112.01348224176527">
        <ele>1113.0</ele>
        <time>2018-10-29T03:22:32.328000Z</time>
      </trkpt>
      <trkpt lat="37.8496688453124" lon="112.0131444768303">
        <ele>1116.0</ele>
        <time>2018-10-29T03:22:41.328000Z</time>
      </trkpt>
      <trkpt lat="37.84973158074531" lon="112.012782924485">
        <ele>1108.0</ele>
        <time>2018-10-29T03:22:50.328000Z</time>
      </trkpt>
      <trkpt lat="37.84978162377064" lon="112.01237746554297">
        <ele>1105.0</ele>
        <time>2018-10-29T03:23:02.328000Z</time>
      </trkpt>
      <trkpt lat="37.84983566322325" lon="112.01202552848385">
        <ele>1102.0</ele>
        <time>2018-10-29T03:23:11.328000Z</time>
      </trkpt>
      <trkpt lat="37.84983756028496" lon="112.01176995475602">
        <ele>1101.0</ele>
        <time>2018-10-29T03:23:20.328000Z</time>
      </trkpt>
      <trkpt lat="37.84984592385496" lon="112.01139097356278">
        <ele>1107.0</ele>
        <time>2018-10-29T03:23:32.328000Z</time>
      </trkpt>
      <trkpt lat="37.84985526948838" lon="112.01128805238899">
        <ele>1109.0</ele>
        <time>2018-10-29T03:23:35.328000Z</time>
      </trkpt>
      <trkpt lat="37.8498941158047" lon="112.01110979966285">
        <ele>1105.0</ele>
        <time>2018-10-29T03:23:41.328000Z</time>
      </trkpt>
      <trkpt lat="37.84990225883733" lon="112.0107378391326">
        <ele>1109.0</ele>
        <time>2018-10-29T03:23:53.328000Z</time>
      </trkpt>
      <trkpt lat="37.84991313422762" lon="112.01039922984504">
        <ele>1109.0</ele>
        <time>2018-10-29T03:24:02.328000Z</time>
      </trkpt>
      <trkpt lat="37.84994940511571" lon="112.01018796658818">
        <ele>1107.0</ele>
        <time>2018-10-29T03:24:08.328000Z</time>
      </trkpt>
      <trkpt lat="37.849923986571014" lon="112.00981295176878">
        <ele>1110.0</ele>
        <time>2018-10-29T03:24:17.328000Z</time>
      </trkpt>
      <trkpt lat="37.84986818396362" lon="112.00943807313249">
        <ele>1109.0</ele>
        <time>2018-10-29T03:24:29.328000Z</time>
      </trkpt>
      <trkpt lat="37.84967711201191" lon="112.0090670184876">
        <ele>1107.0</ele>
        <time>2018-10-29T03:24:41.328000Z</time>
      </trkpt>
      <trkpt lat="37.849539886371" lon="112.00883161835263">
        <ele>1105.0</ele>
        <time>2018-10-29T03:24:50.328000Z</time>
      </trkpt>
      <trkpt lat="37.849361715118754" lon="112.00860572558389">
        <ele>1107.0</ele>
        <time>2018-10-29T03:24:59.328000Z</time>
      </trkpt>
      <trkpt lat="37.84921053760692" lon="112.00830450295538">
        <ele>1106.0</ele>
        <time>2018-10-29T03:25:08.328000Z</time>
      </trkpt>
      <trkpt lat="37.84898222908125" lon="112.007983663771">
        <ele>1106.0</ele>
        <time>2018-10-29T03:25:20.328000Z</time>
      </trkpt>
      <trkpt lat="37.84874881422089" lon="112.00764687819874">
        <ele>1111.0</ele>
        <time>2018-10-29T03:25:32.328000Z</time>
      </trkpt>
      <trkpt lat="37.84856891813147" lon="112.00737820704215">
        <ele>1110.0</ele>
        <time>2018-10-29T03:25:41.328000Z</time>
      </trkpt>
      <trkpt lat="37.84845793661725" lon="112.00720062424227">
        <ele>1111.0</ele>
        <time>2018-10-29T03:25:47.328000Z</time>
      </trkpt>
      <trkpt lat="37.84831317054393" lon="112.00707089127553">
        <ele>1110.0</ele>
        <time>2018-10-29T03:25:53.328000Z</time>
      </trkpt>
      <trkpt lat="37.848020293463335" lon="112.00691926612868">
        <ele>1112.0</ele>
        <time>2018-10-29T03:26:02.328000Z</time>
      </trkpt>
      <trkpt lat="37.847748070260664" lon="112.00687444161076">
        <ele>1116.0</ele>
        <time>2018-10-29T03:26:11.328000Z</time>
      </trkpt>
      <trkpt lat="37.84742080874321" lon="112.0068033886383">
        <ele>1117.0</ele>
        <time>2018-10-29T03:26:23.328000Z</time>
      </trkpt>
      <trkpt lat="37.847114360277295" lon="112.00675855346705">
        <ele>1121.0</ele>
        <time>2018-10-29T03:26:35.328000Z</time>
      </trkpt>
      <trkpt lat="37.84682742297866" lon="112.00672155502541">
        <ele>1121.0</ele>
        <time>2018-10-29T03:26:44.328000Z</time>
      </trkpt>
      <trkpt lat="37.846494644584105" lon="112.00668104802384">
        <ele>1124.0</ele>
        <time>2018-10-29T03:26:56.328000Z</time>
      </trkpt>
      <trkpt lat="37.8462500376368" lon="112.00664215239284">
        <ele>1129.0</ele>
        <time>2018-10-29T03:27:05.328000Z</time>
      </trkpt>
      <trkpt lat="37.8460732948072" lon="112.00659108469515">
        <ele>1129.0</ele>
        <time>2018-10-29T03:27:14.328000Z</time>
      </trkpt>
      <trkpt lat="37.84595638781149" lon="112.00658163775869">
        <ele>1131.0</ele>
        <time>2018-10-29T03:27:20.328000Z</time>
      </trkpt>
      <trkpt lat="37.8459212526291" lon="112.00653622973707">
        <ele>1129.0</ele>
        <time>2018-10-29T03:27:26.328000Z</time>
      </trkpt>
      <trkpt lat="37.84578837452763" lon="112.0065146207334">
        <ele>1132.0</ele>
        <time>2018-10-29T03:27:35.328000Z</time>
      </trkpt>
      <trkpt lat="37.84564924437633" lon="112.00640597254005">
        <ele>1132.0</ele>
        <time>2018-10-29T03:27:44.328000Z</time>
      </trkpt>
      <trkpt lat="37.845602276913" lon="112.00641624993074">
        <ele>1134.0</ele>
        <time>2018-10-29T03:27:47.328000Z</time>
      </trkpt>
      <trkpt lat="37.84529948370877" lon="112.0062376111867">
        <ele>1136.0</ele>
        <time>2018-10-29T03:28:08.428000Z</time>
      </trkpt>
      <trkpt lat="37.845253239882815" lon="112.00627816315134">
        <ele>1131.0</ele>
        <time>2018-10-29T03:28:11.428000Z</time>
      </trkpt>
      <trkpt lat="37.845189967146865" lon="112.00629736269146">
        <ele>1128.0</ele>
        <time>2018-10-29T03:28:14.328000Z</time>
      </trkpt>
      <trkpt lat="37.84497437312186" lon="112.00626441061375">
        <ele>1124.0</ele>
        <time>2018-10-29T03:28:23.328000Z</time>
      </trkpt>
      <trkpt lat="37.84490311423084" lon="112.00623225226576">
        <ele>1122.0</ele>
        <time>2018-10-29T03:28:26.328000Z</time>
      </trkpt>
      <trkpt lat="37.844574758076966" lon="112.00616471406157">
        <ele>1126.0</ele>
        <time>2018-10-29T03:28:38.328000Z</time>
      </trkpt>
      <trkpt lat="37.84449173527995" lon="112.00616526458091">
        <ele>1124.0</ele>
        <time>2018-10-29T03:28:41.328000Z</time>
      </trkpt>
      <trkpt lat="37.84415977281693" lon="112.00631657931548">
        <ele>1122.0</ele>
        <time>2018-10-29T03:28:53.328000Z</time>
      </trkpt>
      <trkpt lat="37.8440769148263" lon="112.00633276015702">
        <ele>1121.0</ele>
        <time>2018-10-29T03:28:56.328000Z</time>
      </trkpt>
      <trkpt lat="37.84378722812513" lon="112.00649999232827">
        <ele>1125.0</ele>
        <time>2018-10-29T03:29:08.328000Z</time>
      </trkpt>
      <trkpt lat="37.843518718136814" lon="112.00675507287568">
        <ele>1128.0</ele>
        <time>2018-10-29T03:29:20.328000Z</time>
      </trkpt>
      <trkpt lat="37.84337567787281" lon="112.00685496011744">
        <ele>1127.0</ele>
        <time>2018-10-29T03:29:26.328000Z</time>
      </trkpt>
      <trkpt lat="37.8432313386388" lon="112.00699782128211">
        <ele>1130.0</ele>
        <time>2018-10-29T03:29:32.428000Z</time>
      </trkpt>
      <trkpt lat="37.843057537214456" lon="112.00707798232447">
        <ele>1130.0</ele>
        <time>2018-10-29T03:29:38.328000Z</time>
      </trkpt>
      <trkpt lat="37.842974403323325" lon="112.00713516097298">
        <ele>1128.0</ele>
        <time>2018-10-29T03:29:41.328000Z</time>
      </trkpt>
      <trkpt lat="37.842922441477306" lon="112.00721208987474">
        <ele>1129.0</ele>
        <time>2018-10-29T03:29:44.328000Z</time>
      </trkpt>
      <trkpt lat="37.842722992286696" lon="112.00738167775097">
        <ele>1128.0</ele>
        <time>2018-10-29T03:29:53.328000Z</time>
      </trkpt>
      <trkpt lat="37.842651202416924" lon="112.00738638449148">
        <ele>1130.0</ele>
        <time>2018-10-29T03:29:56.328000Z</time>
      </trkpt>
      <trkpt lat="37.84252935707818" lon="112.00750375059619">
        <ele>1130.0</ele>
        <time>2018-10-29T03:30:05.328000Z</time>
      </trkpt>
      <trkpt lat="37.84245053908091" lon="112.00754934892932">
        <ele>1131.0</ele>
        <time>2018-10-29T03:30:11.328000Z</time>
      </trkpt>
      <trkpt lat="37.84226101538827" lon="112.00760707206744">
        <ele>1134.0</ele>
        <time>2018-10-29T03:30:26.328000Z</time>
      </trkpt>
      <trkpt lat="37.84217936677849" lon="112.00768247842228">
        <ele>1133.0</ele>
        <time>2018-10-29T03:30:32.328000Z</time>
      </trkpt>
      <trkpt lat="37.842072786747764" lon="112.00770895266879">
        <ele>1138.0</ele>
        <time>2018-10-29T03:30:38.328000Z</time>
      </trkpt>
      <trkpt lat="37.84201128127834" lon="112.00775469391273">
        <ele>1138.0</ele>
        <time>2018-10-29T03:30:44.328000Z</time>
      </trkpt>
      <trkpt lat="37.841934165075884" lon="112.00778786360775">
        <ele>1138.0</ele>
        <time>2018-10-29T03:30:50.328000Z</time>
      </trkpt>
      <trkpt lat="37.84184407386614" lon="112.00790405664274">
        <ele>1138.0</ele>
        <time>2018-10-29T03:30:59.328000Z</time>
      </trkpt>
      <trkpt lat="37.84180706694183" lon="112.00793243439648">
        <ele>1137.0</ele>
        <time>2018-10-29T03:31:02.328000Z</time>
      </trkpt>
      <trkpt lat="37.84169006325331" lon="112.00802993606301">
        <ele>1139.0</ele>
        <time>2018-10-29T03:31:11.328000Z</time>
      </trkpt>
      <trkpt lat="37.84151412776153" lon="112.00808096990406">
        <ele>1141.0</ele>
        <time>2018-10-29T03:31:23.328000Z</time>
      </trkpt>
      <trkpt lat="37.84124413768318" lon="112.00817533827714">
        <ele>1145.0</ele>
        <time>2018-10-29T03:31:35.328000Z</time>
      </trkpt>
      <trkpt lat="37.841019824158415" lon="112.00818563432072">
        <ele>1146.0</ele>
        <time>2018-10-29T03:31:44.428000Z</time>
      </trkpt>
      <trkpt lat="37.840876745942914" lon="112.00813104029105">
        <ele>1143.0</ele>
        <time>2018-10-29T03:31:50.328000Z</time>
      </trkpt>
      <trkpt lat="37.840801947677996" lon="112.00810593617587">
        <ele>1142.0</ele>
        <time>2018-10-29T03:31:53.428000Z</time>
      </trkpt>
      <trkpt lat="37.84064147877736" lon="112.00805441146143">
        <ele>1144.0</ele>
        <time>2018-10-29T03:31:59.328000Z</time>
      </trkpt>
      <trkpt lat="37.84032600928608" lon="112.00805165134796">
        <ele>1143.0</ele>
        <time>2018-10-29T03:32:11.328000Z</time>
      </trkpt>
      <trkpt lat="37.84011706649974" lon="112.00804349321295">
        <ele>1140.0</ele>
        <time>2018-10-29T03:32:20.328000Z</time>
      </trkpt>
      <trkpt lat="37.84007179052996" lon="112.0080895734243">
        <ele>1139.0</ele>
        <time>2018-10-29T03:32:23.328000Z</time>
      </trkpt>
      <trkpt lat="37.84006046353298" lon="112.00815289792986">
        <ele>1138.0</ele>
        <time>2018-10-29T03:32:26.328000Z</time>
      </trkpt>
      <trkpt lat="37.840091062266175" lon="112.00808717491978">
        <ele>1137.0</ele>
        <time>2018-10-29T03:32:38.328000Z</time>
      </trkpt>
      <trkpt lat="37.840102242791666" lon="112.00815961858426">
        <ele>1135.0</ele>
        <time>2018-10-29T03:33:17.328000Z</time>
      </trkpt>
      <trkpt lat="37.84006068352087" lon="112.00808447537467">
        <ele>1136.0</ele>
        <time>2018-10-29T03:33:23.328000Z</time>
      </trkpt>
      <trkpt lat="37.840026402166416" lon="112.00805036179601">
        <ele>1133.0</ele>
        <time>2018-10-29T03:33:26.328000Z</time>
      </trkpt>
      <trkpt lat="37.83996371025563" lon="112.00802716641442">
        <ele>1132.0</ele>
        <time>2018-10-29T03:33:32.328000Z</time>
      </trkpt>
      <trkpt lat="37.83988660622784" lon="112.00798493871329">
        <ele>1132.0</ele>
        <time>2018-10-29T03:33:41.328000Z</time>
      </trkpt>
      <trkpt lat="37.83981974858951" lon="112.00800852254592">
        <ele>1132.0</ele>
        <time>2018-10-29T03:33:44.328000Z</time>
      </trkpt>
      <trkpt lat="37.83948781408594" lon="112.00809942348236">
        <ele>1137.0</ele>
        <time>2018-10-29T03:33:56.328000Z</time>
      </trkpt>
      <trkpt lat="37.83931623919842" lon="112.00816124484811">
        <ele>1135.0</ele>
        <time>2018-10-29T03:34:02.328000Z</time>
      </trkpt>
      <trkpt lat="37.83934053647886" lon="112.00819667811062">
        <ele>1133.0</ele>
        <time>2018-10-29T03:34:05.328000Z</time>
      </trkpt>
      <trkpt lat="37.83949076971805" lon="112.0081339528277">
        <ele>1132.0</ele>
        <time>2018-10-29T03:34:11.328000Z</time>
      </trkpt>
      <trkpt lat="37.839722081719295" lon="112.00807871424236">
        <ele>1128.0</ele>
        <time>2018-10-29T03:34:20.328000Z</time>
      </trkpt>
      <trkpt lat="37.839902152050676" lon="112.00804234174862">
        <ele>1128.0</ele>
        <time>2018-10-29T03:34:26.328000Z</time>
      </trkpt>
      <trkpt lat="37.84018269198089" lon="112.00804824265727">
        <ele>1130.0</ele>
        <time>2018-10-29T03:34:35.328000Z</time>
      </trkpt>
      <trkpt lat="37.840517205151286" lon="112.0080442107165">
        <ele>1118.0</ele>
        <time>2018-10-29T03:34:47.328000Z</time>
      </trkpt>
      <trkpt lat="37.84080167913058" lon="112.0080949843594">
        <ele>1117.0</ele>
        <time>2018-10-29T03:34:56.328000Z</time>
      </trkpt>
      <trkpt lat="37.84105632787639" lon="112.00818815255235">
        <ele>1117.0</ele>
        <time>2018-10-29T03:35:05.328000Z</time>
      </trkpt>
      <trkpt lat="37.84136586677718" lon="112.00820285422343">
        <ele>1117.0</ele>
        <time>2018-10-29T03:35:17.328000Z</time>
      </trkpt>
      <trkpt lat="37.84165636166024" lon="112.00815373337983">
        <ele>1120.0</ele>
        <time>2018-10-29T03:35:29.328000Z</time>
      </trkpt>
      <trkpt lat="37.841910835877165" lon="112.00804077110502">
        <ele>1112.0</ele>
        <time>2018-10-29T03:35:38.328000Z</time>
      </trkpt>
      <trkpt lat="37.8419855691415" lon="112.00800723551161">
        <ele>1114.0</ele>
        <time>2018-10-29T03:35:41.328000Z</time>
      </trkpt>
      <trkpt lat="37.84212926706361" lon="112.00794504822613">
        <ele>1114.0</ele>
        <time>2018-10-29T03:35:47.328000Z</time>
      </trkpt>
      <trkpt lat="37.84233861429864" lon="112.00774173393523">
        <ele>1112.0</ele>
        <time>2018-10-29T03:35:56.328000Z</time>
      </trkpt>
      <trkpt lat="37.842409525648385" lon="112.00767818733877">
        <ele>1112.0</ele>
        <time>2018-10-29T03:35:59.328000Z</time>
      </trkpt>
      <trkpt lat="37.842638275652995" lon="112.00752149648773">
        <ele>1111.0</ele>
        <time>2018-10-29T03:36:08.328000Z</time>
      </trkpt>
      <trkpt lat="37.84270547545321" lon="112.00746183772223">
        <ele>1110.0</ele>
        <time>2018-10-29T03:36:11.328000Z</time>
      </trkpt>
      <trkpt lat="37.84286250579362" lon="112.00739255027501">
        <ele>1116.0</ele>
        <time>2018-10-29T03:36:17.328000Z</time>
      </trkpt>
      <trkpt lat="37.84294853083547" lon="112.00733941051928">
        <ele>1111.0</ele>
        <time>2018-10-29T03:36:20.328000Z</time>
      </trkpt>
      <trkpt lat="37.843088389907045" lon="112.00718076583411">
        <ele>1111.0</ele>
        <time>2018-10-29T03:36:26.328000Z</time>
      </trkpt>
      <trkpt lat="37.84323821330218" lon="112.00707080461709">
        <ele>1110.0</ele>
        <time>2018-10-29T03:36:32.328000Z</time>
      </trkpt>
      <trkpt lat="37.84330240138335" lon="112.006986957089">
        <ele>1113.0</ele>
        <time>2018-10-29T03:36:35.328000Z</time>
      </trkpt>
      <trkpt lat="37.8433719436433" lon="112.00691968182628">
        <ele>1116.0</ele>
        <time>2018-10-29T03:36:38.328000Z</time>
      </trkpt>
      <trkpt lat="37.843592202701764" lon="112.00671121314468">
        <ele>1121.0</ele>
        <time>2018-10-29T03:36:47.428000Z</time>
      </trkpt>
      <trkpt lat="37.84375132415081" lon="112.00659777892005">
        <ele>1120.0</ele>
        <time>2018-10-29T03:36:53.428000Z</time>
      </trkpt>
      <trkpt lat="37.843965996602606" lon="112.00638600440146">
        <ele>1123.0</ele>
        <time>2018-10-29T03:37:02.328000Z</time>
      </trkpt>
      <trkpt lat="37.84422231101427" lon="112.00623996518486">
        <ele>1126.0</ele>
        <time>2018-10-29T03:37:11.328000Z</time>
      </trkpt>
      <trkpt lat="37.84439925422511" lon="112.00616370052852">
        <ele>1129.0</ele>
        <time>2018-10-29T03:37:17.328000Z</time>
      </trkpt>
      <trkpt lat="37.844481590032814" lon="112.00611618682137">
        <ele>1128.0</ele>
        <time>2018-10-29T03:37:20.328000Z</time>
      </trkpt>
      <trkpt lat="37.84457281809878" lon="112.0060969957239">
        <ele>1129.0</ele>
        <time>2018-10-29T03:37:23.328000Z</time>
      </trkpt>
      <trkpt lat="37.84474494948441" lon="112.00615614300587">
        <ele>1128.0</ele>
        <time>2018-10-29T03:37:29.328000Z</time>
      </trkpt>
      <trkpt lat="37.844823641129885" lon="112.00616800956803">
        <ele>1127.0</ele>
        <time>2018-10-29T03:37:32.328000Z</time>
      </trkpt>
      <trkpt lat="37.844904253581156" lon="112.00619842624398">
        <ele>1127.0</ele>
        <time>2018-10-29T03:37:35.328000Z</time>
      </trkpt>
      <trkpt lat="37.84498760558398" lon="112.00621868436708">
        <ele>1126.0</ele>
        <time>2018-10-29T03:37:38.328000Z</time>
      </trkpt>
      <trkpt lat="37.845085799603275" lon="112.00624826334513">
        <ele>1126.0</ele>
        <time>2018-10-29T03:37:41.328000Z</time>
      </trkpt>
      <trkpt lat="37.84538969686652" lon="112.00634451923824">
        <ele>1133.0</ele>
        <time>2018-10-29T03:37:50.328000Z</time>
      </trkpt>
      <trkpt lat="37.84566374430558" lon="112.00641429942104">
        <ele>1134.0</ele>
        <time>2018-10-29T03:37:59.328000Z</time>
      </trkpt>
      <trkpt lat="37.845934409699446" lon="112.00650283948481">
        <ele>1131.0</ele>
        <time>2018-10-29T03:38:08.328000Z</time>
      </trkpt>
      <trkpt lat="37.84619675012901" lon="112.00663322142314">
        <ele>1130.0</ele>
        <time>2018-10-29T03:38:17.328000Z</time>
      </trkpt>
      <trkpt lat="37.846570776853625" lon="112.00669553862079">
        <ele>1128.0</ele>
        <time>2018-10-29T03:38:29.328000Z</time>
      </trkpt>
      <trkpt lat="37.84668119601279" lon="112.00669188399206">
        <ele>1126.0</ele>
        <time>2018-10-29T03:38:32.328000Z</time>
      </trkpt>
      <trkpt lat="37.846889977582016" lon="112.00671408807565">
        <ele>1125.0</ele>
        <time>2018-10-29T03:38:38.328000Z</time>
      </trkpt>
      <trkpt lat="37.847060525350884" lon="112.00674980127877">
        <ele>1125.0</ele>
        <time>2018-10-29T03:38:44.328000Z</time>
      </trkpt>
      <trkpt lat="37.8473514937945" lon="112.00675609237426">
        <ele>1122.0</ele>
        <time>2018-10-29T03:38:53.328000Z</time>
      </trkpt>
      <trkpt lat="37.847649684383725" lon="112.00679151509821">
        <ele>1120.0</ele>
        <time>2018-10-29T03:39:02.328000Z</time>
      </trkpt>
      <trkpt lat="37.84799976019981" lon="112.00685779545779">
        <ele>1120.0</ele>
        <time>2018-10-29T03:39:14.328000Z</time>
      </trkpt>
      <trkpt lat="37.8482330900715" lon="112.00689742400482">
        <ele>1116.0</ele>
        <time>2018-10-29T03:39:23.328000Z</time>
      </trkpt>
      <trkpt lat="37.84831357232806" lon="112.00693354165966">
        <ele>1115.0</ele>
        <time>2018-10-29T03:39:26.328000Z</time>
      </trkpt>
      <trkpt lat="37.84837719229487" lon="112.00699825363337">
        <ele>1112.0</ele>
        <time>2018-10-29T03:39:29.328000Z</time>
      </trkpt>
      <trkpt lat="37.84848670745207" lon="112.00719408588621">
        <ele>1115.0</ele>
        <time>2018-10-29T03:39:35.328000Z</time>
      </trkpt>
      <trkpt lat="37.84871518739711" lon="112.00755010949138">
        <ele>1112.0</ele>
        <time>2018-10-29T03:39:47.328000Z</time>
      </trkpt>
      <trkpt lat="37.84890232372214" lon="112.00784770427387">
        <ele>1111.0</ele>
        <time>2018-10-29T03:39:56.328000Z</time>
      </trkpt>
      <trkpt lat="37.84907899842468" lon="112.00810529474043">
        <ele>1110.0</ele>
        <time>2018-10-29T03:40:05.328000Z</time>
      </trkpt>
      <trkpt lat="37.849252355047135" lon="112.00838424176938">
        <ele>1111.0</ele>
        <time>2018-10-29T03:40:14.328000Z</time>
      </trkpt>
      <trkpt lat="37.84941648565336" lon="112.00866400209479">
        <ele>1113.0</ele>
        <time>2018-10-29T03:40:23.328000Z</time>
      </trkpt>
      <trkpt lat="37.849634452424986" lon="112.0089551265975">
        <ele>1115.0</ele>
        <time>2018-10-29T03:40:32.328000Z</time>
      </trkpt>
      <trkpt lat="37.849761000395496" lon="112.00913463333684">
        <ele>1110.0</ele>
        <time>2018-10-29T03:40:38.328000Z</time>
      </trkpt>
      <trkpt lat="37.84987237958588" lon="112.0094545816477">
        <ele>1105.0</ele>
        <time>2018-10-29T03:40:47.328000Z</time>
      </trkpt>
      <trkpt lat="37.84993207159966" lon="112.00981012973246">
        <ele>1106.0</ele>
        <time>2018-10-29T03:40:56.328000Z</time>
      </trkpt>
      <trkpt lat="37.84994565990498" lon="112.01016064910425">
        <ele>1104.0</ele>
        <time>2018-10-29T03:41:05.328000Z</time>
      </trkpt>
      <trkpt lat="37.84994659880552" lon="112.010302757525">
        <ele>1103.0</ele>
        <time>2018-10-29T03:41:08.328000Z</time>
      </trkpt>
      <trkpt lat="37.84996308380006" lon="112.01043646704959">
        <ele>1102.0</ele>
        <time>2018-10-29T03:41:11.328000Z</time>
      </trkpt>
      <trkpt lat="37.84994708991965" lon="112.01064569780729">
        <ele>1104.0</ele>
        <time>2018-10-29T03:41:17.328000Z</time>
      </trkpt>
      <trkpt lat="37.849950497278535" lon="112.01084650358456">
        <ele>1102.0</ele>
        <time>2018-10-29T03:41:23.328000Z</time>
      </trkpt>
      <trkpt lat="37.84992193559232" lon="112.01104637128176">
        <ele>1103.0</ele>
        <time>2018-10-29T03:41:29.328000Z</time>
      </trkpt>
      <trkpt lat="37.84988591755516" lon="112.01113633916557">
        <ele>1107.0</ele>
        <time>2018-10-29T03:41:32.328000Z</time>
      </trkpt>
      <trkpt lat="37.849883826446884" lon="112.01129502398247">
        <ele>1111.0</ele>
        <time>2018-10-29T03:41:38.328000Z</time>
      </trkpt>
      <trkpt lat="37.84982883126002" lon="112.01136602724732">
        <ele>1105.0</ele>
        <time>2018-10-29T03:41:44.328000Z</time>
      </trkpt>
      <trkpt lat="37.84984464243016" lon="112.01142749144583">
        <ele>1106.0</ele>
        <time>2018-10-29T03:41:47.328000Z</time>
      </trkpt>
      <trkpt lat="37.84983375784285" lon="112.0115315708794">
        <ele>1112.0</ele>
        <time>2018-10-29T03:41:53.328000Z</time>
      </trkpt>
      <trkpt lat="37.84984731264596" lon="112.01160521300167">
        <ele>1111.0</ele>
        <time>2018-10-29T03:41:56.328000Z</time>
      </trkpt>
      <trkpt lat="37.84984764657664" lon="112.0118838520469">
        <ele>1111.0</ele>
        <time>2018-10-29T03:42:11.328000Z</time>
      </trkpt>
      <trkpt lat="37.84986411559146" lon="112.01195219831833">
        <ele>1111.0</ele>
        <time>2018-10-29T03:42:14.328000Z</time>
      </trkpt>
      <trkpt lat="37.849862937813434" lon="112.01201945141902">
        <ele>1113.0</ele>
        <time>2018-10-29T03:42:17.328000Z</time>
      </trkpt>
      <trkpt lat="37.849793935478814" lon="112.012148215854">
        <ele>1114.0</ele>
        <time>2018-10-29T03:42:23.328000Z</time>
      </trkpt>
      <trkpt lat="37.849758824904875" lon="112.01234886704931">
        <ele>1113.0</ele>
        <time>2018-10-29T03:42:35.328000Z</time>
      </trkpt>
      <trkpt lat="37.849760379808835" lon="112.01246631390852">
        <ele>1113.0</ele>
        <time>2018-10-29T03:42:41.328000Z</time>
      </trkpt>
      <trkpt lat="37.84971205339798" lon="112.01261238847106">
        <ele>1109.0</ele>
        <time>2018-10-29T03:42:53.328000Z</time>
      </trkpt>
      <trkpt lat="37.8497180439821" lon="112.01288597140805">
        <ele>1110.0</ele>
        <time>2018-10-29T03:43:08.328000Z</time>
      </trkpt>
      <trkpt lat="37.84975270540982" lon="112.01300275442567">
        <ele>1110.0</ele>
        <time>2018-10-29T03:43:14.328000Z</time>
      </trkpt>
      <trkpt lat="37.84968117274129" lon="112.01325201800834">
        <ele>1106.0</ele>
        <time>2018-10-29T03:43:29.328000Z</time>
      </trkpt>
      <trkpt lat="37.84969317320686" lon="112.01351235699052">
        <ele>1112.0</ele>
        <time>2018-10-29T03:43:41.328000Z</time>
      </trkpt>
      <trkpt lat="37.849642314922626" lon="112.01364915726218">
        <ele>1111.0</ele>
        <time>2018-10-29T03:43:50.328000Z</time>
      </trkpt>
      <trkpt lat="37.84964019115884" lon="112.01382136736459">
        <ele>1113.0</ele>
        <time>2018-10-29T03:43:59.328000Z</time>
      </trkpt>
      <trkpt lat="37.84960669987712" lon="112.01395735542087">
        <ele>1115.0</ele>
        <time>2018-10-29T03:44:05.328000Z</time>
      </trkpt>
      <trkpt lat="37.84961490549896" lon="112.01412307708902">
        <ele>1110.0</ele>
        <time>2018-10-29T03:44:17.328000Z</time>
      </trkpt>
      <trkpt lat="37.84963856895209" lon="112.01419687915264">
        <ele>1108.0</ele>
        <time>2018-10-29T03:44:23.328000Z</time>
      </trkpt>
      <trkpt lat="37.849563911871556" lon="112.01449670480088">
        <ele>1105.0</ele>
        <time>2018-10-29T03:44:38.328000Z</time>
      </trkpt>
      <trkpt lat="37.84958671335352" lon="112.01468216227471">
        <ele>1108.0</ele>
        <time>2018-10-29T03:44:47.328000Z</time>
      </trkpt>
      <trkpt lat="37.84954910791994" lon="112.01492926800253">
        <ele>1107.0</ele>
        <time>2018-10-29T03:44:59.328000Z</time>
      </trkpt>
      <trkpt lat="37.84951877823881" lon="112.01500415925558">
        <ele>1105.0</ele>
        <time>2018-10-29T03:45:05.328000Z</time>
      </trkpt>
      <trkpt lat="37.84953895901088" lon="112.01506282340507">
        <ele>1106.0</ele>
        <time>2018-10-29T03:45:08.328000Z</time>
      </trkpt>
      <trkpt lat="37.849534336984355" lon="112.01516123256516">
        <ele>1107.0</ele>
        <time>2018-10-29T03:45:14.328000Z</time>
      </trkpt>
      <trkpt lat="37.84946799621132" lon="112.01530560957588">
        <ele>1101.0</ele>
        <time>2018-10-29T03:45:20.328000Z</time>
      </trkpt>
      <trkpt lat="37.84946920612904" lon="112.01548479921865">
        <ele>1105.0</ele>
        <time>2018-10-29T03:45:26.328000Z</time>
      </trkpt>
      <trkpt lat="37.84940718553737" lon="112.01590854955792">
        <ele>1107.0</ele>
        <time>2018-10-29T03:45:38.328000Z</time>
      </trkpt>
      <trkpt lat="37.849394377415045" lon="112.01617053161932">
        <ele>1104.0</ele>
        <time>2018-10-29T03:45:44.328000Z</time>
      </trkpt>
      <trkpt lat="37.84933156745483" lon="112.01650165334519">
        <ele>1109.0</ele>
        <time>2018-10-29T03:45:53.328000Z</time>
      </trkpt>
      <trkpt lat="37.849355221585725" lon="112.01669267459971">
        <ele>1109.0</ele>
        <time>2018-10-29T03:45:59.328000Z</time>
      </trkpt>
      <trkpt lat="37.84933777842821" lon="112.01692170330547">
        <ele>1110.0</ele>
        <time>2018-10-29T03:46:05.328000Z</time>
      </trkpt>
      <trkpt lat="37.849263564569" lon="112.01726737154726">
        <ele>1110.0</ele>
        <time>2018-10-29T03:46:14.328000Z</time>
      </trkpt>
      <trkpt lat="37.849244478550496" lon="112.01749117130407">
        <ele>1107.0</ele>
        <time>2018-10-29T03:46:20.328000Z</time>
      </trkpt>
      <trkpt lat="37.84921212504369" lon="112.01761426023216">
        <ele>1106.0</ele>
        <time>2018-10-29T03:46:23.328000Z</time>
      </trkpt>
      <trkpt lat="37.849198410840955" lon="112.01795736220843">
        <ele>1103.0</ele>
        <time>2018-10-29T03:46:32.328000Z</time>
      </trkpt>
      <trkpt lat="37.849172223171905" lon="112.01829884642422">
        <ele>1103.0</ele>
        <time>2018-10-29T03:46:41.328000Z</time>
      </trkpt>
      <trkpt lat="37.84916062160896" lon="112.01866439541195">
        <ele>1105.0</ele>
        <time>2018-10-29T03:46:50.328000Z</time>
      </trkpt>
      <trkpt lat="37.8491552719723" lon="112.01902670258123">
        <ele>1106.0</ele>
        <time>2018-10-29T03:46:59.328000Z</time>
      </trkpt>
      <trkpt lat="37.84910895321739" lon="112.01939037003812">
        <ele>1103.0</ele>
        <time>2018-10-29T03:47:08.328000Z</time>
      </trkpt>
      <trkpt lat="37.84909071871163" lon="112.01960667837734">
        <ele>1101.0</ele>
        <time>2018-10-29T03:47:14.328000Z</time>
      </trkpt>
      <trkpt lat="37.8491121560073" lon="112.01983740547246">
        <ele>1104.0</ele>
        <time>2018-10-29T03:47:20.328000Z</time>
      </trkpt>
      <trkpt lat="37.849096937677224" lon="112.02013188343003">
        <ele>1107.0</ele>
        <time>2018-10-29T03:47:26.328000Z</time>
      </trkpt>
      <trkpt lat="37.84912528758379" lon="112.02035239941681">
        <ele>1109.0</ele>
        <time>2018-10-29T03:47:32.328000Z</time>
      </trkpt>
      <trkpt lat="37.84909663368588" lon="112.02070904768281">
        <ele>1104.0</ele>
        <time>2018-10-29T03:47:41.328000Z</time>
      </trkpt>
      <trkpt lat="37.849075476489084" lon="112.02110328344567">
        <ele>1102.0</ele>
        <time>2018-10-29T03:47:50.328000Z</time>
      </trkpt>
      <trkpt lat="37.84906475870756" lon="112.02155079074763">
        <ele>1099.0</ele>
        <time>2018-10-29T03:48:02.328000Z</time>
      </trkpt>
      <trkpt lat="37.849098117661974" lon="112.0219542230804">
        <ele>1099.0</ele>
        <time>2018-10-29T03:48:17.328000Z</time>
      </trkpt>
      <trkpt lat="37.84907548473601" lon="112.0220961867574">
        <ele>1101.0</ele>
        <time>2018-10-29T03:48:23.328000Z</time>
      </trkpt>
      <trkpt lat="37.84908175957426" lon="112.02228357537491">
        <ele>1102.0</ele>
        <time>2018-10-29T03:48:32.328000Z</time>
      </trkpt>
      <trkpt lat="37.849045732622" lon="112.02236253772296">
        <ele>1105.0</ele>
        <time>2018-10-29T03:48:38.428000Z</time>
      </trkpt>
      <trkpt lat="37.849074729975605" lon="112.02247502270288">
        <ele>1104.0</ele>
        <time>2018-10-29T03:48:44.428000Z</time>
      </trkpt>
      <trkpt lat="37.84905487761217" lon="112.02259265164122">
        <ele>1106.0</ele>
        <time>2018-10-29T03:48:50.428000Z</time>
      </trkpt>
      <trkpt lat="37.84903194355029" lon="112.02264592448668">
        <ele>1106.0</ele>
        <time>2018-10-29T03:48:53.428000Z</time>
      </trkpt>
      <trkpt lat="37.84903013241463" lon="112.02301584321316">
        <ele>1105.0</ele>
        <time>2018-10-29T03:49:11.428000Z</time>
      </trkpt>
      <trkpt lat="37.84902020512104" lon="112.02307533460669">
        <ele>1104.0</ele>
        <time>2018-10-29T03:49:14.428000Z</time>
      </trkpt>
      <trkpt lat="37.84907424803891" lon="112.02335898968433">
        <ele>1104.0</ele>
        <time>2018-10-29T03:49:29.428000Z</time>
      </trkpt>
      <trkpt lat="37.849067574797374" lon="112.02341929254388">
        <ele>1105.0</ele>
        <time>2018-10-29T03:49:32.428000Z</time>
      </trkpt>
      <trkpt lat="37.8490916399173" lon="112.02347143300418">
        <ele>1105.0</ele>
        <time>2018-10-29T03:49:35.328000Z</time>
      </trkpt>
      <trkpt lat="37.84908380063202" lon="112.02364157088829">
        <ele>1106.0</ele>
        <time>2018-10-29T03:49:44.328000Z</time>
      </trkpt>
      <trkpt lat="37.849061599756695" lon="112.02379820008099">
        <ele>1105.0</ele>
        <time>2018-10-29T03:49:53.328000Z</time>
      </trkpt>
      <trkpt lat="37.84910530054765" lon="112.0241785002839">
        <ele>1106.0</ele>
        <time>2018-10-29T03:50:05.328000Z</time>
      </trkpt>
      <trkpt lat="37.84903748328547" lon="112.02438021747159">
        <ele>1106.0</ele>
        <time>2018-10-29T03:50:11.328000Z</time>
      </trkpt>
      <trkpt lat="37.84907917016927" lon="112.02475179159597">
        <ele>1105.0</ele>
        <time>2018-10-29T03:50:26.328000Z</time>
      </trkpt>
      <trkpt lat="37.84907661475955" lon="112.02480350459689">
        <ele>1107.0</ele>
        <time>2018-10-29T03:50:29.328000Z</time>
      </trkpt>
      <trkpt lat="37.848958448637866" lon="112.02489387312909">
        <ele>1109.0</ele>
        <time>2018-10-29T03:50:38.328000Z</time>
      </trkpt>
      <trkpt lat="37.848980428207206" lon="112.02494819777274">
        <ele>1109.0</ele>
        <time>2018-10-29T03:50:41.328000Z</time>
      </trkpt>
      <trkpt lat="37.848907312554566" lon="112.02491608270128">
        <ele>1108.0</ele>
        <time>2018-10-29T03:50:47.328000Z</time>
      </trkpt>
      <trkpt lat="37.84884762109405" lon="112.02491717157565">
        <ele>1108.0</ele>
        <time>2018-10-29T03:50:50.328000Z</time>
      </trkpt>
      <trkpt lat="37.848786954937815" lon="112.02495413358244">
        <ele>1108.0</ele>
        <time>2018-10-29T03:50:53.328000Z</time>
      </trkpt>
      <trkpt lat="37.84892247981229" lon="112.02533713644864">
        <ele>1104.0</ele>
        <time>2018-10-29T03:51:08.328000Z</time>
      </trkpt>
      <trkpt lat="37.84897931912667" lon="112.02559512023375">
        <ele>1107.0</ele>
        <time>2018-10-29T03:51:17.328000Z</time>
      </trkpt>
      <trkpt lat="37.84893416242651" lon="112.02595074518909">
        <ele>1109.0</ele>
        <time>2018-10-29T03:51:35.328000Z</time>
      </trkpt>
      <trkpt lat="37.84886668241799" lon="112.02602512292371">
        <ele>1110.0</ele>
        <time>2018-10-29T03:51:41.328000Z</time>
      </trkpt>
      <trkpt lat="37.848786926332686" lon="112.0262290414278">
        <ele>1106.0</ele>
        <time>2018-10-29T03:51:53.328000Z</time>
      </trkpt>
      <trkpt lat="37.84889149803" lon="112.02644134419572">
        <ele>1114.0</ele>
        <time>2018-10-29T03:52:08.328000Z</time>
      </trkpt>
      <trkpt lat="37.84887696122939" lon="112.02655680218584">
        <ele>1113.0</ele>
        <time>2018-10-29T03:52:14.328000Z</time>
      </trkpt>
      <trkpt lat="37.84883774032475" lon="112.02661522201153">
        <ele>1113.0</ele>
        <time>2018-10-29T03:52:20.328000Z</time>
      </trkpt>
      <trkpt lat="37.84873564016212" lon="112.02654437893449">
        <ele>1112.0</ele>
        <time>2018-10-29T03:52:26.328000Z</time>
      </trkpt>
      <trkpt lat="37.848620954844094" lon="112.0265138330219">
        <ele>1112.0</ele>
        <time>2018-10-29T03:52:32.328000Z</time>
      </trkpt>
      <trkpt lat="37.848548780984686" lon="112.02651573477601">
        <ele>1113.0</ele>
        <time>2018-10-29T03:52:38.328000Z</time>
      </trkpt>
      <trkpt lat="37.848494620765145" lon="112.02647652755574">
        <ele>1108.0</ele>
        <time>2018-10-29T03:52:44.328000Z</time>
      </trkpt>
      <trkpt lat="37.84851505876244" lon="112.02654629853144">
        <ele>1106.0</ele>
        <time>2018-10-29T03:52:47.328000Z</time>
      </trkpt>
      <trkpt lat="37.8484147952373" lon="112.02649952450514">
        <ele>1107.0</ele>
        <time>2018-10-29T03:52:53.328000Z</time>
      </trkpt>
      <trkpt lat="37.848280806690305" lon="112.02648439600074">
        <ele>1105.0</ele>
        <time>2018-10-29T03:52:59.328000Z</time>
      </trkpt>
      <trkpt lat="37.84823679854849" lon="112.02650576601289">
        <ele>1102.0</ele>
        <time>2018-10-29T03:53:02.328000Z</time>
      </trkpt>
      <trkpt lat="37.848059800393074" lon="112.0264411522911">
        <ele>1106.0</ele>
        <time>2018-10-29T03:53:14.328000Z</time>
      </trkpt>
      <trkpt lat="37.84800444224108" lon="112.0264452155314">
        <ele>1106.0</ele>
        <time>2018-10-29T03:53:17.328000Z</time>
      </trkpt>
      <trkpt lat="37.84802224175221" lon="112.02638295184526">
        <ele>1107.0</ele>
        <time>2018-10-29T03:53:23.328000Z</time>
      </trkpt>
      <trkpt lat="37.847962012340275" lon="112.026459776671">
        <ele>1108.0</ele>
        <time>2018-10-29T03:53:26.328000Z</time>
      </trkpt>
      <trkpt lat="37.84775910746" lon="112.02668025749537">
        <ele>1114.0</ele>
        <time>2018-10-29T03:53:38.328000Z</time>
      </trkpt>
      <trkpt lat="37.84767278871296" lon="112.02690527578417">
        <ele>1110.0</ele>
        <time>2018-10-29T03:53:50.328000Z</time>
      </trkpt>
      <trkpt lat="37.847634101181434" lon="112.02696748244063">
        <ele>1110.0</ele>
        <time>2018-10-29T03:53:53.328000Z</time>
      </trkpt>
      <trkpt lat="37.847590599509715" lon="112.0270029158274">
        <ele>1111.0</ele>
        <time>2018-10-29T03:53:56.328000Z</time>
      </trkpt>
      <trkpt lat="37.84757012193566" lon="112.02715761271973">
        <ele>1108.0</ele>
        <time>2018-10-29T03:54:08.328000Z</time>
      </trkpt>
      <trkpt lat="37.84758336099148" lon="112.02728390945119">
        <ele>1110.0</ele>
        <time>2018-10-29T03:54:14.328000Z</time>
      </trkpt>
      <trkpt lat="37.847524902345995" lon="112.02743807148205">
        <ele>1111.0</ele>
        <time>2018-10-29T03:54:23.328000Z</time>
      </trkpt>
      <trkpt lat="37.847531537282464" lon="112.02749540573257">
        <ele>1114.0</ele>
        <time>2018-10-29T03:54:26.328000Z</time>
      </trkpt>
      <trkpt lat="37.84746793433664" lon="112.02764578319012">
        <ele>1115.0</ele>
        <time>2018-10-29T03:54:38.328000Z</time>
      </trkpt>
      <trkpt lat="37.8474107905028" lon="112.02771123903288">
        <ele>1116.0</ele>
        <time>2018-10-29T03:54:44.328000Z</time>
      </trkpt>
      <trkpt lat="37.847383377771344" lon="112.02782077502587">
        <ele>1115.0</ele>
        <time>2018-10-29T03:54:50.328000Z</time>
      </trkpt>
      <trkpt lat="37.84739706392554" lon="112.02787946143815">
        <ele>1114.0</ele>
        <time>2018-10-29T03:54:53.328000Z</time>
      </trkpt>
      <trkpt lat="37.8473707857009" lon="112.02807581352458">
        <ele>1115.0</ele>
        <time>2018-10-29T03:55:05.328000Z</time>
      </trkpt>
      <trkpt lat="37.84740494447167" lon="112.02819210486092">
        <ele>1114.0</ele>
        <time>2018-10-29T03:55:11.328000Z</time>
      </trkpt>
      <trkpt lat="37.847445740241284" lon="112.02825944334383">
        <ele>1112.0</ele>
        <time>2018-10-29T03:55:17.328000Z</time>
      </trkpt>
      <trkpt lat="37.847418704095695" lon="112.02832841288067">
        <ele>1110.0</ele>
        <time>2018-10-29T03:55:23.328000Z</time>
      </trkpt>
      <trkpt lat="37.847417420580776" lon="112.02840603410996">
        <ele>1109.0</ele>
        <time>2018-10-29T03:55:29.328000Z</time>
      </trkpt>
      <trkpt lat="37.847387866326876" lon="112.02850502512372">
        <ele>1108.0</ele>
        <time>2018-10-29T03:55:35.328000Z</time>
      </trkpt>
      <trkpt lat="37.84739097518162" lon="112.02856263236235">
        <ele>1107.0</ele>
        <time>2018-10-29T03:55:38.328000Z</time>
      </trkpt>
      <trkpt lat="37.84737094962712" lon="112.02864891117771">
        <ele>1107.0</ele>
        <time>2018-10-29T03:55:44.328000Z</time>
      </trkpt>
      <trkpt lat="37.84738424262216" lon="112.02875601168657">
        <ele>1108.0</ele>
        <time>2018-10-29T03:55:50.328000Z</time>
      </trkpt>
      <trkpt lat="37.847374521868865" lon="112.02884445353608">
        <ele>1108.0</ele>
        <time>2018-10-29T03:55:56.328000Z</time>
      </trkpt>
      <trkpt lat="37.84740529628864" lon="112.02901240674426">
        <ele>1107.0</ele>
        <time>2018-10-29T03:56:08.328000Z</time>
      </trkpt>
      <trkpt lat="37.847402025282776" lon="112.02912546081944">
        <ele>1107.0</ele>
        <time>2018-10-29T03:56:15.028000Z</time>
      </trkpt>
      <trkpt lat="37.847402025282776" lon="112.02912546081944">
        <ele>1107.0</ele>
        <time>2018-10-29T03:56:17.728000Z</time>
      </trkpt>
    </trkseg>
  </trk>
</gpx>