<?xml version="1.0" encoding="UTF-8"?>
<gpx xmlns="http://www.topografix.com/GPX/1/1" xmlns:gpxtpx="http://www.garmin.com/xmlschemas/TrackPointExtension/v1" xmlns:xsi="http://www.w3.org/2001/XMLSchema-instance" xsi:schemaLocation="http://www.topografix.com/GPX/1/1 http://www.topografix.com/GPX/1/1/gpx.xsd" version="1.1" creator="gpx.py -- https://github.com/tkrajina/gpxpy">
  <trk>
    <name>gpx from keep</name>
    <type>Run</type>
    <trkseg>
      <trkpt lat="37.84728168050565" lon="112.0292314132632">
        <ele>1110.64</ele>
        <time>2019-01-27T08:53:58.017000Z</time>
      </trkpt>
      <trkpt lat="37.84729122905025" lon="112.0291585877115">
        <ele>1109.64</ele>
        <time>2019-01-27T08:54:01.017000Z</time>
      </trkpt>
      <trkpt lat="37.84733456955469" lon="112.02909792444838">
        <ele>1108.32</ele>
        <time>2019-01-27T08:54:04.017000Z</time>
      </trkpt>
      <trkpt lat="37.847365776355964" lon="112.02875699231946">
        <ele>1104.57</ele>
        <time>2019-01-27T08:54:15.917000Z</time>
      </trkpt>
      <trkpt lat="37.84738042317903" lon="112.02847765384757">
        <ele>1105.72</ele>
        <time>2019-01-27T08:54:25.017000Z</time>
      </trkpt>
      <trkpt lat="37.847369734361806" lon="112.02815896797479">
        <ele>1102.71</ele>
        <time>2019-01-27T08:54:37.017000Z</time>
      </trkpt>
      <trkpt lat="37.847374030472" lon="112.0278192707019">
        <ele>1097.2</ele>
        <time>2019-01-27T08:54:49.017000Z</time>
      </trkpt>
      <trkpt lat="37.84746276701698" lon="112.02748514699925">
        <ele>1099.4</ele>
        <time>2019-01-27T08:54:58.017000Z</time>
      </trkpt>
      <trkpt lat="37.847517074448064" lon="112.02729368057827">
        <ele>1100.53</ele>
        <time>2019-01-27T08:55:03.917000Z</time>
      </trkpt>
      <trkpt lat="37.847525748964124" lon="112.02718893950184">
        <ele>1099.37</ele>
        <time>2019-01-27T08:55:07.017000Z</time>
      </trkpt>
      <trkpt lat="37.8475633825792" lon="112.02707210562681">
        <ele>1099.48</ele>
        <time>2019-01-27T08:55:09.917000Z</time>
      </trkpt>
      <trkpt lat="37.84767470450394" lon="112.0268764250464">
        <ele>1101.28</ele>
        <time>2019-01-27T08:55:16.017000Z</time>
      </trkpt>
      <trkpt lat="37.84770586554331" lon="112.02676391590411">
        <ele>1100.84</ele>
        <time>2019-01-27T08:55:18.917000Z</time>
      </trkpt>
      <trkpt lat="37.84780933555049" lon="112.02660352232638">
        <ele>1097.31</ele>
        <time>2019-01-27T08:55:25.017000Z</time>
      </trkpt>
      <trkpt lat="37.847920193032245" lon="112.02650729859235">
        <ele>1096.55</ele>
        <time>2019-01-27T08:55:30.917000Z</time>
      </trkpt>
      <trkpt lat="37.84798139930078" lon="112.02649400276115">
        <ele>1096.08</ele>
        <time>2019-01-27T08:55:33.917000Z</time>
      </trkpt>
      <trkpt lat="37.84809341474307" lon="112.0265062511682">
        <ele>1096.06</ele>
        <time>2019-01-27T08:55:37.017000Z</time>
      </trkpt>
      <trkpt lat="37.848206191384236" lon="112.02652400791767">
        <ele>1096.35</ele>
        <time>2019-01-27T08:55:40.017000Z</time>
      </trkpt>
      <trkpt lat="37.84830746827167" lon="112.02652742255833">
        <ele>1098.02</ele>
        <time>2019-01-27T08:55:43.017000Z</time>
      </trkpt>
      <trkpt lat="37.8484032952797" lon="112.02652758186866">
        <ele>1099.19</ele>
        <time>2019-01-27T08:55:46.017000Z</time>
      </trkpt>
      <trkpt lat="37.84854615520952" lon="112.02656117964233">
        <ele>1097.11</ele>
        <time>2019-01-27T08:55:52.017000Z</time>
      </trkpt>
      <trkpt lat="37.8486313820448" lon="112.02656295272072">
        <ele>1099.49</ele>
        <time>2019-01-27T08:55:55.017000Z</time>
      </trkpt>
      <trkpt lat="37.84873204370555" lon="112.02657034302635">
        <ele>1099.27</ele>
        <time>2019-01-27T08:55:57.917000Z</time>
      </trkpt>
      <trkpt lat="37.84881284195582" lon="112.02654395731203">
        <ele>1098.35</ele>
        <time>2019-01-27T08:56:01.017000Z</time>
      </trkpt>
      <trkpt lat="37.848960864060935" lon="112.02624523927058">
        <ele>1105.62</ele>
        <time>2019-01-27T08:56:09.917000Z</time>
      </trkpt>
      <trkpt lat="37.849003444302845" lon="112.0259696768911">
        <ele>1097.0</ele>
        <time>2019-01-27T08:56:16.017000Z</time>
      </trkpt>
      <trkpt lat="37.848996170215585" lon="112.02583156579713">
        <ele>1102.22</ele>
        <time>2019-01-27T08:56:19.017000Z</time>
      </trkpt>
      <trkpt lat="37.84900311515597" lon="112.02570736860903">
        <ele>1093.85</ele>
        <time>2019-01-27T08:56:22.017000Z</time>
      </trkpt>
      <trkpt lat="37.84900965405781" lon="112.02529152116172">
        <ele>1099.24</ele>
        <time>2019-01-27T08:56:31.017000Z</time>
      </trkpt>
      <trkpt lat="37.84899904172026" lon="112.02515279252454">
        <ele>1099.71</ele>
        <time>2019-01-27T08:56:34.017000Z</time>
      </trkpt>
      <trkpt lat="37.84900786732343" lon="112.02474813252758">
        <ele>1097.33</ele>
        <time>2019-01-27T08:56:46.017000Z</time>
      </trkpt>
      <trkpt lat="37.84902984508349" lon="112.02451557132575">
        <ele>1098.98</ele>
        <time>2019-01-27T08:56:51.917000Z</time>
      </trkpt>
      <trkpt lat="37.84904636175653" lon="112.02415776873335">
        <ele>1097.52</ele>
        <time>2019-01-27T08:57:01.017000Z</time>
      </trkpt>
      <trkpt lat="37.849009573379064" lon="112.02394331722707">
        <ele>1097.52</ele>
        <time>2019-01-27T08:57:06.917000Z</time>
      </trkpt>
      <trkpt lat="37.84898919403859" lon="112.02374944419937">
        <ele>1097.76</ele>
        <time>2019-01-27T08:57:13.017000Z</time>
      </trkpt>
      <trkpt lat="37.84898188310075" lon="112.02363355309916">
        <ele>1100.06</ele>
        <time>2019-01-27T08:57:16.017000Z</time>
      </trkpt>
      <trkpt lat="37.849023046197345" lon="112.02337424575288">
        <ele>1105.18</ele>
        <time>2019-01-27T08:57:22.017000Z</time>
      </trkpt>
      <trkpt lat="37.849034699182816" lon="112.0230079686458">
        <ele>1103.55</ele>
        <time>2019-01-27T08:57:31.017000Z</time>
      </trkpt>
      <trkpt lat="37.849018287012186" lon="112.02277079647313">
        <ele>1103.01</ele>
        <time>2019-01-27T08:57:37.017000Z</time>
      </trkpt>
      <trkpt lat="37.8490365083151" lon="112.02256564217386">
        <ele>1099.89</ele>
        <time>2019-01-27T08:57:43.017000Z</time>
      </trkpt>
      <trkpt lat="37.849041618641635" lon="112.02211681469954">
        <ele>1101.38</ele>
        <time>2019-01-27T08:57:54.917000Z</time>
      </trkpt>
      <trkpt lat="37.84909222527068" lon="112.02178085399275">
        <ele>1100.42</ele>
        <time>2019-01-27T08:58:03.917000Z</time>
      </trkpt>
      <trkpt lat="37.84909720866666" lon="112.02143305919981">
        <ele>1098.84</ele>
        <time>2019-01-27T08:58:12.917000Z</time>
      </trkpt>
      <trkpt lat="37.84912206982765" lon="112.02109390170003">
        <ele>1098.37</ele>
        <time>2019-01-27T08:58:22.017000Z</time>
      </trkpt>
      <trkpt lat="37.849113000564294" lon="112.02066189936708">
        <ele>1096.19</ele>
        <time>2019-01-27T08:58:34.017000Z</time>
      </trkpt>
      <trkpt lat="37.84910532324211" lon="112.02028602000473">
        <ele>1099.75</ele>
        <time>2019-01-27T08:58:42.917000Z</time>
      </trkpt>
      <trkpt lat="37.84910418958441" lon="112.01985344933772">
        <ele>1098.51</ele>
        <time>2019-01-27T08:58:55.017000Z</time>
      </trkpt>
      <trkpt lat="37.84911382561256" lon="112.01940082341844">
        <ele>1101.78</ele>
        <time>2019-01-27T08:59:07.017000Z</time>
      </trkpt>
      <trkpt lat="37.84913610151871" lon="112.01905971499235">
        <ele>1102.8</ele>
        <time>2019-01-27T08:59:16.017000Z</time>
      </trkpt>
      <trkpt lat="37.84916401470093" lon="112.01862771805108">
        <ele>1101.07</ele>
        <time>2019-01-27T08:59:27.917000Z</time>
      </trkpt>
      <trkpt lat="37.84917830953079" lon="112.01831957089846">
        <ele>1102.63</ele>
        <time>2019-01-27T08:59:37.017000Z</time>
      </trkpt>
      <trkpt lat="37.84917034080213" lon="112.01821068810881">
        <ele>1102.95</ele>
        <time>2019-01-27T08:59:39.917000Z</time>
      </trkpt>
      <trkpt lat="37.849181017564035" lon="112.01784164903209">
        <ele>1104.79</ele>
        <time>2019-01-27T08:59:48.917000Z</time>
      </trkpt>
      <trkpt lat="37.84919469048992" lon="112.01760778764347">
        <ele>1105.58</ele>
        <time>2019-01-27T08:59:54.917000Z</time>
      </trkpt>
      <trkpt lat="37.849236485028854" lon="112.01725844104074">
        <ele>1105.66</ele>
        <time>2019-01-27T09:00:04.017000Z</time>
      </trkpt>
      <trkpt lat="37.84930201906482" lon="112.0168412583668">
        <ele>1107.4</ele>
        <time>2019-01-27T09:00:15.917000Z</time>
      </trkpt>
      <trkpt lat="37.84936176210563" lon="112.0164160872518">
        <ele>1108.52</ele>
        <time>2019-01-27T09:00:27.917000Z</time>
      </trkpt>
      <trkpt lat="37.84940420311766" lon="112.01607463883688">
        <ele>1109.26</ele>
        <time>2019-01-27T09:00:37.017000Z</time>
      </trkpt>
      <trkpt lat="37.84944181239756" lon="112.01574435560836">
        <ele>1110.27</ele>
        <time>2019-01-27T09:00:45.917000Z</time>
      </trkpt>
      <trkpt lat="37.84949658906068" lon="112.01534720813524">
        <ele>1109.14</ele>
        <time>2019-01-27T09:00:58.017000Z</time>
      </trkpt>
      <trkpt lat="37.849525338807716" lon="112.01496023922847">
        <ele>1110.12</ele>
        <time>2019-01-27T09:01:07.017000Z</time>
      </trkpt>
      <trkpt lat="37.849566386361055" lon="112.01455475450956">
        <ele>1113.23</ele>
        <time>2019-01-27T09:01:16.017000Z</time>
      </trkpt>
      <trkpt lat="37.84959266151412" lon="112.01418952663396">
        <ele>1114.53</ele>
        <time>2019-01-27T09:01:25.017000Z</time>
      </trkpt>
      <trkpt lat="37.849636068191806" lon="112.0137692380346">
        <ele>1112.68</ele>
        <time>2019-01-27T09:01:37.017000Z</time>
      </trkpt>
      <trkpt lat="37.84966987579798" lon="112.01334878069673">
        <ele>1111.16</ele>
        <time>2019-01-27T09:01:49.017000Z</time>
      </trkpt>
      <trkpt lat="37.84970312348997" lon="112.01291659329512">
        <ele>1109.64</ele>
        <time>2019-01-27T09:02:01.017000Z</time>
      </trkpt>
      <trkpt lat="37.849723583821905" lon="112.01270347160933">
        <ele>1109.94</ele>
        <time>2019-01-27T09:02:07.017000Z</time>
      </trkpt>
      <trkpt lat="37.84974761704529" lon="112.01227023480833">
        <ele>1105.84</ele>
        <time>2019-01-27T09:02:19.017000Z</time>
      </trkpt>
      <trkpt lat="37.84978995712713" lon="112.01183614028217">
        <ele>1108.25</ele>
        <time>2019-01-27T09:02:31.017000Z</time>
      </trkpt>
      <trkpt lat="37.849819191514975" lon="112.01145230205297">
        <ele>1111.2</ele>
        <time>2019-01-27T09:02:39.917000Z</time>
      </trkpt>
      <trkpt lat="37.84984587794389" lon="112.01108801670634">
        <ele>1110.72</ele>
        <time>2019-01-27T09:02:48.917000Z</time>
      </trkpt>
      <trkpt lat="37.84987294409311" lon="112.01070756076126">
        <ele>1112.42</ele>
        <time>2019-01-27T09:02:57.917000Z</time>
      </trkpt>
      <trkpt lat="37.84988354806621" lon="112.01027755150936">
        <ele>1116.78</ele>
        <time>2019-01-27T09:03:09.917000Z</time>
      </trkpt>
      <trkpt lat="37.849882939468095" lon="112.00995972338701">
        <ele>1116.73</ele>
        <time>2019-01-27T09:03:18.917000Z</time>
      </trkpt>
      <trkpt lat="37.84985838746982" lon="112.00974983542164">
        <ele>1117.12</ele>
        <time>2019-01-27T09:03:25.017000Z</time>
      </trkpt>
      <trkpt lat="37.849830106157974" lon="112.00936598318604">
        <ele>1116.11</ele>
        <time>2019-01-27T09:03:37.017000Z</time>
      </trkpt>
      <trkpt lat="37.84972749150018" lon="112.00909431176086">
        <ele>1112.8</ele>
        <time>2019-01-27T09:03:46.017000Z</time>
      </trkpt>
      <trkpt lat="37.849515714186055" lon="112.00876454725696">
        <ele>1112.98</ele>
        <time>2019-01-27T09:03:57.917000Z</time>
      </trkpt>
      <trkpt lat="37.84929584756875" lon="112.00843701374475">
        <ele>1110.45</ele>
        <time>2019-01-27T09:04:09.917000Z</time>
      </trkpt>
      <trkpt lat="37.84907695228025" lon="112.00809508108505">
        <ele>1109.86</ele>
        <time>2019-01-27T09:04:21.917000Z</time>
      </trkpt>
      <trkpt lat="37.848858545281566" lon="112.00775973456098">
        <ele>1112.12</ele>
        <time>2019-01-27T09:04:33.917000Z</time>
      </trkpt>
      <trkpt lat="37.84867931987542" lon="112.00748117115019">
        <ele>1112.99</ele>
        <time>2019-01-27T09:04:43.017000Z</time>
      </trkpt>
      <trkpt lat="37.848448190601346" lon="112.00712742893175">
        <ele>1112.53</ele>
        <time>2019-01-27T09:04:54.917000Z</time>
      </trkpt>
      <trkpt lat="37.84831751761239" lon="112.00695111016677">
        <ele>1115.0</ele>
        <time>2019-01-27T09:05:00.917000Z</time>
      </trkpt>
      <trkpt lat="37.84824295931088" lon="112.00687752211903">
        <ele>1113.45</ele>
        <time>2019-01-27T09:05:04.017000Z</time>
      </trkpt>
      <trkpt lat="37.84807808945602" lon="112.00679864519442">
        <ele>1112.3</ele>
        <time>2019-01-27T09:05:09.917000Z</time>
      </trkpt>
      <trkpt lat="37.84780992103333" lon="112.006774127265">
        <ele>1110.99</ele>
        <time>2019-01-27T09:05:18.917000Z</time>
      </trkpt>
      <trkpt lat="37.847553005218465" lon="112.00676316657207">
        <ele>1113.94</ele>
        <time>2019-01-27T09:05:28.017000Z</time>
      </trkpt>
      <trkpt lat="37.847283686192114" lon="112.00673087993812">
        <ele>1114.35</ele>
        <time>2019-01-27T09:05:37.017000Z</time>
      </trkpt>
      <trkpt lat="37.84701391360132" lon="112.00670206119106">
        <ele>1118.82</ele>
        <time>2019-01-27T09:05:45.917000Z</time>
      </trkpt>
      <trkpt lat="37.84673354975494" lon="112.0066761960885">
        <ele>1119.51</ele>
        <time>2019-01-27T09:05:55.017000Z</time>
      </trkpt>
      <trkpt lat="37.846454404875885" lon="112.00665820370958">
        <ele>1119.65</ele>
        <time>2019-01-27T09:06:03.917000Z</time>
      </trkpt>
      <trkpt lat="37.84610885286708" lon="112.00660209647741">
        <ele>1118.68</ele>
        <time>2019-01-27T09:06:16.017000Z</time>
      </trkpt>
      <trkpt lat="37.845774406540734" lon="112.0064867206403">
        <ele>1121.27</ele>
        <time>2019-01-27T09:06:27.917000Z</time>
      </trkpt>
      <trkpt lat="37.84569228920761" lon="112.00645875175562">
        <ele>1121.1</ele>
        <time>2019-01-27T09:06:30.917000Z</time>
      </trkpt>
      <trkpt lat="37.84561368870441" lon="112.00644241881136">
        <ele>1119.56</ele>
        <time>2019-01-27T09:06:34.017000Z</time>
      </trkpt>
      <trkpt lat="37.84544661007428" lon="112.00635685557361">
        <ele>1121.78</ele>
        <time>2019-01-27T09:06:39.917000Z</time>
      </trkpt>
      <trkpt lat="37.84510316065192" lon="112.00626469908067">
        <ele>1122.82</ele>
        <time>2019-01-27T09:06:52.017000Z</time>
      </trkpt>
      <trkpt lat="37.84483856256017" lon="112.00620352376234">
        <ele>1122.58</ele>
        <time>2019-01-27T09:07:01.017000Z</time>
      </trkpt>
      <trkpt lat="37.84457018881387" lon="112.00615754802837">
        <ele>1123.17</ele>
        <time>2019-01-27T09:07:10.017000Z</time>
      </trkpt>
      <trkpt lat="37.844479158972774" lon="112.00615533530151">
        <ele>1123.46</ele>
        <time>2019-01-27T09:07:13.017000Z</time>
      </trkpt>
      <trkpt lat="37.84422500548877" lon="112.00626124809479">
        <ele>1125.24</ele>
        <time>2019-01-27T09:07:22.017000Z</time>
      </trkpt>
      <trkpt lat="37.84397083928978" lon="112.00638053440679">
        <ele>1125.14</ele>
        <time>2019-01-27T09:07:31.017000Z</time>
      </trkpt>
      <trkpt lat="37.84373254478663" lon="112.00654974771666">
        <ele>1124.62</ele>
        <time>2019-01-27T09:07:40.017000Z</time>
      </trkpt>
      <trkpt lat="37.84350611611911" lon="112.00674589385545">
        <ele>1122.85</ele>
        <time>2019-01-27T09:07:49.017000Z</time>
      </trkpt>
      <trkpt lat="37.843214178179004" lon="112.00696876062815">
        <ele>1122.92</ele>
        <time>2019-01-27T09:08:01.017000Z</time>
      </trkpt>
      <trkpt lat="37.842912081160115" lon="112.00719509006785">
        <ele>1124.48</ele>
        <time>2019-01-27T09:08:12.917000Z</time>
      </trkpt>
      <trkpt lat="37.84276685880093" lon="112.00731907414195">
        <ele>1122.57</ele>
        <time>2019-01-27T09:08:19.017000Z</time>
      </trkpt>
      <trkpt lat="37.8425283073854" lon="112.007485648815">
        <ele>1124.92</ele>
        <time>2019-01-27T09:08:28.017000Z</time>
      </trkpt>
      <trkpt lat="37.84222576133719" lon="112.00770128534731">
        <ele>1126.84</ele>
        <time>2019-01-27T09:08:40.017000Z</time>
      </trkpt>
      <trkpt lat="37.8419295802908" lon="112.00789064601632">
        <ele>1130.24</ele>
        <time>2019-01-27T09:08:51.917000Z</time>
      </trkpt>
      <trkpt lat="37.841845527398235" lon="112.00791954200254">
        <ele>1130.76</ele>
        <time>2019-01-27T09:08:55.017000Z</time>
      </trkpt>
      <trkpt lat="37.84158879248007" lon="112.00804893609971">
        <ele>1131.86</ele>
        <time>2019-01-27T09:09:04.017000Z</time>
      </trkpt>
      <trkpt lat="37.84141980712502" lon="112.00810277896474">
        <ele>1130.1</ele>
        <time>2019-01-27T09:09:10.017000Z</time>
      </trkpt>
      <trkpt lat="37.84106805777396" lon="112.00811065285137">
        <ele>1134.29</ele>
        <time>2019-01-27T09:09:21.917000Z</time>
      </trkpt>
      <trkpt lat="37.84071587193838" lon="112.00804950487883">
        <ele>1134.99</ele>
        <time>2019-01-27T09:09:33.917000Z</time>
      </trkpt>
      <trkpt lat="37.84036198024332" lon="112.00798162088256">
        <ele>1133.74</ele>
        <time>2019-01-27T09:09:45.917000Z</time>
      </trkpt>
      <trkpt lat="37.84010754240843" lon="112.0079588881051">
        <ele>1132.17</ele>
        <time>2019-01-27T09:09:54.917000Z</time>
      </trkpt>
      <trkpt lat="37.83977441556286" lon="112.00802842865683">
        <ele>1133.09</ele>
        <time>2019-01-27T09:10:06.917000Z</time>
      </trkpt>
      <trkpt lat="37.83959831545741" lon="112.00805917871646">
        <ele>1130.43</ele>
        <time>2019-01-27T09:10:13.017000Z</time>
      </trkpt>
      <trkpt lat="37.83925956488326" lon="112.00808913187642">
        <ele>1133.53</ele>
        <time>2019-01-27T09:10:25.017000Z</time>
      </trkpt>
      <trkpt lat="37.83891418275973" lon="112.00815555356765">
        <ele>1135.49</ele>
        <time>2019-01-27T09:10:36.917000Z</time>
      </trkpt>
      <trkpt lat="37.83855998649219" lon="112.00820923250359">
        <ele>1135.66</ele>
        <time>2019-01-27T09:10:49.017000Z</time>
      </trkpt>
      <trkpt lat="37.838318895931685" lon="112.00818596665587">
        <ele>1135.15</ele>
        <time>2019-01-27T09:10:57.917000Z</time>
      </trkpt>
      <trkpt lat="37.83800471771407" lon="112.00807547060157">
        <ele>1136.6</ele>
        <time>2019-01-27T09:11:09.917000Z</time>
      </trkpt>
      <trkpt lat="37.83769256225338" lon="112.0079518966132">
        <ele>1140.44</ele>
        <time>2019-01-27T09:11:22.017000Z</time>
      </trkpt>
      <trkpt lat="37.837378496139" lon="112.00783668316905">
        <ele>1138.96</ele>
        <time>2019-01-27T09:11:34.017000Z</time>
      </trkpt>
      <trkpt lat="37.83711401408575" lon="112.0077539113801">
        <ele>1143.19</ele>
        <time>2019-01-27T09:11:42.917000Z</time>
      </trkpt>
      <trkpt lat="37.836789359975064" lon="112.00763478491547">
        <ele>1145.6</ele>
        <time>2019-01-27T09:11:55.017000Z</time>
      </trkpt>
      <trkpt lat="37.83652941587838" lon="112.00754595520355">
        <ele>1146.87</ele>
        <time>2019-01-27T09:12:03.917000Z</time>
      </trkpt>
      <trkpt lat="37.836270211992364" lon="112.00744914064197">
        <ele>1149.44</ele>
        <time>2019-01-27T09:12:13.017000Z</time>
      </trkpt>
      <trkpt lat="37.83600485878093" lon="112.00737760607304">
        <ele>1149.67</ele>
        <time>2019-01-27T09:12:22.017000Z</time>
      </trkpt>
      <trkpt lat="37.83567691593946" lon="112.0073216626057">
        <ele>1150.62</ele>
        <time>2019-01-27T09:12:34.017000Z</time>
      </trkpt>
      <trkpt lat="37.8354988885935" lon="112.00729955284176">
        <ele>1152.53</ele>
        <time>2019-01-27T09:12:39.917000Z</time>
      </trkpt>
      <trkpt lat="37.83542295106758" lon="112.00727741327786">
        <ele>1151.54</ele>
        <time>2019-01-27T09:12:43.017000Z</time>
      </trkpt>
      <trkpt lat="37.83536483819285" lon="112.00721012608903">
        <ele>1149.6</ele>
        <time>2019-01-27T09:12:45.917000Z</time>
      </trkpt>
      <trkpt lat="37.83528886006112" lon="112.00703771916636">
        <ele>1146.48</ele>
        <time>2019-01-27T09:12:52.017000Z</time>
      </trkpt>
      <trkpt lat="37.835229563370866" lon="112.00695690463773">
        <ele>1148.62</ele>
        <time>2019-01-27T09:12:55.017000Z</time>
      </trkpt>
      <trkpt lat="37.83515275879879" lon="112.0068992483343">
        <ele>1148.27</ele>
        <time>2019-01-27T09:12:58.017000Z</time>
      </trkpt>
      <trkpt lat="37.83506644439466" lon="112.00687115450756">
        <ele>1147.18</ele>
        <time>2019-01-27T09:13:00.917000Z</time>
      </trkpt>
      <trkpt lat="37.83480003900907" lon="112.00691324570973">
        <ele>1149.91</ele>
        <time>2019-01-27T09:13:10.017000Z</time>
      </trkpt>
      <trkpt lat="37.83470759247048" lon="112.00691943511092">
        <ele>1151.24</ele>
        <time>2019-01-27T09:13:13.017000Z</time>
      </trkpt>
      <trkpt lat="37.83460672770216" lon="112.0069323576335">
        <ele>1152.27</ele>
        <time>2019-01-27T09:13:16.017000Z</time>
      </trkpt>
      <trkpt lat="37.83451953400755" lon="112.00692019201395">
        <ele>1150.98</ele>
        <time>2019-01-27T09:13:19.017000Z</time>
      </trkpt>
      <trkpt lat="37.834185904161146" lon="112.00683028109296">
        <ele>1151.4</ele>
        <time>2019-01-27T09:13:31.017000Z</time>
      </trkpt>
      <trkpt lat="37.83388451940957" lon="112.00672225584898">
        <ele>1153.46</ele>
        <time>2019-01-27T09:13:43.017000Z</time>
      </trkpt>
      <trkpt lat="37.83359037808383" lon="112.00660857048767">
        <ele>1155.88</ele>
        <time>2019-01-27T09:13:54.917000Z</time>
      </trkpt>
      <trkpt lat="37.8333370931768" lon="112.00651311519748">
        <ele>1155.88</ele>
        <time>2019-01-27T09:14:03.917000Z</time>
      </trkpt>
      <trkpt lat="37.83299712762085" lon="112.00641380400549">
        <ele>1156.81</ele>
        <time>2019-01-27T09:14:15.917000Z</time>
      </trkpt>
      <trkpt lat="37.832752745815235" lon="112.0063291036317">
        <ele>1159.51</ele>
        <time>2019-01-27T09:14:24.917000Z</time>
      </trkpt>
      <trkpt lat="37.83243239614048" lon="112.00615466595694">
        <ele>1159.73</ele>
        <time>2019-01-27T09:14:37.017000Z</time>
      </trkpt>
      <trkpt lat="37.83227533213006" lon="112.00610371970195">
        <ele>1159.01</ele>
        <time>2019-01-27T09:14:42.917000Z</time>
      </trkpt>
      <trkpt lat="37.83194072377678" lon="112.00610383723841">
        <ele>1157.42</ele>
        <time>2019-01-27T09:14:54.917000Z</time>
      </trkpt>
      <trkpt lat="37.83166890917988" lon="112.00613194752582">
        <ele>1160.0</ele>
        <time>2019-01-27T09:15:04.017000Z</time>
      </trkpt>
      <trkpt lat="37.83131730005888" lon="112.00615683168587">
        <ele>1157.93</ele>
        <time>2019-01-27T09:15:16.017000Z</time>
      </trkpt>
      <trkpt lat="37.83097437437019" lon="112.00615014668242">
        <ele>1157.65</ele>
        <time>2019-01-27T09:15:28.017000Z</time>
      </trkpt>
      <trkpt lat="37.830634394519" lon="112.00617198203251">
        <ele>1160.53</ele>
        <time>2019-01-27T09:15:40.017000Z</time>
      </trkpt>
      <trkpt lat="37.83031903213337" lon="112.00617089654918">
        <ele>1160.07</ele>
        <time>2019-01-27T09:15:52.017000Z</time>
      </trkpt>
      <trkpt lat="37.83006667459858" lon="112.00614336236477">
        <ele>1162.15</ele>
        <time>2019-01-27T09:16:00.917000Z</time>
      </trkpt>
      <trkpt lat="37.8297394853782" lon="112.00616503779023">
        <ele>1164.18</ele>
        <time>2019-01-27T09:16:12.917000Z</time>
      </trkpt>
      <trkpt lat="37.82958454403066" lon="112.00617107037618">
        <ele>1165.44</ele>
        <time>2019-01-27T09:16:19.017000Z</time>
      </trkpt>
      <trkpt lat="37.82929133541863" lon="112.00616862928621">
        <ele>1167.79</ele>
        <time>2019-01-27T09:16:31.017000Z</time>
      </trkpt>
      <trkpt lat="37.82896427888719" lon="112.0061725921987">
        <ele>1168.24</ele>
        <time>2019-01-27T09:16:43.017000Z</time>
      </trkpt>
      <trkpt lat="37.82868980637311" lon="112.00619179703978">
        <ele>1168.16</ele>
        <time>2019-01-27T09:16:51.917000Z</time>
      </trkpt>
      <trkpt lat="37.82839368354375" lon="112.00620187621746">
        <ele>1168.89</ele>
        <time>2019-01-27T09:17:03.917000Z</time>
      </trkpt>
      <trkpt lat="37.828114598449226" lon="112.0062266770403">
        <ele>1167.38</ele>
        <time>2019-01-27T09:17:15.917000Z</time>
      </trkpt>
      <trkpt lat="37.8278090707803" lon="112.00627021868144">
        <ele>1167.54</ele>
        <time>2019-01-27T09:17:28.017000Z</time>
      </trkpt>
      <trkpt lat="37.82756092898422" lon="112.00631593424524">
        <ele>1169.69</ele>
        <time>2019-01-27T09:17:36.917000Z</time>
      </trkpt>
      <trkpt lat="37.82747584408072" lon="112.00631336662273">
        <ele>1170.66</ele>
        <time>2019-01-27T09:17:40.017000Z</time>
      </trkpt>
      <trkpt lat="37.827164010526275" lon="112.00634883916885">
        <ele>1172.34</ele>
        <time>2019-01-27T09:17:52.017000Z</time>
      </trkpt>
      <trkpt lat="37.826841157164395" lon="112.00638079528883">
        <ele>1178.3</ele>
        <time>2019-01-27T09:18:03.917000Z</time>
      </trkpt>
      <trkpt lat="37.826517296241235" lon="112.00641589283995">
        <ele>1181.85</ele>
        <time>2019-01-27T09:18:15.917000Z</time>
      </trkpt>
      <trkpt lat="37.82621937972622" lon="112.0064815201645">
        <ele>1182.06</ele>
        <time>2019-01-27T09:18:28.017000Z</time>
      </trkpt>
      <trkpt lat="37.825977135295034" lon="112.0065018951375">
        <ele>1186.35</ele>
        <time>2019-01-27T09:18:36.917000Z</time>
      </trkpt>
      <trkpt lat="37.82569985228673" lon="112.00647724320636">
        <ele>1180.97</ele>
        <time>2019-01-27T09:18:46.017000Z</time>
      </trkpt>
      <trkpt lat="37.82542798900133" lon="112.00646322187313">
        <ele>1181.6</ele>
        <time>2019-01-27T09:18:54.917000Z</time>
      </trkpt>
      <trkpt lat="37.825137283927944" lon="112.00642033941162">
        <ele>1185.18</ele>
        <time>2019-01-27T09:19:04.017000Z</time>
      </trkpt>
      <trkpt lat="37.824784679231804" lon="112.00634899765119">
        <ele>1183.94</ele>
        <time>2019-01-27T09:19:16.017000Z</time>
      </trkpt>
      <trkpt lat="37.824446848311716" lon="112.00627579830254">
        <ele>1184.65</ele>
        <time>2019-01-27T09:19:27.917000Z</time>
      </trkpt>
      <trkpt lat="37.824104839682605" lon="112.0061940996967">
        <ele>1184.62</ele>
        <time>2019-01-27T09:19:39.917000Z</time>
      </trkpt>
      <trkpt lat="37.82376342020185" lon="112.00612181960464">
        <ele>1186.28</ele>
        <time>2019-01-27T09:19:51.917000Z</time>
      </trkpt>
      <trkpt lat="37.82341214227351" lon="112.00609343599962">
        <ele>1186.26</ele>
        <time>2019-01-27T09:20:03.917000Z</time>
      </trkpt>
      <trkpt lat="37.8230825143147" lon="112.00611831050088">
        <ele>1186.69</ele>
        <time>2019-01-27T09:20:16.017000Z</time>
      </trkpt>
      <trkpt lat="37.82276462609008" lon="112.00613310334191">
        <ele>1185.76</ele>
        <time>2019-01-27T09:20:27.917000Z</time>
      </trkpt>
      <trkpt lat="37.82260399960816" lon="112.00611306233863">
        <ele>1187.39</ele>
        <time>2019-01-27T09:20:34.017000Z</time>
      </trkpt>
      <trkpt lat="37.82227951823561" lon="112.00596359707771">
        <ele>1190.95</ele>
        <time>2019-01-27T09:20:46.017000Z</time>
      </trkpt>
      <trkpt lat="37.8220039706059" lon="112.00578290964935">
        <ele>1192.34</ele>
        <time>2019-01-27T09:21:01.017000Z</time>
      </trkpt>
      <trkpt lat="37.82189712347404" lon="112.00568467520245">
        <ele>1194.49</ele>
        <time>2019-01-27T09:21:30.917000Z</time>
      </trkpt>
      <trkpt lat="37.822064407771386" lon="112.00580555072084">
        <ele>1194.21</ele>
        <time>2019-01-27T09:21:43.017000Z</time>
      </trkpt>
      <trkpt lat="37.82224669845852" lon="112.0058967760498">
        <ele>1193.27</ele>
        <time>2019-01-27T09:21:55.017000Z</time>
      </trkpt>
      <trkpt lat="37.822441736508715" lon="112.00604382144766">
        <ele>1196.23</ele>
        <time>2019-01-27T09:22:13.017000Z</time>
      </trkpt>
      <trkpt lat="37.822701560800176" lon="112.00615639588936">
        <ele>1198.21</ele>
        <time>2019-01-27T09:22:31.017000Z</time>
      </trkpt>
      <trkpt lat="37.82304024168433" lon="112.00617412381547">
        <ele>1193.66</ele>
        <time>2019-01-27T09:22:48.917000Z</time>
      </trkpt>
      <trkpt lat="37.82332903970262" lon="112.00611494748921">
        <ele>1189.3</ele>
        <time>2019-01-27T09:23:00.917000Z</time>
      </trkpt>
      <trkpt lat="37.823639250149206" lon="112.00612138498441">
        <ele>1191.96</ele>
        <time>2019-01-27T09:23:12.917000Z</time>
      </trkpt>
      <trkpt lat="37.82390694196999" lon="112.0061659252137">
        <ele>1191.07</ele>
        <time>2019-01-27T09:23:21.917000Z</time>
      </trkpt>
      <trkpt lat="37.82425758558019" lon="112.00625664754074">
        <ele>1190.47</ele>
        <time>2019-01-27T09:23:34.017000Z</time>
      </trkpt>
      <trkpt lat="37.824564578199755" lon="112.00632077866675">
        <ele>1192.16</ele>
        <time>2019-01-27T09:23:46.017000Z</time>
      </trkpt>
      <trkpt lat="37.82490998160825" lon="112.0064043006836">
        <ele>1193.02</ele>
        <time>2019-01-27T09:23:58.017000Z</time>
      </trkpt>
      <trkpt lat="37.82517751357494" lon="112.0064508311254">
        <ele>1189.14</ele>
        <time>2019-01-27T09:24:07.017000Z</time>
      </trkpt>
      <trkpt lat="37.82546476660008" lon="112.00652398309643">
        <ele>1189.66</ele>
        <time>2019-01-27T09:24:16.017000Z</time>
      </trkpt>
      <trkpt lat="37.82577343726652" lon="112.0065357009589">
        <ele>1188.6</ele>
        <time>2019-01-27T09:24:28.017000Z</time>
      </trkpt>
      <trkpt lat="37.82611789827439" lon="112.00655551900631">
        <ele>1185.32</ele>
        <time>2019-01-27T09:24:40.017000Z</time>
      </trkpt>
      <trkpt lat="37.82641323563673" lon="112.00648244157487">
        <ele>1182.02</ele>
        <time>2019-01-27T09:24:51.917000Z</time>
      </trkpt>
      <trkpt lat="37.82678082749785" lon="112.00644040371824">
        <ele>1174.71</ele>
        <time>2019-01-27T09:25:04.017000Z</time>
      </trkpt>
      <trkpt lat="37.827060249946726" lon="112.00640899441777">
        <ele>1179.91</ele>
        <time>2019-01-27T09:25:12.917000Z</time>
      </trkpt>
      <trkpt lat="37.827353468977684" lon="112.00639010148036">
        <ele>1178.66</ele>
        <time>2019-01-27T09:25:22.017000Z</time>
      </trkpt>
      <trkpt lat="37.827645596367894" lon="112.00635242180797">
        <ele>1179.19</ele>
        <time>2019-01-27T09:25:31.017000Z</time>
      </trkpt>
      <trkpt lat="37.827918967288724" lon="112.00631700455273">
        <ele>1177.72</ele>
        <time>2019-01-27T09:25:40.017000Z</time>
      </trkpt>
      <trkpt lat="37.82822188399461" lon="112.00625920575152">
        <ele>1174.77</ele>
        <time>2019-01-27T09:25:52.017000Z</time>
      </trkpt>
      <trkpt lat="37.82852747767931" lon="112.00623488624126">
        <ele>1176.83</ele>
        <time>2019-01-27T09:26:01.017000Z</time>
      </trkpt>
      <trkpt lat="37.82887399702874" lon="112.0062110515214">
        <ele>1175.8</ele>
        <time>2019-01-27T09:26:10.017000Z</time>
      </trkpt>
      <trkpt lat="37.82922656668762" lon="112.00619536725053">
        <ele>1174.85</ele>
        <time>2019-01-27T09:26:21.917000Z</time>
      </trkpt>
      <trkpt lat="37.82949740615954" lon="112.00617610352636">
        <ele>1174.59</ele>
        <time>2019-01-27T09:26:31.017000Z</time>
      </trkpt>
      <trkpt lat="37.82980553695042" lon="112.00619176160316">
        <ele>1173.07</ele>
        <time>2019-01-27T09:26:40.017000Z</time>
      </trkpt>
      <trkpt lat="37.830106427294105" lon="112.0061954690117">
        <ele>1168.91</ele>
        <time>2019-01-27T09:26:49.017000Z</time>
      </trkpt>
      <trkpt lat="37.830457511353806" lon="112.00623285057083">
        <ele>1166.29</ele>
        <time>2019-01-27T09:26:57.917000Z</time>
      </trkpt>
      <trkpt lat="37.83073873565416" lon="112.0062217827045">
        <ele>1160.74</ele>
        <time>2019-01-27T09:27:07.017000Z</time>
      </trkpt>
      <trkpt lat="37.8310814088012" lon="112.00619503583422">
        <ele>1158.08</ele>
        <time>2019-01-27T09:27:19.017000Z</time>
      </trkpt>
      <trkpt lat="37.83127434541224" lon="112.00616914370443">
        <ele>1156.99</ele>
        <time>2019-01-27T09:27:24.917000Z</time>
      </trkpt>
      <trkpt lat="37.8315615561771" lon="112.0061499234542">
        <ele>1158.06</ele>
        <time>2019-01-27T09:27:34.017000Z</time>
      </trkpt>
      <trkpt lat="37.831835054565914" lon="112.0061515000256">
        <ele>1158.35</ele>
        <time>2019-01-27T09:27:43.017000Z</time>
      </trkpt>
      <trkpt lat="37.83201756296222" lon="112.00613535319802">
        <ele>1157.79</ele>
        <time>2019-01-27T09:27:49.017000Z</time>
      </trkpt>
      <trkpt lat="37.83229576552738" lon="112.00615082575827">
        <ele>1156.38</ele>
        <time>2019-01-27T09:27:58.017000Z</time>
      </trkpt>
      <trkpt lat="37.832568223319925" lon="112.00624869385778">
        <ele>1157.09</ele>
        <time>2019-01-27T09:28:07.017000Z</time>
      </trkpt>
      <trkpt lat="37.83285852159976" lon="112.00635850014464">
        <ele>1159.85</ele>
        <time>2019-01-27T09:28:16.017000Z</time>
      </trkpt>
      <trkpt lat="37.83319025078028" lon="112.00650330660172">
        <ele>1159.19</ele>
        <time>2019-01-27T09:28:28.017000Z</time>
      </trkpt>
      <trkpt lat="37.83354097632507" lon="112.006630854289">
        <ele>1160.18</ele>
        <time>2019-01-27T09:28:40.017000Z</time>
      </trkpt>
      <trkpt lat="37.83383086027723" lon="112.00672527770186">
        <ele>1158.58</ele>
        <time>2019-01-27T09:28:49.017000Z</time>
      </trkpt>
      <trkpt lat="37.83411667434802" lon="112.00682149133175">
        <ele>1158.15</ele>
        <time>2019-01-27T09:28:57.917000Z</time>
      </trkpt>
      <trkpt lat="37.83442660884682" lon="112.00692648538332">
        <ele>1157.25</ele>
        <time>2019-01-27T09:29:07.017000Z</time>
      </trkpt>
      <trkpt lat="37.834667932125434" lon="112.00700182815928">
        <ele>1158.67</ele>
        <time>2019-01-27T09:29:16.017000Z</time>
      </trkpt>
      <trkpt lat="37.83477773160038" lon="112.00698733615484">
        <ele>1160.88</ele>
        <time>2019-01-27T09:29:19.017000Z</time>
      </trkpt>
      <trkpt lat="37.83496300816786" lon="112.00690089864074">
        <ele>1157.03</ele>
        <time>2019-01-27T09:29:24.917000Z</time>
      </trkpt>
      <trkpt lat="37.83512106800524" lon="112.00689425671418">
        <ele>1156.43</ele>
        <time>2019-01-27T09:29:30.917000Z</time>
      </trkpt>
      <trkpt lat="37.8352047789898" lon="112.00691686743188">
        <ele>1153.79</ele>
        <time>2019-01-27T09:29:34.017000Z</time>
      </trkpt>
      <trkpt lat="37.835299191694176" lon="112.0069808908232">
        <ele>1153.93</ele>
        <time>2019-01-27T09:29:36.917000Z</time>
      </trkpt>
      <trkpt lat="37.835369413610415" lon="112.00703375371594">
        <ele>1153.97</ele>
        <time>2019-01-27T09:29:40.017000Z</time>
      </trkpt>
      <trkpt lat="37.83545910978286" lon="112.00722062973453">
        <ele>1153.96</ele>
        <time>2019-01-27T09:29:46.017000Z</time>
      </trkpt>
      <trkpt lat="37.835510308263046" lon="112.00728550331193">
        <ele>1153.13</ele>
        <time>2019-01-27T09:29:48.917000Z</time>
      </trkpt>
      <trkpt lat="37.83556041469709" lon="112.0073422686668">
        <ele>1152.56</ele>
        <time>2019-01-27T09:29:52.017000Z</time>
      </trkpt>
      <trkpt lat="37.8356248882535" lon="112.007396572123">
        <ele>1152.69</ele>
        <time>2019-01-27T09:29:55.017000Z</time>
      </trkpt>
      <trkpt lat="37.83587641646426" lon="112.00743659868624">
        <ele>1154.98</ele>
        <time>2019-01-27T09:30:04.017000Z</time>
      </trkpt>
      <trkpt lat="37.83595242369391" lon="112.00745868644164">
        <ele>1155.79</ele>
        <time>2019-01-27T09:30:07.017000Z</time>
      </trkpt>
      <trkpt lat="37.83604552571428" lon="112.00745978682293">
        <ele>1154.13</ele>
        <time>2019-01-27T09:30:10.017000Z</time>
      </trkpt>
      <trkpt lat="37.83626148515041" lon="112.00749128024603">
        <ele>1155.18</ele>
        <time>2019-01-27T09:30:16.017000Z</time>
      </trkpt>
      <trkpt lat="37.836523700417246" lon="112.00757853095173">
        <ele>1155.08</ele>
        <time>2019-01-27T09:30:24.917000Z</time>
      </trkpt>
      <trkpt lat="37.83684972696329" lon="112.00770364370545">
        <ele>1151.11</ele>
        <time>2019-01-27T09:30:37.017000Z</time>
      </trkpt>
      <trkpt lat="37.837175181566565" lon="112.00782821941928">
        <ele>1150.61</ele>
        <time>2019-01-27T09:30:48.917000Z</time>
      </trkpt>
      <trkpt lat="37.837512847832485" lon="112.00795599690056">
        <ele>1153.0</ele>
        <time>2019-01-27T09:31:01.017000Z</time>
      </trkpt>
      <trkpt lat="37.8378206470859" lon="112.00805080761172">
        <ele>1148.75</ele>
        <time>2019-01-27T09:31:10.017000Z</time>
      </trkpt>
      <trkpt lat="37.83810078121122" lon="112.00815458074491">
        <ele>1148.44</ele>
        <time>2019-01-27T09:31:18.917000Z</time>
      </trkpt>
      <trkpt lat="37.838400332818935" lon="112.00823672635143">
        <ele>1145.73</ele>
        <time>2019-01-27T09:31:27.917000Z</time>
      </trkpt>
      <trkpt lat="37.838693645838" lon="112.00822376755569">
        <ele>1145.58</ele>
        <time>2019-01-27T09:31:36.917000Z</time>
      </trkpt>
      <trkpt lat="37.83897928450948" lon="112.00817860016916">
        <ele>1143.26</ele>
        <time>2019-01-27T09:31:46.017000Z</time>
      </trkpt>
      <trkpt lat="37.83932428100111" lon="112.00809710848964">
        <ele>1139.88</ele>
        <time>2019-01-27T09:31:58.017000Z</time>
      </trkpt>
      <trkpt lat="37.83968243672058" lon="112.00806851244789">
        <ele>1141.25</ele>
        <time>2019-01-27T09:32:10.017000Z</time>
      </trkpt>
      <trkpt lat="37.839900661144846" lon="112.00804181259683">
        <ele>1138.22</ele>
        <time>2019-01-27T09:32:15.917000Z</time>
      </trkpt>
      <trkpt lat="37.84011350309086" lon="112.00800497044541">
        <ele>1135.88</ele>
        <time>2019-01-27T09:32:22.017000Z</time>
      </trkpt>
      <trkpt lat="37.84020670585867" lon="112.00800172754985">
        <ele>1135.76</ele>
        <time>2019-01-27T09:32:24.917000Z</time>
      </trkpt>
      <trkpt lat="37.84048677519542" lon="112.0080669647648">
        <ele>1129.42</ele>
        <time>2019-01-27T09:32:34.017000Z</time>
      </trkpt>
      <trkpt lat="37.84078450931633" lon="112.00813520052978">
        <ele>1127.67</ele>
        <time>2019-01-27T09:32:42.917000Z</time>
      </trkpt>
      <trkpt lat="37.84097021361471" lon="112.00818552776236">
        <ele>1128.22</ele>
        <time>2019-01-27T09:32:49.017000Z</time>
      </trkpt>
      <trkpt lat="37.841193396525405" lon="112.00820716024674">
        <ele>1129.27</ele>
        <time>2019-01-27T09:32:55.017000Z</time>
      </trkpt>
      <trkpt lat="37.84140871495789" lon="112.00817518855011">
        <ele>1131.73</ele>
        <time>2019-01-27T09:33:01.017000Z</time>
      </trkpt>
      <trkpt lat="37.84168161042081" lon="112.00806810756346">
        <ele>1134.21</ele>
        <time>2019-01-27T09:33:09.917000Z</time>
      </trkpt>
      <trkpt lat="37.84193235455548" lon="112.00789838607038">
        <ele>1134.74</ele>
        <time>2019-01-27T09:33:19.017000Z</time>
      </trkpt>
      <trkpt lat="37.84221955165782" lon="112.00766540234112">
        <ele>1133.04</ele>
        <time>2019-01-27T09:33:31.017000Z</time>
      </trkpt>
      <trkpt lat="37.84245713287888" lon="112.007507642285">
        <ele>1131.63</ele>
        <time>2019-01-27T09:33:39.917000Z</time>
      </trkpt>
      <trkpt lat="37.842704571023134" lon="112.00735904249115">
        <ele>1129.79</ele>
        <time>2019-01-27T09:33:49.017000Z</time>
      </trkpt>
      <trkpt lat="37.84294662375255" lon="112.00717794837313">
        <ele>1131.4</ele>
        <time>2019-01-27T09:33:58.017000Z</time>
      </trkpt>
      <trkpt lat="37.84319026924327" lon="112.00697368682049">
        <ele>1130.95</ele>
        <time>2019-01-27T09:34:07.017000Z</time>
      </trkpt>
      <trkpt lat="37.84342669532023" lon="112.00676334091169">
        <ele>1133.74</ele>
        <time>2019-01-27T09:34:15.917000Z</time>
      </trkpt>
      <trkpt lat="37.843665294352554" lon="112.00656255989574">
        <ele>1133.32</ele>
        <time>2019-01-27T09:34:25.017000Z</time>
      </trkpt>
      <trkpt lat="37.843916303697156" lon="112.00637758048545">
        <ele>1133.43</ele>
        <time>2019-01-27T09:34:33.917000Z</time>
      </trkpt>
      <trkpt lat="37.84420800931514" lon="112.00625623015031">
        <ele>1134.41</ele>
        <time>2019-01-27T09:34:43.017000Z</time>
      </trkpt>
      <trkpt lat="37.8444860057657" lon="112.00615555131259">
        <ele>1132.07</ele>
        <time>2019-01-27T09:34:52.017000Z</time>
      </trkpt>
      <trkpt lat="37.84457142500578" lon="112.00613330914295">
        <ele>1131.58</ele>
        <time>2019-01-27T09:34:55.017000Z</time>
      </trkpt>
      <trkpt lat="37.84484193745965" lon="112.00619460035513">
        <ele>1130.74</ele>
        <time>2019-01-27T09:35:04.017000Z</time>
      </trkpt>
      <trkpt lat="37.845125799535886" lon="112.00624500079121">
        <ele>1130.94</ele>
        <time>2019-01-27T09:35:12.917000Z</time>
      </trkpt>
      <trkpt lat="37.845465773507044" lon="112.00634411375925">
        <ele>1131.43</ele>
        <time>2019-01-27T09:35:25.017000Z</time>
      </trkpt>
      <trkpt lat="37.84577668864096" lon="112.00647250892666">
        <ele>1130.42</ele>
        <time>2019-01-27T09:35:37.017000Z</time>
      </trkpt>
      <trkpt lat="37.84605628234302" lon="112.00656267204413">
        <ele>1129.68</ele>
        <time>2019-01-27T09:35:46.017000Z</time>
      </trkpt>
      <trkpt lat="37.84640449437285" lon="112.00660816168127">
        <ele>1127.47</ele>
        <time>2019-01-27T09:35:58.017000Z</time>
      </trkpt>
      <trkpt lat="37.846678215552544" lon="112.00663320071214">
        <ele>1127.46</ele>
        <time>2019-01-27T09:36:07.017000Z</time>
      </trkpt>
      <trkpt lat="37.84695148667833" lon="112.00665679965788">
        <ele>1125.22</ele>
        <time>2019-01-27T09:36:16.017000Z</time>
      </trkpt>
      <trkpt lat="37.84729328883881" lon="112.0067050795653">
        <ele>1125.28</ele>
        <time>2019-01-27T09:36:28.017000Z</time>
      </trkpt>
      <trkpt lat="37.84747633036768" lon="112.00674008011978">
        <ele>1124.44</ele>
        <time>2019-01-27T09:36:34.017000Z</time>
      </trkpt>
      <trkpt lat="37.847756513413294" lon="112.00681077211105">
        <ele>1124.74</ele>
        <time>2019-01-27T09:36:43.017000Z</time>
      </trkpt>
      <trkpt lat="37.84810016574574" lon="112.00686223226126">
        <ele>1122.66</ele>
        <time>2019-01-27T09:36:54.917000Z</time>
      </trkpt>
      <trkpt lat="37.84825992018012" lon="112.0069674877595">
        <ele>1121.8</ele>
        <time>2019-01-27T09:37:01.017000Z</time>
      </trkpt>
      <trkpt lat="37.848460291336124" lon="112.00722934363078">
        <ele>1121.32</ele>
        <time>2019-01-27T09:37:10.017000Z</time>
      </trkpt>
      <trkpt lat="37.84865095335886" lon="112.00750248086003">
        <ele>1120.71</ele>
        <time>2019-01-27T09:37:19.017000Z</time>
      </trkpt>
      <trkpt lat="37.84889595928645" lon="112.00785087356091">
        <ele>1120.41</ele>
        <time>2019-01-27T09:37:31.017000Z</time>
      </trkpt>
      <trkpt lat="37.84908709317904" lon="112.0081437734295">
        <ele>1120.98</ele>
        <time>2019-01-27T09:37:39.917000Z</time>
      </trkpt>
      <trkpt lat="37.84930275014632" lon="112.00848897769073">
        <ele>1120.09</ele>
        <time>2019-01-27T09:37:52.017000Z</time>
      </trkpt>
      <trkpt lat="37.84951289385524" lon="112.00875811677413">
        <ele>1119.22</ele>
        <time>2019-01-27T09:38:01.017000Z</time>
      </trkpt>
      <trkpt lat="37.849690389880415" lon="112.0090641696581">
        <ele>1120.88</ele>
        <time>2019-01-27T09:38:10.017000Z</time>
      </trkpt>
      <trkpt lat="37.84982327180129" lon="112.0093309171635">
        <ele>1120.5</ele>
        <time>2019-01-27T09:38:19.017000Z</time>
      </trkpt>
      <trkpt lat="37.84987276325232" lon="112.00976887435904">
        <ele>1121.42</ele>
        <time>2019-01-27T09:38:31.017000Z</time>
      </trkpt>
      <trkpt lat="37.84987301439771" lon="112.01015948482896">
        <ele>1121.77</ele>
        <time>2019-01-27T09:38:40.017000Z</time>
      </trkpt>
      <trkpt lat="37.849856315983324" lon="112.01060589163086">
        <ele>1116.02</ele>
        <time>2019-01-27T09:38:51.917000Z</time>
      </trkpt>
      <trkpt lat="37.84983729974675" lon="112.01095886456193">
        <ele>1114.07</ele>
        <time>2019-01-27T09:39:01.017000Z</time>
      </trkpt>
      <trkpt lat="37.849820308162315" lon="112.01109172730122">
        <ele>1114.31</ele>
        <time>2019-01-27T09:39:04.017000Z</time>
      </trkpt>
      <trkpt lat="37.84982218283383" lon="112.01147231397869">
        <ele>1114.5</ele>
        <time>2019-01-27T09:39:12.917000Z</time>
      </trkpt>
      <trkpt lat="37.849812447306675" lon="112.01183855031084">
        <ele>1112.07</ele>
        <time>2019-01-27T09:39:21.917000Z</time>
      </trkpt>
      <trkpt lat="37.84976528559608" lon="112.01224938249233">
        <ele>1110.52</ele>
        <time>2019-01-27T09:39:31.017000Z</time>
      </trkpt>
      <trkpt lat="37.84971935479797" lon="112.01266022580627">
        <ele>1110.72</ele>
        <time>2019-01-27T09:39:40.017000Z</time>
      </trkpt>
      <trkpt lat="37.84968555349513" lon="112.0130519480727">
        <ele>1109.37</ele>
        <time>2019-01-27T09:39:48.917000Z</time>
      </trkpt>
      <trkpt lat="37.849663239310786" lon="112.0133950058704">
        <ele>1111.47</ele>
        <time>2019-01-27T09:39:58.017000Z</time>
      </trkpt>
      <trkpt lat="37.849645086221315" lon="112.01374394508723">
        <ele>1112.38</ele>
        <time>2019-01-27T09:40:07.017000Z</time>
      </trkpt>
      <trkpt lat="37.849614175637335" lon="112.01411613793034">
        <ele>1110.11</ele>
        <time>2019-01-27T09:40:16.017000Z</time>
      </trkpt>
      <trkpt lat="37.84957429711615" lon="112.01450448369788">
        <ele>1108.71</ele>
        <time>2019-01-27T09:40:25.017000Z</time>
      </trkpt>
      <trkpt lat="37.84951636319987" lon="112.01493799611093">
        <ele>1108.82</ele>
        <time>2019-01-27T09:40:33.917000Z</time>
      </trkpt>
      <trkpt lat="37.849489569042525" lon="112.01535689767759">
        <ele>1107.33</ele>
        <time>2019-01-27T09:40:43.017000Z</time>
      </trkpt>
      <trkpt lat="37.84943288457757" lon="112.01576205896004">
        <ele>1109.17</ele>
        <time>2019-01-27T09:40:52.017000Z</time>
      </trkpt>
      <trkpt lat="37.84937435308544" lon="112.01619027433821">
        <ele>1109.73</ele>
        <time>2019-01-27T09:41:01.017000Z</time>
      </trkpt>
      <trkpt lat="37.849331141745424" lon="112.01660956961274">
        <ele>1110.49</ele>
        <time>2019-01-27T09:41:09.917000Z</time>
      </trkpt>
      <trkpt lat="37.84930405398404" lon="112.01695166549861">
        <ele>1108.57</ele>
        <time>2019-01-27T09:41:19.017000Z</time>
      </trkpt>
      <trkpt lat="37.84922455204132" lon="112.0173476700398">
        <ele>1109.28</ele>
        <time>2019-01-27T09:41:27.917000Z</time>
      </trkpt>
      <trkpt lat="37.8491894712786" lon="112.0177468856479">
        <ele>1108.44</ele>
        <time>2019-01-27T09:41:37.017000Z</time>
      </trkpt>
      <trkpt lat="37.849165152292116" lon="112.01815524350909">
        <ele>1110.89</ele>
        <time>2019-01-27T09:41:46.017000Z</time>
      </trkpt>
      <trkpt lat="37.849117589411165" lon="112.01861412003059">
        <ele>1110.37</ele>
        <time>2019-01-27T09:41:58.017000Z</time>
      </trkpt>
      <trkpt lat="37.8490831050398" lon="112.01904849417535">
        <ele>1112.32</ele>
        <time>2019-01-27T09:42:07.017000Z</time>
      </trkpt>
      <trkpt lat="37.84908702370729" lon="112.01931653413637">
        <ele>1111.56</ele>
        <time>2019-01-27T09:42:13.017000Z</time>
      </trkpt>
      <trkpt lat="37.84907033688981" lon="112.01971398446827">
        <ele>1110.78</ele>
        <time>2019-01-27T09:42:21.917000Z</time>
      </trkpt>
      <trkpt lat="37.84907970393081" lon="112.02004886588146">
        <ele>1107.69</ele>
        <time>2019-01-27T09:42:30.917000Z</time>
      </trkpt>
      <trkpt lat="37.84904872521234" lon="112.02041629352122">
        <ele>1106.48</ele>
        <time>2019-01-27T09:42:39.917000Z</time>
      </trkpt>
      <trkpt lat="37.84898892115731" lon="112.02081825782801">
        <ele>1105.15</ele>
        <time>2019-01-27T09:42:49.017000Z</time>
      </trkpt>
      <trkpt lat="37.8490111491909" lon="112.02097377256">
        <ele>1105.15</ele>
        <time>2019-01-27T09:42:52.017000Z</time>
      </trkpt>
      <trkpt lat="37.84905579938775" lon="112.02114655003238">
        <ele>1104.64</ele>
        <time>2019-01-27T09:42:55.017000Z</time>
      </trkpt>
      <trkpt lat="37.849031872354345" lon="112.02140399764478">
        <ele>1101.96</ele>
        <time>2019-01-27T09:43:00.917000Z</time>
      </trkpt>
      <trkpt lat="37.84905752401356" lon="112.02166464808897">
        <ele>1101.76</ele>
        <time>2019-01-27T09:43:07.017000Z</time>
      </trkpt>
      <trkpt lat="37.84906478970819" lon="112.02179579216062">
        <ele>1102.56</ele>
        <time>2019-01-27T09:43:10.017000Z</time>
      </trkpt>
      <trkpt lat="37.84902802391627" lon="112.02222066545815">
        <ele>1104.66</ele>
        <time>2019-01-27T09:43:19.017000Z</time>
      </trkpt>
      <trkpt lat="37.84900199823501" lon="112.02262678409265">
        <ele>1103.25</ele>
        <time>2019-01-27T09:43:28.017000Z</time>
      </trkpt>
      <trkpt lat="37.84898631750419" lon="112.0227593973549">
        <ele>1103.29</ele>
        <time>2019-01-27T09:43:31.017000Z</time>
      </trkpt>
      <trkpt lat="37.84899859566422" lon="112.0230195444006">
        <ele>1103.42</ele>
        <time>2019-01-27T09:43:37.017000Z</time>
      </trkpt>
      <trkpt lat="37.84905889354458" lon="112.02321464478733">
        <ele>1101.89</ele>
        <time>2019-01-27T09:43:43.017000Z</time>
      </trkpt>
      <trkpt lat="37.84907488337439" lon="112.02332184345303">
        <ele>1100.9</ele>
        <time>2019-01-27T09:43:46.017000Z</time>
      </trkpt>
      <trkpt lat="37.84904173092066" lon="112.02370820816985">
        <ele>1104.26</ele>
        <time>2019-01-27T09:43:58.017000Z</time>
      </trkpt>
      <trkpt lat="37.84901784075135" lon="112.02408745978897">
        <ele>1106.53</ele>
        <time>2019-01-27T09:44:06.917000Z</time>
      </trkpt>
      <trkpt lat="37.849000616920655" lon="112.02436304511023">
        <ele>1106.1</ele>
        <time>2019-01-27T09:44:13.017000Z</time>
      </trkpt>
      <trkpt lat="37.849006199394175" lon="112.02450936098752">
        <ele>1106.5</ele>
        <time>2019-01-27T09:44:15.917000Z</time>
      </trkpt>
      <trkpt lat="37.84902673911366" lon="112.02464313317766">
        <ele>1102.51</ele>
        <time>2019-01-27T09:44:19.017000Z</time>
      </trkpt>
      <trkpt lat="37.84900810340937" lon="112.02505209355881">
        <ele>1100.96</ele>
        <time>2019-01-27T09:44:28.017000Z</time>
      </trkpt>
      <trkpt lat="37.849000335615976" lon="112.02519662749681">
        <ele>1101.44</ele>
        <time>2019-01-27T09:44:31.017000Z</time>
      </trkpt>
      <trkpt lat="37.849018859653725" lon="112.02545411287691">
        <ele>1107.56</ele>
        <time>2019-01-27T09:44:37.017000Z</time>
      </trkpt>
      <trkpt lat="37.849005826752666" lon="112.02556686908962">
        <ele>1105.22</ele>
        <time>2019-01-27T09:44:40.017000Z</time>
      </trkpt>
      <trkpt lat="37.84900103104229" lon="112.02580276224563">
        <ele>1104.17</ele>
        <time>2019-01-27T09:44:46.017000Z</time>
      </trkpt>
      <trkpt lat="37.848935137052074" lon="112.02606776899614">
        <ele>1104.77</ele>
        <time>2019-01-27T09:44:57.917000Z</time>
      </trkpt>
      <trkpt lat="37.848907219317276" lon="112.02615881106544">
        <ele>1106.59</ele>
        <time>2019-01-27T09:45:03.917000Z</time>
      </trkpt>
      <trkpt lat="37.848874241768705" lon="112.02623225319486">
        <ele>1110.88</ele>
        <time>2019-01-27T09:45:10.017000Z</time>
      </trkpt>
      <trkpt lat="37.848852817373576" lon="112.02637445337761">
        <ele>1102.32</ele>
        <time>2019-01-27T09:45:22.017000Z</time>
      </trkpt>
      <trkpt lat="37.84882227875137" lon="112.02650735855362">
        <ele>1102.25</ele>
        <time>2019-01-27T09:45:27.917000Z</time>
      </trkpt>
      <trkpt lat="37.8488649901255" lon="112.02657399498045">
        <ele>1100.56</ele>
        <time>2019-01-27T09:45:34.017000Z</time>
      </trkpt>
      <trkpt lat="37.848874349933844" lon="112.0267793553429">
        <ele>1104.56</ele>
        <time>2019-01-27T09:45:46.017000Z</time>
      </trkpt>
      <trkpt lat="37.848912440344" lon="112.02691898263534">
        <ele>1106.84</ele>
        <time>2019-01-27T09:45:55.017000Z</time>
      </trkpt>
      <trkpt lat="37.84890259502826" lon="112.02708726621415">
        <ele>1099.65</ele>
        <time>2019-01-27T09:46:07.017000Z</time>
      </trkpt>
      <trkpt lat="37.848852189567445" lon="112.0272573384778">
        <ele>1099.98</ele>
        <time>2019-01-27T09:46:16.017000Z</time>
      </trkpt>
      <trkpt lat="37.848862843156134" lon="112.02747994540275">
        <ele>1102.31</ele>
        <time>2019-01-27T09:46:31.017000Z</time>
      </trkpt>
      <trkpt lat="37.848846780337766" lon="112.02759506883946">
        <ele>1101.57</ele>
        <time>2019-01-27T09:46:37.017000Z</time>
      </trkpt>
      <trkpt lat="37.84881811343648" lon="112.0280140345348">
        <ele>1099.33</ele>
        <time>2019-01-27T09:47:01.017000Z</time>
      </trkpt>
      <trkpt lat="37.84881413865978" lon="112.02804847164144">
        <ele>1097.05</ele>
        <time>2019-01-27T09:47:04.017000Z</time>
      </trkpt>
    </trkseg>
  </trk>
</gpx>