<?xml version="1.0" encoding="UTF-8"?>
<gpx xmlns="http://www.topografix.com/GPX/1/1" xmlns:gpxtpx="http://www.garmin.com/xmlschemas/TrackPointExtension/v1" xmlns:xsi="http://www.w3.org/2001/XMLSchema-instance" xsi:schemaLocation="http://www.topografix.com/GPX/1/1 http://www.topografix.com/GPX/1/1/gpx.xsd" version="1.1" creator="gpx.py -- https://github.com/tkrajina/gpxpy">
  <trk>
    <name>gpx from keep</name>
    <type>Run</type>
    <trkseg>
      <trkpt lat="37.84849209863547" lon="112.0264032388843">
        <ele>1165.0</ele>
        <time>2018-12-10T08:30:55.410000Z</time>
      </trkpt>
      <trkpt lat="37.84855062513984" lon="112.02643270968076">
        <ele>1147.0</ele>
        <time>2018-12-10T08:31:02.410000Z</time>
      </trkpt>
      <trkpt lat="37.8485804414351" lon="112.02647164215315">
        <ele>1127.0</ele>
        <time>2018-12-10T08:31:06.410000Z</time>
      </trkpt>
      <trkpt lat="37.84863913368557" lon="112.02652304914852">
        <ele>1107.0</ele>
        <time>2018-12-10T08:31:17.510000Z</time>
      </trkpt>
      <trkpt lat="37.84869250431274" lon="112.02655710936435">
        <ele>1106.0</ele>
        <time>2018-12-10T08:31:23.410000Z</time>
      </trkpt>
      <trkpt lat="37.848729672078306" lon="112.02652250009992">
        <ele>1105.0</ele>
        <time>2018-12-10T08:31:26.410000Z</time>
      </trkpt>
      <trkpt lat="37.848822960752955" lon="112.02628652161172">
        <ele>1118.0</ele>
        <time>2018-12-10T08:31:35.410000Z</time>
      </trkpt>
      <trkpt lat="37.84887447143956" lon="112.0261862027466">
        <ele>1113.0</ele>
        <time>2018-12-10T08:31:38.410000Z</time>
      </trkpt>
      <trkpt lat="37.849020625458685" lon="112.02590892786033">
        <ele>1112.0</ele>
        <time>2018-12-10T08:31:47.510000Z</time>
      </trkpt>
      <trkpt lat="37.84909910238832" lon="112.02568034500908">
        <ele>1109.0</ele>
        <time>2018-12-10T08:31:53.510000Z</time>
      </trkpt>
      <trkpt lat="37.84913613314712" lon="112.02536126367633">
        <ele>1110.0</ele>
        <time>2018-12-10T08:31:59.510000Z</time>
      </trkpt>
      <trkpt lat="37.84916143475879" lon="112.02520784249096">
        <ele>1112.0</ele>
        <time>2018-12-10T08:32:02.510000Z</time>
      </trkpt>
      <trkpt lat="37.84915035515205" lon="112.02505602257686">
        <ele>1114.0</ele>
        <time>2018-12-10T08:32:05.510000Z</time>
      </trkpt>
      <trkpt lat="37.84914935316006" lon="112.02475727869928">
        <ele>1115.0</ele>
        <time>2018-12-10T08:32:11.510000Z</time>
      </trkpt>
      <trkpt lat="37.84909316432113" lon="112.02445701685897">
        <ele>1115.0</ele>
        <time>2018-12-10T08:32:17.510000Z</time>
      </trkpt>
      <trkpt lat="37.84910813082827" lon="112.02431404694713">
        <ele>1115.0</ele>
        <time>2018-12-10T08:32:20.510000Z</time>
      </trkpt>
      <trkpt lat="37.84914171363932" lon="112.02417839026516">
        <ele>1113.0</ele>
        <time>2018-12-10T08:32:23.510000Z</time>
      </trkpt>
      <trkpt lat="37.84914995401545" lon="112.02401377338285">
        <ele>1114.0</ele>
        <time>2018-12-10T08:32:26.610000Z</time>
      </trkpt>
      <trkpt lat="37.849129883334186" lon="112.02388188018266">
        <ele>1113.0</ele>
        <time>2018-12-10T08:32:29.510000Z</time>
      </trkpt>
      <trkpt lat="37.84908945939067" lon="112.02373720160287">
        <ele>1112.0</ele>
        <time>2018-12-10T08:32:32.610000Z</time>
      </trkpt>
      <trkpt lat="37.8490804274978" lon="112.02337024900687">
        <ele>1111.0</ele>
        <time>2018-12-10T08:32:41.510000Z</time>
      </trkpt>
      <trkpt lat="37.849089551036286" lon="112.02312229676663">
        <ele>1109.0</ele>
        <time>2018-12-10T08:32:47.510000Z</time>
      </trkpt>
      <trkpt lat="37.84903879271744" lon="112.02284275079934">
        <ele>1104.0</ele>
        <time>2018-12-10T08:32:53.510000Z</time>
      </trkpt>
      <trkpt lat="37.84909424064222" lon="112.02248600179054">
        <ele>1108.0</ele>
        <time>2018-12-10T08:33:02.510000Z</time>
      </trkpt>
      <trkpt lat="37.849110014517734" lon="112.0221001901361">
        <ele>1108.0</ele>
        <time>2018-12-10T08:33:11.510000Z</time>
      </trkpt>
      <trkpt lat="37.84910808122682" lon="112.02174003980753">
        <ele>1109.0</ele>
        <time>2018-12-10T08:33:20.510000Z</time>
      </trkpt>
      <trkpt lat="37.84910236754549" lon="112.02134358319091">
        <ele>1107.0</ele>
        <time>2018-12-10T08:33:29.510000Z</time>
      </trkpt>
      <trkpt lat="37.849087404964024" lon="112.0209384121072">
        <ele>1104.0</ele>
        <time>2018-12-10T08:33:38.510000Z</time>
      </trkpt>
      <trkpt lat="37.849108071773855" lon="112.0208109566234">
        <ele>1105.0</ele>
        <time>2018-12-10T08:33:41.510000Z</time>
      </trkpt>
      <trkpt lat="37.84909527870505" lon="112.02058040764408">
        <ele>1105.0</ele>
        <time>2018-12-10T08:33:47.510000Z</time>
      </trkpt>
      <trkpt lat="37.84911599669396" lon="112.02045689012864">
        <ele>1105.0</ele>
        <time>2018-12-10T08:33:50.510000Z</time>
      </trkpt>
      <trkpt lat="37.84910845956696" lon="112.02032223127466">
        <ele>1106.0</ele>
        <time>2018-12-10T08:33:53.510000Z</time>
      </trkpt>
      <trkpt lat="37.849071008461145" lon="112.02022077451339">
        <ele>1108.0</ele>
        <time>2018-12-10T08:33:56.510000Z</time>
      </trkpt>
      <trkpt lat="37.8490738370056" lon="112.02008716814072">
        <ele>1110.0</ele>
        <time>2018-12-10T08:33:59.510000Z</time>
      </trkpt>
      <trkpt lat="37.849033702862066" lon="112.01995274125622">
        <ele>1106.0</ele>
        <time>2018-12-10T08:34:02.510000Z</time>
      </trkpt>
      <trkpt lat="37.84902890571904" lon="112.01956077657752">
        <ele>1106.0</ele>
        <time>2018-12-10T08:34:11.510000Z</time>
      </trkpt>
      <trkpt lat="37.84903256861835" lon="112.01944953279607">
        <ele>1103.0</ele>
        <time>2018-12-10T08:34:14.510000Z</time>
      </trkpt>
      <trkpt lat="37.84902271180368" lon="112.01899641082294">
        <ele>1099.0</ele>
        <time>2018-12-10T08:34:26.510000Z</time>
      </trkpt>
      <trkpt lat="37.8490588368016" lon="112.01877715487316">
        <ele>1102.0</ele>
        <time>2018-12-10T08:34:32.510000Z</time>
      </trkpt>
      <trkpt lat="37.84915666144202" lon="112.01852785588359">
        <ele>1107.0</ele>
        <time>2018-12-10T08:34:38.510000Z</time>
      </trkpt>
      <trkpt lat="37.84916890711582" lon="112.01841754126157">
        <ele>1107.0</ele>
        <time>2018-12-10T08:34:41.510000Z</time>
      </trkpt>
      <trkpt lat="37.849104883422015" lon="112.01831832143995">
        <ele>1108.0</ele>
        <time>2018-12-10T08:34:47.510000Z</time>
      </trkpt>
      <trkpt lat="37.849146991260945" lon="112.01820178524396">
        <ele>1111.0</ele>
        <time>2018-12-10T08:34:50.510000Z</time>
      </trkpt>
      <trkpt lat="37.849155732556184" lon="112.01808363115906">
        <ele>1111.0</ele>
        <time>2018-12-10T08:34:53.510000Z</time>
      </trkpt>
      <trkpt lat="37.84918847925174" lon="112.01801603412417">
        <ele>1109.0</ele>
        <time>2018-12-10T08:34:56.510000Z</time>
      </trkpt>
      <trkpt lat="37.84921557312584" lon="112.01764237825327">
        <ele>1109.0</ele>
        <time>2018-12-10T08:35:05.510000Z</time>
      </trkpt>
      <trkpt lat="37.849270283425646" lon="112.0172900815875">
        <ele>1111.0</ele>
        <time>2018-12-10T08:35:14.510000Z</time>
      </trkpt>
      <trkpt lat="37.84932058149107" lon="112.0168677640654">
        <ele>1110.0</ele>
        <time>2018-12-10T08:35:26.510000Z</time>
      </trkpt>
      <trkpt lat="37.84933629853408" lon="112.01649060546171">
        <ele>1108.0</ele>
        <time>2018-12-10T08:35:35.510000Z</time>
      </trkpt>
      <trkpt lat="37.84939530772685" lon="112.01615589156263">
        <ele>1110.0</ele>
        <time>2018-12-10T08:35:44.510000Z</time>
      </trkpt>
      <trkpt lat="37.84943923622811" lon="112.01578225062781">
        <ele>1107.0</ele>
        <time>2018-12-10T08:35:53.510000Z</time>
      </trkpt>
      <trkpt lat="37.84946792911731" lon="112.0154242953736">
        <ele>1105.0</ele>
        <time>2018-12-10T08:36:02.510000Z</time>
      </trkpt>
      <trkpt lat="37.849511825501715" lon="112.01506363771216">
        <ele>1108.0</ele>
        <time>2018-12-10T08:36:11.610000Z</time>
      </trkpt>
      <trkpt lat="37.849548530370015" lon="112.0146570242361">
        <ele>1109.0</ele>
        <time>2018-12-10T08:36:20.510000Z</time>
      </trkpt>
      <trkpt lat="37.84960058260894" lon="112.01429231657764">
        <ele>1110.0</ele>
        <time>2018-12-10T08:36:29.510000Z</time>
      </trkpt>
      <trkpt lat="37.84963250094608" lon="112.0139481605564">
        <ele>1109.0</ele>
        <time>2018-12-10T08:36:38.510000Z</time>
      </trkpt>
      <trkpt lat="37.84966095421468" lon="112.01358319098733">
        <ele>1111.0</ele>
        <time>2018-12-10T08:36:47.510000Z</time>
      </trkpt>
      <trkpt lat="37.84972169940766" lon="112.0131230600199">
        <ele>1111.0</ele>
        <time>2018-12-10T08:36:59.510000Z</time>
      </trkpt>
      <trkpt lat="37.849750870382216" lon="112.01288677850289">
        <ele>1112.0</ele>
        <time>2018-12-10T08:37:05.510000Z</time>
      </trkpt>
      <trkpt lat="37.84974207069755" lon="112.01273998497274">
        <ele>1110.0</ele>
        <time>2018-12-10T08:37:08.610000Z</time>
      </trkpt>
      <trkpt lat="37.84975906464921" lon="112.0124931635693">
        <ele>1108.0</ele>
        <time>2018-12-10T08:37:14.510000Z</time>
      </trkpt>
      <trkpt lat="37.84975156220579" lon="112.01227365034788">
        <ele>1110.0</ele>
        <time>2018-12-10T08:37:20.510000Z</time>
      </trkpt>
      <trkpt lat="37.84981619470087" lon="112.01187949281821">
        <ele>1110.0</ele>
        <time>2018-12-10T08:37:29.510000Z</time>
      </trkpt>
      <trkpt lat="37.84981591665176" lon="112.01150913537127">
        <ele>1110.0</ele>
        <time>2018-12-10T08:37:38.510000Z</time>
      </trkpt>
      <trkpt lat="37.84985469378324" lon="112.01114418249873">
        <ele>1111.0</ele>
        <time>2018-12-10T08:37:47.510000Z</time>
      </trkpt>
      <trkpt lat="37.84986201570008" lon="112.0107740996268">
        <ele>1111.0</ele>
        <time>2018-12-10T08:37:56.510000Z</time>
      </trkpt>
      <trkpt lat="37.849841574299724" lon="112.01052783268581">
        <ele>1112.0</ele>
        <time>2018-12-10T08:38:02.510000Z</time>
      </trkpt>
      <trkpt lat="37.84988520688149" lon="112.01017423954023">
        <ele>1113.0</ele>
        <time>2018-12-10T08:38:11.510000Z</time>
      </trkpt>
      <trkpt lat="37.84991257201015" lon="112.00981740666526">
        <ele>1115.0</ele>
        <time>2018-12-10T08:38:20.510000Z</time>
      </trkpt>
      <trkpt lat="37.84989858013968" lon="112.00959330966728">
        <ele>1114.0</ele>
        <time>2018-12-10T08:38:26.610000Z</time>
      </trkpt>
      <trkpt lat="37.849824266317796" lon="112.00930812787561">
        <ele>1113.0</ele>
        <time>2018-12-10T08:38:32.510000Z</time>
      </trkpt>
      <trkpt lat="37.84977818659866" lon="112.00920135618482">
        <ele>1114.0</ele>
        <time>2018-12-10T08:38:35.510000Z</time>
      </trkpt>
      <trkpt lat="37.849749782162654" lon="112.0090810665113">
        <ele>1113.0</ele>
        <time>2018-12-10T08:38:38.510000Z</time>
      </trkpt>
      <trkpt lat="37.84966940980065" lon="112.00901079263193">
        <ele>1113.0</ele>
        <time>2018-12-10T08:38:41.510000Z</time>
      </trkpt>
      <trkpt lat="37.849610508638655" lon="112.00892781120328">
        <ele>1111.0</ele>
        <time>2018-12-10T08:38:44.510000Z</time>
      </trkpt>
      <trkpt lat="37.84961840616152" lon="112.00882589950251">
        <ele>1112.0</ele>
        <time>2018-12-10T08:38:47.510000Z</time>
      </trkpt>
      <trkpt lat="37.84945675721646" lon="112.00862426035128">
        <ele>1113.0</ele>
        <time>2018-12-10T08:38:53.510000Z</time>
      </trkpt>
      <trkpt lat="37.84925848623085" lon="112.00832936647518">
        <ele>1116.0</ele>
        <time>2018-12-10T08:39:02.510000Z</time>
      </trkpt>
      <trkpt lat="37.84907421807734" lon="112.00807042443161">
        <ele>1117.0</ele>
        <time>2018-12-10T08:39:11.510000Z</time>
      </trkpt>
      <trkpt lat="37.8490493448193" lon="112.00794932557902">
        <ele>1114.0</ele>
        <time>2018-12-10T08:39:14.510000Z</time>
      </trkpt>
      <trkpt lat="37.84882146162922" lon="112.00766849473676">
        <ele>1116.0</ele>
        <time>2018-12-10T08:39:23.510000Z</time>
      </trkpt>
      <trkpt lat="37.84875771515952" lon="112.00757308116641">
        <ele>1117.0</ele>
        <time>2018-12-10T08:39:26.610000Z</time>
      </trkpt>
      <trkpt lat="37.84871516562539" lon="112.00746604168673">
        <ele>1119.0</ele>
        <time>2018-12-10T08:39:29.510000Z</time>
      </trkpt>
      <trkpt lat="37.848491650773724" lon="112.00717656234377">
        <ele>1119.0</ele>
        <time>2018-12-10T08:39:38.510000Z</time>
      </trkpt>
      <trkpt lat="37.848278343007856" lon="112.00692195327011">
        <ele>1119.0</ele>
        <time>2018-12-10T08:39:47.610000Z</time>
      </trkpt>
      <trkpt lat="37.84819606532525" lon="112.00685438507936">
        <ele>1122.0</ele>
        <time>2018-12-10T08:39:50.510000Z</time>
      </trkpt>
      <trkpt lat="37.84792187380636" lon="112.00681927725344">
        <ele>1125.0</ele>
        <time>2018-12-10T08:39:59.510000Z</time>
      </trkpt>
      <trkpt lat="37.84762978382944" lon="112.00678146846293">
        <ele>1128.0</ele>
        <time>2018-12-10T08:40:08.510000Z</time>
      </trkpt>
      <trkpt lat="37.84735562221255" lon="112.00673635914308">
        <ele>1126.0</ele>
        <time>2018-12-10T08:40:17.610000Z</time>
      </trkpt>
      <trkpt lat="37.847077054488565" lon="112.00671314559345">
        <ele>1129.0</ele>
        <time>2018-12-10T08:40:26.510000Z</time>
      </trkpt>
      <trkpt lat="37.84690560011644" lon="112.00670830044218">
        <ele>1129.0</ele>
        <time>2018-12-10T08:40:32.610000Z</time>
      </trkpt>
      <trkpt lat="37.84684910530487" lon="112.00663802626588">
        <ele>1128.0</ele>
        <time>2018-12-10T08:40:35.510000Z</time>
      </trkpt>
      <trkpt lat="37.846528883752235" lon="112.00666293308821">
        <ele>1126.0</ele>
        <time>2018-12-10T08:40:44.510000Z</time>
      </trkpt>
      <trkpt lat="37.84643390463892" lon="112.00666970219781">
        <ele>1128.0</ele>
        <time>2018-12-10T08:40:47.510000Z</time>
      </trkpt>
      <trkpt lat="37.846371684987176" lon="112.00669971417017">
        <ele>1129.0</ele>
        <time>2018-12-10T08:40:50.510000Z</time>
      </trkpt>
      <trkpt lat="37.84626244228965" lon="112.00666756016138">
        <ele>1127.0</ele>
        <time>2018-12-10T08:40:56.510000Z</time>
      </trkpt>
      <trkpt lat="37.8461466382478" lon="112.00656107144209">
        <ele>1129.0</ele>
        <time>2018-12-10T08:41:09.510000Z</time>
      </trkpt>
      <trkpt lat="37.846051642239914" lon="112.00657351707092">
        <ele>1128.0</ele>
        <time>2018-12-10T08:41:18.810000Z</time>
      </trkpt>
      <trkpt lat="37.84567859011899" lon="112.00648219656057">
        <ele>1128.0</ele>
        <time>2018-12-10T08:41:47.510000Z</time>
      </trkpt>
      <trkpt lat="37.84547551598731" lon="112.00634490317783">
        <ele>1130.0</ele>
        <time>2018-12-10T08:42:05.510000Z</time>
      </trkpt>
      <trkpt lat="37.845413344618116" lon="112.00635869640342">
        <ele>1129.0</ele>
        <time>2018-12-10T08:42:11.510000Z</time>
      </trkpt>
      <trkpt lat="37.845238882961205" lon="112.00627059619126">
        <ele>1131.0</ele>
        <time>2018-12-10T08:42:26.510000Z</time>
      </trkpt>
      <trkpt lat="37.84518215151742" lon="112.00627979348792">
        <ele>1130.0</ele>
        <time>2018-12-10T08:42:32.510000Z</time>
      </trkpt>
      <trkpt lat="37.845060479528065" lon="112.00623061164121">
        <ele>1132.0</ele>
        <time>2018-12-10T08:42:44.510000Z</time>
      </trkpt>
      <trkpt lat="37.84487908606563" lon="112.00619251963487">
        <ele>1129.0</ele>
        <time>2018-12-10T08:43:05.510000Z</time>
      </trkpt>
      <trkpt lat="37.844769097459356" lon="112.00613765995851">
        <ele>1133.0</ele>
        <time>2018-12-10T08:43:17.510000Z</time>
      </trkpt>
      <trkpt lat="37.844533739785355" lon="112.0060906542349">
        <ele>1131.0</ele>
        <time>2018-12-10T08:43:35.510000Z</time>
      </trkpt>
      <trkpt lat="37.84448621034059" lon="112.00610741906603">
        <ele>1133.0</ele>
        <time>2018-12-10T08:43:41.510000Z</time>
      </trkpt>
      <trkpt lat="37.844231626252736" lon="112.00632099394186">
        <ele>1135.0</ele>
        <time>2018-12-10T08:44:05.510000Z</time>
      </trkpt>
      <trkpt lat="37.84396292338486" lon="112.00644726082827">
        <ele>1131.0</ele>
        <time>2018-12-10T08:44:32.510000Z</time>
      </trkpt>
      <trkpt lat="37.84383428010467" lon="112.00646133231245">
        <ele>1129.0</ele>
        <time>2018-12-10T08:44:44.510000Z</time>
      </trkpt>
      <trkpt lat="37.84372263913457" lon="112.00659677128968">
        <ele>1132.0</ele>
        <time>2018-12-10T08:44:56.510000Z</time>
      </trkpt>
      <trkpt lat="37.843659038860224" lon="112.0066348927312">
        <ele>1133.0</ele>
        <time>2018-12-10T08:45:02.510000Z</time>
      </trkpt>
      <trkpt lat="37.843583832608964" lon="112.00665274223658">
        <ele>1131.0</ele>
        <time>2018-12-10T08:45:11.510000Z</time>
      </trkpt>
      <trkpt lat="37.84354866930017" lon="112.00670788993241">
        <ele>1131.0</ele>
        <time>2018-12-10T08:45:17.510000Z</time>
      </trkpt>
      <trkpt lat="37.84330964798832" lon="112.00688902730904">
        <ele>1133.0</ele>
        <time>2018-12-10T08:45:41.510000Z</time>
      </trkpt>
      <trkpt lat="37.843242490255264" lon="112.00693742120168">
        <ele>1134.0</ele>
        <time>2018-12-10T08:45:47.510000Z</time>
      </trkpt>
      <trkpt lat="37.843202106299536" lon="112.00701473537562">
        <ele>1134.0</ele>
        <time>2018-12-10T08:45:53.510000Z</time>
      </trkpt>
      <trkpt lat="37.843161993565296" lon="112.00704355062925">
        <ele>1135.0</ele>
        <time>2018-12-10T08:45:56.510000Z</time>
      </trkpt>
      <trkpt lat="37.84310075104794" lon="112.00705345928303">
        <ele>1133.0</ele>
        <time>2018-12-10T08:46:02.610000Z</time>
      </trkpt>
      <trkpt lat="37.84293605179965" lon="112.00716316888601">
        <ele>1130.0</ele>
        <time>2018-12-10T08:46:14.510000Z</time>
      </trkpt>
      <trkpt lat="37.84270157314479" lon="112.00736809455941">
        <ele>1128.0</ele>
        <time>2018-12-10T08:46:26.510000Z</time>
      </trkpt>
      <trkpt lat="37.84242567753357" lon="112.00754166929119">
        <ele>1125.0</ele>
        <time>2018-12-10T08:46:38.510000Z</time>
      </trkpt>
      <trkpt lat="37.842296923150265" lon="112.0076471545799">
        <ele>1126.0</ele>
        <time>2018-12-10T08:46:44.510000Z</time>
      </trkpt>
      <trkpt lat="37.8422298283118" lon="112.00766745090041">
        <ele>1124.0</ele>
        <time>2018-12-10T08:46:47.510000Z</time>
      </trkpt>
      <trkpt lat="37.84217519092796" lon="112.00774713867798">
        <ele>1122.0</ele>
        <time>2018-12-10T08:46:50.510000Z</time>
      </trkpt>
      <trkpt lat="37.84189145060991" lon="112.00791314649871">
        <ele>1125.0</ele>
        <time>2018-12-10T08:47:02.510000Z</time>
      </trkpt>
      <trkpt lat="37.841563298707314" lon="112.00804171581716">
        <ele>1125.0</ele>
        <time>2018-12-10T08:47:14.510000Z</time>
      </trkpt>
      <trkpt lat="37.84132783598846" lon="112.0080922704438">
        <ele>1123.0</ele>
        <time>2018-12-10T08:47:23.510000Z</time>
      </trkpt>
      <trkpt lat="37.84116108713432" lon="112.0081362908341">
        <ele>1133.0</ele>
        <time>2018-12-10T08:47:29.510000Z</time>
      </trkpt>
      <trkpt lat="37.84081443935707" lon="112.00810335116266">
        <ele>1136.0</ele>
        <time>2018-12-10T08:47:41.510000Z</time>
      </trkpt>
      <trkpt lat="37.84060499378976" lon="112.00808962083731">
        <ele>1137.0</ele>
        <time>2018-12-10T08:47:47.510000Z</time>
      </trkpt>
      <trkpt lat="37.84035767840521" lon="112.00799196901241">
        <ele>1136.0</ele>
        <time>2018-12-10T08:47:56.510000Z</time>
      </trkpt>
      <trkpt lat="37.840142071622274" lon="112.00794024412049">
        <ele>1134.0</ele>
        <time>2018-12-10T08:48:05.510000Z</time>
      </trkpt>
      <trkpt lat="37.839991313100086" lon="112.00794365170135">
        <ele>1132.0</ele>
        <time>2018-12-10T08:48:11.510000Z</time>
      </trkpt>
      <trkpt lat="37.839737348245485" lon="112.00801735912958">
        <ele>1140.0</ele>
        <time>2018-12-10T08:48:20.510000Z</time>
      </trkpt>
      <trkpt lat="37.839646200253604" lon="112.00803211951822">
        <ele>1143.0</ele>
        <time>2018-12-10T08:48:23.510000Z</time>
      </trkpt>
      <trkpt lat="37.83931022064708" lon="112.00805783149455">
        <ele>1136.0</ele>
        <time>2018-12-10T08:48:35.510000Z</time>
      </trkpt>
      <trkpt lat="37.839084528021026" lon="112.00814657092842">
        <ele>1135.0</ele>
        <time>2018-12-10T08:48:44.510000Z</time>
      </trkpt>
      <trkpt lat="37.838816895116864" lon="112.0081929189037">
        <ele>1137.0</ele>
        <time>2018-12-10T08:48:53.510000Z</time>
      </trkpt>
      <trkpt lat="37.838513053278675" lon="112.00821628480105">
        <ele>1150.0</ele>
        <time>2018-12-10T08:49:02.510000Z</time>
      </trkpt>
      <trkpt lat="37.83842966137835" lon="112.00821121495404">
        <ele>1150.0</ele>
        <time>2018-12-10T08:49:05.510000Z</time>
      </trkpt>
      <trkpt lat="37.83808902803984" lon="112.0080786037753">
        <ele>1149.0</ele>
        <time>2018-12-10T08:49:17.510000Z</time>
      </trkpt>
      <trkpt lat="37.83799991927905" lon="112.00804479164843">
        <ele>1149.0</ele>
        <time>2018-12-10T08:49:20.510000Z</time>
      </trkpt>
      <trkpt lat="37.83770070417755" lon="112.00799451737697">
        <ele>1148.0</ele>
        <time>2018-12-10T08:49:32.510000Z</time>
      </trkpt>
      <trkpt lat="37.83738492402486" lon="112.00786641445661">
        <ele>1152.0</ele>
        <time>2018-12-10T08:49:44.510000Z</time>
      </trkpt>
      <trkpt lat="37.83721983317546" lon="112.00776738496592">
        <ele>1143.0</ele>
        <time>2018-12-10T08:49:50.510000Z</time>
      </trkpt>
      <trkpt lat="37.83689140954395" lon="112.00766160505334">
        <ele>1152.0</ele>
        <time>2018-12-10T08:50:02.610000Z</time>
      </trkpt>
      <trkpt lat="37.836677361902986" lon="112.00754021756333">
        <ele>1150.0</ele>
        <time>2018-12-10T08:50:11.510000Z</time>
      </trkpt>
      <trkpt lat="37.8364132422772" lon="112.0074957428734">
        <ele>1151.0</ele>
        <time>2018-12-10T08:50:20.510000Z</time>
      </trkpt>
      <trkpt lat="37.83633200738767" lon="112.00749686358978">
        <ele>1151.0</ele>
        <time>2018-12-10T08:50:23.610000Z</time>
      </trkpt>
      <trkpt lat="37.836010027299075" lon="112.0073729992309">
        <ele>1147.0</ele>
        <time>2018-12-10T08:50:35.510000Z</time>
      </trkpt>
      <trkpt lat="37.83570021971928" lon="112.00735323626157">
        <ele>1158.0</ele>
        <time>2018-12-10T08:50:44.610000Z</time>
      </trkpt>
      <trkpt lat="37.83552026501271" lon="112.00731027171165">
        <ele>1155.0</ele>
        <time>2018-12-10T08:50:50.510000Z</time>
      </trkpt>
      <trkpt lat="37.835434872094474" lon="112.00724336470277">
        <ele>1155.0</ele>
        <time>2018-12-10T08:50:53.510000Z</time>
      </trkpt>
      <trkpt lat="37.835373687327426" lon="112.00715743039974">
        <ele>1154.0</ele>
        <time>2018-12-10T08:50:56.510000Z</time>
      </trkpt>
      <trkpt lat="37.83533400752418" lon="112.00704441271944">
        <ele>1152.0</ele>
        <time>2018-12-10T08:50:59.510000Z</time>
      </trkpt>
      <trkpt lat="37.83527943646828" lon="112.00695843587981">
        <ele>1152.0</ele>
        <time>2018-12-10T08:51:02.610000Z</time>
      </trkpt>
      <trkpt lat="37.835206079305365" lon="112.00690794287912">
        <ele>1152.0</ele>
        <time>2018-12-10T08:51:05.610000Z</time>
      </trkpt>
      <trkpt lat="37.834917094146824" lon="112.00690436619922">
        <ele>1154.0</ele>
        <time>2018-12-10T08:51:14.610000Z</time>
      </trkpt>
      <trkpt lat="37.834723528470406" lon="112.00696501935545">
        <ele>1153.0</ele>
        <time>2018-12-10T08:51:20.510000Z</time>
      </trkpt>
      <trkpt lat="37.834625184546255" lon="112.00695398601083">
        <ele>1155.0</ele>
        <time>2018-12-10T08:51:23.510000Z</time>
      </trkpt>
      <trkpt lat="37.83446425331171" lon="112.00689490162522">
        <ele>1153.0</ele>
        <time>2018-12-10T08:51:29.510000Z</time>
      </trkpt>
      <trkpt lat="37.83411961146971" lon="112.00681909819897">
        <ele>1156.0</ele>
        <time>2018-12-10T08:51:41.510000Z</time>
      </trkpt>
      <trkpt lat="37.833790170182816" lon="112.00670227358236">
        <ele>1153.0</ele>
        <time>2018-12-10T08:51:53.510000Z</time>
      </trkpt>
      <trkpt lat="37.83372048271661" lon="112.00664255680611">
        <ele>1144.0</ele>
        <time>2018-12-10T08:51:56.510000Z</time>
      </trkpt>
      <trkpt lat="37.8336458862662" lon="112.00659173420377">
        <ele>1147.0</ele>
        <time>2018-12-10T08:51:59.510000Z</time>
      </trkpt>
      <trkpt lat="37.83357797720223" lon="112.00655838332011">
        <ele>1153.0</ele>
        <time>2018-12-10T08:52:02.510000Z</time>
      </trkpt>
      <trkpt lat="37.83340148252826" lon="112.0065676252106">
        <ele>1161.0</ele>
        <time>2018-12-10T08:52:08.510000Z</time>
      </trkpt>
      <trkpt lat="37.833048559898316" lon="112.00646263101665">
        <ele>1159.0</ele>
        <time>2018-12-10T08:52:20.510000Z</time>
      </trkpt>
      <trkpt lat="37.83295018973717" lon="112.00643112780942">
        <ele>1163.0</ele>
        <time>2018-12-10T08:52:23.510000Z</time>
      </trkpt>
      <trkpt lat="37.83286530924981" lon="112.00638604006096">
        <ele>1163.0</ele>
        <time>2018-12-10T08:52:26.510000Z</time>
      </trkpt>
      <trkpt lat="37.83278147212153" lon="112.00635751142846">
        <ele>1162.0</ele>
        <time>2018-12-10T08:52:29.510000Z</time>
      </trkpt>
      <trkpt lat="37.83261869684278" lon="112.0063176662861">
        <ele>1159.0</ele>
        <time>2018-12-10T08:52:35.510000Z</time>
      </trkpt>
      <trkpt lat="37.83228902662233" lon="112.00616430129695">
        <ele>1156.0</ele>
        <time>2018-12-10T08:52:47.510000Z</time>
      </trkpt>
      <trkpt lat="37.83220685195235" lon="112.00612808569414">
        <ele>1138.0</ele>
        <time>2018-12-10T08:52:50.510000Z</time>
      </trkpt>
      <trkpt lat="37.83203146780156" lon="112.00614526803925">
        <ele>1156.0</ele>
        <time>2018-12-10T08:52:56.510000Z</time>
      </trkpt>
      <trkpt lat="37.8318857299311" lon="112.00610068505068">
        <ele>1159.0</ele>
        <time>2018-12-10T08:53:02.510000Z</time>
      </trkpt>
      <trkpt lat="37.83161890467833" lon="112.00615680220453">
        <ele>1163.0</ele>
        <time>2018-12-10T08:53:11.510000Z</time>
      </trkpt>
      <trkpt lat="37.83136401914332" lon="112.00615525649681">
        <ele>1162.0</ele>
        <time>2018-12-10T08:53:20.510000Z</time>
      </trkpt>
      <trkpt lat="37.83103769742421" lon="112.00620277785309">
        <ele>1161.0</ele>
        <time>2018-12-10T08:53:32.510000Z</time>
      </trkpt>
      <trkpt lat="37.83079682252192" lon="112.00617795571775">
        <ele>1160.0</ele>
        <time>2018-12-10T08:53:41.510000Z</time>
      </trkpt>
      <trkpt lat="37.83062621828049" lon="112.00619629310664">
        <ele>1160.0</ele>
        <time>2018-12-10T08:53:47.510000Z</time>
      </trkpt>
      <trkpt lat="37.830539440657105" lon="112.00617515218337">
        <ele>1159.0</ele>
        <time>2018-12-10T08:53:50.510000Z</time>
      </trkpt>
      <trkpt lat="37.830450368813736" lon="112.00618320660953">
        <ele>1163.0</ele>
        <time>2018-12-10T08:53:53.510000Z</time>
      </trkpt>
      <trkpt lat="37.8301469941634" lon="112.00616011069806">
        <ele>1162.0</ele>
        <time>2018-12-10T08:54:05.510000Z</time>
      </trkpt>
      <trkpt lat="37.83007331595435" lon="112.00614949606867">
        <ele>1159.0</ele>
        <time>2018-12-10T08:54:08.510000Z</time>
      </trkpt>
      <trkpt lat="37.829820164690204" lon="112.00618315789264">
        <ele>1160.0</ele>
        <time>2018-12-10T08:54:17.510000Z</time>
      </trkpt>
      <trkpt lat="37.82965859393698" lon="112.00617735975936">
        <ele>1160.0</ele>
        <time>2018-12-10T08:54:23.610000Z</time>
      </trkpt>
      <trkpt lat="37.82952673651984" lon="112.00615633109881">
        <ele>1162.0</ele>
        <time>2018-12-10T08:54:29.510000Z</time>
      </trkpt>
      <trkpt lat="37.829435533435245" lon="112.0061689344328">
        <ele>1161.0</ele>
        <time>2018-12-10T08:54:32.510000Z</time>
      </trkpt>
      <trkpt lat="37.82931399644812" lon="112.00613749524511">
        <ele>1159.0</ele>
        <time>2018-12-10T08:54:38.510000Z</time>
      </trkpt>
      <trkpt lat="37.829074409853206" lon="112.00616809568174">
        <ele>1158.0</ele>
        <time>2018-12-10T08:54:47.510000Z</time>
      </trkpt>
      <trkpt lat="37.82893359981159" lon="112.00615483856858">
        <ele>1155.0</ele>
        <time>2018-12-10T08:54:53.510000Z</time>
      </trkpt>
      <trkpt lat="37.828852384948625" lon="112.00617190090702">
        <ele>1157.0</ele>
        <time>2018-12-10T08:54:56.510000Z</time>
      </trkpt>
      <trkpt lat="37.82856061537869" lon="112.00618857850984">
        <ele>1158.0</ele>
        <time>2018-12-10T08:55:05.510000Z</time>
      </trkpt>
      <trkpt lat="37.82822051758971" lon="112.0062170911164">
        <ele>1160.0</ele>
        <time>2018-12-10T08:55:17.510000Z</time>
      </trkpt>
      <trkpt lat="37.827906112048396" lon="112.00624009313564">
        <ele>1166.0</ele>
        <time>2018-12-10T08:55:29.510000Z</time>
      </trkpt>
      <trkpt lat="37.82784120991643" lon="112.0062642394587">
        <ele>1167.0</ele>
        <time>2018-12-10T08:55:32.510000Z</time>
      </trkpt>
      <trkpt lat="37.82776855234067" lon="112.00624453090381">
        <ele>1168.0</ele>
        <time>2018-12-10T08:55:35.510000Z</time>
      </trkpt>
      <trkpt lat="37.82767801313958" lon="112.00625815643762">
        <ele>1170.0</ele>
        <time>2018-12-10T08:55:38.510000Z</time>
      </trkpt>
      <trkpt lat="37.82740390110238" lon="112.00634646564717">
        <ele>1171.0</ele>
        <time>2018-12-10T08:55:47.510000Z</time>
      </trkpt>
      <trkpt lat="37.82723572211649" lon="112.00634507512933">
        <ele>1169.0</ele>
        <time>2018-12-10T08:55:53.510000Z</time>
      </trkpt>
      <trkpt lat="37.82699146450239" lon="112.00638890888045">
        <ele>1170.0</ele>
        <time>2018-12-10T08:56:02.510000Z</time>
      </trkpt>
      <trkpt lat="37.82671499537612" lon="112.00637865142023">
        <ele>1168.0</ele>
        <time>2018-12-10T08:56:14.510000Z</time>
      </trkpt>
      <trkpt lat="37.826418718531116" lon="112.0064072471072">
        <ele>1160.0</ele>
        <time>2018-12-10T08:56:26.510000Z</time>
      </trkpt>
      <trkpt lat="37.82609331908217" lon="112.00643699904037">
        <ele>1161.0</ele>
        <time>2018-12-10T08:56:41.510000Z</time>
      </trkpt>
      <trkpt lat="37.825929265343106" lon="112.00644796468606">
        <ele>1159.0</ele>
        <time>2018-12-10T08:56:47.510000Z</time>
      </trkpt>
      <trkpt lat="37.825804226488586" lon="112.00641282125527">
        <ele>1157.0</ele>
        <time>2018-12-10T08:56:53.510000Z</time>
      </trkpt>
      <trkpt lat="37.82551022307841" lon="112.00640594068886">
        <ele>1164.0</ele>
        <time>2018-12-10T08:57:05.510000Z</time>
      </trkpt>
      <trkpt lat="37.825349328617904" lon="112.00640261685756">
        <ele>1172.0</ele>
        <time>2018-12-10T08:57:11.510000Z</time>
      </trkpt>
      <trkpt lat="37.82508018682284" lon="112.00630640841591">
        <ele>1163.0</ele>
        <time>2018-12-10T08:57:23.510000Z</time>
      </trkpt>
      <trkpt lat="37.8248392312964" lon="112.00623464841817">
        <ele>1159.0</ele>
        <time>2018-12-10T08:57:32.510000Z</time>
      </trkpt>
      <trkpt lat="37.82450096922319" lon="112.00619284350138">
        <ele>1163.0</ele>
        <time>2018-12-10T08:57:44.510000Z</time>
      </trkpt>
      <trkpt lat="37.82422886026394" lon="112.00619169204768">
        <ele>1175.0</ele>
        <time>2018-12-10T08:57:53.510000Z</time>
      </trkpt>
      <trkpt lat="37.82392415492289" lon="112.00613275906865">
        <ele>1172.0</ele>
        <time>2018-12-10T08:58:02.510000Z</time>
      </trkpt>
      <trkpt lat="37.82372764793954" lon="112.00609201808246">
        <ele>1169.0</ele>
        <time>2018-12-10T08:58:08.510000Z</time>
      </trkpt>
      <trkpt lat="37.82338298473742" lon="112.00608290586014">
        <ele>1164.0</ele>
        <time>2018-12-10T08:58:20.510000Z</time>
      </trkpt>
      <trkpt lat="37.82312843755946" lon="112.00605884762534">
        <ele>1157.0</ele>
        <time>2018-12-10T08:58:29.510000Z</time>
      </trkpt>
      <trkpt lat="37.822844372157455" lon="112.00608693403913">
        <ele>1165.0</ele>
        <time>2018-12-10T08:58:38.510000Z</time>
      </trkpt>
      <trkpt lat="37.822561110057364" lon="112.00603304847118">
        <ele>1171.0</ele>
        <time>2018-12-10T08:58:50.510000Z</time>
      </trkpt>
      <trkpt lat="37.82240946926802" lon="112.0059080005293">
        <ele>1171.0</ele>
        <time>2018-12-10T08:58:56.510000Z</time>
      </trkpt>
      <trkpt lat="37.82230445389366" lon="112.00586526208795">
        <ele>1176.0</ele>
        <time>2018-12-10T08:58:59.510000Z</time>
      </trkpt>
      <trkpt lat="37.82215271177681" lon="112.00585361618943">
        <ele>1181.0</ele>
        <time>2018-12-10T08:59:05.510000Z</time>
      </trkpt>
      <trkpt lat="37.82208295653327" lon="112.00582124608951">
        <ele>1183.0</ele>
        <time>2018-12-10T08:59:08.510000Z</time>
      </trkpt>
      <trkpt lat="37.821863319535424" lon="112.00558571710242">
        <ele>1175.0</ele>
        <time>2018-12-10T08:59:20.510000Z</time>
      </trkpt>
      <trkpt lat="37.821814200303" lon="112.00549922459385">
        <ele>1174.0</ele>
        <time>2018-12-10T08:59:23.510000Z</time>
      </trkpt>
      <trkpt lat="37.821685751582855" lon="112.00535813965162">
        <ele>1173.0</ele>
        <time>2018-12-10T08:59:29.510000Z</time>
      </trkpt>
      <trkpt lat="37.821426242870324" lon="112.00511535056415">
        <ele>1176.0</ele>
        <time>2018-12-10T08:59:41.510000Z</time>
      </trkpt>
      <trkpt lat="37.82124403686845" lon="112.00494318071857">
        <ele>1179.0</ele>
        <time>2018-12-10T08:59:50.510000Z</time>
      </trkpt>
      <trkpt lat="37.8209909619106" lon="112.0047942898642">
        <ele>1176.0</ele>
        <time>2018-12-10T08:59:59.610000Z</time>
      </trkpt>
      <trkpt lat="37.82076045081198" lon="112.00468295945237">
        <ele>1197.0</ele>
        <time>2018-12-10T09:00:08.610000Z</time>
      </trkpt>
      <trkpt lat="37.820706609857616" lon="112.00463676287723">
        <ele>1200.0</ele>
        <time>2018-12-10T09:00:11.610000Z</time>
      </trkpt>
      <trkpt lat="37.82067464090357" lon="112.00462060298956">
        <ele>1202.0</ele>
        <time>2018-12-10T09:00:14.610000Z</time>
      </trkpt>
      <trkpt lat="37.820623111753385" lon="112.00465423046077">
        <ele>1200.0</ele>
        <time>2018-12-10T09:00:17.610000Z</time>
      </trkpt>
      <trkpt lat="37.82058155875279" lon="112.00460394481134">
        <ele>1199.0</ele>
        <time>2018-12-10T09:00:23.610000Z</time>
      </trkpt>
      <trkpt lat="37.820555540940774" lon="112.00452546352761">
        <ele>1206.0</ele>
        <time>2018-12-10T09:00:29.610000Z</time>
      </trkpt>
      <trkpt lat="37.82042870364932" lon="112.0043903267607">
        <ele>1211.0</ele>
        <time>2018-12-10T09:00:47.710000Z</time>
      </trkpt>
      <trkpt lat="37.8204540393822" lon="112.00444600628737">
        <ele>1211.0</ele>
        <time>2018-12-10T09:00:53.610000Z</time>
      </trkpt>
      <trkpt lat="37.82051168252202" lon="112.0044943838004">
        <ele>1212.0</ele>
        <time>2018-12-10T09:00:56.610000Z</time>
      </trkpt>
      <trkpt lat="37.82053669997989" lon="112.00456574106889">
        <ele>1212.0</ele>
        <time>2018-12-10T09:00:59.610000Z</time>
      </trkpt>
      <trkpt lat="37.82066332373334" lon="112.00468168652519">
        <ele>1212.0</ele>
        <time>2018-12-10T09:01:11.510000Z</time>
      </trkpt>
      <trkpt lat="37.82070106518188" lon="112.00476223279954">
        <ele>1211.0</ele>
        <time>2018-12-10T09:01:20.510000Z</time>
      </trkpt>
      <trkpt lat="37.82083017385207" lon="112.00486385206601">
        <ele>1211.0</ele>
        <time>2018-12-10T09:01:32.510000Z</time>
      </trkpt>
      <trkpt lat="37.820954741680765" lon="112.0048511328974">
        <ele>1215.0</ele>
        <time>2018-12-10T09:01:44.510000Z</time>
      </trkpt>
      <trkpt lat="37.821008387506666" lon="112.00487545396481">
        <ele>1215.0</ele>
        <time>2018-12-10T09:01:47.510000Z</time>
      </trkpt>
      <trkpt lat="37.8210657360736" lon="112.00493167061545">
        <ele>1213.0</ele>
        <time>2018-12-10T09:01:53.610000Z</time>
      </trkpt>
      <trkpt lat="37.82109509717193" lon="112.00500221682876">
        <ele>1211.0</ele>
        <time>2018-12-10T09:01:56.510000Z</time>
      </trkpt>
      <trkpt lat="37.82123165778631" lon="112.00497858437433">
        <ele>1212.0</ele>
        <time>2018-12-10T09:02:05.510000Z</time>
      </trkpt>
      <trkpt lat="37.8213333347672" lon="112.00499897501673">
        <ele>1212.0</ele>
        <time>2018-12-10T09:02:11.510000Z</time>
      </trkpt>
      <trkpt lat="37.82131538403113" lon="112.00508605234145">
        <ele>1210.0</ele>
        <time>2018-12-10T09:02:17.510000Z</time>
      </trkpt>
      <trkpt lat="37.82137955034358" lon="112.0052143974349">
        <ele>1211.0</ele>
        <time>2018-12-10T09:02:26.510000Z</time>
      </trkpt>
      <trkpt lat="37.82139833844726" lon="112.00529898567962">
        <ele>1212.0</ele>
        <time>2018-12-10T09:02:29.510000Z</time>
      </trkpt>
      <trkpt lat="37.82163434104044" lon="112.00552247515913">
        <ele>1203.0</ele>
        <time>2018-12-10T09:02:41.510000Z</time>
      </trkpt>
      <trkpt lat="37.821830632731725" lon="112.00566517500182">
        <ele>1198.0</ele>
        <time>2018-12-10T09:02:50.510000Z</time>
      </trkpt>
      <trkpt lat="37.82189567871769" lon="112.00573179032158">
        <ele>1201.0</ele>
        <time>2018-12-10T09:02:53.510000Z</time>
      </trkpt>
      <trkpt lat="37.82217532995782" lon="112.00585011649906">
        <ele>1201.0</ele>
        <time>2018-12-10T09:03:05.510000Z</time>
      </trkpt>
      <trkpt lat="37.82234478307751" lon="112.0059456741712">
        <ele>1201.0</ele>
        <time>2018-12-10T09:03:11.510000Z</time>
      </trkpt>
      <trkpt lat="37.82248506238998" lon="112.00605637070578">
        <ele>1204.0</ele>
        <time>2018-12-10T09:03:17.510000Z</time>
      </trkpt>
      <trkpt lat="37.82273315261952" lon="112.00611984128899">
        <ele>1197.0</ele>
        <time>2018-12-10T09:03:26.610000Z</time>
      </trkpt>
      <trkpt lat="37.822979232781584" lon="112.00610272799433">
        <ele>1195.0</ele>
        <time>2018-12-10T09:03:35.510000Z</time>
      </trkpt>
      <trkpt lat="37.82325742036131" lon="112.0061050303467">
        <ele>1195.0</ele>
        <time>2018-12-10T09:03:44.510000Z</time>
      </trkpt>
      <trkpt lat="37.823507434996415" lon="112.00608241422505">
        <ele>1197.0</ele>
        <time>2018-12-10T09:03:53.510000Z</time>
      </trkpt>
      <trkpt lat="37.82380109987299" lon="112.00613155982099">
        <ele>1193.0</ele>
        <time>2018-12-10T09:04:02.510000Z</time>
      </trkpt>
      <trkpt lat="37.82407984123051" lon="112.00621547377075">
        <ele>1191.0</ele>
        <time>2018-12-10T09:04:11.510000Z</time>
      </trkpt>
      <trkpt lat="37.82426814908961" lon="112.00628001652834">
        <ele>1193.0</ele>
        <time>2018-12-10T09:04:17.510000Z</time>
      </trkpt>
      <trkpt lat="37.824623809818206" lon="112.0063323687218">
        <ele>1188.0</ele>
        <time>2018-12-10T09:04:29.510000Z</time>
      </trkpt>
      <trkpt lat="37.824704482425126" lon="112.00635635115962">
        <ele>1187.0</ele>
        <time>2018-12-10T09:04:32.510000Z</time>
      </trkpt>
      <trkpt lat="37.824858977955905" lon="112.00635968512664">
        <ele>1181.0</ele>
        <time>2018-12-10T09:04:38.510000Z</time>
      </trkpt>
      <trkpt lat="37.82494635577727" lon="112.00637438958644">
        <ele>1181.0</ele>
        <time>2018-12-10T09:04:41.510000Z</time>
      </trkpt>
      <trkpt lat="37.825254238229235" lon="112.00645390730725">
        <ele>1182.0</ele>
        <time>2018-12-10T09:04:53.510000Z</time>
      </trkpt>
      <trkpt lat="37.82540276994005" lon="112.00649232404655">
        <ele>1184.0</ele>
        <time>2018-12-10T09:04:59.510000Z</time>
      </trkpt>
      <trkpt lat="37.82563982790946" lon="112.00650105508754">
        <ele>1182.0</ele>
        <time>2018-12-10T09:05:08.510000Z</time>
      </trkpt>
      <trkpt lat="37.82593937295084" lon="112.00653934307242">
        <ele>1179.0</ele>
        <time>2018-12-10T09:05:17.510000Z</time>
      </trkpt>
      <trkpt lat="37.826262133440736" lon="112.00650080722858">
        <ele>1181.0</ele>
        <time>2018-12-10T09:05:26.510000Z</time>
      </trkpt>
      <trkpt lat="37.826550030734666" lon="112.00643934505713">
        <ele>1174.0</ele>
        <time>2018-12-10T09:05:35.510000Z</time>
      </trkpt>
      <trkpt lat="37.8268856079559" lon="112.00640885931524">
        <ele>1175.0</ele>
        <time>2018-12-10T09:05:47.510000Z</time>
      </trkpt>
      <trkpt lat="37.82717650352781" lon="112.00637885465608">
        <ele>1176.0</ele>
        <time>2018-12-10T09:05:56.510000Z</time>
      </trkpt>
      <trkpt lat="37.82750835508437" lon="112.00634417180487">
        <ele>1177.0</ele>
        <time>2018-12-10T09:06:05.510000Z</time>
      </trkpt>
      <trkpt lat="37.827779362412194" lon="112.00628034828254">
        <ele>1172.0</ele>
        <time>2018-12-10T09:06:14.510000Z</time>
      </trkpt>
      <trkpt lat="37.82809506550762" lon="112.0062672111798">
        <ele>1170.0</ele>
        <time>2018-12-10T09:06:23.610000Z</time>
      </trkpt>
      <trkpt lat="37.828276133784925" lon="112.00621940232963">
        <ele>1166.0</ele>
        <time>2018-12-10T09:06:29.510000Z</time>
      </trkpt>
      <trkpt lat="37.82856703191735" lon="112.00621268595852">
        <ele>1163.0</ele>
        <time>2018-12-10T09:06:38.510000Z</time>
      </trkpt>
      <trkpt lat="37.828873270446095" lon="112.00618515312364">
        <ele>1160.0</ele>
        <time>2018-12-10T09:06:47.510000Z</time>
      </trkpt>
      <trkpt lat="37.82917164861555" lon="112.00619139101063">
        <ele>1159.0</ele>
        <time>2018-12-10T09:06:56.510000Z</time>
      </trkpt>
      <trkpt lat="37.82940627662061" lon="112.0062072913716">
        <ele>1161.0</ele>
        <time>2018-12-10T09:07:02.510000Z</time>
      </trkpt>
      <trkpt lat="37.82974663782237" lon="112.00618361845349">
        <ele>1160.0</ele>
        <time>2018-12-10T09:07:14.510000Z</time>
      </trkpt>
      <trkpt lat="37.830026441097644" lon="112.0061559792259">
        <ele>1156.0</ele>
        <time>2018-12-10T09:07:23.510000Z</time>
      </trkpt>
      <trkpt lat="37.83034904431087" lon="112.0062091189146">
        <ele>1159.0</ele>
        <time>2018-12-10T09:07:32.510000Z</time>
      </trkpt>
      <trkpt lat="37.83065271433529" lon="112.00618367361793">
        <ele>1158.0</ele>
        <time>2018-12-10T09:07:41.510000Z</time>
      </trkpt>
      <trkpt lat="37.83097051263914" lon="112.00615146890993">
        <ele>1163.0</ele>
        <time>2018-12-10T09:07:50.510000Z</time>
      </trkpt>
      <trkpt lat="37.83129257453613" lon="112.00614521340857">
        <ele>1164.0</ele>
        <time>2018-12-10T09:07:59.510000Z</time>
      </trkpt>
      <trkpt lat="37.831624679766946" lon="112.00613733485405">
        <ele>1164.0</ele>
        <time>2018-12-10T09:08:08.510000Z</time>
      </trkpt>
      <trkpt lat="37.83195726133459" lon="112.00612382770247">
        <ele>1166.0</ele>
        <time>2018-12-10T09:08:17.510000Z</time>
      </trkpt>
      <trkpt lat="37.832270122143036" lon="112.00610999456401">
        <ele>1167.0</ele>
        <time>2018-12-10T09:08:26.510000Z</time>
      </trkpt>
      <trkpt lat="37.832579115691765" lon="112.00619722923275">
        <ele>1170.0</ele>
        <time>2018-12-10T09:08:35.510000Z</time>
      </trkpt>
      <trkpt lat="37.832779219297464" lon="112.00629288459515">
        <ele>1170.0</ele>
        <time>2018-12-10T09:08:41.510000Z</time>
      </trkpt>
      <trkpt lat="37.832987116279185" lon="112.00635040716628">
        <ele>1168.0</ele>
        <time>2018-12-10T09:08:47.510000Z</time>
      </trkpt>
      <trkpt lat="37.83326716697469" lon="112.00652408963487">
        <ele>1162.0</ele>
        <time>2018-12-10T09:08:59.510000Z</time>
      </trkpt>
      <trkpt lat="37.833529586667986" lon="112.0066146425727">
        <ele>1168.0</ele>
        <time>2018-12-10T09:09:08.510000Z</time>
      </trkpt>
      <trkpt lat="37.83382577310793" lon="112.00669411665295">
        <ele>1168.0</ele>
        <time>2018-12-10T09:09:17.510000Z</time>
      </trkpt>
      <trkpt lat="37.83411540685592" lon="112.00679089862227">
        <ele>1162.0</ele>
        <time>2018-12-10T09:09:26.510000Z</time>
      </trkpt>
      <trkpt lat="37.834209516863524" lon="112.00683216229994">
        <ele>1161.0</ele>
        <time>2018-12-10T09:09:29.510000Z</time>
      </trkpt>
      <trkpt lat="37.83453619247759" lon="112.0069165073526">
        <ele>1159.0</ele>
        <time>2018-12-10T09:09:41.510000Z</time>
      </trkpt>
      <trkpt lat="37.834726885006944" lon="112.00693708522724">
        <ele>1160.0</ele>
        <time>2018-12-10T09:09:47.510000Z</time>
      </trkpt>
      <trkpt lat="37.835001166873454" lon="112.00687749210613">
        <ele>1155.0</ele>
        <time>2018-12-10T09:09:56.510000Z</time>
      </trkpt>
      <trkpt lat="37.83517685663641" lon="112.00688972692083">
        <ele>1153.0</ele>
        <time>2018-12-10T09:10:02.510000Z</time>
      </trkpt>
      <trkpt lat="37.83524787294308" lon="112.00691215436906">
        <ele>1153.0</ele>
        <time>2018-12-10T09:10:05.510000Z</time>
      </trkpt>
      <trkpt lat="37.83533750869591" lon="112.00698205840439">
        <ele>1156.0</ele>
        <time>2018-12-10T09:10:08.510000Z</time>
      </trkpt>
      <trkpt lat="37.83539211019253" lon="112.00706750150323">
        <ele>1158.0</ele>
        <time>2018-12-10T09:10:11.510000Z</time>
      </trkpt>
      <trkpt lat="37.83542784384451" lon="112.00719157248007">
        <ele>1157.0</ele>
        <time>2018-12-10T09:10:14.510000Z</time>
      </trkpt>
      <trkpt lat="37.83546575408381" lon="112.00729136622245">
        <ele>1158.0</ele>
        <time>2018-12-10T09:10:17.510000Z</time>
      </trkpt>
      <trkpt lat="37.835527784302464" lon="112.00734163996671">
        <ele>1158.0</ele>
        <time>2018-12-10T09:10:20.510000Z</time>
      </trkpt>
      <trkpt lat="37.83586093548135" lon="112.00741597347046">
        <ele>1153.0</ele>
        <time>2018-12-10T09:10:32.510000Z</time>
      </trkpt>
      <trkpt lat="37.836170215743756" lon="112.00748254890418">
        <ele>1151.0</ele>
        <time>2018-12-10T09:10:41.510000Z</time>
      </trkpt>
      <trkpt lat="37.83647931581831" lon="112.00756157100804">
        <ele>1147.0</ele>
        <time>2018-12-10T09:10:50.510000Z</time>
      </trkpt>
      <trkpt lat="37.83682206723507" lon="112.00769123607438">
        <ele>1149.0</ele>
        <time>2018-12-10T09:11:02.510000Z</time>
      </trkpt>
      <trkpt lat="37.837103904925605" lon="112.00779182142814">
        <ele>1147.0</ele>
        <time>2018-12-10T09:11:11.510000Z</time>
      </trkpt>
      <trkpt lat="37.837392705911164" lon="112.0078847613113">
        <ele>1146.0</ele>
        <time>2018-12-10T09:11:20.510000Z</time>
      </trkpt>
      <trkpt lat="37.83768211168875" lon="112.00798600133642">
        <ele>1147.0</ele>
        <time>2018-12-10T09:11:29.510000Z</time>
      </trkpt>
      <trkpt lat="37.837923453030506" lon="112.00810851323246">
        <ele>1144.0</ele>
        <time>2018-12-10T09:11:38.510000Z</time>
      </trkpt>
      <trkpt lat="37.83819614135868" lon="112.00820478766742">
        <ele>1148.0</ele>
        <time>2018-12-10T09:11:47.510000Z</time>
      </trkpt>
      <trkpt lat="37.838282046193356" lon="112.00824406206549">
        <ele>1146.0</ele>
        <time>2018-12-10T09:11:50.510000Z</time>
      </trkpt>
      <trkpt lat="37.83853603650155" lon="112.00826340702984">
        <ele>1150.0</ele>
        <time>2018-12-10T09:11:56.510000Z</time>
      </trkpt>
      <trkpt lat="37.83882585868559" lon="112.0082312429178">
        <ele>1150.0</ele>
        <time>2018-12-10T09:12:05.510000Z</time>
      </trkpt>
      <trkpt lat="37.839016071712244" lon="112.00816653941675">
        <ele>1146.0</ele>
        <time>2018-12-10T09:12:11.510000Z</time>
      </trkpt>
      <trkpt lat="37.83930783146242" lon="112.00816318176715">
        <ele>1141.0</ele>
        <time>2018-12-10T09:12:20.510000Z</time>
      </trkpt>
      <trkpt lat="37.83967633300112" lon="112.00809937460005">
        <ele>1141.0</ele>
        <time>2018-12-10T09:12:32.510000Z</time>
      </trkpt>
      <trkpt lat="37.83998833974989" lon="112.00805204597575">
        <ele>1140.0</ele>
        <time>2018-12-10T09:12:41.510000Z</time>
      </trkpt>
      <trkpt lat="37.840111867590636" lon="112.00802445892272">
        <ele>1140.0</ele>
        <time>2018-12-10T09:12:44.510000Z</time>
      </trkpt>
      <trkpt lat="37.84040399512644" lon="112.00804929321023">
        <ele>1141.0</ele>
        <time>2018-12-10T09:12:53.510000Z</time>
      </trkpt>
      <trkpt lat="37.84072642783684" lon="112.00810169622413">
        <ele>1140.0</ele>
        <time>2018-12-10T09:13:02.510000Z</time>
      </trkpt>
      <trkpt lat="37.841017306234576" lon="112.00816433097958">
        <ele>1140.0</ele>
        <time>2018-12-10T09:13:11.510000Z</time>
      </trkpt>
      <trkpt lat="37.84135593705929" lon="112.00817138068223">
        <ele>1141.0</ele>
        <time>2018-12-10T09:13:20.510000Z</time>
      </trkpt>
      <trkpt lat="37.84161318908862" lon="112.00813162087398">
        <ele>1137.0</ele>
        <time>2018-12-10T09:13:29.510000Z</time>
      </trkpt>
      <trkpt lat="37.84170058831064" lon="112.0080893691751">
        <ele>1139.0</ele>
        <time>2018-12-10T09:13:32.510000Z</time>
      </trkpt>
      <trkpt lat="37.841892154176705" lon="112.00799160144409">
        <ele>1132.0</ele>
        <time>2018-12-10T09:13:38.510000Z</time>
      </trkpt>
      <trkpt lat="37.8420494305935" lon="112.00785209017116">
        <ele>1130.0</ele>
        <time>2018-12-10T09:13:44.510000Z</time>
      </trkpt>
      <trkpt lat="37.84212831759588" lon="112.00779460466808">
        <ele>1128.0</ele>
        <time>2018-12-10T09:13:47.510000Z</time>
      </trkpt>
      <trkpt lat="37.842198618653406" lon="112.00773966733693">
        <ele>1127.0</ele>
        <time>2018-12-10T09:13:50.510000Z</time>
      </trkpt>
      <trkpt lat="37.842450147973416" lon="112.0075831173727">
        <ele>1126.0</ele>
        <time>2018-12-10T09:13:59.510000Z</time>
      </trkpt>
      <trkpt lat="37.84268537364791" lon="112.00737087167781">
        <ele>1139.0</ele>
        <time>2018-12-10T09:14:08.510000Z</time>
      </trkpt>
      <trkpt lat="37.84283754192371" lon="112.00727207014553">
        <ele>1131.0</ele>
        <time>2018-12-10T09:14:14.510000Z</time>
      </trkpt>
      <trkpt lat="37.84291591291192" lon="112.00723617683398">
        <ele>1130.0</ele>
        <time>2018-12-10T09:14:17.510000Z</time>
      </trkpt>
      <trkpt lat="37.843096665445124" lon="112.00710656403533">
        <ele>1130.0</ele>
        <time>2018-12-10T09:14:23.510000Z</time>
      </trkpt>
      <trkpt lat="37.843311379062555" lon="112.00689942608597">
        <ele>1129.0</ele>
        <time>2018-12-10T09:14:32.510000Z</time>
      </trkpt>
      <trkpt lat="37.84355739836903" lon="112.00670047398533">
        <ele>1129.0</ele>
        <time>2018-12-10T09:14:41.510000Z</time>
      </trkpt>
      <trkpt lat="37.8438303011934" lon="112.0064976831301">
        <ele>1128.0</ele>
        <time>2018-12-10T09:14:50.510000Z</time>
      </trkpt>
      <trkpt lat="37.84391164805035" lon="112.00642149131004">
        <ele>1130.0</ele>
        <time>2018-12-10T09:14:53.510000Z</time>
      </trkpt>
      <trkpt lat="37.84417248951857" lon="112.00625946884024">
        <ele>1127.0</ele>
        <time>2018-12-10T09:15:02.510000Z</time>
      </trkpt>
      <trkpt lat="37.84436465254582" lon="112.0061816189829">
        <ele>1128.0</ele>
        <time>2018-12-10T09:15:08.510000Z</time>
      </trkpt>
      <trkpt lat="37.84446060789718" lon="112.00614067014801">
        <ele>1128.0</ele>
        <time>2018-12-10T09:15:11.510000Z</time>
      </trkpt>
      <trkpt lat="37.84456124203744" lon="112.00612379406205">
        <ele>1130.0</ele>
        <time>2018-12-10T09:15:14.510000Z</time>
      </trkpt>
      <trkpt lat="37.844881728032476" lon="112.00621718701487">
        <ele>1129.0</ele>
        <time>2018-12-10T09:15:23.510000Z</time>
      </trkpt>
      <trkpt lat="37.84516055213858" lon="112.006264285357">
        <ele>1131.0</ele>
        <time>2018-12-10T09:15:32.510000Z</time>
      </trkpt>
      <trkpt lat="37.845461859533586" lon="112.00638297765869">
        <ele>1127.0</ele>
        <time>2018-12-10T09:15:41.510000Z</time>
      </trkpt>
      <trkpt lat="37.845551530591436" lon="112.00642173369627">
        <ele>1127.0</ele>
        <time>2018-12-10T09:15:44.510000Z</time>
      </trkpt>
      <trkpt lat="37.84589526231529" lon="112.00651758140106">
        <ele>1126.0</ele>
        <time>2018-12-10T09:15:56.510000Z</time>
      </trkpt>
      <trkpt lat="37.84617887909585" lon="112.00658145703225">
        <ele>1128.0</ele>
        <time>2018-12-10T09:16:05.510000Z</time>
      </trkpt>
      <trkpt lat="37.84637129344803" lon="112.00660966420274">
        <ele>1129.0</ele>
        <time>2018-12-10T09:16:11.510000Z</time>
      </trkpt>
      <trkpt lat="37.84644708761986" lon="112.00663993737999">
        <ele>1126.0</ele>
        <time>2018-12-10T09:16:14.510000Z</time>
      </trkpt>
      <trkpt lat="37.84652135827132" lon="112.00663765360781">
        <ele>1129.0</ele>
        <time>2018-12-10T09:16:17.510000Z</time>
      </trkpt>
      <trkpt lat="37.84682375420112" lon="112.00667803534108">
        <ele>1126.0</ele>
        <time>2018-12-10T09:16:26.510000Z</time>
      </trkpt>
      <trkpt lat="37.84712718917184" lon="112.00673260203367">
        <ele>1123.0</ele>
        <time>2018-12-10T09:16:38.510000Z</time>
      </trkpt>
      <trkpt lat="37.84745217214213" lon="112.0067765298847">
        <ele>1124.0</ele>
        <time>2018-12-10T09:16:47.510000Z</time>
      </trkpt>
      <trkpt lat="37.84775639623755" lon="112.00681172826617">
        <ele>1120.0</ele>
        <time>2018-12-10T09:16:56.510000Z</time>
      </trkpt>
      <trkpt lat="37.84807125632076" lon="112.00685629215302">
        <ele>1116.0</ele>
        <time>2018-12-10T09:17:05.510000Z</time>
      </trkpt>
      <trkpt lat="37.84817053306852" lon="112.00686411935447">
        <ele>1117.0</ele>
        <time>2018-12-10T09:17:08.510000Z</time>
      </trkpt>
      <trkpt lat="37.84824719121926" lon="112.006905467947">
        <ele>1117.0</ele>
        <time>2018-12-10T09:17:11.510000Z</time>
      </trkpt>
      <trkpt lat="37.84843914003223" lon="112.00713494039532">
        <ele>1118.0</ele>
        <time>2018-12-10T09:17:20.510000Z</time>
      </trkpt>
      <trkpt lat="37.8484877343163" lon="112.00721629885741">
        <ele>1117.0</ele>
        <time>2018-12-10T09:17:23.510000Z</time>
      </trkpt>
      <trkpt lat="37.848693969601804" lon="112.00747739741871">
        <ele>1114.0</ele>
        <time>2018-12-10T09:17:32.510000Z</time>
      </trkpt>
      <trkpt lat="37.84876775931098" lon="112.00757118776443">
        <ele>1115.0</ele>
        <time>2018-12-10T09:17:35.510000Z</time>
      </trkpt>
      <trkpt lat="37.8488989264896" lon="112.0078039135201">
        <ele>1121.0</ele>
        <time>2018-12-10T09:17:44.510000Z</time>
      </trkpt>
      <trkpt lat="37.84908153068815" lon="112.00807474862799">
        <ele>1119.0</ele>
        <time>2018-12-10T09:17:53.510000Z</time>
      </trkpt>
      <trkpt lat="37.8492412824319" lon="112.00836694273148">
        <ele>1116.0</ele>
        <time>2018-12-10T09:18:02.510000Z</time>
      </trkpt>
      <trkpt lat="37.84943068252033" lon="112.00863399495651">
        <ele>1115.0</ele>
        <time>2018-12-10T09:18:11.610000Z</time>
      </trkpt>
      <trkpt lat="37.84961131140715" lon="112.0089315955951">
        <ele>1114.0</ele>
        <time>2018-12-10T09:18:20.510000Z</time>
      </trkpt>
      <trkpt lat="37.849726032162316" lon="112.00913053815214">
        <ele>1114.0</ele>
        <time>2018-12-10T09:18:26.510000Z</time>
      </trkpt>
      <trkpt lat="37.8498908664012" lon="112.00954086784047">
        <ele>1113.0</ele>
        <time>2018-12-10T09:18:38.510000Z</time>
      </trkpt>
      <trkpt lat="37.849919494384665" lon="112.0096776481828">
        <ele>1112.0</ele>
        <time>2018-12-10T09:18:41.510000Z</time>
      </trkpt>
      <trkpt lat="37.84992505871756" lon="112.00981524257676">
        <ele>1112.0</ele>
        <time>2018-12-10T09:18:44.510000Z</time>
      </trkpt>
      <trkpt lat="37.84990181402365" lon="112.01015477406513">
        <ele>1113.0</ele>
        <time>2018-12-10T09:18:53.510000Z</time>
      </trkpt>
      <trkpt lat="37.849873386887104" lon="112.01053507348513">
        <ele>1113.0</ele>
        <time>2018-12-10T09:19:02.510000Z</time>
      </trkpt>
      <trkpt lat="37.849839348903956" lon="112.01093807491776">
        <ele>1112.0</ele>
        <time>2018-12-10T09:19:11.510000Z</time>
      </trkpt>
      <trkpt lat="37.849814047996524" lon="112.01131260389714">
        <ele>1112.0</ele>
        <time>2018-12-10T09:19:20.510000Z</time>
      </trkpt>
      <trkpt lat="37.849791159526276" lon="112.0117186467993">
        <ele>1112.0</ele>
        <time>2018-12-10T09:19:29.510000Z</time>
      </trkpt>
      <trkpt lat="37.84978889916332" lon="112.01184273054882">
        <ele>1111.0</ele>
        <time>2018-12-10T09:19:32.510000Z</time>
      </trkpt>
      <trkpt lat="37.84981132999536" lon="112.01196627097487">
        <ele>1111.0</ele>
        <time>2018-12-10T09:19:35.510000Z</time>
      </trkpt>
      <trkpt lat="37.8497445549888" lon="112.01235096762521">
        <ele>1111.0</ele>
        <time>2018-12-10T09:19:44.510000Z</time>
      </trkpt>
      <trkpt lat="37.84976255972774" lon="112.01259778413642">
        <ele>1111.0</ele>
        <time>2018-12-10T09:19:50.510000Z</time>
      </trkpt>
      <trkpt lat="37.8497433338824" lon="112.01286596320281">
        <ele>1112.0</ele>
        <time>2018-12-10T09:19:56.510000Z</time>
      </trkpt>
      <trkpt lat="37.849685818612784" lon="112.01324039273179">
        <ele>1113.0</ele>
        <time>2018-12-10T09:20:05.510000Z</time>
      </trkpt>
      <trkpt lat="37.84970101379441" lon="112.01359375807009">
        <ele>1113.0</ele>
        <time>2018-12-10T09:20:14.510000Z</time>
      </trkpt>
      <trkpt lat="37.84963858717185" lon="112.01395132913323">
        <ele>1113.0</ele>
        <time>2018-12-10T09:20:23.510000Z</time>
      </trkpt>
      <trkpt lat="37.84958847818905" lon="112.01432756890377">
        <ele>1112.0</ele>
        <time>2018-12-10T09:20:32.610000Z</time>
      </trkpt>
      <trkpt lat="37.849563979528064" lon="112.01445099339378">
        <ele>1112.0</ele>
        <time>2018-12-10T09:20:35.510000Z</time>
      </trkpt>
      <trkpt lat="37.849524650902595" lon="112.01484122599798">
        <ele>1110.0</ele>
        <time>2018-12-10T09:20:44.610000Z</time>
      </trkpt>
      <trkpt lat="37.849517124588736" lon="112.01519429714699">
        <ele>1110.0</ele>
        <time>2018-12-10T09:20:53.610000Z</time>
      </trkpt>
      <trkpt lat="37.84947135953697" lon="112.01554823770506">
        <ele>1109.0</ele>
        <time>2018-12-10T09:21:02.510000Z</time>
      </trkpt>
      <trkpt lat="37.84943524149171" lon="112.01588785819332">
        <ele>1109.0</ele>
        <time>2018-12-10T09:21:11.510000Z</time>
      </trkpt>
      <trkpt lat="37.84937761816404" lon="112.01611365017624">
        <ele>1108.0</ele>
        <time>2018-12-10T09:21:17.510000Z</time>
      </trkpt>
      <trkpt lat="37.84934317253964" lon="112.01648078427696">
        <ele>1108.0</ele>
        <time>2018-12-10T09:21:26.510000Z</time>
      </trkpt>
      <trkpt lat="37.8493261891196" lon="112.01685170201809">
        <ele>1108.0</ele>
        <time>2018-12-10T09:21:35.510000Z</time>
      </trkpt>
      <trkpt lat="37.84932403706514" lon="112.0169676612652">
        <ele>1107.0</ele>
        <time>2018-12-10T09:21:38.510000Z</time>
      </trkpt>
      <trkpt lat="37.84927349654688" lon="112.01730522177311">
        <ele>1107.0</ele>
        <time>2018-12-10T09:21:47.510000Z</time>
      </trkpt>
      <trkpt lat="37.84925403239651" lon="112.01756964427402">
        <ele>1108.0</ele>
        <time>2018-12-10T09:21:53.510000Z</time>
      </trkpt>
      <trkpt lat="37.84926132526434" lon="112.01769972940016">
        <ele>1108.0</ele>
        <time>2018-12-10T09:21:56.610000Z</time>
      </trkpt>
      <trkpt lat="37.849210655987974" lon="112.01813701644335">
        <ele>1108.0</ele>
        <time>2018-12-10T09:22:05.510000Z</time>
      </trkpt>
      <trkpt lat="37.84916265407353" lon="112.01845112724827">
        <ele>1108.0</ele>
        <time>2018-12-10T09:22:11.510000Z</time>
      </trkpt>
      <trkpt lat="37.849149329237044" lon="112.01877489079965">
        <ele>1109.0</ele>
        <time>2018-12-10T09:22:17.510000Z</time>
      </trkpt>
      <trkpt lat="37.84914638052059" lon="112.01919974679123">
        <ele>1109.0</ele>
        <time>2018-12-10T09:22:26.510000Z</time>
      </trkpt>
      <trkpt lat="37.849144820554876" lon="112.01956665515691">
        <ele>1110.0</ele>
        <time>2018-12-10T09:22:38.510000Z</time>
      </trkpt>
      <trkpt lat="37.849149417381035" lon="112.01964995088434">
        <ele>1111.0</ele>
        <time>2018-12-10T09:22:41.510000Z</time>
      </trkpt>
      <trkpt lat="37.849080012412585" lon="112.01974998318117">
        <ele>1111.0</ele>
        <time>2018-12-10T09:22:50.510000Z</time>
      </trkpt>
      <trkpt lat="37.84910224358347" lon="112.01985407870366">
        <ele>1111.0</ele>
        <time>2018-12-10T09:22:56.510000Z</time>
      </trkpt>
      <trkpt lat="37.84915705330891" lon="112.0199505998046">
        <ele>1111.0</ele>
        <time>2018-12-10T09:23:02.510000Z</time>
      </trkpt>
      <trkpt lat="37.849211154601704" lon="112.0201211603452">
        <ele>1110.0</ele>
        <time>2018-12-10T09:23:11.510000Z</time>
      </trkpt>
      <trkpt lat="37.849204725435186" lon="112.02018063081563">
        <ele>1109.0</ele>
        <time>2018-12-10T09:23:14.510000Z</time>
      </trkpt>
      <trkpt lat="37.84912049075657" lon="112.02022234312642">
        <ele>1109.0</ele>
        <time>2018-12-10T09:23:17.510000Z</time>
      </trkpt>
      <trkpt lat="37.84911894579651" lon="112.02029075154263">
        <ele>1109.0</ele>
        <time>2018-12-10T09:23:20.510000Z</time>
      </trkpt>
      <trkpt lat="37.849159517311655" lon="112.02043486404375">
        <ele>1109.0</ele>
        <time>2018-12-10T09:23:26.510000Z</time>
      </trkpt>
      <trkpt lat="37.849157387682766" lon="112.02051868517147">
        <ele>1108.0</ele>
        <time>2018-12-10T09:23:32.510000Z</time>
      </trkpt>
      <trkpt lat="37.84911217086723" lon="112.02058385469887">
        <ele>1108.0</ele>
        <time>2018-12-10T09:23:38.510000Z</time>
      </trkpt>
      <trkpt lat="37.849150140719274" lon="112.02093168168527">
        <ele>1109.0</ele>
        <time>2018-12-10T09:23:50.510000Z</time>
      </trkpt>
      <trkpt lat="37.84917278118579" lon="112.02101844791157">
        <ele>1108.0</ele>
        <time>2018-12-10T09:23:53.510000Z</time>
      </trkpt>
      <trkpt lat="37.849176506806565" lon="112.02110779241934">
        <ele>1108.0</ele>
        <time>2018-12-10T09:23:56.510000Z</time>
      </trkpt>
      <trkpt lat="37.849135349167085" lon="112.02153266560784">
        <ele>1107.0</ele>
        <time>2018-12-10T09:24:08.510000Z</time>
      </trkpt>
      <trkpt lat="37.84914914968256" lon="112.02184586791303">
        <ele>1108.0</ele>
        <time>2018-12-10T09:24:17.510000Z</time>
      </trkpt>
      <trkpt lat="37.84913442791804" lon="112.02197098360531">
        <ele>1107.0</ele>
        <time>2018-12-10T09:24:20.510000Z</time>
      </trkpt>
      <trkpt lat="37.849150134579645" lon="112.02232479031298">
        <ele>1108.0</ele>
        <time>2018-12-10T09:24:29.510000Z</time>
      </trkpt>
      <trkpt lat="37.84912241354746" lon="112.0227122879778">
        <ele>1108.0</ele>
        <time>2018-12-10T09:24:38.510000Z</time>
      </trkpt>
      <trkpt lat="37.849102191341636" lon="112.0230670132318">
        <ele>1108.0</ele>
        <time>2018-12-10T09:24:47.510000Z</time>
      </trkpt>
      <trkpt lat="37.8490794342763" lon="112.02342606554903">
        <ele>1107.0</ele>
        <time>2018-12-10T09:24:56.510000Z</time>
      </trkpt>
      <trkpt lat="37.8490743446064" lon="112.0238758002976">
        <ele>1107.0</ele>
        <time>2018-12-10T09:25:08.510000Z</time>
      </trkpt>
      <trkpt lat="37.84910035237077" lon="112.02424461349464">
        <ele>1108.0</ele>
        <time>2018-12-10T09:25:17.510000Z</time>
      </trkpt>
      <trkpt lat="37.849077677850296" lon="112.02436443433959">
        <ele>1108.0</ele>
        <time>2018-12-10T09:25:20.510000Z</time>
      </trkpt>
      <trkpt lat="37.8490155332965" lon="112.02456675349806">
        <ele>1108.0</ele>
        <time>2018-12-10T09:25:26.510000Z</time>
      </trkpt>
      <trkpt lat="37.848999019761834" lon="112.02465386504402">
        <ele>1108.0</ele>
        <time>2018-12-10T09:25:29.510000Z</time>
      </trkpt>
      <trkpt lat="37.849020066559916" lon="112.02477110492434">
        <ele>1108.0</ele>
        <time>2018-12-10T09:25:35.510000Z</time>
      </trkpt>
      <trkpt lat="37.84904765906463" lon="112.02484936234569">
        <ele>1109.0</ele>
        <time>2018-12-10T09:25:38.510000Z</time>
      </trkpt>
      <trkpt lat="37.849107203450345" lon="112.0248724104036">
        <ele>1109.0</ele>
        <time>2018-12-10T09:25:41.510000Z</time>
      </trkpt>
      <trkpt lat="37.849170028684455" lon="112.02491234307948">
        <ele>1109.0</ele>
        <time>2018-12-10T09:25:44.510000Z</time>
      </trkpt>
      <trkpt lat="37.84917387176412" lon="112.0250179932628">
        <ele>1108.0</ele>
        <time>2018-12-10T09:25:50.510000Z</time>
      </trkpt>
      <trkpt lat="37.84914989877319" lon="112.02529089682542">
        <ele>1110.0</ele>
        <time>2018-12-10T09:26:02.510000Z</time>
      </trkpt>
      <trkpt lat="37.8490979819319" lon="112.02537126301539">
        <ele>1110.0</ele>
        <time>2018-12-10T09:26:05.510000Z</time>
      </trkpt>
      <trkpt lat="37.84908430509912" lon="112.02543766309878">
        <ele>1111.0</ele>
        <time>2018-12-10T09:26:08.510000Z</time>
      </trkpt>
      <trkpt lat="37.849095542256556" lon="112.02552096207003">
        <ele>1111.0</ele>
        <time>2018-12-10T09:26:11.510000Z</time>
      </trkpt>
      <trkpt lat="37.84913386343621" lon="112.02556469260655">
        <ele>1111.0</ele>
        <time>2018-12-10T09:26:14.510000Z</time>
      </trkpt>
      <trkpt lat="37.849204729323" lon="112.0255742738276">
        <ele>1112.0</ele>
        <time>2018-12-10T09:26:17.510000Z</time>
      </trkpt>
      <trkpt lat="37.849094708434514" lon="112.02569921249457">
        <ele>1112.0</ele>
        <time>2018-12-10T09:26:26.510000Z</time>
      </trkpt>
      <trkpt lat="37.849128676116976" lon="112.02577198757679">
        <ele>1113.0</ele>
        <time>2018-12-10T09:26:32.510000Z</time>
      </trkpt>
      <trkpt lat="37.84919862854665" lon="112.02572473999912">
        <ele>1113.0</ele>
        <time>2018-12-10T09:26:35.510000Z</time>
      </trkpt>
      <trkpt lat="37.849339819218" lon="112.0256511358504">
        <ele>1113.0</ele>
        <time>2018-12-10T09:26:41.510000Z</time>
      </trkpt>
      <trkpt lat="37.8494035210862" lon="112.0256323800427">
        <ele>1112.0</ele>
        <time>2018-12-10T09:26:44.510000Z</time>
      </trkpt>
      <trkpt lat="37.84945593797494" lon="112.02564624626902">
        <ele>1112.0</ele>
        <time>2018-12-10T09:26:47.510000Z</time>
      </trkpt>
      <trkpt lat="37.849516142019844" lon="112.0256591270475">
        <ele>1112.0</ele>
        <time>2018-12-10T09:26:50.510000Z</time>
      </trkpt>
      <trkpt lat="37.849554664894086" lon="112.0256870806733">
        <ele>1112.0</ele>
        <time>2018-12-10T09:26:53.510000Z</time>
      </trkpt>
      <trkpt lat="37.84955268688279" lon="112.02579275427964">
        <ele>1112.0</ele>
        <time>2018-12-10T09:26:56.510000Z</time>
      </trkpt>
      <trkpt lat="37.84950084230833" lon="112.0259360266649">
        <ele>1112.0</ele>
        <time>2018-12-10T09:26:59.510000Z</time>
      </trkpt>
      <trkpt lat="37.84934025073025" lon="112.0261835201134">
        <ele>1112.0</ele>
        <time>2018-12-10T09:27:05.510000Z</time>
      </trkpt>
      <trkpt lat="37.849286422618825" lon="112.02630318692991">
        <ele>1111.0</ele>
        <time>2018-12-10T09:27:08.510000Z</time>
      </trkpt>
      <trkpt lat="37.84916579449161" lon="112.02644262351016">
        <ele>1111.0</ele>
        <time>2018-12-10T09:27:11.510000Z</time>
      </trkpt>
      <trkpt lat="37.84902321512281" lon="112.0265004414689">
        <ele>1111.0</ele>
        <time>2018-12-10T09:27:14.510000Z</time>
      </trkpt>
      <trkpt lat="37.84876086659359" lon="112.0264945581075">
        <ele>1110.0</ele>
        <time>2018-12-10T09:27:20.610000Z</time>
      </trkpt>
      <trkpt lat="37.84864613645928" lon="112.0264987120905">
        <ele>1111.0</ele>
        <time>2018-12-10T09:27:23.610000Z</time>
      </trkpt>
      <trkpt lat="37.84844319178305" lon="112.02639363839897">
        <ele>1112.0</ele>
        <time>2018-12-10T09:27:29.510000Z</time>
      </trkpt>
      <trkpt lat="37.84834851336812" lon="112.02638503677525">
        <ele>1112.0</ele>
        <time>2018-12-10T09:27:32.510000Z</time>
      </trkpt>
      <trkpt lat="37.84824453268474" lon="112.02637755514294">
        <ele>1113.0</ele>
        <time>2018-12-10T09:27:35.510000Z</time>
      </trkpt>
      <trkpt lat="37.84807090275518" lon="112.0263693224274">
        <ele>1113.0</ele>
        <time>2018-12-10T09:27:41.510000Z</time>
      </trkpt>
      <trkpt lat="37.847859472706126" lon="112.02643738465497">
        <ele>1114.0</ele>
        <time>2018-12-10T09:27:50.510000Z</time>
      </trkpt>
      <trkpt lat="37.84766998510925" lon="112.0267311111955">
        <ele>1114.0</ele>
        <time>2018-12-10T09:28:05.510000Z</time>
      </trkpt>
      <trkpt lat="37.847643264948104" lon="112.02679274675523">
        <ele>1115.0</ele>
        <time>2018-12-10T09:28:11.610000Z</time>
      </trkpt>
      <trkpt lat="37.84767919899229" lon="112.02693799206355">
        <ele>1116.0</ele>
        <time>2018-12-10T09:28:17.510000Z</time>
      </trkpt>
      <trkpt lat="37.84774151564076" lon="112.02697147187595">
        <ele>1117.0</ele>
        <time>2018-12-10T09:28:20.510000Z</time>
      </trkpt>
      <trkpt lat="37.8476751978581" lon="112.02699399499483">
        <ele>1119.0</ele>
        <time>2018-12-10T09:28:29.510000Z</time>
      </trkpt>
      <trkpt lat="37.84759751094629" lon="112.02693600458748">
        <ele>1119.0</ele>
        <time>2018-12-10T09:28:32.510000Z</time>
      </trkpt>
      <trkpt lat="37.847547631218035" lon="112.0269822945556">
        <ele>1118.0</ele>
        <time>2018-12-10T09:28:35.610000Z</time>
      </trkpt>
      <trkpt lat="37.84754884784306" lon="112.02707060021382">
        <ele>1118.0</ele>
        <time>2018-12-10T09:28:38.510000Z</time>
      </trkpt>
      <trkpt lat="37.847610833714924" lon="112.0271525514201">
        <ele>1117.0</ele>
        <time>2018-12-10T09:28:41.610000Z</time>
      </trkpt>
      <trkpt lat="37.8476323098651" lon="112.02722798295216">
        <ele>1119.0</ele>
        <time>2018-12-10T09:28:44.510000Z</time>
      </trkpt>
      <trkpt lat="37.84763247527329" lon="112.02745965408668">
        <ele>1120.0</ele>
        <time>2018-12-10T09:28:50.510000Z</time>
      </trkpt>
      <trkpt lat="37.847606163899314" lon="112.02759548070682">
        <ele>1120.0</ele>
        <time>2018-12-10T09:28:56.510000Z</time>
      </trkpt>
      <trkpt lat="37.847638856598095" lon="112.02770623699439">
        <ele>1120.0</ele>
        <time>2018-12-10T09:29:02.510000Z</time>
      </trkpt>
      <trkpt lat="37.84755982650053" lon="112.0278267919636">
        <ele>1120.0</ele>
        <time>2018-12-10T09:29:08.510000Z</time>
      </trkpt>
      <trkpt lat="37.8475426345112" lon="112.02788553186623">
        <ele>1120.0</ele>
        <time>2018-12-10T09:29:11.710000Z</time>
      </trkpt>
      <trkpt lat="37.84753008925572" lon="112.02805875576895">
        <ele>1119.0</ele>
        <time>2018-12-10T09:29:23.510000Z</time>
      </trkpt>
      <trkpt lat="37.8473962057541" lon="112.02821428323591">
        <ele>1118.0</ele>
        <time>2018-12-10T09:29:35.610000Z</time>
      </trkpt>
      <trkpt lat="37.84733877975218" lon="112.02817831961396">
        <ele>1118.0</ele>
        <time>2018-12-10T09:29:38.510000Z</time>
      </trkpt>
      <trkpt lat="37.847253102742705" lon="112.02819106402286">
        <ele>1119.0</ele>
        <time>2018-12-10T09:29:48.510000Z</time>
      </trkpt>
      <trkpt lat="37.84724382297412" lon="112.02824125356985">
        <ele>1123.0</ele>
        <time>2018-12-10T09:29:52.310000Z</time>
      </trkpt>
      <trkpt lat="37.84730307276932" lon="112.02845527109389">
        <ele>1115.0</ele>
        <time>2018-12-10T09:30:00.710000Z</time>
      </trkpt>
      <trkpt lat="37.84731448736767" lon="112.02857735021053">
        <ele>1113.0</ele>
        <time>2018-12-10T09:30:06.310000Z</time>
      </trkpt>
      <trkpt lat="37.84724997040331" lon="112.02867494666786">
        <ele>1109.0</ele>
        <time>2018-12-10T09:30:10.710000Z</time>
      </trkpt>
      <trkpt lat="37.84719834689792" lon="112.02879661509446">
        <ele>1108.0</ele>
        <time>2018-12-10T09:30:17.510000Z</time>
      </trkpt>
      <trkpt lat="37.8472590259878" lon="112.0288542519072">
        <ele>1107.0</ele>
        <time>2018-12-10T09:30:20.610000Z</time>
      </trkpt>
      <trkpt lat="37.84733251499899" lon="112.02888887306342">
        <ele>1107.0</ele>
        <time>2018-12-10T09:30:23.510000Z</time>
      </trkpt>
      <trkpt lat="37.84735358195462" lon="112.02894302394576">
        <ele>1109.0</ele>
        <time>2018-12-10T09:30:26.510000Z</time>
      </trkpt>
      <trkpt lat="37.847467066485976" lon="112.02896643231459">
        <ele>1111.0</ele>
        <time>2018-12-10T09:30:32.510000Z</time>
      </trkpt>
      <trkpt lat="37.84748767184405" lon="112.02905042818709">
        <ele>1113.0</ele>
        <time>2018-12-10T09:30:35.510000Z</time>
      </trkpt>
      <trkpt lat="37.84755975001184" lon="112.0290508580863">
        <ele>1115.0</ele>
        <time>2018-12-10T09:30:38.510000Z</time>
      </trkpt>
      <trkpt lat="37.847591111724476" lon="112.0292106227594">
        <ele>1114.0</ele>
        <time>2018-12-10T09:30:44.510000Z</time>
      </trkpt>
      <trkpt lat="37.847590163921886" lon="112.0292868402462">
        <ele>1116.0</ele>
        <time>2018-12-10T09:30:47.510000Z</time>
      </trkpt>
      <trkpt lat="37.8475101144469" lon="112.02935154916345">
        <ele>1116.0</ele>
        <time>2018-12-10T09:30:50.510000Z</time>
      </trkpt>
      <trkpt lat="37.84741421886643" lon="112.0293758908378">
        <ele>1115.0</ele>
        <time>2018-12-10T09:30:56.510000Z</time>
      </trkpt>
      <trkpt lat="37.847343281598675" lon="112.0294501199774">
        <ele>1111.0</ele>
        <time>2018-12-10T09:30:59.910000Z</time>
      </trkpt>
      <trkpt lat="37.84707258403005" lon="112.029387693551">
        <ele>1113.0</ele>
        <time>2018-12-10T09:31:08.510000Z</time>
      </trkpt>
      <trkpt lat="37.84693602227506" lon="112.02940584698132">
        <ele>1116.0</ele>
        <time>2018-12-10T09:31:14.510000Z</time>
      </trkpt>
      <trkpt lat="37.84671585788844" lon="112.02945145555425">
        <ele>1121.0</ele>
        <time>2018-12-10T09:31:23.510000Z</time>
      </trkpt>
      <trkpt lat="37.846622031831025" lon="112.02955810576128">
        <ele>1119.0</ele>
        <time>2018-12-10T09:31:35.510000Z</time>
      </trkpt>
      <trkpt lat="37.84650465232635" lon="112.02964189416052">
        <ele>1116.0</ele>
        <time>2018-12-10T09:31:47.510000Z</time>
      </trkpt>
      <trkpt lat="37.84650039819793" lon="112.02968957398205">
        <ele>1116.0</ele>
        <time>2018-12-10T09:31:50.410000Z</time>
      </trkpt>
      <trkpt lat="37.846508460158944" lon="112.02974329892459">
        <ele>1116.0</ele>
        <time>2018-12-10T09:31:53.410000Z</time>
      </trkpt>
      <trkpt lat="37.846519812419444" lon="112.02978343427547">
        <ele>1116.0</ele>
        <time>2018-12-10T09:31:56.410000Z</time>
      </trkpt>
      <trkpt lat="37.846537820839714" lon="112.02977862137499">
        <ele>1116.0</ele>
        <time>2018-12-10T09:31:59.410000Z</time>
      </trkpt>
      <trkpt lat="37.846541828194695" lon="112.02976734192636">
        <ele>1116.0</ele>
        <time>2018-12-10T09:32:02.410000Z</time>
      </trkpt>
      <trkpt lat="37.84653303624865" lon="112.0297437862174">
        <ele>1116.0</ele>
        <time>2018-12-10T09:32:05.410000Z</time>
      </trkpt>
      <trkpt lat="37.846547375224155" lon="112.02971770734732">
        <ele>1116.0</ele>
        <time>2018-12-10T09:32:08.510000Z</time>
      </trkpt>
      <trkpt lat="37.846543970488035" lon="112.02951395289527">
        <ele>1116.0</ele>
        <time>2018-12-10T09:32:26.410000Z</time>
      </trkpt>
      <trkpt lat="37.84653908142477" lon="112.02951611722472">
        <ele>1115.0</ele>
        <time>2018-12-10T09:32:50.510000Z</time>
      </trkpt>
      <trkpt lat="37.84692659336955" lon="112.02969998920237">
        <ele>1120.0</ele>
        <time>2018-12-10T09:33:02.510000Z</time>
      </trkpt>
      <trkpt lat="37.847147927482965" lon="112.02961449435928">
        <ele>1131.0</ele>
        <time>2018-12-10T09:33:05.510000Z</time>
      </trkpt>
      <trkpt lat="37.847147927482965" lon="112.02961449435928">
        <ele>1131.0</ele>
        <time>2018-12-10T09:33:11.010000Z</time>
      </trkpt>
      <trkpt lat="37.84715009456785" lon="112.02961584644153">
        <ele>1141.0</ele>
        <time>2018-12-10T09:37:20.410000Z</time>
      </trkpt>
      <trkpt lat="37.847150633783656" lon="112.02961719871973">
        <ele>1141.0</ele>
        <time>2018-12-10T09:37:26.510000Z</time>
      </trkpt>
    </trkseg>
  </trk>
</gpx>