<?xml version="1.0" encoding="UTF-8"?>
<gpx xmlns="http://www.topografix.com/GPX/1/1" xmlns:gpxtpx="http://www.garmin.com/xmlschemas/TrackPointExtension/v1" xmlns:xsi="http://www.w3.org/2001/XMLSchema-instance" xsi:schemaLocation="http://www.topografix.com/GPX/1/1 http://www.topografix.com/GPX/1/1/gpx.xsd" version="1.1" creator="gpx.py -- https://github.com/tkrajina/gpxpy">
  <trk>
    <name>gpx from keep</name>
    <type>Run</type>
    <trkseg>
      <trkpt lat="37.84701966539759" lon="112.029704556958">
        <ele>1131.49</ele>
        <time>2019-08-31T22:50:47.634000Z</time>
      </trkpt>
      <trkpt lat="37.847008561234354" lon="112.02961588798946">
        <ele>1139.5</ele>
        <time>2019-08-31T22:50:50.634000Z</time>
      </trkpt>
      <trkpt lat="37.847153479379394" lon="112.02954074049863">
        <ele>1135.73</ele>
        <time>2019-08-31T22:51:02.934000Z</time>
      </trkpt>
      <trkpt lat="37.84715536745737" lon="112.02946569440876">
        <ele>1135.32</ele>
        <time>2019-08-31T22:51:08.934000Z</time>
      </trkpt>
      <trkpt lat="37.84726893789925" lon="112.02940486033661">
        <ele>1122.63</ele>
        <time>2019-08-31T22:51:20.934000Z</time>
      </trkpt>
      <trkpt lat="37.84731273013684" lon="112.02929232592814">
        <ele>1117.92</ele>
        <time>2019-08-31T22:51:26.934000Z</time>
      </trkpt>
      <trkpt lat="37.847279803688444" lon="112.02899693361168">
        <ele>1111.71</ele>
        <time>2019-08-31T22:51:35.934000Z</time>
      </trkpt>
      <trkpt lat="37.84730006034596" lon="112.02865405138597">
        <ele>1116.21</ele>
        <time>2019-08-31T22:51:44.934000Z</time>
      </trkpt>
      <trkpt lat="37.847322751975895" lon="112.02827458227989">
        <ele>1116.25</ele>
        <time>2019-08-31T22:51:56.934000Z</time>
      </trkpt>
      <trkpt lat="37.84731700809214" lon="112.02798636299666">
        <ele>1122.21</ele>
        <time>2019-08-31T22:52:05.934000Z</time>
      </trkpt>
      <trkpt lat="37.8472930695626" lon="112.0278639681769">
        <ele>1121.19</ele>
        <time>2019-08-31T22:52:08.934000Z</time>
      </trkpt>
      <trkpt lat="37.84740816159805" lon="112.02754396204368">
        <ele>1116.91</ele>
        <time>2019-08-31T22:52:26.934000Z</time>
      </trkpt>
      <trkpt lat="37.8474525085585" lon="112.02725423327146">
        <ele>1122.82</ele>
        <time>2019-08-31T22:52:35.934000Z</time>
      </trkpt>
      <trkpt lat="37.84757681389972" lon="112.02695022142305">
        <ele>1120.94</ele>
        <time>2019-08-31T22:52:47.934000Z</time>
      </trkpt>
      <trkpt lat="37.84776498700905" lon="112.026696279402">
        <ele>1116.2</ele>
        <time>2019-08-31T22:52:59.934000Z</time>
      </trkpt>
      <trkpt lat="37.84782006095551" lon="112.02658522703373">
        <ele>1111.6</ele>
        <time>2019-08-31T22:53:05.934000Z</time>
      </trkpt>
      <trkpt lat="37.84788918215932" lon="112.02652399436761">
        <ele>1107.41</ele>
        <time>2019-08-31T22:53:11.934000Z</time>
      </trkpt>
      <trkpt lat="37.84816792859385" lon="112.02649781661151">
        <ele>1107.48</ele>
        <time>2019-08-31T22:53:23.934000Z</time>
      </trkpt>
      <trkpt lat="37.848407369472355" lon="112.02650264530081">
        <ele>1107.57</ele>
        <time>2019-08-31T22:53:32.934000Z</time>
      </trkpt>
      <trkpt lat="37.84851825647913" lon="112.0265505936558">
        <ele>1104.86</ele>
        <time>2019-08-31T22:53:38.934000Z</time>
      </trkpt>
      <trkpt lat="37.84869618108698" lon="112.02651231447314">
        <ele>1106.97</ele>
        <time>2019-08-31T22:53:44.934000Z</time>
      </trkpt>
      <trkpt lat="37.84879976433922" lon="112.02653429780604">
        <ele>1107.34</ele>
        <time>2019-08-31T22:53:50.934000Z</time>
      </trkpt>
      <trkpt lat="37.84887640160194" lon="112.02651493328749">
        <ele>1105.21</ele>
        <time>2019-08-31T22:53:53.934000Z</time>
      </trkpt>
      <trkpt lat="37.84892381586663" lon="112.0262660042482">
        <ele>1102.26</ele>
        <time>2019-08-31T22:54:02.934000Z</time>
      </trkpt>
      <trkpt lat="37.84896158485037" lon="112.0261887088817">
        <ele>1102.15</ele>
        <time>2019-08-31T22:54:05.934000Z</time>
      </trkpt>
      <trkpt lat="37.8490295671174" lon="112.02578087965603">
        <ele>1098.06</ele>
        <time>2019-08-31T22:54:20.934000Z</time>
      </trkpt>
      <trkpt lat="37.849056470173174" lon="112.02558854269982">
        <ele>1099.89</ele>
        <time>2019-08-31T22:54:26.934000Z</time>
      </trkpt>
      <trkpt lat="37.84903047821345" lon="112.02521428218857">
        <ele>1104.93</ele>
        <time>2019-08-31T22:54:35.934000Z</time>
      </trkpt>
      <trkpt lat="37.848998767855804" lon="112.02492010748696">
        <ele>1106.37</ele>
        <time>2019-08-31T22:54:44.934000Z</time>
      </trkpt>
      <trkpt lat="37.84903625050224" lon="112.02471856976588">
        <ele>1109.2</ele>
        <time>2019-08-31T22:54:50.934000Z</time>
      </trkpt>
      <trkpt lat="37.8490299972177" lon="112.02462028169366">
        <ele>1109.4</ele>
        <time>2019-08-31T22:54:53.934000Z</time>
      </trkpt>
      <trkpt lat="37.849074160944205" lon="112.02442450534315">
        <ele>1112.63</ele>
        <time>2019-08-31T22:54:59.934000Z</time>
      </trkpt>
      <trkpt lat="37.849025578078646" lon="112.02402692357073">
        <ele>1117.47</ele>
        <time>2019-08-31T22:55:11.934000Z</time>
      </trkpt>
      <trkpt lat="37.84902829227789" lon="112.02383051823159">
        <ele>1116.14</ele>
        <time>2019-08-31T22:55:17.934000Z</time>
      </trkpt>
      <trkpt lat="37.84900332861384" lon="112.02341732497322">
        <ele>1110.63</ele>
        <time>2019-08-31T22:55:32.934000Z</time>
      </trkpt>
      <trkpt lat="37.84902798965135" lon="112.0230340875441">
        <ele>1110.51</ele>
        <time>2019-08-31T22:55:44.934000Z</time>
      </trkpt>
      <trkpt lat="37.84905149502926" lon="112.022679606001">
        <ele>1108.56</ele>
        <time>2019-08-31T22:55:56.934000Z</time>
      </trkpt>
      <trkpt lat="37.8490673396894" lon="112.02231413346956">
        <ele>1111.86</ele>
        <time>2019-08-31T22:56:08.934000Z</time>
      </trkpt>
      <trkpt lat="37.849072316930744" lon="112.02196436452262">
        <ele>1111.75</ele>
        <time>2019-08-31T22:56:20.934000Z</time>
      </trkpt>
      <trkpt lat="37.84907544194609" lon="112.02167429624272">
        <ele>1113.62</ele>
        <time>2019-08-31T22:56:29.934000Z</time>
      </trkpt>
      <trkpt lat="37.84909727028199" lon="112.02132394848162">
        <ele>1115.11</ele>
        <time>2019-08-31T22:56:41.934000Z</time>
      </trkpt>
      <trkpt lat="37.849099720416" lon="112.02098374332796">
        <ele>1111.91</ele>
        <time>2019-08-31T22:56:53.934000Z</time>
      </trkpt>
      <trkpt lat="37.84911098339948" lon="112.02092326349914">
        <ele>1111.03</ele>
        <time>2019-08-31T22:56:56.934000Z</time>
      </trkpt>
      <trkpt lat="37.84907051804242" lon="112.02052903108708">
        <ele>1106.78</ele>
        <time>2019-08-31T22:57:08.934000Z</time>
      </trkpt>
      <trkpt lat="37.84904819881235" lon="112.02044802852048">
        <ele>1107.36</ele>
        <time>2019-08-31T22:57:11.934000Z</time>
      </trkpt>
      <trkpt lat="37.84906752419497" lon="112.02005131637605">
        <ele>1110.53</ele>
        <time>2019-08-31T22:57:23.934000Z</time>
      </trkpt>
      <trkpt lat="37.84908686480154" lon="112.01969483138866">
        <ele>1109.86</ele>
        <time>2019-08-31T22:57:35.934000Z</time>
      </trkpt>
      <trkpt lat="37.849107259724114" lon="112.01927935836954">
        <ele>1110.18</ele>
        <time>2019-08-31T22:57:47.934000Z</time>
      </trkpt>
      <trkpt lat="37.84910273938532" lon="112.0190892200368">
        <ele>1110.9</ele>
        <time>2019-08-31T22:57:53.934000Z</time>
      </trkpt>
      <trkpt lat="37.84913297320646" lon="112.01893645712502">
        <ele>1113.15</ele>
        <time>2019-08-31T22:57:59.934000Z</time>
      </trkpt>
      <trkpt lat="37.8491567598018" lon="112.01852119616879">
        <ele>1119.63</ele>
        <time>2019-08-31T22:58:11.934000Z</time>
      </trkpt>
      <trkpt lat="37.849183763271064" lon="112.01826291871254">
        <ele>1114.94</ele>
        <time>2019-08-31T22:58:20.934000Z</time>
      </trkpt>
      <trkpt lat="37.84916620646497" lon="112.0178992172376">
        <ele>1117.74</ele>
        <time>2019-08-31T22:58:32.934000Z</time>
      </trkpt>
      <trkpt lat="37.84921175003668" lon="112.01773422366792">
        <ele>1115.86</ele>
        <time>2019-08-31T22:58:38.934000Z</time>
      </trkpt>
      <trkpt lat="37.84924409150976" lon="112.01734205908569">
        <ele>1118.56</ele>
        <time>2019-08-31T22:58:50.934000Z</time>
      </trkpt>
      <trkpt lat="37.849303020671115" lon="112.01691684082783">
        <ele>1116.26</ele>
        <time>2019-08-31T22:59:02.934000Z</time>
      </trkpt>
      <trkpt lat="37.84933927594827" lon="112.01654732131654">
        <ele>1115.84</ele>
        <time>2019-08-31T22:59:14.934000Z</time>
      </trkpt>
      <trkpt lat="37.8493872225615" lon="112.01618442345921">
        <ele>1119.07</ele>
        <time>2019-08-31T22:59:26.934000Z</time>
      </trkpt>
      <trkpt lat="37.849394585262374" lon="112.01599347879925">
        <ele>1117.03</ele>
        <time>2019-08-31T22:59:32.934000Z</time>
      </trkpt>
      <trkpt lat="37.849458832466475" lon="112.01562503142928">
        <ele>1118.77</ele>
        <time>2019-08-31T22:59:44.934000Z</time>
      </trkpt>
      <trkpt lat="37.84951279803066" lon="112.01522923169507">
        <ele>1125.88</ele>
        <time>2019-08-31T22:59:56.934000Z</time>
      </trkpt>
      <trkpt lat="37.84956201163764" lon="112.01480015905183">
        <ele>1118.93</ele>
        <time>2019-08-31T23:00:11.934000Z</time>
      </trkpt>
      <trkpt lat="37.84957791742507" lon="112.01438605971474">
        <ele>1119.36</ele>
        <time>2019-08-31T23:00:23.934000Z</time>
      </trkpt>
      <trkpt lat="37.849609919107856" lon="112.0140344285494">
        <ele>1117.41</ele>
        <time>2019-08-31T23:00:35.934000Z</time>
      </trkpt>
      <trkpt lat="37.84964141132353" lon="112.01368112803242">
        <ele>1119.02</ele>
        <time>2019-08-31T23:00:47.934000Z</time>
      </trkpt>
      <trkpt lat="37.84966321158908" lon="112.01329333464841">
        <ele>1115.54</ele>
        <time>2019-08-31T23:00:59.934000Z</time>
      </trkpt>
      <trkpt lat="37.84969223997936" lon="112.01286894828432">
        <ele>1119.46</ele>
        <time>2019-08-31T23:01:11.934000Z</time>
      </trkpt>
      <trkpt lat="37.8497272346252" lon="112.01251863082459">
        <ele>1117.4</ele>
        <time>2019-08-31T23:01:23.934000Z</time>
      </trkpt>
      <trkpt lat="37.849765717461636" lon="112.01213273052164">
        <ele>1116.21</ele>
        <time>2019-08-31T23:01:35.934000Z</time>
      </trkpt>
      <trkpt lat="37.84979000412983" lon="112.01179186585304">
        <ele>1117.46</ele>
        <time>2019-08-31T23:01:47.934000Z</time>
      </trkpt>
      <trkpt lat="37.84982143783524" lon="112.01139617656602">
        <ele>1122.21</ele>
        <time>2019-08-31T23:01:59.934000Z</time>
      </trkpt>
      <trkpt lat="37.8498430017259" lon="112.0109901374579">
        <ele>1119.76</ele>
        <time>2019-08-31T23:02:11.934000Z</time>
      </trkpt>
      <trkpt lat="37.8498709478824" lon="112.01060649146481">
        <ele>1119.53</ele>
        <time>2019-08-31T23:02:23.934000Z</time>
      </trkpt>
      <trkpt lat="37.8498558036853" lon="112.01020385518841">
        <ele>1122.25</ele>
        <time>2019-08-31T23:02:35.934000Z</time>
      </trkpt>
      <trkpt lat="37.84985624162671" lon="112.00982316176534">
        <ele>1120.63</ele>
        <time>2019-08-31T23:02:47.934000Z</time>
      </trkpt>
      <trkpt lat="37.849847560158224" lon="112.00943898912531">
        <ele>1122.05</ele>
        <time>2019-08-31T23:02:59.934000Z</time>
      </trkpt>
      <trkpt lat="37.84983355465427" lon="112.00933827084576">
        <ele>1120.86</ele>
        <time>2019-08-31T23:03:02.934000Z</time>
      </trkpt>
      <trkpt lat="37.84979938937552" lon="112.00924098310928">
        <ele>1121.84</ele>
        <time>2019-08-31T23:03:05.934000Z</time>
      </trkpt>
      <trkpt lat="37.84969106034511" lon="112.00907296036677">
        <ele>1121.87</ele>
        <time>2019-08-31T23:03:11.934000Z</time>
      </trkpt>
      <trkpt lat="37.84961758042933" lon="112.00888442584343">
        <ele>1121.96</ele>
        <time>2019-08-31T23:03:17.934000Z</time>
      </trkpt>
      <trkpt lat="37.849400727107174" lon="112.00862673748746">
        <ele>1126.1</ele>
        <time>2019-08-31T23:03:29.934000Z</time>
      </trkpt>
      <trkpt lat="37.84920766191745" lon="112.0083230858491">
        <ele>1128.24</ele>
        <time>2019-08-31T23:03:41.934000Z</time>
      </trkpt>
      <trkpt lat="37.849176777583274" lon="112.00823417939039">
        <ele>1126.41</ele>
        <time>2019-08-31T23:03:48.134000Z</time>
      </trkpt>
      <trkpt lat="37.84909701163535" lon="112.0081112508998">
        <ele>1125.91</ele>
        <time>2019-08-31T23:03:59.934000Z</time>
      </trkpt>
      <trkpt lat="37.84909701163535" lon="112.0081112508998">
        <ele>1125.91</ele>
        <time>2019-08-31T23:04:08.034000Z</time>
      </trkpt>
      <trkpt lat="37.84909228165438" lon="112.0081117209797">
        <ele>1124.03</ele>
        <time>2019-08-31T23:04:14.934000Z</time>
      </trkpt>
      <trkpt lat="37.849293806320944" lon="112.00841173181912">
        <ele>1124.65</ele>
        <time>2019-08-31T23:04:44.934000Z</time>
      </trkpt>
      <trkpt lat="37.84945225710027" lon="112.00862587693256">
        <ele>1123.85</ele>
        <time>2019-08-31T23:04:56.934000Z</time>
      </trkpt>
      <trkpt lat="37.84949832146201" lon="112.00871138321757">
        <ele>1122.56</ele>
        <time>2019-08-31T23:04:59.934000Z</time>
      </trkpt>
      <trkpt lat="37.84961442721203" lon="112.0088221609006">
        <ele>1121.09</ele>
        <time>2019-08-31T23:05:05.934000Z</time>
      </trkpt>
      <trkpt lat="37.84975179929929" lon="112.00905232811475">
        <ele>1116.78</ele>
        <time>2019-08-31T23:05:14.934000Z</time>
      </trkpt>
      <trkpt lat="37.8498699076889" lon="112.00939355511058">
        <ele>1118.39</ele>
        <time>2019-08-31T23:05:26.934000Z</time>
      </trkpt>
      <trkpt lat="37.849880079593106" lon="112.00978706842264">
        <ele>1118.56</ele>
        <time>2019-08-31T23:05:38.934000Z</time>
      </trkpt>
      <trkpt lat="37.84985695262413" lon="112.01018583357323">
        <ele>1119.97</ele>
        <time>2019-08-31T23:05:50.934000Z</time>
      </trkpt>
      <trkpt lat="37.84985386694295" lon="112.01059132023413">
        <ele>1119.59</ele>
        <time>2019-08-31T23:06:02.934000Z</time>
      </trkpt>
      <trkpt lat="37.84982123106617" lon="112.01097994670188">
        <ele>1119.66</ele>
        <time>2019-08-31T23:06:14.934000Z</time>
      </trkpt>
      <trkpt lat="37.849784586102" lon="112.01137006437911">
        <ele>1121.35</ele>
        <time>2019-08-31T23:06:26.934000Z</time>
      </trkpt>
      <trkpt lat="37.849775175545325" lon="112.01166434331178">
        <ele>1121.02</ele>
        <time>2019-08-31T23:06:35.934000Z</time>
      </trkpt>
      <trkpt lat="37.84974415317213" lon="112.01207101443188">
        <ele>1121.71</ele>
        <time>2019-08-31T23:06:47.934000Z</time>
      </trkpt>
      <trkpt lat="37.84971726171848" lon="112.0124780166681">
        <ele>1117.63</ele>
        <time>2019-08-31T23:06:59.934000Z</time>
      </trkpt>
      <trkpt lat="37.84969220081274" lon="112.01288029950162">
        <ele>1120.18</ele>
        <time>2019-08-31T23:07:11.934000Z</time>
      </trkpt>
      <trkpt lat="37.849651659096764" lon="112.01326047114522">
        <ele>1117.68</ele>
        <time>2019-08-31T23:07:23.834000Z</time>
      </trkpt>
      <trkpt lat="37.84961189986996" lon="112.0136626962364">
        <ele>1121.34</ele>
        <time>2019-08-31T23:07:35.934000Z</time>
      </trkpt>
      <trkpt lat="37.84957016358956" lon="112.01409094543715">
        <ele>1122.76</ele>
        <time>2019-08-31T23:07:47.934000Z</time>
      </trkpt>
      <trkpt lat="37.84954253297031" lon="112.01445422806732">
        <ele>1116.87</ele>
        <time>2019-08-31T23:07:59.934000Z</time>
      </trkpt>
      <trkpt lat="37.849503368153584" lon="112.01487826901331">
        <ele>1116.98</ele>
        <time>2019-08-31T23:08:11.934000Z</time>
      </trkpt>
      <trkpt lat="37.849466084809535" lon="112.01519214757853">
        <ele>1118.19</ele>
        <time>2019-08-31T23:08:20.934000Z</time>
      </trkpt>
      <trkpt lat="37.849445647244394" lon="112.01545155985119">
        <ele>1115.74</ele>
        <time>2019-08-31T23:08:29.934000Z</time>
      </trkpt>
      <trkpt lat="37.84939111398604" lon="112.0158679127938">
        <ele>1118.9</ele>
        <time>2019-08-31T23:08:41.934000Z</time>
      </trkpt>
      <trkpt lat="37.8493595214945" lon="112.0162823864313">
        <ele>1120.34</ele>
        <time>2019-08-31T23:08:53.934000Z</time>
      </trkpt>
      <trkpt lat="37.84932391912047" lon="112.01668842012943">
        <ele>1119.74</ele>
        <time>2019-08-31T23:09:05.934000Z</time>
      </trkpt>
      <trkpt lat="37.84932603787065" lon="112.0168871666283">
        <ele>1119.66</ele>
        <time>2019-08-31T23:09:11.934000Z</time>
      </trkpt>
      <trkpt lat="37.84926774582383" lon="112.01728333082157">
        <ele>1119.65</ele>
        <time>2019-08-31T23:09:23.934000Z</time>
      </trkpt>
      <trkpt lat="37.84924104627071" lon="112.01769605806413">
        <ele>1119.05</ele>
        <time>2019-08-31T23:09:35.934000Z</time>
      </trkpt>
      <trkpt lat="37.84923293736267" lon="112.01780767374633">
        <ele>1119.43</ele>
        <time>2019-08-31T23:09:38.934000Z</time>
      </trkpt>
      <trkpt lat="37.84920835707414" lon="112.01790498765172">
        <ele>1118.53</ele>
        <time>2019-08-31T23:09:41.934000Z</time>
      </trkpt>
      <trkpt lat="37.849205684772585" lon="112.01808076253255">
        <ele>1113.32</ele>
        <time>2019-08-31T23:09:47.934000Z</time>
      </trkpt>
      <trkpt lat="37.84917146603296" lon="112.0183875767291">
        <ele>1113.47</ele>
        <time>2019-08-31T23:09:56.934000Z</time>
      </trkpt>
      <trkpt lat="37.84918358989392" lon="112.01852189601665">
        <ele>1113.88</ele>
        <time>2019-08-31T23:10:00.434000Z</time>
      </trkpt>
      <trkpt lat="37.84916211460833" lon="112.01894951877827">
        <ele>1112.52</ele>
        <time>2019-08-31T23:10:11.934000Z</time>
      </trkpt>
      <trkpt lat="37.849129738176515" lon="112.01935771992038">
        <ele>1113.59</ele>
        <time>2019-08-31T23:10:23.934000Z</time>
      </trkpt>
      <trkpt lat="37.84909663390426" lon="112.01977764395379">
        <ele>1111.95</ele>
        <time>2019-08-31T23:10:35.934000Z</time>
      </trkpt>
      <trkpt lat="37.84912239459446" lon="112.02005453635651">
        <ele>1108.81</ele>
        <time>2019-08-31T23:10:44.934000Z</time>
      </trkpt>
      <trkpt lat="37.84909379885458" lon="112.02027123034948">
        <ele>1109.02</ele>
        <time>2019-08-31T23:10:50.934000Z</time>
      </trkpt>
      <trkpt lat="37.84912156988872" lon="112.02045702924512">
        <ele>1107.18</ele>
        <time>2019-08-31T23:10:56.934000Z</time>
      </trkpt>
      <trkpt lat="37.84910534031639" lon="112.02081022544446">
        <ele>1107.51</ele>
        <time>2019-08-31T23:11:05.934000Z</time>
      </trkpt>
      <trkpt lat="37.84909026544189" lon="112.02094099654303">
        <ele>1109.73</ele>
        <time>2019-08-31T23:11:08.934000Z</time>
      </trkpt>
      <trkpt lat="37.8491017404459" lon="112.02132530866133">
        <ele>1106.72</ele>
        <time>2019-08-31T23:11:20.934000Z</time>
      </trkpt>
      <trkpt lat="37.84907810199003" lon="112.02167464627549">
        <ele>1106.49</ele>
        <time>2019-08-31T23:11:29.934000Z</time>
      </trkpt>
      <trkpt lat="37.84909617231999" lon="112.02209068547886">
        <ele>1106.97</ele>
        <time>2019-08-31T23:11:41.934000Z</time>
      </trkpt>
      <trkpt lat="37.8490911933695" lon="112.02250550580278">
        <ele>1108.5</ele>
        <time>2019-08-31T23:11:53.934000Z</time>
      </trkpt>
      <trkpt lat="37.849089857139866" lon="112.02277605224354">
        <ele>1108.42</ele>
        <time>2019-08-31T23:12:02.934000Z</time>
      </trkpt>
      <trkpt lat="37.84905278304707" lon="112.02313933567108">
        <ele>1106.67</ele>
        <time>2019-08-31T23:12:11.934000Z</time>
      </trkpt>
      <trkpt lat="37.84905353775734" lon="112.02356525068623">
        <ele>1109.39</ele>
        <time>2019-08-31T23:12:23.934000Z</time>
      </trkpt>
      <trkpt lat="37.84900799815221" lon="112.02378791942515">
        <ele>1109.18</ele>
        <time>2019-08-31T23:12:29.934000Z</time>
      </trkpt>
      <trkpt lat="37.84903785133353" lon="112.02397565421319">
        <ele>1109.68</ele>
        <time>2019-08-31T23:12:35.934000Z</time>
      </trkpt>
      <trkpt lat="37.84902039652804" lon="112.02414854843455">
        <ele>1112.33</ele>
        <time>2019-08-31T23:12:41.934000Z</time>
      </trkpt>
      <trkpt lat="37.84903115418376" lon="112.02435153473844">
        <ele>1111.74</ele>
        <time>2019-08-31T23:12:47.934000Z</time>
      </trkpt>
      <trkpt lat="37.84907483441099" lon="112.02445502012951">
        <ele>1114.57</ele>
        <time>2019-08-31T23:12:50.934000Z</time>
      </trkpt>
      <trkpt lat="37.84907068090466" lon="112.02457320264668">
        <ele>1109.22</ele>
        <time>2019-08-31T23:12:53.934000Z</time>
      </trkpt>
      <trkpt lat="37.849051880005625" lon="112.02465250548997">
        <ele>1109.54</ele>
        <time>2019-08-31T23:12:56.934000Z</time>
      </trkpt>
      <trkpt lat="37.84906265895084" lon="112.0248543746686">
        <ele>1111.25</ele>
        <time>2019-08-31T23:13:02.934000Z</time>
      </trkpt>
      <trkpt lat="37.849004668550265" lon="112.02507140565122">
        <ele>1112.08</ele>
        <time>2019-08-31T23:13:08.934000Z</time>
      </trkpt>
      <trkpt lat="37.8489735380397" lon="112.0253580498023">
        <ele>1108.18</ele>
        <time>2019-08-31T23:13:17.934000Z</time>
      </trkpt>
      <trkpt lat="37.84897530157038" lon="112.02545551821599">
        <ele>1108.14</ele>
        <time>2019-08-31T23:13:20.934000Z</time>
      </trkpt>
      <trkpt lat="37.84895220282758" lon="112.02553648378871">
        <ele>1110.25</ele>
        <time>2019-08-31T23:13:23.934000Z</time>
      </trkpt>
      <trkpt lat="37.84886558396672" lon="112.02571029888121">
        <ele>1109.96</ele>
        <time>2019-08-31T23:13:29.934000Z</time>
      </trkpt>
      <trkpt lat="37.84884843158456" lon="112.02580688151313">
        <ele>1110.76</ele>
        <time>2019-08-31T23:13:32.934000Z</time>
      </trkpt>
      <trkpt lat="37.84890819065085" lon="112.02606439821949">
        <ele>1106.33</ele>
        <time>2019-08-31T23:13:41.934000Z</time>
      </trkpt>
      <trkpt lat="37.84892119624954" lon="112.02647758555028">
        <ele>1101.46</ele>
        <time>2019-08-31T23:13:53.934000Z</time>
      </trkpt>
      <trkpt lat="37.84891308316232" lon="112.02673261574841">
        <ele>1109.87</ele>
        <time>2019-08-31T23:13:59.934000Z</time>
      </trkpt>
      <trkpt lat="37.84887303656014" lon="112.02709782860029">
        <ele>1111.73</ele>
        <time>2019-08-31T23:14:08.934000Z</time>
      </trkpt>
      <trkpt lat="37.84886207176547" lon="112.02720100932791">
        <ele>1110.97</ele>
        <time>2019-08-31T23:14:11.934000Z</time>
      </trkpt>
      <trkpt lat="37.848857966656006" lon="112.02763720727742">
        <ele>1106.41</ele>
        <time>2019-08-31T23:14:23.934000Z</time>
      </trkpt>
      <trkpt lat="37.84882747459346" lon="112.02795563247447">
        <ele>1111.58</ele>
        <time>2019-08-31T23:14:32.934000Z</time>
      </trkpt>
      <trkpt lat="37.848859423376624" lon="112.02814501107069">
        <ele>1108.12</ele>
        <time>2019-08-31T23:14:38.934000Z</time>
      </trkpt>
      <trkpt lat="37.84882678981111" lon="112.02851350768975">
        <ele>1100.49</ele>
        <time>2019-08-31T23:14:50.934000Z</time>
      </trkpt>
      <trkpt lat="37.84879554383325" lon="112.02882387423199">
        <ele>1099.62</ele>
        <time>2019-08-31T23:14:59.934000Z</time>
      </trkpt>
      <trkpt lat="37.848774448499164" lon="112.0289117598881">
        <ele>1097.58</ele>
        <time>2019-08-31T23:15:02.934000Z</time>
      </trkpt>
      <trkpt lat="37.84879211170788" lon="112.02899589750005">
        <ele>1096.92</ele>
        <time>2019-08-31T23:15:05.934000Z</time>
      </trkpt>
      <trkpt lat="37.84877919624236" lon="112.02932382883525">
        <ele>1102.67</ele>
        <time>2019-08-31T23:15:14.934000Z</time>
      </trkpt>
      <trkpt lat="37.84885344256079" lon="112.02972374495532">
        <ele>1101.69</ele>
        <time>2019-08-31T23:15:26.934000Z</time>
      </trkpt>
      <trkpt lat="37.848897913990285" lon="112.02979053609184">
        <ele>1096.79</ele>
        <time>2019-08-31T23:15:29.934000Z</time>
      </trkpt>
      <trkpt lat="37.84894448984986" lon="112.02989198923707">
        <ele>1094.72</ele>
        <time>2019-08-31T23:15:32.934000Z</time>
      </trkpt>
      <trkpt lat="37.848958242367736" lon="112.03023504380906">
        <ele>1093.62</ele>
        <time>2019-08-31T23:15:41.934000Z</time>
      </trkpt>
      <trkpt lat="37.848973817393535" lon="112.0303273738655">
        <ele>1093.5</ele>
        <time>2019-08-31T23:15:44.934000Z</time>
      </trkpt>
      <trkpt lat="37.84906120362442" lon="112.03042649478832">
        <ele>1096.3</ele>
        <time>2019-08-31T23:15:53.934000Z</time>
      </trkpt>
      <trkpt lat="37.84934991877734" lon="112.03033408179498">
        <ele>1103.19</ele>
        <time>2019-08-31T23:16:08.934000Z</time>
      </trkpt>
      <trkpt lat="37.8494999480484" lon="112.03026742578945">
        <ele>1103.32</ele>
        <time>2019-08-31T23:16:29.934000Z</time>
      </trkpt>
      <trkpt lat="37.84954924103335" lon="112.03022400583353">
        <ele>1104.41</ele>
        <time>2019-08-31T23:16:41.934000Z</time>
      </trkpt>
      <trkpt lat="37.84970494407548" lon="112.0301803748408">
        <ele>1103.9</ele>
        <time>2019-08-31T23:16:50.934000Z</time>
      </trkpt>
      <trkpt lat="37.8497697282977" lon="112.03026767330346">
        <ele>1101.87</ele>
        <time>2019-08-31T23:16:56.934000Z</time>
      </trkpt>
      <trkpt lat="37.84987289774109" lon="112.03050898528858">
        <ele>1107.07</ele>
        <time>2019-08-31T23:17:08.934000Z</time>
      </trkpt>
      <trkpt lat="37.84994360211229" lon="112.03047424697813">
        <ele>1104.82</ele>
        <time>2019-08-31T23:17:14.934000Z</time>
      </trkpt>
      <trkpt lat="37.850003732307705" lon="112.03047515661201">
        <ele>1104.22</ele>
        <time>2019-08-31T23:17:20.934000Z</time>
      </trkpt>
      <trkpt lat="37.850042703278376" lon="112.03054199095976">
        <ele>1105.16</ele>
        <time>2019-08-31T23:17:26.934000Z</time>
      </trkpt>
      <trkpt lat="37.850101694087854" lon="112.03054665143135">
        <ele>1103.02</ele>
        <time>2019-08-31T23:17:32.934000Z</time>
      </trkpt>
      <trkpt lat="37.85017234622955" lon="112.03049833012327">
        <ele>1102.55</ele>
        <time>2019-08-31T23:17:35.934000Z</time>
      </trkpt>
      <trkpt lat="37.8502215644512" lon="112.03054830066604">
        <ele>1099.77</ele>
        <time>2019-08-31T23:17:38.934000Z</time>
      </trkpt>
      <trkpt lat="37.850296017461865" lon="112.03056631393605">
        <ele>1100.99</ele>
        <time>2019-08-31T23:17:41.934000Z</time>
      </trkpt>
      <trkpt lat="37.85043850721321" lon="112.03068588900402">
        <ele>1098.75</ele>
        <time>2019-08-31T23:17:47.934000Z</time>
      </trkpt>
      <trkpt lat="37.85065758633653" lon="112.03092182929967">
        <ele>1095.42</ele>
        <time>2019-08-31T23:17:59.934000Z</time>
      </trkpt>
      <trkpt lat="37.85073114514051" lon="112.03097459036042">
        <ele>1099.67</ele>
        <time>2019-08-31T23:18:02.934000Z</time>
      </trkpt>
      <trkpt lat="37.850776435769795" lon="112.03097817073207">
        <ele>1096.44</ele>
        <time>2019-08-31T23:18:05.934000Z</time>
      </trkpt>
      <trkpt lat="37.850814680953505" lon="112.03088858042182">
        <ele>1093.57</ele>
        <time>2019-08-31T23:18:11.934000Z</time>
      </trkpt>
      <trkpt lat="37.85107500558273" lon="112.03064062549936">
        <ele>1098.04</ele>
        <time>2019-08-31T23:18:23.934000Z</time>
      </trkpt>
      <trkpt lat="37.85115940874951" lon="112.03057007663331">
        <ele>1099.1</ele>
        <time>2019-08-31T23:18:26.934000Z</time>
      </trkpt>
      <trkpt lat="37.85125108333151" lon="112.03059757183553">
        <ele>1102.07</ele>
        <time>2019-08-31T23:18:29.934000Z</time>
      </trkpt>
      <trkpt lat="37.85143180902608" lon="112.03075292449046">
        <ele>1100.58</ele>
        <time>2019-08-31T23:18:35.934000Z</time>
      </trkpt>
      <trkpt lat="37.85161168308226" lon="112.03095804837933">
        <ele>1096.87</ele>
        <time>2019-08-31T23:18:44.934000Z</time>
      </trkpt>
      <trkpt lat="37.85181236232445" lon="112.03109589414882">
        <ele>1095.6</ele>
        <time>2019-08-31T23:18:53.934000Z</time>
      </trkpt>
      <trkpt lat="37.8519860508287" lon="112.03130282202824">
        <ele>1090.73</ele>
        <time>2019-08-31T23:19:02.934000Z</time>
      </trkpt>
      <trkpt lat="37.85205507033669" lon="112.03135923407208">
        <ele>1092.95</ele>
        <time>2019-08-31T23:19:05.934000Z</time>
      </trkpt>
      <trkpt lat="37.85208827370771" lon="112.03143871167543">
        <ele>1089.46</ele>
        <time>2019-08-31T23:19:08.934000Z</time>
      </trkpt>
      <trkpt lat="37.852200326948676" lon="112.03156278050717">
        <ele>1098.19</ele>
        <time>2019-08-31T23:19:14.934000Z</time>
      </trkpt>
      <trkpt lat="37.85242577383687" lon="112.03191071565882">
        <ele>1096.2</ele>
        <time>2019-08-31T23:19:26.934000Z</time>
      </trkpt>
      <trkpt lat="37.85251432125942" lon="112.03207097150462">
        <ele>1096.18</ele>
        <time>2019-08-31T23:19:32.934000Z</time>
      </trkpt>
      <trkpt lat="37.852587201275384" lon="112.03212914416982">
        <ele>1095.51</ele>
        <time>2019-08-31T23:19:35.934000Z</time>
      </trkpt>
      <trkpt lat="37.852760171994845" lon="112.03242321033515">
        <ele>1094.41</ele>
        <time>2019-08-31T23:19:44.934000Z</time>
      </trkpt>
      <trkpt lat="37.85293539972925" lon="112.03269780244199">
        <ele>1094.75</ele>
        <time>2019-08-31T23:19:56.934000Z</time>
      </trkpt>
      <trkpt lat="37.85306771906452" lon="112.03286545033583">
        <ele>1091.62</ele>
        <time>2019-08-31T23:20:02.934000Z</time>
      </trkpt>
      <trkpt lat="37.85313834451444" lon="112.03289630689221">
        <ele>1092.97</ele>
        <time>2019-08-31T23:20:05.934000Z</time>
      </trkpt>
      <trkpt lat="37.85334326110433" lon="112.03312131840168">
        <ele>1090.13</ele>
        <time>2019-08-31T23:20:17.934000Z</time>
      </trkpt>
      <trkpt lat="37.85339923480499" lon="112.0331816114666">
        <ele>1089.78</ele>
        <time>2019-08-31T23:20:20.934000Z</time>
      </trkpt>
      <trkpt lat="37.85348907231142" lon="112.03333699732462">
        <ele>1090.98</ele>
        <time>2019-08-31T23:20:26.934000Z</time>
      </trkpt>
      <trkpt lat="37.85374897798077" lon="112.03364922904755">
        <ele>1091.0</ele>
        <time>2019-08-31T23:20:38.934000Z</time>
      </trkpt>
      <trkpt lat="37.853942512555754" lon="112.03389750660018">
        <ele>1089.53</ele>
        <time>2019-08-31T23:20:47.934000Z</time>
      </trkpt>
      <trkpt lat="37.854193639563185" lon="112.03421275013001">
        <ele>1090.48</ele>
        <time>2019-08-31T23:20:59.934000Z</time>
      </trkpt>
      <trkpt lat="37.854379003806294" lon="112.0344007639165">
        <ele>1086.55</ele>
        <time>2019-08-31T23:21:08.934000Z</time>
      </trkpt>
      <trkpt lat="37.85457486414419" lon="112.03473049240544">
        <ele>1088.65</ele>
        <time>2019-08-31T23:21:20.934000Z</time>
      </trkpt>
      <trkpt lat="37.85467891484358" lon="112.03489721227707">
        <ele>1090.49</ele>
        <time>2019-08-31T23:21:26.934000Z</time>
      </trkpt>
      <trkpt lat="37.854759535819554" lon="112.035064852752">
        <ele>1088.01</ele>
        <time>2019-08-31T23:21:32.934000Z</time>
      </trkpt>
      <trkpt lat="37.85495292472011" lon="112.03527402260035">
        <ele>1089.61</ele>
        <time>2019-08-31T23:21:41.934000Z</time>
      </trkpt>
      <trkpt lat="37.85517856650844" lon="112.03555099927">
        <ele>1089.06</ele>
        <time>2019-08-31T23:21:53.934000Z</time>
      </trkpt>
      <trkpt lat="37.85538730978027" lon="112.03588721138378">
        <ele>1086.51</ele>
        <time>2019-08-31T23:22:05.934000Z</time>
      </trkpt>
      <trkpt lat="37.85555240403539" lon="112.03617346190671">
        <ele>1086.22</ele>
        <time>2019-08-31T23:22:14.934000Z</time>
      </trkpt>
      <trkpt lat="37.855749363075134" lon="112.03637028203728">
        <ele>1086.43</ele>
        <time>2019-08-31T23:22:23.934000Z</time>
      </trkpt>
      <trkpt lat="37.85584775992017" lon="112.03651517200382">
        <ele>1087.11</ele>
        <time>2019-08-31T23:22:29.934000Z</time>
      </trkpt>
      <trkpt lat="37.85590891476325" lon="112.03664758892563">
        <ele>1090.82</ele>
        <time>2019-08-31T23:22:35.934000Z</time>
      </trkpt>
      <trkpt lat="37.85589706631977" lon="112.03681186103069">
        <ele>1087.77</ele>
        <time>2019-08-31T23:22:47.934000Z</time>
      </trkpt>
      <trkpt lat="37.855927952412095" lon="112.03689524211129">
        <ele>1088.0</ele>
        <time>2019-08-31T23:22:53.934000Z</time>
      </trkpt>
      <trkpt lat="37.856048051079306" lon="112.03704311897607">
        <ele>1101.48</ele>
        <time>2019-08-31T23:23:02.934000Z</time>
      </trkpt>
      <trkpt lat="37.856053552279796" lon="112.03710093381143">
        <ele>1094.78</ele>
        <time>2019-08-31T23:23:05.934000Z</time>
      </trkpt>
      <trkpt lat="37.85624168128652" lon="112.03745485356865">
        <ele>1088.47</ele>
        <time>2019-08-31T23:23:32.934000Z</time>
      </trkpt>
    </trkseg>
  </trk>
</gpx>