<?xml version="1.0" encoding="UTF-8"?>
<gpx xmlns="http://www.topografix.com/GPX/1/1" xmlns:gpxtpx="http://www.garmin.com/xmlschemas/TrackPointExtension/v1" xmlns:xsi="http://www.w3.org/2001/XMLSchema-instance" xsi:schemaLocation="http://www.topografix.com/GPX/1/1 http://www.topografix.com/GPX/1/1/gpx.xsd" version="1.1" creator="gpx.py -- https://github.com/tkrajina/gpxpy">
  <trk>
    <name>gpx from keep</name>
    <type>Run</type>
    <trkseg>
      <trkpt lat="37.84735307046723" lon="112.02949438187373">
        <ele>1127.0</ele>
        <time>2018-02-19T09:15:38.100000Z</time>
      </trkpt>
      <trkpt lat="37.8473796184492" lon="112.02940296083446">
        <ele>1113.0</ele>
        <time>2018-02-19T09:15:47Z</time>
      </trkpt>
      <trkpt lat="37.847381462955155" lon="112.02931722284501">
        <ele>1109.0</ele>
        <time>2018-02-19T09:15:53.100000Z</time>
      </trkpt>
      <trkpt lat="37.84742799128141" lon="112.02926420601312">
        <ele>1108.0</ele>
        <time>2018-02-19T09:15:59.100000Z</time>
      </trkpt>
      <trkpt lat="37.84737676521724" lon="112.02913655288046">
        <ele>1106.0</ele>
        <time>2018-02-19T09:16:14Z</time>
      </trkpt>
      <trkpt lat="37.847325613185674" lon="112.02876629623591">
        <ele>1112.0</ele>
        <time>2018-02-19T09:16:47.100000Z</time>
      </trkpt>
      <trkpt lat="37.84732740413557" lon="112.02870219696014">
        <ele>1114.0</ele>
        <time>2018-02-19T09:16:53.100000Z</time>
      </trkpt>
      <trkpt lat="37.84741384507742" lon="112.0285487605647">
        <ele>1113.0</ele>
        <time>2018-02-19T09:17:02.100000Z</time>
      </trkpt>
      <trkpt lat="37.847435151654814" lon="112.02846754381537">
        <ele>1111.0</ele>
        <time>2018-02-19T09:17:05.200000Z</time>
      </trkpt>
      <trkpt lat="37.84739684600867" lon="112.02810026305649">
        <ele>1108.0</ele>
        <time>2018-02-19T09:17:14.100000Z</time>
      </trkpt>
      <trkpt lat="37.84738259502451" lon="112.02790049345474">
        <ele>1111.0</ele>
        <time>2018-02-19T09:17:20.200000Z</time>
      </trkpt>
      <trkpt lat="37.84747175440198" lon="112.0275988846837">
        <ele>1108.0</ele>
        <time>2018-02-19T09:17:29.100000Z</time>
      </trkpt>
      <trkpt lat="37.8475428331037" lon="112.02742828534305">
        <ele>1107.0</ele>
        <time>2018-02-19T09:17:35.100000Z</time>
      </trkpt>
      <trkpt lat="37.84761561614042" lon="112.02719760992682">
        <ele>1105.0</ele>
        <time>2018-02-19T09:17:44.100000Z</time>
      </trkpt>
      <trkpt lat="37.8476585216478" lon="112.02711458847439">
        <ele>1103.0</ele>
        <time>2018-02-19T09:17:47.100000Z</time>
      </trkpt>
      <trkpt lat="37.847702791847375" lon="112.02691498680717">
        <ele>1103.0</ele>
        <time>2018-02-19T09:17:53.100000Z</time>
      </trkpt>
      <trkpt lat="37.84773791736668" lon="112.02680597660975">
        <ele>1106.0</ele>
        <time>2018-02-19T09:17:56.100000Z</time>
      </trkpt>
      <trkpt lat="37.84784778321466" lon="112.02664166813007">
        <ele>1110.0</ele>
        <time>2018-02-19T09:18:02.100000Z</time>
      </trkpt>
      <trkpt lat="37.84790976022254" lon="112.02647686458906">
        <ele>1114.0</ele>
        <time>2018-02-19T09:18:08.200000Z</time>
      </trkpt>
      <trkpt lat="37.84812018519439" lon="112.02648712287827">
        <ele>1108.0</ele>
        <time>2018-02-19T09:18:17.100000Z</time>
      </trkpt>
      <trkpt lat="37.848289101159516" lon="112.02656302637915">
        <ele>1107.0</ele>
        <time>2018-02-19T09:18:23.100000Z</time>
      </trkpt>
      <trkpt lat="37.84845321362602" lon="112.02652127240745">
        <ele>1107.0</ele>
        <time>2018-02-19T09:18:29.200000Z</time>
      </trkpt>
      <trkpt lat="37.84850719908283" lon="112.02657861373766">
        <ele>1106.0</ele>
        <time>2018-02-19T09:18:32.100000Z</time>
      </trkpt>
      <trkpt lat="37.84863099212394" lon="112.02661557801491">
        <ele>1104.0</ele>
        <time>2018-02-19T09:18:38.200000Z</time>
      </trkpt>
      <trkpt lat="37.84883655253937" lon="112.02660917105997">
        <ele>1104.0</ele>
        <time>2018-02-19T09:18:44.100000Z</time>
      </trkpt>
      <trkpt lat="37.84891441906719" lon="112.02655151453231">
        <ele>1104.0</ele>
        <time>2018-02-19T09:18:47.200000Z</time>
      </trkpt>
      <trkpt lat="37.84892281700836" lon="112.02646036115345">
        <ele>1104.0</ele>
        <time>2018-02-19T09:18:50.100000Z</time>
      </trkpt>
      <trkpt lat="37.84890259599057" lon="112.0263008755123">
        <ele>1105.0</ele>
        <time>2018-02-19T09:18:56.100000Z</time>
      </trkpt>
      <trkpt lat="37.84896548000962" lon="112.02621379313693">
        <ele>1107.0</ele>
        <time>2018-02-19T09:18:59.100000Z</time>
      </trkpt>
      <trkpt lat="37.849012459186405" lon="112.02612170718474">
        <ele>1109.0</ele>
        <time>2018-02-19T09:19:02.100000Z</time>
      </trkpt>
      <trkpt lat="37.84898322603462" lon="112.02578821094998">
        <ele>1112.0</ele>
        <time>2018-02-19T09:19:11.100000Z</time>
      </trkpt>
      <trkpt lat="37.848982596011716" lon="112.02566688216496">
        <ele>1114.0</ele>
        <time>2018-02-19T09:19:14.100000Z</time>
      </trkpt>
      <trkpt lat="37.849025287221984" lon="112.0252178474167">
        <ele>1106.0</ele>
        <time>2018-02-19T09:19:23.100000Z</time>
      </trkpt>
      <trkpt lat="37.84901254312217" lon="112.02512374289358">
        <ele>1105.0</ele>
        <time>2018-02-19T09:19:26.100000Z</time>
      </trkpt>
      <trkpt lat="37.849035493847204" lon="112.02481396291566">
        <ele>1110.0</ele>
        <time>2018-02-19T09:19:35.100000Z</time>
      </trkpt>
      <trkpt lat="37.84902039119781" lon="112.02460546397042">
        <ele>1108.0</ele>
        <time>2018-02-19T09:19:41.100000Z</time>
      </trkpt>
      <trkpt lat="37.84903845716361" lon="112.02442095478582">
        <ele>1106.0</ele>
        <time>2018-02-19T09:19:47.100000Z</time>
      </trkpt>
      <trkpt lat="37.84903365643232" lon="112.0243015385871">
        <ele>1106.0</ele>
        <time>2018-02-19T09:19:50.100000Z</time>
      </trkpt>
      <trkpt lat="37.84899799588773" lon="112.02419395324404">
        <ele>1108.0</ele>
        <time>2018-02-19T09:19:53.100000Z</time>
      </trkpt>
      <trkpt lat="37.84897998239556" lon="112.02406936994778">
        <ele>1106.0</ele>
        <time>2018-02-19T09:19:56.100000Z</time>
      </trkpt>
      <trkpt lat="37.8490136827403" lon="112.0237560101333">
        <ele>1098.0</ele>
        <time>2018-02-19T09:20:05.100000Z</time>
      </trkpt>
      <trkpt lat="37.8490496136749" lon="112.02357573077654">
        <ele>1093.0</ele>
        <time>2018-02-19T09:20:11.100000Z</time>
      </trkpt>
      <trkpt lat="37.849058016394494" lon="112.0234875236951">
        <ele>1091.0</ele>
        <time>2018-02-19T09:20:14.100000Z</time>
      </trkpt>
      <trkpt lat="37.84903908662191" lon="112.0232172980245">
        <ele>1098.0</ele>
        <time>2018-02-19T09:20:23.200000Z</time>
      </trkpt>
      <trkpt lat="37.84903908662191" lon="112.0232172980245">
        <ele>1098.0</ele>
        <time>2018-02-19T09:20:25.400000Z</time>
      </trkpt>
      <trkpt lat="37.84902972268126" lon="112.02266458282587">
        <ele>1096.0</ele>
        <time>2018-02-19T09:20:41.200000Z</time>
      </trkpt>
      <trkpt lat="37.84903815417453" lon="112.02255641921793">
        <ele>1096.0</ele>
        <time>2018-02-19T09:20:44.200000Z</time>
      </trkpt>
      <trkpt lat="37.84904875536111" lon="112.02214810726394">
        <ele>1098.0</ele>
        <time>2018-02-19T09:20:56.100000Z</time>
      </trkpt>
      <trkpt lat="37.84903881574298" lon="112.0217122219107">
        <ele>1099.0</ele>
        <time>2018-02-19T09:21:08.200000Z</time>
      </trkpt>
      <trkpt lat="37.84908876692255" lon="112.02140261001483">
        <ele>1103.0</ele>
        <time>2018-02-19T09:21:17.100000Z</time>
      </trkpt>
      <trkpt lat="37.849073047958605" lon="112.02119765160032">
        <ele>1101.0</ele>
        <time>2018-02-19T09:21:23.100000Z</time>
      </trkpt>
      <trkpt lat="37.84909149424334" lon="112.0210994959988">
        <ele>1100.0</ele>
        <time>2018-02-19T09:21:26.100000Z</time>
      </trkpt>
      <trkpt lat="37.84909413104069" lon="112.02073122010611">
        <ele>1102.0</ele>
        <time>2018-02-19T09:21:38.100000Z</time>
      </trkpt>
      <trkpt lat="37.84908107044884" lon="112.02034997121976">
        <ele>1103.0</ele>
        <time>2018-02-19T09:21:50.100000Z</time>
      </trkpt>
      <trkpt lat="37.849093855561605" lon="112.01994411812045">
        <ele>1106.0</ele>
        <time>2018-02-19T09:22:02.100000Z</time>
      </trkpt>
      <trkpt lat="37.849102326425005" lon="112.01952988815736">
        <ele>1104.0</ele>
        <time>2018-02-19T09:22:14.100000Z</time>
      </trkpt>
      <trkpt lat="37.849125040738016" lon="112.0191659517983">
        <ele>1102.0</ele>
        <time>2018-02-19T09:22:26.100000Z</time>
      </trkpt>
      <trkpt lat="37.84915191378726" lon="112.01891208755787">
        <ele>1098.0</ele>
        <time>2018-02-19T09:22:35.100000Z</time>
      </trkpt>
      <trkpt lat="37.84925993509601" lon="112.0185529475031">
        <ele>1103.0</ele>
        <time>2018-02-19T09:22:50.100000Z</time>
      </trkpt>
      <trkpt lat="37.849261785564195" lon="112.01828829109886">
        <ele>1106.0</ele>
        <time>2018-02-19T09:22:59.100000Z</time>
      </trkpt>
      <trkpt lat="37.84921417851459" lon="112.01813986171126">
        <ele>1105.0</ele>
        <time>2018-02-19T09:23:05.100000Z</time>
      </trkpt>
      <trkpt lat="37.849209452059284" lon="112.0179868314231">
        <ele>1106.0</ele>
        <time>2018-02-19T09:23:11.100000Z</time>
      </trkpt>
      <trkpt lat="37.84922515170855" lon="112.0179030143085">
        <ele>1106.0</ele>
        <time>2018-02-19T09:23:14.100000Z</time>
      </trkpt>
      <trkpt lat="37.84920202432623" lon="112.01782974648967">
        <ele>1105.0</ele>
        <time>2018-02-19T09:23:17.100000Z</time>
      </trkpt>
      <trkpt lat="37.84921864564176" lon="112.0176110150174">
        <ele>1104.0</ele>
        <time>2018-02-19T09:23:30.100000Z</time>
      </trkpt>
      <trkpt lat="37.84924162270473" lon="112.01754450143675">
        <ele>1102.0</ele>
        <time>2018-02-19T09:23:33.100000Z</time>
      </trkpt>
      <trkpt lat="37.84926218558319" lon="112.01737173355914">
        <ele>1104.0</ele>
        <time>2018-02-19T09:23:51Z</time>
      </trkpt>
      <trkpt lat="37.84925494730062" lon="112.01724439138023">
        <ele>1103.0</ele>
        <time>2018-02-19T09:23:54.100000Z</time>
      </trkpt>
      <trkpt lat="37.84923260966219" lon="112.0171800467673">
        <ele>1103.0</ele>
        <time>2018-02-19T09:24:00.100000Z</time>
      </trkpt>
      <trkpt lat="37.84926130693312" lon="112.01710569259721">
        <ele>1103.0</ele>
        <time>2018-02-19T09:24:06.200000Z</time>
      </trkpt>
      <trkpt lat="37.84926700914282" lon="112.01700781952118">
        <ele>1101.0</ele>
        <time>2018-02-19T09:24:12.100000Z</time>
      </trkpt>
      <trkpt lat="37.84932247803959" lon="112.01696482480014">
        <ele>1102.0</ele>
        <time>2018-02-19T09:24:18.100000Z</time>
      </trkpt>
      <trkpt lat="37.84932317894188" lon="112.01662065136388">
        <ele>1104.0</ele>
        <time>2018-02-19T09:24:42.200000Z</time>
      </trkpt>
      <trkpt lat="37.849346403269365" lon="112.016275667005">
        <ele>1108.0</ele>
        <time>2018-02-19T09:25:06.100000Z</time>
      </trkpt>
      <trkpt lat="37.849415030313736" lon="112.01589850740092">
        <ele>1108.0</ele>
        <time>2018-02-19T09:25:21.200000Z</time>
      </trkpt>
      <trkpt lat="37.84946275975937" lon="112.01571519920823">
        <ele>1107.0</ele>
        <time>2018-02-19T09:25:27.200000Z</time>
      </trkpt>
      <trkpt lat="37.84945662890329" lon="112.01548620812093">
        <ele>1106.0</ele>
        <time>2018-02-19T09:25:33.100000Z</time>
      </trkpt>
      <trkpt lat="37.849517072823566" lon="112.01531641788216">
        <ele>1107.0</ele>
        <time>2018-02-19T09:25:39.100000Z</time>
      </trkpt>
      <trkpt lat="37.84950983247346" lon="112.01519151511417">
        <ele>1106.0</ele>
        <time>2018-02-19T09:25:42.100000Z</time>
      </trkpt>
      <trkpt lat="37.849539869465936" lon="112.01483924191672">
        <ele>1109.0</ele>
        <time>2018-02-19T09:25:51.200000Z</time>
      </trkpt>
      <trkpt lat="37.8495725574206" lon="112.0144147879127">
        <ele>1111.0</ele>
        <time>2018-02-19T09:26:03.100000Z</time>
      </trkpt>
      <trkpt lat="37.849632874877855" lon="112.01400682570954">
        <ele>1110.0</ele>
        <time>2018-02-19T09:26:15.200000Z</time>
      </trkpt>
      <trkpt lat="37.84965556226016" lon="112.0135712964866">
        <ele>1111.0</ele>
        <time>2018-02-19T09:26:27.200000Z</time>
      </trkpt>
      <trkpt lat="37.84969880375239" lon="112.01315955889544">
        <ele>1113.0</ele>
        <time>2018-02-19T09:26:39.200000Z</time>
      </trkpt>
      <trkpt lat="37.8497014052197" lon="112.01272917625631">
        <ele>1110.0</ele>
        <time>2018-02-19T09:26:51.200000Z</time>
      </trkpt>
      <trkpt lat="37.84976201859692" lon="112.01231663269776">
        <ele>1112.0</ele>
        <time>2018-02-19T09:27:03.200000Z</time>
      </trkpt>
      <trkpt lat="37.84981051051978" lon="112.01187489780476">
        <ele>1111.0</ele>
        <time>2018-02-19T09:27:15.100000Z</time>
      </trkpt>
      <trkpt lat="37.849841612278055" lon="112.01144317109788">
        <ele>1110.0</ele>
        <time>2018-02-19T09:27:27.200000Z</time>
      </trkpt>
      <trkpt lat="37.84982883134749" lon="112.0113601805755">
        <ele>1110.0</ele>
        <time>2018-02-19T09:27:30.100000Z</time>
      </trkpt>
      <trkpt lat="37.84984909807871" lon="112.01110931046738">
        <ele>1113.0</ele>
        <time>2018-02-19T09:27:36.100000Z</time>
      </trkpt>
      <trkpt lat="37.84984835692418" lon="112.01089872318202">
        <ele>1113.0</ele>
        <time>2018-02-19T09:27:42.200000Z</time>
      </trkpt>
      <trkpt lat="37.84988358681276" lon="112.01044916226623">
        <ele>1113.0</ele>
        <time>2018-02-19T09:27:54.200000Z</time>
      </trkpt>
      <trkpt lat="37.84988309746309" lon="112.01015342467022">
        <ele>1112.0</ele>
        <time>2018-02-19T09:28:03.200000Z</time>
      </trkpt>
      <trkpt lat="37.84990128810307" lon="112.01005664579664">
        <ele>1111.0</ele>
        <time>2018-02-19T09:28:06.200000Z</time>
      </trkpt>
      <trkpt lat="37.849867380852494" lon="112.00959277274681">
        <ele>1116.0</ele>
        <time>2018-02-19T09:28:18.200000Z</time>
      </trkpt>
      <trkpt lat="37.849837074317016" lon="112.00938111339934">
        <ele>1118.0</ele>
        <time>2018-02-19T09:28:24.200000Z</time>
      </trkpt>
      <trkpt lat="37.8497697735377" lon="112.00920216815486">
        <ele>1119.0</ele>
        <time>2018-02-19T09:28:30.300000Z</time>
      </trkpt>
      <trkpt lat="37.84965687921802" lon="112.00902782434802">
        <ele>1120.0</ele>
        <time>2018-02-19T09:28:36.200000Z</time>
      </trkpt>
      <trkpt lat="37.84959088165593" lon="112.00895917073773">
        <ele>1120.0</ele>
        <time>2018-02-19T09:28:39.200000Z</time>
      </trkpt>
      <trkpt lat="37.849395172609334" lon="112.00862318642756">
        <ele>1119.0</ele>
        <time>2018-02-19T09:28:51.200000Z</time>
      </trkpt>
      <trkpt lat="37.849356338559595" lon="112.00854371727173">
        <ele>1119.0</ele>
        <time>2018-02-19T09:28:54.200000Z</time>
      </trkpt>
      <trkpt lat="37.849290378996564" lon="112.00846235922639">
        <ele>1119.0</ele>
        <time>2018-02-19T09:28:57.200000Z</time>
      </trkpt>
      <trkpt lat="37.849140366923756" lon="112.00817935430705">
        <ele>1120.0</ele>
        <time>2018-02-19T09:29:06.100000Z</time>
      </trkpt>
      <trkpt lat="37.84892386762504" lon="112.00790203521882">
        <ele>1124.0</ele>
        <time>2018-02-19T09:29:18.200000Z</time>
      </trkpt>
      <trkpt lat="37.848898546992004" lon="112.00784040619607">
        <ele>1124.0</ele>
        <time>2018-02-19T09:29:21.200000Z</time>
      </trkpt>
      <trkpt lat="37.84869161456055" lon="112.00753957003353">
        <ele>1126.0</ele>
        <time>2018-02-19T09:29:33.100000Z</time>
      </trkpt>
      <trkpt lat="37.848513889307576" lon="112.00727089904899">
        <ele>1125.0</ele>
        <time>2018-02-19T09:29:42.200000Z</time>
      </trkpt>
      <trkpt lat="37.848345275350475" lon="112.00704061242426">
        <ele>1123.0</ele>
        <time>2018-02-19T09:29:51.200000Z</time>
      </trkpt>
      <trkpt lat="37.848187430267394" lon="112.00692980316992">
        <ele>1125.0</ele>
        <time>2018-02-19T09:29:57.100000Z</time>
      </trkpt>
      <trkpt lat="37.84787728618446" lon="112.00685036843275">
        <ele>1123.0</ele>
        <time>2018-02-19T09:30:09.200000Z</time>
      </trkpt>
      <trkpt lat="37.84752868053165" lon="112.00684040848309">
        <ele>1127.0</ele>
        <time>2018-02-19T09:30:21.100000Z</time>
      </trkpt>
      <trkpt lat="37.847219035024196" lon="112.00677584092043">
        <ele>1125.0</ele>
        <time>2018-02-19T09:30:33.200000Z</time>
      </trkpt>
      <trkpt lat="37.846909760032084" lon="112.00676912002568">
        <ele>1130.0</ele>
        <time>2018-02-19T09:30:45.200000Z</time>
      </trkpt>
      <trkpt lat="37.84663962395581" lon="112.00673887736012">
        <ele>1131.0</ele>
        <time>2018-02-19T09:30:54.200000Z</time>
      </trkpt>
      <trkpt lat="37.84654229156348" lon="112.00671591249977">
        <ele>1132.0</ele>
        <time>2018-02-19T09:30:57.200000Z</time>
      </trkpt>
      <trkpt lat="37.84644167964322" lon="112.00665430202304">
        <ele>1130.0</ele>
        <time>2018-02-19T09:31:00Z</time>
      </trkpt>
      <trkpt lat="37.8462387721976" lon="112.0066897285068">
        <ele>1122.0</ele>
        <time>2018-02-19T09:31:09.100000Z</time>
      </trkpt>
      <trkpt lat="37.84596840439718" lon="112.00664624065395">
        <ele>1124.0</ele>
        <time>2018-02-19T09:31:21.200000Z</time>
      </trkpt>
      <trkpt lat="37.84563493064939" lon="112.0065659980727">
        <ele>1127.0</ele>
        <time>2018-02-19T09:31:33.200000Z</time>
      </trkpt>
      <trkpt lat="37.845478866057974" lon="112.00646069344181">
        <ele>1128.0</ele>
        <time>2018-02-19T09:31:39.100000Z</time>
      </trkpt>
      <trkpt lat="37.84512442237967" lon="112.0063506215612">
        <ele>1131.0</ele>
        <time>2018-02-19T09:31:51.200000Z</time>
      </trkpt>
      <trkpt lat="37.84480371237465" lon="112.00628093991011">
        <ele>1132.0</ele>
        <time>2018-02-19T09:32:03.100000Z</time>
      </trkpt>
      <trkpt lat="37.8447282910664" lon="112.00626446397592">
        <ele>1132.0</ele>
        <time>2018-02-19T09:32:06.200000Z</time>
      </trkpt>
      <trkpt lat="37.84458255271628" lon="112.0061893112849">
        <ele>1131.0</ele>
        <time>2018-02-19T09:32:12.200000Z</time>
      </trkpt>
      <trkpt lat="37.84448787725187" lon="112.00618526793414">
        <ele>1131.0</ele>
        <time>2018-02-19T09:32:15.200000Z</time>
      </trkpt>
      <trkpt lat="37.84425329083557" lon="112.00633450685503">
        <ele>1128.0</ele>
        <time>2018-02-19T09:32:24.100000Z</time>
      </trkpt>
      <trkpt lat="37.84392576586805" lon="112.00644321060405">
        <ele>1126.0</ele>
        <time>2018-02-19T09:32:39.100000Z</time>
      </trkpt>
      <trkpt lat="37.84371588212747" lon="112.00658812214535">
        <ele>1126.0</ele>
        <time>2018-02-19T09:32:48.100000Z</time>
      </trkpt>
      <trkpt lat="37.84360049289986" lon="112.00670680250563">
        <ele>1127.0</ele>
        <time>2018-02-19T09:32:54.100000Z</time>
      </trkpt>
      <trkpt lat="37.84345124066137" lon="112.0068084574627">
        <ele>1128.0</ele>
        <time>2018-02-19T09:33:00.200000Z</time>
      </trkpt>
      <trkpt lat="37.843178141717694" lon="112.00704474293816">
        <ele>1131.0</ele>
        <time>2018-02-19T09:33:12.200000Z</time>
      </trkpt>
      <trkpt lat="37.842931796561416" lon="112.00722561176659">
        <ele>1123.0</ele>
        <time>2018-02-19T09:33:24.100000Z</time>
      </trkpt>
      <trkpt lat="37.84284112160949" lon="112.00733618086652">
        <ele>1125.0</ele>
        <time>2018-02-19T09:33:30.100000Z</time>
      </trkpt>
      <trkpt lat="37.84256326655808" lon="112.00753002934411">
        <ele>1124.0</ele>
        <time>2018-02-19T09:33:42.100000Z</time>
      </trkpt>
      <trkpt lat="37.84241596908666" lon="112.0076133038863">
        <ele>1122.0</ele>
        <time>2018-02-19T09:33:48.200000Z</time>
      </trkpt>
      <trkpt lat="37.84227452429627" lon="112.00773577357337">
        <ele>1124.0</ele>
        <time>2018-02-19T09:33:54.100000Z</time>
      </trkpt>
      <trkpt lat="37.84200736673151" lon="112.00789069642225">
        <ele>1124.0</ele>
        <time>2018-02-19T09:34:06.100000Z</time>
      </trkpt>
      <trkpt lat="37.841954790707014" lon="112.00796260683336">
        <ele>1124.0</ele>
        <time>2018-02-19T09:34:09.100000Z</time>
      </trkpt>
      <trkpt lat="37.841714462219954" lon="112.00803643194693">
        <ele>1126.0</ele>
        <time>2018-02-19T09:34:18.100000Z</time>
      </trkpt>
      <trkpt lat="37.84147277089591" lon="112.0082040574074">
        <ele>1126.0</ele>
        <time>2018-02-19T09:34:27.100000Z</time>
      </trkpt>
      <trkpt lat="37.841397504274056" lon="112.00824245148398">
        <ele>1125.0</ele>
        <time>2018-02-19T09:34:30.200000Z</time>
      </trkpt>
      <trkpt lat="37.841118102478106" lon="112.0082262657699">
        <ele>1128.0</ele>
        <time>2018-02-19T09:34:42.200000Z</time>
      </trkpt>
      <trkpt lat="37.84079938953235" lon="112.00820035332036">
        <ele>1131.0</ele>
        <time>2018-02-19T09:34:54.100000Z</time>
      </trkpt>
      <trkpt lat="37.84062265760794" lon="112.00814549998557">
        <ele>1132.0</ele>
        <time>2018-02-19T09:35:00.200000Z</time>
      </trkpt>
      <trkpt lat="37.84054018165865" lon="112.0081446988756">
        <ele>1135.0</ele>
        <time>2018-02-19T09:35:03.200000Z</time>
      </trkpt>
      <trkpt lat="37.840378587854374" lon="112.00810175285339">
        <ele>1138.0</ele>
        <time>2018-02-19T09:35:09.100000Z</time>
      </trkpt>
      <trkpt lat="37.84004646812467" lon="112.00812069955846">
        <ele>1135.0</ele>
        <time>2018-02-19T09:35:21.200000Z</time>
      </trkpt>
      <trkpt lat="37.839965934602" lon="112.00810530109248">
        <ele>1136.0</ele>
        <time>2018-02-19T09:35:24.100000Z</time>
      </trkpt>
      <trkpt lat="37.83978435361528" lon="112.00813046225332">
        <ele>1138.0</ele>
        <time>2018-02-19T09:35:33.100000Z</time>
      </trkpt>
      <trkpt lat="37.83971152643334" lon="112.0081696669485">
        <ele>1140.0</ele>
        <time>2018-02-19T09:35:39.100000Z</time>
      </trkpt>
      <trkpt lat="37.839602153213946" lon="112.00818157396452">
        <ele>1142.0</ele>
        <time>2018-02-19T09:35:45.100000Z</time>
      </trkpt>
      <trkpt lat="37.83955350359471" lon="112.00816319372653">
        <ele>1142.0</ele>
        <time>2018-02-19T09:35:48.200000Z</time>
      </trkpt>
      <trkpt lat="37.8394725993698" lon="112.0081732914676">
        <ele>1144.0</ele>
        <time>2018-02-19T09:35:54.100000Z</time>
      </trkpt>
      <trkpt lat="37.83929675139593" lon="112.0081816756336">
        <ele>1143.0</ele>
        <time>2018-02-19T09:36:06.100000Z</time>
      </trkpt>
      <trkpt lat="37.83922884010922" lon="112.00820728670735">
        <ele>1142.0</ele>
        <time>2018-02-19T09:36:12.100000Z</time>
      </trkpt>
      <trkpt lat="37.83954606642901" lon="112.00815644114267">
        <ele>1139.0</ele>
        <time>2018-02-19T09:36:27.100000Z</time>
      </trkpt>
      <trkpt lat="37.839879156948506" lon="112.00809125496023">
        <ele>1140.0</ele>
        <time>2018-02-19T09:36:39.100000Z</time>
      </trkpt>
      <trkpt lat="37.840161205226565" lon="112.00803823919092">
        <ele>1140.0</ele>
        <time>2018-02-19T09:36:48.100000Z</time>
      </trkpt>
      <trkpt lat="37.840430109776705" lon="112.00802604285002">
        <ele>1139.0</ele>
        <time>2018-02-19T09:36:57.100000Z</time>
      </trkpt>
      <trkpt lat="37.84064835608826" lon="112.00807953954516">
        <ele>1138.0</ele>
        <time>2018-02-19T09:37:06.100000Z</time>
      </trkpt>
      <trkpt lat="37.84087082660901" lon="112.0080808645833">
        <ele>1134.0</ele>
        <time>2018-02-19T09:37:15.100000Z</time>
      </trkpt>
      <trkpt lat="37.841034534817254" lon="112.00813598973343">
        <ele>1138.0</ele>
        <time>2018-02-19T09:37:21.100000Z</time>
      </trkpt>
      <trkpt lat="37.8412157173828" lon="112.00815380905026">
        <ele>1138.0</ele>
        <time>2018-02-19T09:37:27.200000Z</time>
      </trkpt>
      <trkpt lat="37.841521331462445" lon="112.00811376563689">
        <ele>1139.0</ele>
        <time>2018-02-19T09:37:39.100000Z</time>
      </trkpt>
      <trkpt lat="37.8418318902108" lon="112.00796154023287">
        <ele>1142.0</ele>
        <time>2018-02-19T09:37:51.100000Z</time>
      </trkpt>
      <trkpt lat="37.842124614930455" lon="112.00778498890159">
        <ele>1142.0</ele>
        <time>2018-02-19T09:38:03.100000Z</time>
      </trkpt>
      <trkpt lat="37.84227856398331" lon="112.00765440817388">
        <ele>1143.0</ele>
        <time>2018-02-19T09:38:09.100000Z</time>
      </trkpt>
      <trkpt lat="37.84247968360517" lon="112.0075365268685">
        <ele>1144.0</ele>
        <time>2018-02-19T09:38:18.100000Z</time>
      </trkpt>
      <trkpt lat="37.84269126574523" lon="112.0073672848471">
        <ele>1139.0</ele>
        <time>2018-02-19T09:38:27.100000Z</time>
      </trkpt>
      <trkpt lat="37.84288185128133" lon="112.0072337271282">
        <ele>1139.0</ele>
        <time>2018-02-19T09:38:36.100000Z</time>
      </trkpt>
      <trkpt lat="37.843144366938795" lon="112.00699798288473">
        <ele>1136.0</ele>
        <time>2018-02-19T09:38:48.100000Z</time>
      </trkpt>
      <trkpt lat="37.8432813938597" lon="112.00690173534885">
        <ele>1135.0</ele>
        <time>2018-02-19T09:38:54.200000Z</time>
      </trkpt>
      <trkpt lat="37.843328526898745" lon="112.006835773595">
        <ele>1135.0</ele>
        <time>2018-02-19T09:38:57.100000Z</time>
      </trkpt>
      <trkpt lat="37.84362300764553" lon="112.00661705649779">
        <ele>1135.0</ele>
        <time>2018-02-19T09:39:09.100000Z</time>
      </trkpt>
      <trkpt lat="37.843704000007534" lon="112.0065694721109">
        <ele>1135.0</ele>
        <time>2018-02-19T09:39:12.100000Z</time>
      </trkpt>
      <trkpt lat="37.84373885987669" lon="112.00652513698651">
        <ele>1130.0</ele>
        <time>2018-02-19T09:39:15.100000Z</time>
      </trkpt>
      <trkpt lat="37.8438691206923" lon="112.00642348470495">
        <ele>1128.0</ele>
        <time>2018-02-19T09:39:21.100000Z</time>
      </trkpt>
      <trkpt lat="37.843931741384274" lon="112.00634995287237">
        <ele>1128.0</ele>
        <time>2018-02-19T09:39:24.100000Z</time>
      </trkpt>
      <trkpt lat="37.844242705203385" lon="112.00624503557508">
        <ele>1128.0</ele>
        <time>2018-02-19T09:39:36.200000Z</time>
      </trkpt>
      <trkpt lat="37.84430524783287" lon="112.00619772394701">
        <ele>1125.0</ele>
        <time>2018-02-19T09:39:39.100000Z</time>
      </trkpt>
      <trkpt lat="37.84437440876109" lon="112.00620555467384">
        <ele>1126.0</ele>
        <time>2018-02-19T09:39:42.100000Z</time>
      </trkpt>
      <trkpt lat="37.844416361188905" lon="112.0062393383637">
        <ele>1127.0</ele>
        <time>2018-02-19T09:39:45.100000Z</time>
      </trkpt>
      <trkpt lat="37.84450100501678" lon="112.00615012615458">
        <ele>1130.0</ele>
        <time>2018-02-19T09:39:51.100000Z</time>
      </trkpt>
      <trkpt lat="37.84466369536834" lon="112.00609144966492">
        <ele>1133.0</ele>
        <time>2018-02-19T09:40:00.100000Z</time>
      </trkpt>
      <trkpt lat="37.84474499190432" lon="112.006123877064">
        <ele>1135.0</ele>
        <time>2018-02-19T09:40:06.100000Z</time>
      </trkpt>
      <trkpt lat="37.844772253998386" lon="112.00617090762421">
        <ele>1133.0</ele>
        <time>2018-02-19T09:40:09.100000Z</time>
      </trkpt>
      <trkpt lat="37.84484137543315" lon="112.00619198351323">
        <ele>1131.0</ele>
        <time>2018-02-19T09:40:15.100000Z</time>
      </trkpt>
      <trkpt lat="37.84503348225931" lon="112.00618574348688">
        <ele>1128.0</ele>
        <time>2018-02-19T09:40:27.100000Z</time>
      </trkpt>
      <trkpt lat="37.84522644537245" lon="112.00625627126128">
        <ele>1138.0</ele>
        <time>2018-02-19T09:40:42.100000Z</time>
      </trkpt>
      <trkpt lat="37.84555393299199" lon="112.00634219072549">
        <ele>1135.0</ele>
        <time>2018-02-19T09:41:06.100000Z</time>
      </trkpt>
      <trkpt lat="37.84581517327242" lon="112.0064440664995">
        <ele>1135.0</ele>
        <time>2018-02-19T09:41:27.100000Z</time>
      </trkpt>
      <trkpt lat="37.84613612475142" lon="112.00653836659305">
        <ele>1131.0</ele>
        <time>2018-02-19T09:41:42.100000Z</time>
      </trkpt>
      <trkpt lat="37.84643458894573" lon="112.00662212735999">
        <ele>1129.0</ele>
        <time>2018-02-19T09:41:54.100000Z</time>
      </trkpt>
      <trkpt lat="37.84673564076686" lon="112.00665696157897">
        <ele>1124.0</ele>
        <time>2018-02-19T09:42:06.100000Z</time>
      </trkpt>
      <trkpt lat="37.84682265768639" lon="112.00668181982924">
        <ele>1124.0</ele>
        <time>2018-02-19T09:42:09.100000Z</time>
      </trkpt>
      <trkpt lat="37.84699714557489" lon="112.00667017563195">
        <ele>1122.0</ele>
        <time>2018-02-19T09:42:15.100000Z</time>
      </trkpt>
      <trkpt lat="37.84731119552615" lon="112.00671338797336">
        <ele>1121.0</ele>
        <time>2018-02-19T09:42:27.100000Z</time>
      </trkpt>
      <trkpt lat="37.84765368419358" lon="112.00677308595189">
        <ele>1121.0</ele>
        <time>2018-02-19T09:42:39.100000Z</time>
      </trkpt>
      <trkpt lat="37.8479533998612" lon="112.0068011626065">
        <ele>1118.0</ele>
        <time>2018-02-19T09:42:51.100000Z</time>
      </trkpt>
      <trkpt lat="37.84811265417652" lon="112.00680303578902">
        <ele>1120.0</ele>
        <time>2018-02-19T09:42:57.100000Z</time>
      </trkpt>
      <trkpt lat="37.84819290129167" lon="112.0068235699074">
        <ele>1117.0</ele>
        <time>2018-02-19T09:43:00.100000Z</time>
      </trkpt>
      <trkpt lat="37.848271985947285" lon="112.00687005411336">
        <ele>1115.0</ele>
        <time>2018-02-19T09:43:03.100000Z</time>
      </trkpt>
      <trkpt lat="37.84835137122421" lon="112.00699790231556">
        <ele>1114.0</ele>
        <time>2018-02-19T09:43:09.100000Z</time>
      </trkpt>
      <trkpt lat="37.848374237381776" lon="112.00706358554555">
        <ele>1116.0</ele>
        <time>2018-02-19T09:43:12.100000Z</time>
      </trkpt>
      <trkpt lat="37.84858899038487" lon="112.0073798265307">
        <ele>1114.0</ele>
        <time>2018-02-19T09:43:24.200000Z</time>
      </trkpt>
      <trkpt lat="37.848701935024195" lon="112.00762742111212">
        <ele>1110.0</ele>
        <time>2018-02-19T09:43:33.200000Z</time>
      </trkpt>
      <trkpt lat="37.848876907163145" lon="112.00783701755552">
        <ele>1111.0</ele>
        <time>2018-02-19T09:43:42.100000Z</time>
      </trkpt>
      <trkpt lat="37.84906863913635" lon="112.00817964678332">
        <ele>1111.0</ele>
        <time>2018-02-19T09:43:54.100000Z</time>
      </trkpt>
      <trkpt lat="37.84924995193115" lon="112.00843632181532">
        <ele>1115.0</ele>
        <time>2018-02-19T09:44:03.100000Z</time>
      </trkpt>
      <trkpt lat="37.849314032775226" lon="112.00851420625321">
        <ele>1110.0</ele>
        <time>2018-02-19T09:44:06.100000Z</time>
      </trkpt>
      <trkpt lat="37.8493748161657" lon="112.00855705532254">
        <ele>1111.0</ele>
        <time>2018-02-19T09:44:09.100000Z</time>
      </trkpt>
      <trkpt lat="37.849479499961284" lon="112.00875451543801">
        <ele>1108.0</ele>
        <time>2018-02-19T09:44:21.100000Z</time>
      </trkpt>
      <trkpt lat="37.84963562341559" lon="112.00890559402397">
        <ele>1104.0</ele>
        <time>2018-02-19T09:44:33.100000Z</time>
      </trkpt>
      <trkpt lat="37.849695493825365" lon="112.00902694629595">
        <ele>1103.0</ele>
        <time>2018-02-19T09:44:42.200000Z</time>
      </trkpt>
      <trkpt lat="37.84982392086428" lon="112.00918910706783">
        <ele>1102.0</ele>
        <time>2018-02-19T09:44:54.100000Z</time>
      </trkpt>
      <trkpt lat="37.849895452453694" lon="112.00945760776855">
        <ele>1111.0</ele>
        <time>2018-02-19T09:45:12.100000Z</time>
      </trkpt>
      <trkpt lat="37.84988143253397" lon="112.00951978375191">
        <ele>1116.0</ele>
        <time>2018-02-19T09:45:15.100000Z</time>
      </trkpt>
      <trkpt lat="37.84992209324866" lon="112.00957222531261">
        <ele>1111.0</ele>
        <time>2018-02-19T09:45:18.100000Z</time>
      </trkpt>
      <trkpt lat="37.84990017898876" lon="112.00967912473097">
        <ele>1109.0</ele>
        <time>2018-02-19T09:45:24.100000Z</time>
      </trkpt>
      <trkpt lat="37.84992390889957" lon="112.00973744329096">
        <ele>1110.0</ele>
        <time>2018-02-19T09:45:27.100000Z</time>
      </trkpt>
      <trkpt lat="37.849970223641634" lon="112.00977198526132">
        <ele>1110.0</ele>
        <time>2018-02-19T09:45:30.100000Z</time>
      </trkpt>
      <trkpt lat="37.849947214014584" lon="112.00994417846104">
        <ele>1113.0</ele>
        <time>2018-02-19T09:45:39.100000Z</time>
      </trkpt>
      <trkpt lat="37.849862864186264" lon="112.01002177837641">
        <ele>1114.0</ele>
        <time>2018-02-19T09:45:45.100000Z</time>
      </trkpt>
      <trkpt lat="37.84987994326394" lon="112.01011882330275">
        <ele>1111.0</ele>
        <time>2018-02-19T09:45:51.100000Z</time>
      </trkpt>
      <trkpt lat="37.8498426839218" lon="112.01031636398432">
        <ele>1111.0</ele>
        <time>2018-02-19T09:46:03.100000Z</time>
      </trkpt>
      <trkpt lat="37.8498963888216" lon="112.01052458219971">
        <ele>1111.0</ele>
        <time>2018-02-19T09:46:15.200000Z</time>
      </trkpt>
      <trkpt lat="37.849899634044256" lon="112.01062081866733">
        <ele>1111.0</ele>
        <time>2018-02-19T09:46:21.100000Z</time>
      </trkpt>
      <trkpt lat="37.84991791469726" lon="112.01067839647972">
        <ele>1113.0</ele>
        <time>2018-02-19T09:46:24.100000Z</time>
      </trkpt>
      <trkpt lat="37.84985205838924" lon="112.01102469660229">
        <ele>1117.0</ele>
        <time>2018-02-19T09:46:42.100000Z</time>
      </trkpt>
      <trkpt lat="37.84987553823035" lon="112.01116012954445">
        <ele>1117.0</ele>
        <time>2018-02-19T09:46:48.100000Z</time>
      </trkpt>
      <trkpt lat="37.84984483167806" lon="112.0112696174543">
        <ele>1119.0</ele>
        <time>2018-02-19T09:46:54.100000Z</time>
      </trkpt>
      <trkpt lat="37.84982730182525" lon="112.01160564296771">
        <ele>1117.0</ele>
        <time>2018-02-19T09:47:15.100000Z</time>
      </trkpt>
      <trkpt lat="37.84978799713197" lon="112.0118730081523">
        <ele>1119.0</ele>
        <time>2018-02-19T09:47:24.100000Z</time>
      </trkpt>
      <trkpt lat="37.84979102026712" lon="112.01204629273064">
        <ele>1115.0</ele>
        <time>2018-02-19T09:47:30.100000Z</time>
      </trkpt>
      <trkpt lat="37.8498073353964" lon="112.0121271212418">
        <ele>1115.0</ele>
        <time>2018-02-19T09:47:33.100000Z</time>
      </trkpt>
      <trkpt lat="37.84980193755133" lon="112.01230419241362">
        <ele>1115.0</ele>
        <time>2018-02-19T09:47:39.100000Z</time>
      </trkpt>
      <trkpt lat="37.849783009116756" lon="112.01237583407466">
        <ele>1115.0</ele>
        <time>2018-02-19T09:47:42.100000Z</time>
      </trkpt>
      <trkpt lat="37.84974950598047" lon="112.01242125480881">
        <ele>1111.0</ele>
        <time>2018-02-19T09:47:45.100000Z</time>
      </trkpt>
      <trkpt lat="37.84973407197202" lon="112.01259778754327">
        <ele>1111.0</ele>
        <time>2018-02-19T09:47:54.100000Z</time>
      </trkpt>
      <trkpt lat="37.84971487647206" lon="112.01266807796337">
        <ele>1110.0</ele>
        <time>2018-02-19T09:47:57.100000Z</time>
      </trkpt>
      <trkpt lat="37.849728301436386" lon="112.01279992391433">
        <ele>1112.0</ele>
        <time>2018-02-19T09:48:03.100000Z</time>
      </trkpt>
      <trkpt lat="37.84965373288612" lon="112.01302415201074">
        <ele>1114.0</ele>
        <time>2018-02-19T09:48:18.100000Z</time>
      </trkpt>
      <trkpt lat="37.84966238328593" lon="112.01336988967734">
        <ele>1113.0</ele>
        <time>2018-02-19T09:48:33.100000Z</time>
      </trkpt>
      <trkpt lat="37.849649495136624" lon="112.01379379100551">
        <ele>1109.0</ele>
        <time>2018-02-19T09:48:48.100000Z</time>
      </trkpt>
      <trkpt lat="37.84962559256388" lon="112.01418065983921">
        <ele>1107.0</ele>
        <time>2018-02-19T09:49:00.100000Z</time>
      </trkpt>
      <trkpt lat="37.84959210148464" lon="112.01454296424107">
        <ele>1104.0</ele>
        <time>2018-02-19T09:49:12.100000Z</time>
      </trkpt>
      <trkpt lat="37.849552673719046" lon="112.01482085647544">
        <ele>1109.0</ele>
        <time>2018-02-19T09:49:21.100000Z</time>
      </trkpt>
      <trkpt lat="37.849537805905726" lon="112.01515392588317">
        <ele>1106.0</ele>
        <time>2018-02-19T09:49:30.100000Z</time>
      </trkpt>
      <trkpt lat="37.84949345793919" lon="112.0155777141805">
        <ele>1107.0</ele>
        <time>2018-02-19T09:49:42.100000Z</time>
      </trkpt>
      <trkpt lat="37.84945389537266" lon="112.01579047013283">
        <ele>1108.0</ele>
        <time>2018-02-19T09:49:48.100000Z</time>
      </trkpt>
      <trkpt lat="37.84940223530711" lon="112.01620050013253">
        <ele>1110.0</ele>
        <time>2018-02-19T09:50:00.100000Z</time>
      </trkpt>
      <trkpt lat="37.84936690832925" lon="112.01660361326961">
        <ele>1110.0</ele>
        <time>2018-02-19T09:50:12.100000Z</time>
      </trkpt>
      <trkpt lat="37.84934579026157" lon="112.01668391361241">
        <ele>1109.0</ele>
        <time>2018-02-19T09:50:15.100000Z</time>
      </trkpt>
      <trkpt lat="37.849335566383886" lon="112.01690649971799">
        <ele>1111.0</ele>
        <time>2018-02-19T09:50:21.200000Z</time>
      </trkpt>
      <trkpt lat="37.84931988552617" lon="112.01699396631135">
        <ele>1112.0</ele>
        <time>2018-02-19T09:50:24.100000Z</time>
      </trkpt>
      <trkpt lat="37.84932300650753" lon="112.01709157115702">
        <ele>1112.0</ele>
        <time>2018-02-19T09:50:27.100000Z</time>
      </trkpt>
      <trkpt lat="37.849361451625704" lon="112.01714570423489">
        <ele>1110.0</ele>
        <time>2018-02-19T09:50:30.100000Z</time>
      </trkpt>
      <trkpt lat="37.84942584444088" lon="112.0171946542089">
        <ele>1108.0</ele>
        <time>2018-02-19T09:50:36.100000Z</time>
      </trkpt>
      <trkpt lat="37.84938119342472" lon="112.01725847393104">
        <ele>1108.0</ele>
        <time>2018-02-19T09:50:42.100000Z</time>
      </trkpt>
      <trkpt lat="37.84933842000626" lon="112.01727682542966">
        <ele>1107.0</ele>
        <time>2018-02-19T09:50:45.100000Z</time>
      </trkpt>
      <trkpt lat="37.84924870703817" lon="112.01739830800749">
        <ele>1110.0</ele>
        <time>2018-02-19T09:50:57.200000Z</time>
      </trkpt>
      <trkpt lat="37.849229786598436" lon="112.01744915168058">
        <ele>1111.0</ele>
        <time>2018-02-19T09:51:00.100000Z</time>
      </trkpt>
      <trkpt lat="37.84924223610505" lon="112.017615878841">
        <ele>1109.0</ele>
        <time>2018-02-19T09:51:18.100000Z</time>
      </trkpt>
      <trkpt lat="37.849312907279945" lon="112.01766615912699">
        <ele>1110.0</ele>
        <time>2018-02-19T09:51:27.100000Z</time>
      </trkpt>
      <trkpt lat="37.84934687096884" lon="112.01774510312174">
        <ele>1109.0</ele>
        <time>2018-02-19T09:51:33.100000Z</time>
      </trkpt>
      <trkpt lat="37.84929574371472" lon="112.01778809815767">
        <ele>1110.0</ele>
        <time>2018-02-19T09:51:36.100000Z</time>
      </trkpt>
      <trkpt lat="37.84926761886814" lon="112.01785217942293">
        <ele>1109.0</ele>
        <time>2018-02-19T09:51:39.100000Z</time>
      </trkpt>
      <trkpt lat="37.84921536174545" lon="112.01791112662549">
        <ele>1107.0</ele>
        <time>2018-02-19T09:51:57.100000Z</time>
      </trkpt>
      <trkpt lat="37.849158943643666" lon="112.01809958276529">
        <ele>1109.0</ele>
        <time>2018-02-19T09:52:30.100000Z</time>
      </trkpt>
      <trkpt lat="37.84917581763162" lon="112.01817771855582">
        <ele>1110.0</ele>
        <time>2018-02-19T09:52:36.100000Z</time>
      </trkpt>
      <trkpt lat="37.8491733477196" lon="112.0182847868354">
        <ele>1110.0</ele>
        <time>2018-02-19T09:52:42.100000Z</time>
      </trkpt>
      <trkpt lat="37.84914458042465" lon="112.01838482881706">
        <ele>1110.0</ele>
        <time>2018-02-19T09:52:48.100000Z</time>
      </trkpt>
      <trkpt lat="37.849191567743866" lon="112.01865844341498">
        <ele>1110.0</ele>
        <time>2018-02-19T09:53:06.100000Z</time>
      </trkpt>
      <trkpt lat="37.849119350924845" lon="112.01887042797756">
        <ele>1111.0</ele>
        <time>2018-02-19T09:53:18.100000Z</time>
      </trkpt>
      <trkpt lat="37.84912946352026" lon="112.0190388727455">
        <ele>1121.0</ele>
        <time>2018-02-19T09:53:27.100000Z</time>
      </trkpt>
      <trkpt lat="37.84910270081328" lon="112.01919921126712">
        <ele>1114.0</ele>
        <time>2018-02-19T09:53:36.100000Z</time>
      </trkpt>
      <trkpt lat="37.84913310238859" lon="112.01929167787675">
        <ele>1112.0</ele>
        <time>2018-02-19T09:53:42.100000Z</time>
      </trkpt>
      <trkpt lat="37.849137633662444" lon="112.01951663516309">
        <ele>1110.0</ele>
        <time>2018-02-19T09:53:54.100000Z</time>
      </trkpt>
      <trkpt lat="37.84908567945898" lon="112.01966291878747">
        <ele>1109.0</ele>
        <time>2018-02-19T09:54:03.100000Z</time>
      </trkpt>
      <trkpt lat="37.849116843921045" lon="112.0199706131961">
        <ele>1114.0</ele>
        <time>2018-02-19T09:54:21.100000Z</time>
      </trkpt>
      <trkpt lat="37.84910276809201" lon="112.0201010047664">
        <ele>1116.0</ele>
        <time>2018-02-19T09:54:27.100000Z</time>
      </trkpt>
      <trkpt lat="37.849119132224565" lon="112.02023020260124">
        <ele>1115.0</ele>
        <time>2018-02-19T09:54:33.100000Z</time>
      </trkpt>
      <trkpt lat="37.84908488052555" lon="112.02044433663359">
        <ele>1110.0</ele>
        <time>2018-02-19T09:54:48.100000Z</time>
      </trkpt>
      <trkpt lat="37.849126548487014" lon="112.02068335689563">
        <ele>1110.0</ele>
        <time>2018-02-19T09:55:00.100000Z</time>
      </trkpt>
      <trkpt lat="37.84910097452337" lon="112.02080801064706">
        <ele>1111.0</ele>
        <time>2018-02-19T09:55:06.100000Z</time>
      </trkpt>
      <trkpt lat="37.8490979433947" lon="112.02100542600837">
        <ele>1106.0</ele>
        <time>2018-02-19T09:55:15.100000Z</time>
      </trkpt>
      <trkpt lat="37.84908192675543" lon="112.02107730466037">
        <ele>1104.0</ele>
        <time>2018-02-19T09:55:18.100000Z</time>
      </trkpt>
      <trkpt lat="37.84908510749252" lon="112.02114600821037">
        <ele>1103.0</ele>
        <time>2018-02-19T09:55:21.100000Z</time>
      </trkpt>
      <trkpt lat="37.84912972756245" lon="112.02119367956699">
        <ele>1105.0</ele>
        <time>2018-02-19T09:55:27.100000Z</time>
      </trkpt>
      <trkpt lat="37.84907121798984" lon="112.02137097568989">
        <ele>1102.0</ele>
        <time>2018-02-19T09:55:39.100000Z</time>
      </trkpt>
      <trkpt lat="37.84910835665311" lon="112.02158134051622">
        <ele>1103.0</ele>
        <time>2018-02-19T09:55:51.100000Z</time>
      </trkpt>
      <trkpt lat="37.849098655251815" lon="112.02165678290258">
        <ele>1102.0</ele>
        <time>2018-02-19T09:55:54.100000Z</time>
      </trkpt>
      <trkpt lat="37.84911206686405" lon="112.02181307223296">
        <ele>1106.0</ele>
        <time>2018-02-19T09:56:03.100000Z</time>
      </trkpt>
      <trkpt lat="37.849062868421264" lon="112.021946385675">
        <ele>1111.0</ele>
        <time>2018-02-19T09:56:09.100000Z</time>
      </trkpt>
      <trkpt lat="37.84905859388423" lon="112.02202182820814">
        <ele>1109.0</ele>
        <time>2018-02-19T09:56:15.100000Z</time>
      </trkpt>
      <trkpt lat="37.84907339708623" lon="112.02212411090653">
        <ele>1107.0</ele>
        <time>2018-02-19T09:56:21.100000Z</time>
      </trkpt>
      <trkpt lat="37.8490851246564" lon="112.02244365444291">
        <ele>1111.0</ele>
        <time>2018-02-19T09:56:36.100000Z</time>
      </trkpt>
      <trkpt lat="37.84910018888233" lon="112.02259183498276">
        <ele>1111.0</ele>
        <time>2018-02-19T09:56:45.100000Z</time>
      </trkpt>
      <trkpt lat="37.849037983733496" lon="112.02282060699203">
        <ele>1108.0</ele>
        <time>2018-02-19T09:56:57.100000Z</time>
      </trkpt>
      <trkpt lat="37.84906217573608" lon="112.02320701962022">
        <ele>1114.0</ele>
        <time>2018-02-19T09:57:18.100000Z</time>
      </trkpt>
      <trkpt lat="37.84907280022848" lon="112.02349419642087">
        <ele>1112.0</ele>
        <time>2018-02-19T09:57:36.100000Z</time>
      </trkpt>
      <trkpt lat="37.84901691465424" lon="112.0236951211151">
        <ele>1111.0</ele>
        <time>2018-02-19T09:57:48.100000Z</time>
      </trkpt>
      <trkpt lat="37.849029045833916" lon="112.02389938969745">
        <ele>1109.0</ele>
        <time>2018-02-19T09:57:57.100000Z</time>
      </trkpt>
      <trkpt lat="37.84905287799768" lon="112.02397996004237">
        <ele>1110.0</ele>
        <time>2018-02-19T09:58:00.100000Z</time>
      </trkpt>
      <trkpt lat="37.84908497432664" lon="112.02403496064672">
        <ele>1110.0</ele>
        <time>2018-02-19T09:58:03.100000Z</time>
      </trkpt>
      <trkpt lat="37.84909345195825" lon="112.02415141106029">
        <ele>1111.0</ele>
        <time>2018-02-19T09:58:09.100000Z</time>
      </trkpt>
      <trkpt lat="37.84905639538879" lon="112.02419301054756">
        <ele>1109.0</ele>
        <time>2018-02-19T09:58:12.100000Z</time>
      </trkpt>
      <trkpt lat="37.849021528364375" lon="112.0242442925031">
        <ele>1112.0</ele>
        <time>2018-02-19T09:58:15.100000Z</time>
      </trkpt>
      <trkpt lat="37.848993869181434" lon="112.02432612791179">
        <ele>1113.0</ele>
        <time>2018-02-19T09:58:18.100000Z</time>
      </trkpt>
      <trkpt lat="37.848937594846156" lon="112.0243933607543">
        <ele>1112.0</ele>
        <time>2018-02-19T09:58:21.100000Z</time>
      </trkpt>
      <trkpt lat="37.8488986224199" lon="112.02446010165299">
        <ele>1111.0</ele>
        <time>2018-02-19T09:58:24.100000Z</time>
      </trkpt>
      <trkpt lat="37.84891866436687" lon="112.02453220445379">
        <ele>1110.0</ele>
        <time>2018-02-19T09:58:27.100000Z</time>
      </trkpt>
      <trkpt lat="37.84893263800529" lon="112.02458935083109">
        <ele>1109.0</ele>
        <time>2018-02-19T09:58:30.100000Z</time>
      </trkpt>
      <trkpt lat="37.848974316498825" lon="112.0246534293542">
        <ele>1107.0</ele>
        <time>2018-02-19T09:58:36.100000Z</time>
      </trkpt>
      <trkpt lat="37.84894151647811" lon="112.02472676237402">
        <ele>1108.0</ele>
        <time>2018-02-19T09:58:42.100000Z</time>
      </trkpt>
      <trkpt lat="37.8489988022027" lon="112.0248072465158">
        <ele>1110.0</ele>
        <time>2018-02-19T09:58:48.100000Z</time>
      </trkpt>
      <trkpt lat="37.849031400611295" lon="112.02492499417463">
        <ele>1114.0</ele>
        <time>2018-02-19T09:58:54.100000Z</time>
      </trkpt>
      <trkpt lat="37.84896602364649" lon="112.02513168287122">
        <ele>1115.0</ele>
        <time>2018-02-19T09:59:03.100000Z</time>
      </trkpt>
      <trkpt lat="37.848923051753594" lon="112.0252036131892">
        <ele>1116.0</ele>
        <time>2018-02-19T09:59:06.100000Z</time>
      </trkpt>
      <trkpt lat="37.84890998095005" lon="112.02529399145952">
        <ele>1118.0</ele>
        <time>2018-02-19T09:59:09.100000Z</time>
      </trkpt>
      <trkpt lat="37.84899520004894" lon="112.0253756161144">
        <ele>1114.0</ele>
        <time>2018-02-19T09:59:15.100000Z</time>
      </trkpt>
      <trkpt lat="37.84902290434145" lon="112.02547047708143">
        <ele>1108.0</ele>
        <time>2018-02-19T09:59:21.100000Z</time>
      </trkpt>
      <trkpt lat="37.84900156133368" lon="112.02565012795917">
        <ele>1102.0</ele>
        <time>2018-02-19T09:59:33.100000Z</time>
      </trkpt>
      <trkpt lat="37.84900164150267" lon="112.02572893861262">
        <ele>1102.0</ele>
        <time>2018-02-19T09:59:39.100000Z</time>
      </trkpt>
      <trkpt lat="37.84899158543784" lon="112.02578970521095">
        <ele>1104.0</ele>
        <time>2018-02-19T09:59:42.100000Z</time>
      </trkpt>
      <trkpt lat="37.849010582938064" lon="112.02585717778545">
        <ele>1103.0</ele>
        <time>2018-02-19T09:59:45.100000Z</time>
      </trkpt>
      <trkpt lat="37.84900330548169" lon="112.02593227923218">
        <ele>1101.0</ele>
        <time>2018-02-19T09:59:48.100000Z</time>
      </trkpt>
      <trkpt lat="37.849026878705" lon="112.02601953346775">
        <ele>1098.0</ele>
        <time>2018-02-19T09:59:54.100000Z</time>
      </trkpt>
      <trkpt lat="37.84901149254222" lon="112.02618906434382">
        <ele>1096.0</ele>
        <time>2018-02-19T10:00:03.100000Z</time>
      </trkpt>
      <trkpt lat="37.84902331940444" lon="112.02629828530767">
        <ele>1102.0</ele>
        <time>2018-02-19T10:00:12.100000Z</time>
      </trkpt>
      <trkpt lat="37.8490196031729" lon="112.02635183470426">
        <ele>1102.0</ele>
        <time>2018-02-19T10:00:15.100000Z</time>
      </trkpt>
      <trkpt lat="37.84898288810081" lon="112.02641463142066">
        <ele>1100.0</ele>
        <time>2018-02-19T10:00:18.100000Z</time>
      </trkpt>
      <trkpt lat="37.84893746410481" lon="112.02649680334898">
        <ele>1101.0</ele>
        <time>2018-02-19T10:00:21.100000Z</time>
      </trkpt>
      <trkpt lat="37.84891624270793" lon="112.0265648330391">
        <ele>1104.0</ele>
        <time>2018-02-19T10:00:24.100000Z</time>
      </trkpt>
      <trkpt lat="37.8487704035814" lon="112.0266548104202">
        <ele>1104.0</ele>
        <time>2018-02-19T10:00:33.100000Z</time>
      </trkpt>
      <trkpt lat="37.84854855643661" lon="112.0266020051906">
        <ele>1103.0</ele>
        <time>2018-02-19T10:00:48.100000Z</time>
      </trkpt>
      <trkpt lat="37.84846366374807" lon="112.02655620579657">
        <ele>1104.0</ele>
        <time>2018-02-19T10:00:54.100000Z</time>
      </trkpt>
      <trkpt lat="37.84839787092704" lon="112.02655969834885">
        <ele>1102.0</ele>
        <time>2018-02-19T10:01:00.100000Z</time>
      </trkpt>
      <trkpt lat="37.848347895749775" lon="112.02649570381297">
        <ele>1101.0</ele>
        <time>2018-02-19T10:01:09.100000Z</time>
      </trkpt>
      <trkpt lat="37.84824819443624" lon="112.02655475761993">
        <ele>1104.0</ele>
        <time>2018-02-19T10:01:15.100000Z</time>
      </trkpt>
      <trkpt lat="37.84821421737284" lon="112.02652102088884">
        <ele>1104.0</ele>
        <time>2018-02-19T10:01:18.100000Z</time>
      </trkpt>
      <trkpt lat="37.848126427275204" lon="112.02657241643044">
        <ele>1104.0</ele>
        <time>2018-02-19T10:01:24.100000Z</time>
      </trkpt>
      <trkpt lat="37.8478742369213" lon="112.02652966017799">
        <ele>1105.0</ele>
        <time>2018-02-19T10:01:42.100000Z</time>
      </trkpt>
      <trkpt lat="37.84773944159662" lon="112.02669305736366">
        <ele>1111.0</ele>
        <time>2018-02-19T10:01:54.100000Z</time>
      </trkpt>
      <trkpt lat="37.84772359501717" lon="112.02676692518672">
        <ele>1112.0</ele>
        <time>2018-02-19T10:01:57.100000Z</time>
      </trkpt>
      <trkpt lat="37.847696082711145" lon="112.0268226151483">
        <ele>1112.0</ele>
        <time>2018-02-19T10:02:00.100000Z</time>
      </trkpt>
      <trkpt lat="37.8476130755824" lon="112.0269503703702">
        <ele>1110.0</ele>
        <time>2018-02-19T10:02:12.100000Z</time>
      </trkpt>
      <trkpt lat="37.84758090293157" lon="112.02704179967516">
        <ele>1111.0</ele>
        <time>2018-02-19T10:02:18.100000Z</time>
      </trkpt>
      <trkpt lat="37.847580837720024" lon="112.02717303239417">
        <ele>1112.0</ele>
        <time>2018-02-19T10:02:24.100000Z</time>
      </trkpt>
      <trkpt lat="37.84756160576502" lon="112.02724998002465">
        <ele>1111.0</ele>
        <time>2018-02-19T10:02:27.100000Z</time>
      </trkpt>
      <trkpt lat="37.84751096242887" lon="112.02730099718283">
        <ele>1113.0</ele>
        <time>2018-02-19T10:02:33.100000Z</time>
      </trkpt>
      <trkpt lat="37.847505641166" lon="112.02740817424822">
        <ele>1116.0</ele>
        <time>2018-02-19T10:02:42.100000Z</time>
      </trkpt>
      <trkpt lat="37.84745979431068" lon="112.02760827931085">
        <ele>1114.0</ele>
        <time>2018-02-19T10:02:51.100000Z</time>
      </trkpt>
      <trkpt lat="37.84741511150053" lon="112.02770719991754">
        <ele>1112.0</ele>
        <time>2018-02-19T10:02:57.100000Z</time>
      </trkpt>
      <trkpt lat="37.84736723138911" lon="112.02786176566893">
        <ele>1108.0</ele>
        <time>2018-02-19T10:03:12.100000Z</time>
      </trkpt>
      <trkpt lat="37.84733149858364" lon="112.02790521933247">
        <ele>1108.0</ele>
        <time>2018-02-19T10:03:15.100000Z</time>
      </trkpt>
      <trkpt lat="37.847313370277156" lon="112.0279718200924">
        <ele>1109.0</ele>
        <time>2018-02-19T10:03:18.100000Z</time>
      </trkpt>
      <trkpt lat="37.84726884049518" lon="112.02800053016077">
        <ele>1105.0</ele>
        <time>2018-02-19T10:03:24.100000Z</time>
      </trkpt>
      <trkpt lat="37.84736346962317" lon="112.02818893378678">
        <ele>1107.0</ele>
        <time>2018-02-19T10:03:33.100000Z</time>
      </trkpt>
      <trkpt lat="37.847416659418705" lon="112.02822926902995">
        <ele>1105.0</ele>
        <time>2018-02-19T10:03:36.100000Z</time>
      </trkpt>
      <trkpt lat="37.847448697855384" lon="112.02830750090645">
        <ele>1104.0</ele>
        <time>2018-02-19T10:03:45.100000Z</time>
      </trkpt>
      <trkpt lat="37.8474381687533" lon="112.02846087540587">
        <ele>1101.0</ele>
        <time>2018-02-19T10:03:57.100000Z</time>
      </trkpt>
      <trkpt lat="37.84739705443853" lon="112.02854809299747">
        <ele>1099.0</ele>
        <time>2018-02-19T10:04:00.100000Z</time>
      </trkpt>
      <trkpt lat="37.84737488921562" lon="112.02864765180024">
        <ele>1100.0</ele>
        <time>2018-02-19T10:04:03.100000Z</time>
      </trkpt>
      <trkpt lat="37.84736613435478" lon="112.02884190549977">
        <ele>1107.0</ele>
        <time>2018-02-19T10:04:12.100000Z</time>
      </trkpt>
      <trkpt lat="37.847407656852" lon="112.02903954788128">
        <ele>1105.0</ele>
        <time>2018-02-19T10:04:27.100000Z</time>
      </trkpt>
      <trkpt lat="37.84744179663105" lon="112.02908653355314">
        <ele>1111.0</ele>
        <time>2018-02-19T10:04:33.100000Z</time>
      </trkpt>
      <trkpt lat="37.847446779422995" lon="112.02916273345728">
        <ele>1112.0</ele>
        <time>2018-02-19T10:04:36.100000Z</time>
      </trkpt>
      <trkpt lat="37.847416075276634" lon="112.02921089895555">
        <ele>1112.0</ele>
        <time>2018-02-19T10:04:39.100000Z</time>
      </trkpt>
      <trkpt lat="37.847393967273625" lon="112.02927948498753">
        <ele>1112.0</ele>
        <time>2018-02-19T10:04:42.100000Z</time>
      </trkpt>
      <trkpt lat="37.84740815292429" lon="112.0293347005567">
        <ele>1110.0</ele>
        <time>2018-02-19T10:04:45.100000Z</time>
      </trkpt>
      <trkpt lat="37.84739870133542" lon="112.02940741884679">
        <ele>1105.0</ele>
        <time>2018-02-19T10:04:48.100000Z</time>
      </trkpt>
      <trkpt lat="37.847376894158764" lon="112.02946380276873">
        <ele>1109.0</ele>
        <time>2018-02-19T10:04:51.100000Z</time>
      </trkpt>
      <trkpt lat="37.84733984306097" lon="112.02948018278644">
        <ele>1110.0</ele>
        <time>2018-02-19T10:05:00.100000Z</time>
      </trkpt>
      <trkpt lat="37.84730447214728" lon="112.02948743994854">
        <ele>1110.0</ele>
        <time>2018-02-19T10:05:03.100000Z</time>
      </trkpt>
      <trkpt lat="37.84726944273474" lon="112.02950375996645">
        <ele>1110.0</ele>
        <time>2018-02-19T10:05:06.100000Z</time>
      </trkpt>
      <trkpt lat="37.84724194666739" lon="112.02952328343548">
        <ele>1110.0</ele>
        <time>2018-02-19T10:05:09.100000Z</time>
      </trkpt>
      <trkpt lat="37.84717194574155" lon="112.02952676938745">
        <ele>1111.0</ele>
        <time>2018-02-19T10:05:12.100000Z</time>
      </trkpt>
      <trkpt lat="37.847118587050154" lon="112.02955661766954">
        <ele>1112.0</ele>
        <time>2018-02-19T10:05:15.100000Z</time>
      </trkpt>
      <trkpt lat="37.84699145717577" lon="112.02965421677908">
        <ele>1116.0</ele>
        <time>2018-02-19T10:05:24.100000Z</time>
      </trkpt>
      <trkpt lat="37.846893606819826" lon="112.02966890498041">
        <ele>1115.0</ele>
        <time>2018-02-19T10:05:30.100000Z</time>
      </trkpt>
      <trkpt lat="37.84684888422857" lon="112.02969866361833">
        <ele>1116.0</ele>
        <time>2018-02-19T10:05:33.100000Z</time>
      </trkpt>
      <trkpt lat="37.84666915098538" lon="112.02969210885429">
        <ele>1117.0</ele>
        <time>2018-02-19T10:05:45Z</time>
      </trkpt>
      <trkpt lat="37.84669117544074" lon="112.02972341818412">
        <ele>1117.0</ele>
        <time>2018-02-19T10:05:54.100000Z</time>
      </trkpt>
      <trkpt lat="37.84673052562939" lon="112.02966019860091">
        <ele>1116.0</ele>
        <time>2018-02-19T10:06:00Z</time>
      </trkpt>
      <trkpt lat="37.846735375231496" lon="112.02962699531157">
        <ele>1116.0</ele>
        <time>2018-02-19T10:06:03.100000Z</time>
      </trkpt>
      <trkpt lat="37.84677217001478" lon="112.02950337720064">
        <ele>1117.0</ele>
        <time>2018-02-19T10:06:09Z</time>
      </trkpt>
      <trkpt lat="37.84677217001478" lon="112.02950337720064">
        <ele>1117.0</ele>
        <time>2018-02-19T10:06:16.400000Z</time>
      </trkpt>
      <trkpt lat="37.846766739009546" lon="112.02950527112692">
        <ele>1117.0</ele>
        <time>2018-02-19T10:06:39.900000Z</time>
      </trkpt>
      <trkpt lat="37.846766739009546" lon="112.02950527112692">
        <ele>1116.0</ele>
        <time>2018-02-19T10:07:11Z</time>
      </trkpt>
      <trkpt lat="37.846766466333506" lon="112.02950581209484">
        <ele>1117.0</ele>
        <time>2018-02-19T10:09:41.100000Z</time>
      </trkpt>
      <trkpt lat="37.84676535516213" lon="112.02951608999744">
        <ele>1117.0</ele>
        <time>2018-02-19T10:09:53.100000Z</time>
      </trkpt>
    </trkseg>
  </trk>
</gpx>