<?xml version="1.0" encoding="UTF-8"?>
<gpx xmlns="http://www.topografix.com/GPX/1/1" xmlns:gpxtpx="http://www.garmin.com/xmlschemas/TrackPointExtension/v1" xmlns:xsi="http://www.w3.org/2001/XMLSchema-instance" xsi:schemaLocation="http://www.topografix.com/GPX/1/1 http://www.topografix.com/GPX/1/1/gpx.xsd" version="1.1" creator="gpx.py -- https://github.com/tkrajina/gpxpy">
  <trk>
    <name>gpx from keep</name>
    <type>Run</type>
    <trkseg>
      <trkpt lat="37.849052245093844" lon="112.02206184846037">
        <ele>1114.0</ele>
        <time>2018-07-04T11:13:35.013000Z</time>
      </trkpt>
      <trkpt lat="37.849081187647265" lon="112.02199424452361">
        <ele>1107.0</ele>
        <time>2018-07-04T11:13:38.013000Z</time>
      </trkpt>
      <trkpt lat="37.849044563007055" lon="112.0215943272949">
        <ele>1107.0</ele>
        <time>2018-07-04T11:13:53.613000Z</time>
      </trkpt>
      <trkpt lat="37.849090516142425" lon="112.02115952377567">
        <ele>1107.0</ele>
        <time>2018-07-04T11:14:05.613000Z</time>
      </trkpt>
      <trkpt lat="37.849119924213944" lon="112.0207244572168">
        <ele>1108.0</ele>
        <time>2018-07-04T11:14:17.613000Z</time>
      </trkpt>
      <trkpt lat="37.84911802833482" lon="112.02062441262655">
        <ele>1108.0</ele>
        <time>2018-07-04T11:14:20.613000Z</time>
      </trkpt>
      <trkpt lat="37.849097399524766" lon="112.02052896719735">
        <ele>1108.0</ele>
        <time>2018-07-04T11:14:23.613000Z</time>
      </trkpt>
      <trkpt lat="37.84910775501488" lon="112.02031508785981">
        <ele>1109.0</ele>
        <time>2018-07-04T11:14:29.613000Z</time>
      </trkpt>
      <trkpt lat="37.84908503492703" lon="112.02009860502018">
        <ele>1109.0</ele>
        <time>2018-07-04T11:14:35.613000Z</time>
      </trkpt>
      <trkpt lat="37.84909192897076" lon="112.01968722627328">
        <ele>1110.0</ele>
        <time>2018-07-04T11:14:47.613000Z</time>
      </trkpt>
      <trkpt lat="37.84912659292461" lon="112.01961451943444">
        <ele>1110.0</ele>
        <time>2018-07-04T11:14:50.613000Z</time>
      </trkpt>
      <trkpt lat="37.84917555584569" lon="112.01959786672617">
        <ele>1109.0</ele>
        <time>2018-07-04T11:14:53.613000Z</time>
      </trkpt>
      <trkpt lat="37.84920198986734" lon="112.0195158010256">
        <ele>1109.0</ele>
        <time>2018-07-04T11:14:56.613000Z</time>
      </trkpt>
      <trkpt lat="37.849175085956155" lon="112.01938382285645">
        <ele>1109.0</ele>
        <time>2018-07-04T11:14:59.613000Z</time>
      </trkpt>
      <trkpt lat="37.849157749862925" lon="112.0190137240803">
        <ele>1110.0</ele>
        <time>2018-07-04T11:15:08.613000Z</time>
      </trkpt>
      <trkpt lat="37.84910842497865" lon="112.01870198405189">
        <ele>1109.0</ele>
        <time>2018-07-04T11:15:17.613000Z</time>
      </trkpt>
      <trkpt lat="37.849147594721806" lon="112.0183053427555">
        <ele>1111.0</ele>
        <time>2018-07-04T11:15:29.613000Z</time>
      </trkpt>
      <trkpt lat="37.84915699757434" lon="112.01819199376939">
        <ele>1111.0</ele>
        <time>2018-07-04T11:15:32.613000Z</time>
      </trkpt>
      <trkpt lat="37.84916980206701" lon="112.01785118133377">
        <ele>1113.0</ele>
        <time>2018-07-04T11:15:41.613000Z</time>
      </trkpt>
      <trkpt lat="37.84924207526531" lon="112.01745999162047">
        <ele>1111.0</ele>
        <time>2018-07-04T11:15:53.613000Z</time>
      </trkpt>
      <trkpt lat="37.84928774823267" lon="112.0171620251465">
        <ele>1112.0</ele>
        <time>2018-07-04T11:16:02.613000Z</time>
      </trkpt>
      <trkpt lat="37.84933473071728" lon="112.01675718344832">
        <ele>1112.0</ele>
        <time>2018-07-04T11:16:14.613000Z</time>
      </trkpt>
      <trkpt lat="37.84938222190899" lon="112.01636947795622">
        <ele>1111.0</ele>
        <time>2018-07-04T11:16:26.613000Z</time>
      </trkpt>
      <trkpt lat="37.849431399072905" lon="112.01596231002742">
        <ele>1111.0</ele>
        <time>2018-07-04T11:16:38.613000Z</time>
      </trkpt>
      <trkpt lat="37.84948049638671" lon="112.01558835804992">
        <ele>1111.0</ele>
        <time>2018-07-04T11:16:50.613000Z</time>
      </trkpt>
      <trkpt lat="37.84952933529343" lon="112.01520259728677">
        <ele>1112.0</ele>
        <time>2018-07-04T11:17:02.613000Z</time>
      </trkpt>
      <trkpt lat="37.849569347517296" lon="112.01477759825381">
        <ele>1114.0</ele>
        <time>2018-07-04T11:17:14.613000Z</time>
      </trkpt>
      <trkpt lat="37.84960173358909" lon="112.0143639588172">
        <ele>1115.0</ele>
        <time>2018-07-04T11:17:26.613000Z</time>
      </trkpt>
      <trkpt lat="37.84962895678579" lon="112.01395410860084">
        <ele>1116.0</ele>
        <time>2018-07-04T11:17:38.613000Z</time>
      </trkpt>
      <trkpt lat="37.84967243191455" lon="112.01355453313163">
        <ele>1116.0</ele>
        <time>2018-07-04T11:17:50.613000Z</time>
      </trkpt>
      <trkpt lat="37.84970671007138" lon="112.01314631120054">
        <ele>1117.0</ele>
        <time>2018-07-04T11:18:02.613000Z</time>
      </trkpt>
      <trkpt lat="37.84970944515838" lon="112.01276350841916">
        <ele>1116.0</ele>
        <time>2018-07-04T11:18:14.613000Z</time>
      </trkpt>
      <trkpt lat="37.849745256876425" lon="112.01257669978781">
        <ele>1116.0</ele>
        <time>2018-07-04T11:18:20.613000Z</time>
      </trkpt>
      <trkpt lat="37.84974335442536" lon="112.01248424428893">
        <ele>1115.0</ele>
        <time>2018-07-04T11:18:23.613000Z</time>
      </trkpt>
      <trkpt lat="37.8497982113367" lon="112.01209251930992">
        <ele>1116.0</ele>
        <time>2018-07-04T11:18:35.613000Z</time>
      </trkpt>
      <trkpt lat="37.84978988562182" lon="112.01169026188383">
        <ele>1117.0</ele>
        <time>2018-07-04T11:18:47.613000Z</time>
      </trkpt>
      <trkpt lat="37.84984292381591" lon="112.01127259133152">
        <ele>1117.0</ele>
        <time>2018-07-04T11:18:59.613000Z</time>
      </trkpt>
      <trkpt lat="37.84986710432502" lon="112.01088952972702">
        <ele>1119.0</ele>
        <time>2018-07-04T11:19:11.613000Z</time>
      </trkpt>
      <trkpt lat="37.84989892882681" lon="112.0104910612332">
        <ele>1119.0</ele>
        <time>2018-07-04T11:19:23.613000Z</time>
      </trkpt>
      <trkpt lat="37.84992057789043" lon="112.01007165373363">
        <ele>1121.0</ele>
        <time>2018-07-04T11:19:35.613000Z</time>
      </trkpt>
      <trkpt lat="37.84993830395881" lon="112.00964736966058">
        <ele>1122.0</ele>
        <time>2018-07-04T11:19:47.613000Z</time>
      </trkpt>
      <trkpt lat="37.84985611175748" lon="112.00927352283394">
        <ele>1124.0</ele>
        <time>2018-07-04T11:19:59.613000Z</time>
      </trkpt>
      <trkpt lat="37.84966089847989" lon="112.00895294500135">
        <ele>1124.0</ele>
        <time>2018-07-04T11:20:11.613000Z</time>
      </trkpt>
      <trkpt lat="37.849459733660346" lon="112.00862696318795">
        <ele>1125.0</ele>
        <time>2018-07-04T11:20:23.613000Z</time>
      </trkpt>
      <trkpt lat="37.84925878713261" lon="112.00831936467692">
        <ele>1126.0</ele>
        <time>2018-07-04T11:20:35.613000Z</time>
      </trkpt>
      <trkpt lat="37.84905867815621" lon="112.0080041986996">
        <ele>1122.0</ele>
        <time>2018-07-04T11:20:47.613000Z</time>
      </trkpt>
      <trkpt lat="37.848841774732904" lon="112.00768038618">
        <ele>1126.0</ele>
        <time>2018-07-04T11:20:59.613000Z</time>
      </trkpt>
      <trkpt lat="37.84866684965898" lon="112.0074736162541">
        <ele>1126.0</ele>
        <time>2018-07-04T11:21:08.613000Z</time>
      </trkpt>
      <trkpt lat="37.848469405621174" lon="112.00717575405864">
        <ele>1124.0</ele>
        <time>2018-07-04T11:21:20.613000Z</time>
      </trkpt>
      <trkpt lat="37.848282546489955" lon="112.00696817616335">
        <ele>1123.0</ele>
        <time>2018-07-04T11:21:29.613000Z</time>
      </trkpt>
      <trkpt lat="37.84812438192976" lon="112.00687358577898">
        <ele>1123.0</ele>
        <time>2018-07-04T11:21:35.613000Z</time>
      </trkpt>
      <trkpt lat="37.84778267082585" lon="112.00682605165511">
        <ele>1123.0</ele>
        <time>2018-07-04T11:21:47.613000Z</time>
      </trkpt>
      <trkpt lat="37.84745039940385" lon="112.00679743825084">
        <ele>1126.0</ele>
        <time>2018-07-04T11:21:59.613000Z</time>
      </trkpt>
      <trkpt lat="37.84713963892085" lon="112.00674287238392">
        <ele>1128.0</ele>
        <time>2018-07-04T11:22:11.613000Z</time>
      </trkpt>
      <trkpt lat="37.8468253056054" lon="112.00670371472783">
        <ele>1128.0</ele>
        <time>2018-07-04T11:22:23.613000Z</time>
      </trkpt>
      <trkpt lat="37.84650094511746" lon="112.00666077393151">
        <ele>1129.0</ele>
        <time>2018-07-04T11:22:35.613000Z</time>
      </trkpt>
      <trkpt lat="37.84634497326928" lon="112.00664998009081">
        <ele>1129.0</ele>
        <time>2018-07-04T11:22:41.613000Z</time>
      </trkpt>
      <trkpt lat="37.84604082119188" lon="112.00656297623956">
        <ele>1129.0</ele>
        <time>2018-07-04T11:22:53.613000Z</time>
      </trkpt>
      <trkpt lat="37.84582296557503" lon="112.00646947474795">
        <ele>1129.0</ele>
        <time>2018-07-04T11:23:02.613000Z</time>
      </trkpt>
      <trkpt lat="37.84551878879083" lon="112.00639085072903">
        <ele>1128.0</ele>
        <time>2018-07-04T11:23:14.613000Z</time>
      </trkpt>
      <trkpt lat="37.84521842257921" lon="112.00630817169105">
        <ele>1128.0</ele>
        <time>2018-07-04T11:23:26.613000Z</time>
      </trkpt>
      <trkpt lat="37.84489421256427" lon="112.00621495351673">
        <ele>1128.0</ele>
        <time>2018-07-04T11:23:38.613000Z</time>
      </trkpt>
      <trkpt lat="37.84458478529656" lon="112.00616849719647">
        <ele>1129.0</ele>
        <time>2018-07-04T11:23:50.613000Z</time>
      </trkpt>
      <trkpt lat="37.84450753583756" lon="112.00614363795349">
        <ele>1130.0</ele>
        <time>2018-07-04T11:23:53.613000Z</time>
      </trkpt>
      <trkpt lat="37.84443451526147" lon="112.00615635119716">
        <ele>1130.0</ele>
        <time>2018-07-04T11:23:56.613000Z</time>
      </trkpt>
      <trkpt lat="37.84412930896219" lon="112.00633208885138">
        <ele>1131.0</ele>
        <time>2018-07-04T11:24:08.613000Z</time>
      </trkpt>
      <trkpt lat="37.84382828790293" lon="112.00646917203046">
        <ele>1129.0</ele>
        <time>2018-07-04T11:24:20.613000Z</time>
      </trkpt>
      <trkpt lat="37.843564530091456" lon="112.00666598978776">
        <ele>1130.0</ele>
        <time>2018-07-04T11:24:32.613000Z</time>
      </trkpt>
      <trkpt lat="37.84331583425183" lon="112.00690713748381">
        <ele>1131.0</ele>
        <time>2018-07-04T11:24:44.613000Z</time>
      </trkpt>
      <trkpt lat="37.84315459181838" lon="112.00708864770894">
        <ele>1131.0</ele>
        <time>2018-07-04T11:24:53.613000Z</time>
      </trkpt>
      <trkpt lat="37.84297472826153" lon="112.00724527457966">
        <ele>1131.0</ele>
        <time>2018-07-04T11:25:02.613000Z</time>
      </trkpt>
      <trkpt lat="37.84269527031534" lon="112.0074340105897">
        <ele>1132.0</ele>
        <time>2018-07-04T11:25:14.613000Z</time>
      </trkpt>
      <trkpt lat="37.842402226638704" lon="112.00761287684382">
        <ele>1133.0</ele>
        <time>2018-07-04T11:25:26.613000Z</time>
      </trkpt>
      <trkpt lat="37.842202075716806" lon="112.00775609579414">
        <ele>1133.0</ele>
        <time>2018-07-04T11:25:35.613000Z</time>
      </trkpt>
      <trkpt lat="37.84212580967975" lon="112.00778892796154">
        <ele>1133.0</ele>
        <time>2018-07-04T11:25:38.613000Z</time>
      </trkpt>
      <trkpt lat="37.841830401914386" lon="112.00795782711866">
        <ele>1133.0</ele>
        <time>2018-07-04T11:25:50.613000Z</time>
      </trkpt>
      <trkpt lat="37.84168821284509" lon="112.00804178190572">
        <ele>1133.0</ele>
        <time>2018-07-04T11:25:56.613000Z</time>
      </trkpt>
      <trkpt lat="37.84145836817287" lon="112.00814559661512">
        <ele>1134.0</ele>
        <time>2018-07-04T11:26:05.613000Z</time>
      </trkpt>
      <trkpt lat="37.841221686191815" lon="112.00819623717734">
        <ele>1135.0</ele>
        <time>2018-07-04T11:26:14.613000Z</time>
      </trkpt>
      <trkpt lat="37.841051544753526" lon="112.00819112286953">
        <ele>1135.0</ele>
        <time>2018-07-04T11:26:20.613000Z</time>
      </trkpt>
      <trkpt lat="37.840748433198016" lon="112.00809346040673">
        <ele>1137.0</ele>
        <time>2018-07-04T11:26:32.613000Z</time>
      </trkpt>
      <trkpt lat="37.84066435848371" lon="112.00809950637489">
        <ele>1137.0</ele>
        <time>2018-07-04T11:26:35.613000Z</time>
      </trkpt>
      <trkpt lat="37.840350811197794" lon="112.00803643187429">
        <ele>1136.0</ele>
        <time>2018-07-04T11:26:47.613000Z</time>
      </trkpt>
      <trkpt lat="37.84027908699766" lon="112.00800321127127">
        <ele>1137.0</ele>
        <time>2018-07-04T11:26:50.613000Z</time>
      </trkpt>
      <trkpt lat="37.840130705909985" lon="112.00798627263852">
        <ele>1136.0</ele>
        <time>2018-07-04T11:26:56.613000Z</time>
      </trkpt>
      <trkpt lat="37.83990679350051" lon="112.00804562669475">
        <ele>1137.0</ele>
        <time>2018-07-04T11:27:05.613000Z</time>
      </trkpt>
      <trkpt lat="37.83959122425242" lon="112.00808962436209">
        <ele>1138.0</ele>
        <time>2018-07-04T11:27:17.613000Z</time>
      </trkpt>
      <trkpt lat="37.839511269829856" lon="112.00810018105874">
        <ele>1138.0</ele>
        <time>2018-07-04T11:27:20.613000Z</time>
      </trkpt>
      <trkpt lat="37.83927970904945" lon="112.00806612834101">
        <ele>1141.0</ele>
        <time>2018-07-04T11:27:29.613000Z</time>
      </trkpt>
      <trkpt lat="37.83920312815529" lon="112.00806693100783">
        <ele>1141.0</ele>
        <time>2018-07-04T11:27:32.613000Z</time>
      </trkpt>
      <trkpt lat="37.83913141493466" lon="112.00810395549145">
        <ele>1141.0</ele>
        <time>2018-07-04T11:27:35.613000Z</time>
      </trkpt>
      <trkpt lat="37.83905065530093" lon="112.00812141003892">
        <ele>1142.0</ele>
        <time>2018-07-04T11:27:38.613000Z</time>
      </trkpt>
      <trkpt lat="37.838742568236675" lon="112.00817647024637">
        <ele>1144.0</ele>
        <time>2018-07-04T11:27:50.613000Z</time>
      </trkpt>
      <trkpt lat="37.838499608208245" lon="112.00818481451267">
        <ele>1145.0</ele>
        <time>2018-07-04T11:27:59.613000Z</time>
      </trkpt>
      <trkpt lat="37.838341188719944" lon="112.00821353222784">
        <ele>1146.0</ele>
        <time>2018-07-04T11:28:05.613000Z</time>
      </trkpt>
      <trkpt lat="37.83826012120728" lon="112.00821102951376">
        <ele>1146.0</ele>
        <time>2018-07-04T11:28:08.613000Z</time>
      </trkpt>
      <trkpt lat="37.838038745018345" lon="112.00813855474868">
        <ele>1146.0</ele>
        <time>2018-07-04T11:28:17.613000Z</time>
      </trkpt>
      <trkpt lat="37.83789347637334" lon="112.0080874486251">
        <ele>1147.0</ele>
        <time>2018-07-04T11:28:23.613000Z</time>
      </trkpt>
      <trkpt lat="37.837605296329365" lon="112.00800838884233">
        <ele>1146.0</ele>
        <time>2018-07-04T11:28:35.613000Z</time>
      </trkpt>
      <trkpt lat="37.837465914903326" lon="112.00794339158786">
        <ele>1147.0</ele>
        <time>2018-07-04T11:28:41.613000Z</time>
      </trkpt>
      <trkpt lat="37.83738723617596" lon="112.00792348218837">
        <ele>1147.0</ele>
        <time>2018-07-04T11:28:44.613000Z</time>
      </trkpt>
      <trkpt lat="37.83731251957383" lon="112.0078800889615">
        <ele>1147.0</ele>
        <time>2018-07-04T11:28:47.613000Z</time>
      </trkpt>
      <trkpt lat="37.837229684817686" lon="112.00787376151641">
        <ele>1147.0</ele>
        <time>2018-07-04T11:28:50.613000Z</time>
      </trkpt>
      <trkpt lat="37.83690243787167" lon="112.00774927203726">
        <ele>1149.0</ele>
        <time>2018-07-04T11:29:02.613000Z</time>
      </trkpt>
      <trkpt lat="37.83675237157606" lon="112.00766883445061">
        <ele>1149.0</ele>
        <time>2018-07-04T11:29:08.613000Z</time>
      </trkpt>
      <trkpt lat="37.836589997400004" lon="112.00760280246924">
        <ele>1148.0</ele>
        <time>2018-07-04T11:29:14.613000Z</time>
      </trkpt>
      <trkpt lat="37.83628588589032" lon="112.00747880499198">
        <ele>1149.0</ele>
        <time>2018-07-04T11:29:26.613000Z</time>
      </trkpt>
      <trkpt lat="37.83604144253872" lon="112.00745699394318">
        <ele>1151.0</ele>
        <time>2018-07-04T11:29:35.613000Z</time>
      </trkpt>
      <trkpt lat="37.83588341702619" lon="112.0074074137458">
        <ele>1152.0</ele>
        <time>2018-07-04T11:29:41.613000Z</time>
      </trkpt>
      <trkpt lat="37.83580050438529" lon="112.00741835420013">
        <ele>1152.0</ele>
        <time>2018-07-04T11:29:44.613000Z</time>
      </trkpt>
      <trkpt lat="37.83571323277298" lon="112.00741287887837">
        <ele>1153.0</ele>
        <time>2018-07-04T11:29:47.613000Z</time>
      </trkpt>
      <trkpt lat="37.83563838031856" lon="112.0074383847604">
        <ele>1153.0</ele>
        <time>2018-07-04T11:29:50.613000Z</time>
      </trkpt>
      <trkpt lat="37.835564491877506" lon="112.00745060858671">
        <ele>1153.0</ele>
        <time>2018-07-04T11:29:53.613000Z</time>
      </trkpt>
      <trkpt lat="37.835488322689166" lon="112.00743013561122">
        <ele>1153.0</ele>
        <time>2018-07-04T11:29:56.613000Z</time>
      </trkpt>
      <trkpt lat="37.83542581955879" lon="112.00737243746718">
        <ele>1153.0</ele>
        <time>2018-07-04T11:29:59.613000Z</time>
      </trkpt>
      <trkpt lat="37.83532121364991" lon="112.00708419969554">
        <ele>1153.0</ele>
        <time>2018-07-04T11:30:08.613000Z</time>
      </trkpt>
      <trkpt lat="37.835284731133534" lon="112.00698645388478">
        <ele>1153.0</ele>
        <time>2018-07-04T11:30:11.613000Z</time>
      </trkpt>
      <trkpt lat="37.83521856346335" lon="112.00692500614774">
        <ele>1153.0</ele>
        <time>2018-07-04T11:30:14.613000Z</time>
      </trkpt>
      <trkpt lat="37.83514849386117" lon="112.00687222910962">
        <ele>1153.0</ele>
        <time>2018-07-04T11:30:17.613000Z</time>
      </trkpt>
      <trkpt lat="37.83506835359544" lon="112.00684959387918">
        <ele>1154.0</ele>
        <time>2018-07-04T11:30:20.613000Z</time>
      </trkpt>
      <trkpt lat="37.834743229810435" lon="112.00692472304895">
        <ele>1155.0</ele>
        <time>2018-07-04T11:30:32.613000Z</time>
      </trkpt>
      <trkpt lat="37.834659684396755" lon="112.00692788696027">
        <ele>1155.0</ele>
        <time>2018-07-04T11:30:35.613000Z</time>
      </trkpt>
      <trkpt lat="37.83457551090425" lon="112.0069299609237">
        <ele>1155.0</ele>
        <time>2018-07-04T11:30:38.613000Z</time>
      </trkpt>
      <trkpt lat="37.83425182467341" lon="112.00681800814064">
        <ele>1154.0</ele>
        <time>2018-07-04T11:30:50.613000Z</time>
      </trkpt>
      <trkpt lat="37.833951253830875" lon="112.00672928404867">
        <ele>1155.0</ele>
        <time>2018-07-04T11:31:02.613000Z</time>
      </trkpt>
      <trkpt lat="37.833635000491746" lon="112.0066414846522">
        <ele>1157.0</ele>
        <time>2018-07-04T11:31:14.613000Z</time>
      </trkpt>
      <trkpt lat="37.83348360496092" lon="112.0065705424435">
        <ele>1157.0</ele>
        <time>2018-07-04T11:31:20.613000Z</time>
      </trkpt>
      <trkpt lat="37.83318268679778" lon="112.00645205387674">
        <ele>1158.0</ele>
        <time>2018-07-04T11:31:32.613000Z</time>
      </trkpt>
      <trkpt lat="37.83310687250696" lon="112.00642251050415">
        <ele>1158.0</ele>
        <time>2018-07-04T11:31:35.613000Z</time>
      </trkpt>
      <trkpt lat="37.832940258554075" lon="112.0064566708184">
        <ele>1159.0</ele>
        <time>2018-07-04T11:31:41.613000Z</time>
      </trkpt>
      <trkpt lat="37.83286256429394" lon="112.0064454811662">
        <ele>1159.0</ele>
        <time>2018-07-04T11:31:44.613000Z</time>
      </trkpt>
      <trkpt lat="37.83255143458898" lon="112.00630400244738">
        <ele>1161.0</ele>
        <time>2018-07-04T11:31:56.613000Z</time>
      </trkpt>
      <trkpt lat="37.83239885921095" lon="112.00622586138252">
        <ele>1162.0</ele>
        <time>2018-07-04T11:32:02.613000Z</time>
      </trkpt>
      <trkpt lat="37.83231754601079" lon="112.00619304066595">
        <ele>1161.0</ele>
        <time>2018-07-04T11:32:05.613000Z</time>
      </trkpt>
      <trkpt lat="37.83207529612498" lon="112.00615249510747">
        <ele>1161.0</ele>
        <time>2018-07-04T11:32:14.613000Z</time>
      </trkpt>
      <trkpt lat="37.8318433808289" lon="112.00615927869322">
        <ele>1162.0</ele>
        <time>2018-07-04T11:32:23.613000Z</time>
      </trkpt>
      <trkpt lat="37.83151178216556" lon="112.00615422019114">
        <ele>1162.0</ele>
        <time>2018-07-04T11:32:35.613000Z</time>
      </trkpt>
      <trkpt lat="37.831431754587435" lon="112.00613267532412">
        <ele>1163.0</ele>
        <time>2018-07-04T11:32:38.613000Z</time>
      </trkpt>
      <trkpt lat="37.83109109894487" lon="112.00617298928196">
        <ele>1163.0</ele>
        <time>2018-07-04T11:32:50.613000Z</time>
      </trkpt>
      <trkpt lat="37.830769157964966" lon="112.00618979268415">
        <ele>1164.0</ele>
        <time>2018-07-04T11:33:02.613000Z</time>
      </trkpt>
      <trkpt lat="37.83044012929406" lon="112.0062012204389">
        <ele>1164.0</ele>
        <time>2018-07-04T11:33:14.613000Z</time>
      </trkpt>
      <trkpt lat="37.83013575874545" lon="112.00618160183394">
        <ele>1164.0</ele>
        <time>2018-07-04T11:33:26.613000Z</time>
      </trkpt>
      <trkpt lat="37.83006602658218" lon="112.00617067035085">
        <ele>1164.0</ele>
        <time>2018-07-04T11:33:29.613000Z</time>
      </trkpt>
      <trkpt lat="37.82984290773428" lon="112.00618448353403">
        <ele>1165.0</ele>
        <time>2018-07-04T11:33:38.613000Z</time>
      </trkpt>
      <trkpt lat="37.82954325220124" lon="112.0061780202995">
        <ele>1165.0</ele>
        <time>2018-07-04T11:33:50.613000Z</time>
      </trkpt>
      <trkpt lat="37.82938749890639" lon="112.00618860327481">
        <ele>1165.0</ele>
        <time>2018-07-04T11:33:56.613000Z</time>
      </trkpt>
      <trkpt lat="37.829230354653646" lon="112.00617624338963">
        <ele>1165.0</ele>
        <time>2018-07-04T11:34:02.613000Z</time>
      </trkpt>
      <trkpt lat="37.82892813084669" lon="112.00618851234631">
        <ele>1165.0</ele>
        <time>2018-07-04T11:34:14.613000Z</time>
      </trkpt>
      <trkpt lat="37.82862330529168" lon="112.00619920788759">
        <ele>1166.0</ele>
        <time>2018-07-04T11:34:26.613000Z</time>
      </trkpt>
      <trkpt lat="37.828476713461406" lon="112.00621073030858">
        <ele>1166.0</ele>
        <time>2018-07-04T11:34:32.613000Z</time>
      </trkpt>
      <trkpt lat="37.82831726855177" lon="112.00626884344938">
        <ele>1168.0</ele>
        <time>2018-07-04T11:34:38.613000Z</time>
      </trkpt>
      <trkpt lat="37.82807049207232" lon="112.00628382977908">
        <ele>1168.0</ele>
        <time>2018-07-04T11:34:47.613000Z</time>
      </trkpt>
      <trkpt lat="37.827772747189165" lon="112.00630850008234">
        <ele>1169.0</ele>
        <time>2018-07-04T11:34:59.613000Z</time>
      </trkpt>
      <trkpt lat="37.82745697932244" lon="112.00634553598385">
        <ele>1172.0</ele>
        <time>2018-07-04T11:35:11.613000Z</time>
      </trkpt>
      <trkpt lat="37.827136623980486" lon="112.00638702831391">
        <ele>1173.0</ele>
        <time>2018-07-04T11:35:23.613000Z</time>
      </trkpt>
      <trkpt lat="37.82683959555435" lon="112.00640926107923">
        <ele>1173.0</ele>
        <time>2018-07-04T11:35:35.613000Z</time>
      </trkpt>
      <trkpt lat="37.82670719692851" lon="112.0064203302431">
        <ele>1173.0</ele>
        <time>2018-07-04T11:35:41.613000Z</time>
      </trkpt>
      <trkpt lat="37.826419831996354" lon="112.00644482700086">
        <ele>1175.0</ele>
        <time>2018-07-04T11:35:53.613000Z</time>
      </trkpt>
      <trkpt lat="37.826124115065134" lon="112.00650941415137">
        <ele>1176.0</ele>
        <time>2018-07-04T11:36:05.613000Z</time>
      </trkpt>
      <trkpt lat="37.825818445542374" lon="112.00651678537693">
        <ele>1179.0</ele>
        <time>2018-07-04T11:36:17.613000Z</time>
      </trkpt>
      <trkpt lat="37.825595656425115" lon="112.00649478936218">
        <ele>1180.0</ele>
        <time>2018-07-04T11:36:26.713000Z</time>
      </trkpt>
      <trkpt lat="37.825369386087985" lon="112.0065065130382">
        <ele>1181.0</ele>
        <time>2018-07-04T11:36:35.613000Z</time>
      </trkpt>
      <trkpt lat="37.82521702644564" lon="112.00646787675326">
        <ele>1182.0</ele>
        <time>2018-07-04T11:36:41.613000Z</time>
      </trkpt>
      <trkpt lat="37.8249228333364" lon="112.00637360865272">
        <ele>1187.0</ele>
        <time>2018-07-04T11:36:53.613000Z</time>
      </trkpt>
      <trkpt lat="37.82460350247235" lon="112.00631873850466">
        <ele>1186.0</ele>
        <time>2018-07-04T11:37:05.613000Z</time>
      </trkpt>
      <trkpt lat="37.82430141277471" lon="112.00626957806851">
        <ele>1188.0</ele>
        <time>2018-07-04T11:37:17.613000Z</time>
      </trkpt>
      <trkpt lat="37.82413873399473" lon="112.00623418685379">
        <ele>1188.0</ele>
        <time>2018-07-04T11:37:23.613000Z</time>
      </trkpt>
      <trkpt lat="37.823978878794776" lon="112.00616176289743">
        <ele>1188.0</ele>
        <time>2018-07-04T11:37:29.613000Z</time>
      </trkpt>
      <trkpt lat="37.82370935505238" lon="112.00610962527921">
        <ele>1188.0</ele>
        <time>2018-07-04T11:37:38.613000Z</time>
      </trkpt>
      <trkpt lat="37.82337467975696" lon="112.006070199992">
        <ele>1186.0</ele>
        <time>2018-07-04T11:37:50.613000Z</time>
      </trkpt>
      <trkpt lat="37.82304585519509" lon="112.00611048984888">
        <ele>1186.0</ele>
        <time>2018-07-04T11:38:02.613000Z</time>
      </trkpt>
      <trkpt lat="37.82283164723996" lon="112.00615206092344">
        <ele>1187.0</ele>
        <time>2018-07-04T11:38:11.613000Z</time>
      </trkpt>
      <trkpt lat="37.822758175210836" lon="112.0061523475059">
        <ele>1187.0</ele>
        <time>2018-07-04T11:38:14.613000Z</time>
      </trkpt>
      <trkpt lat="37.82249505785451" lon="112.00602437050104">
        <ele>1189.0</ele>
        <time>2018-07-04T11:38:26.613000Z</time>
      </trkpt>
      <trkpt lat="37.82222252048406" lon="112.0059056768972">
        <ele>1192.0</ele>
        <time>2018-07-04T11:38:38.613000Z</time>
      </trkpt>
      <trkpt lat="37.82196236975347" lon="112.00572942288694">
        <ele>1195.0</ele>
        <time>2018-07-04T11:38:50.613000Z</time>
      </trkpt>
      <trkpt lat="37.821772380347205" lon="112.00557523552735">
        <ele>1196.0</ele>
        <time>2018-07-04T11:38:59.613000Z</time>
      </trkpt>
      <trkpt lat="37.82153585624388" lon="112.00534792795729">
        <ele>1198.0</ele>
        <time>2018-07-04T11:39:11.613000Z</time>
      </trkpt>
      <trkpt lat="37.821270629740106" lon="112.00514806226532">
        <ele>1199.0</ele>
        <time>2018-07-04T11:39:23.613000Z</time>
      </trkpt>
      <trkpt lat="37.82114184656107" lon="112.00501930125199">
        <ele>1200.0</ele>
        <time>2018-07-04T11:39:29.613000Z</time>
      </trkpt>
      <trkpt lat="37.8209447300379" lon="112.00492717970249">
        <ele>1201.0</ele>
        <time>2018-07-04T11:39:38.613000Z</time>
      </trkpt>
      <trkpt lat="37.82075170103506" lon="112.00479253306193">
        <ele>1202.0</ele>
        <time>2018-07-04T11:39:47.613000Z</time>
      </trkpt>
      <trkpt lat="37.820564139493136" lon="112.00460744883166">
        <ele>1203.0</ele>
        <time>2018-07-04T11:39:56.713000Z</time>
      </trkpt>
      <trkpt lat="37.8204576503179" lon="112.0044433233291">
        <ele>1204.0</ele>
        <time>2018-07-04T11:40:02.613000Z</time>
      </trkpt>
      <trkpt lat="37.82040594865483" lon="112.00438811146908">
        <ele>1205.0</ele>
        <time>2018-07-04T11:40:05.613000Z</time>
      </trkpt>
      <trkpt lat="37.82040228136097" lon="112.00442407214271">
        <ele>1206.0</ele>
        <time>2018-07-04T11:40:08.613000Z</time>
      </trkpt>
      <trkpt lat="37.82053718116525" lon="112.00454206601584">
        <ele>1206.0</ele>
        <time>2018-07-04T11:40:14.613000Z</time>
      </trkpt>
      <trkpt lat="37.82076513352988" lon="112.0047766463453">
        <ele>1205.0</ele>
        <time>2018-07-04T11:40:29.613000Z</time>
      </trkpt>
      <trkpt lat="37.820966687864534" lon="112.00497451433665">
        <ele>1204.0</ele>
        <time>2018-07-04T11:40:41.613000Z</time>
      </trkpt>
      <trkpt lat="37.821071736668536" lon="112.00501052046667">
        <ele>1204.0</ele>
        <time>2018-07-04T11:40:47.613000Z</time>
      </trkpt>
      <trkpt lat="37.8211501499868" lon="112.00501567895351">
        <ele>1203.0</ele>
        <time>2018-07-04T11:40:53.613000Z</time>
      </trkpt>
      <trkpt lat="37.821218159351915" lon="112.005037193952">
        <ele>1204.0</ele>
        <time>2018-07-04T11:40:59.613000Z</time>
      </trkpt>
      <trkpt lat="37.82141577359512" lon="112.00515722320164">
        <ele>1203.0</ele>
        <time>2018-07-04T11:41:17.613000Z</time>
      </trkpt>
      <trkpt lat="37.821496299345775" lon="112.00522221972201">
        <ele>1203.0</ele>
        <time>2018-07-04T11:41:23.613000Z</time>
      </trkpt>
      <trkpt lat="37.82151673122831" lon="112.00527748999357">
        <ele>1203.0</ele>
        <time>2018-07-04T11:41:26.613000Z</time>
      </trkpt>
      <trkpt lat="37.82155210669693" lon="112.00531549824093">
        <ele>1203.0</ele>
        <time>2018-07-04T11:41:29.613000Z</time>
      </trkpt>
      <trkpt lat="37.82161183859896" lon="112.00534526079288">
        <ele>1202.0</ele>
        <time>2018-07-04T11:41:35.613000Z</time>
      </trkpt>
      <trkpt lat="37.821550343395835" lon="112.00528259184746">
        <ele>1202.0</ele>
        <time>2018-07-04T11:41:38.613000Z</time>
      </trkpt>
      <trkpt lat="37.821586355604445" lon="112.00536284946304">
        <ele>1202.0</ele>
        <time>2018-07-04T11:41:44.613000Z</time>
      </trkpt>
      <trkpt lat="37.821716692762415" lon="112.00544651155707">
        <ele>1202.0</ele>
        <time>2018-07-04T11:41:53.613000Z</time>
      </trkpt>
      <trkpt lat="37.82178159559226" lon="112.00554759718526">
        <ele>1201.0</ele>
        <time>2018-07-04T11:41:59.613000Z</time>
      </trkpt>
      <trkpt lat="37.8219534921622" lon="112.00573380312333">
        <ele>1200.0</ele>
        <time>2018-07-04T11:42:14.613000Z</time>
      </trkpt>
      <trkpt lat="37.822091122148485" lon="112.00579359193499">
        <ele>1199.0</ele>
        <time>2018-07-04T11:42:23.613000Z</time>
      </trkpt>
      <trkpt lat="37.8223089760701" lon="112.0059099577068">
        <ele>1197.0</ele>
        <time>2018-07-04T11:42:38.613000Z</time>
      </trkpt>
      <trkpt lat="37.822342899097606" lon="112.00595730719722">
        <ele>1197.0</ele>
        <time>2018-07-04T11:42:41.613000Z</time>
      </trkpt>
      <trkpt lat="37.82250078297628" lon="112.00604542320046">
        <ele>1198.0</ele>
        <time>2018-07-04T11:42:53.613000Z</time>
      </trkpt>
      <trkpt lat="37.82259850245212" lon="112.00612157436133">
        <ele>1197.0</ele>
        <time>2018-07-04T11:43:05.613000Z</time>
      </trkpt>
      <trkpt lat="37.82265158756742" lon="112.00611539697965">
        <ele>1198.0</ele>
        <time>2018-07-04T11:43:11.613000Z</time>
      </trkpt>
      <trkpt lat="37.82273358202314" lon="112.00613154428459">
        <ele>1197.0</ele>
        <time>2018-07-04T11:43:17.613000Z</time>
      </trkpt>
      <trkpt lat="37.82282493080684" lon="112.006170204636">
        <ele>1196.0</ele>
        <time>2018-07-04T11:43:23.613000Z</time>
      </trkpt>
      <trkpt lat="37.822951620134134" lon="112.0061619083998">
        <ele>1195.0</ele>
        <time>2018-07-04T11:43:29.613000Z</time>
      </trkpt>
      <trkpt lat="37.82314346745349" lon="112.00609124468981">
        <ele>1192.0</ele>
        <time>2018-07-04T11:43:38.613000Z</time>
      </trkpt>
      <trkpt lat="37.82320723745707" lon="112.0060871198974">
        <ele>1192.0</ele>
        <time>2018-07-04T11:43:41.613000Z</time>
      </trkpt>
      <trkpt lat="37.823518296745334" lon="112.00606734704033">
        <ele>1188.0</ele>
        <time>2018-07-04T11:43:53.613000Z</time>
      </trkpt>
      <trkpt lat="37.82384583747269" lon="112.00609405083559">
        <ele>1185.0</ele>
        <time>2018-07-04T11:44:05.613000Z</time>
      </trkpt>
      <trkpt lat="37.82411959373282" lon="112.00619310204938">
        <ele>1185.0</ele>
        <time>2018-07-04T11:44:17.613000Z</time>
      </trkpt>
      <trkpt lat="37.82443600217747" lon="112.00626253397267">
        <ele>1186.0</ele>
        <time>2018-07-04T11:44:29.613000Z</time>
      </trkpt>
      <trkpt lat="37.82476710567429" lon="112.00631709714912">
        <ele>1183.0</ele>
        <time>2018-07-04T11:44:41.613000Z</time>
      </trkpt>
      <trkpt lat="37.825078711405716" lon="112.00635949872328">
        <ele>1179.0</ele>
        <time>2018-07-04T11:44:53.613000Z</time>
      </trkpt>
      <trkpt lat="37.82541196301184" lon="112.00642163040725">
        <ele>1177.0</ele>
        <time>2018-07-04T11:45:05.613000Z</time>
      </trkpt>
      <trkpt lat="37.82556134955073" lon="112.00645648267198">
        <ele>1178.0</ele>
        <time>2018-07-04T11:45:11.613000Z</time>
      </trkpt>
      <trkpt lat="37.8258719964271" lon="112.00645108973367">
        <ele>1176.0</ele>
        <time>2018-07-04T11:45:23.613000Z</time>
      </trkpt>
      <trkpt lat="37.8259424682368" lon="112.00644573552105">
        <ele>1176.0</ele>
        <time>2018-07-04T11:45:26.613000Z</time>
      </trkpt>
      <trkpt lat="37.826100676892196" lon="112.00644979295032">
        <ele>1175.0</ele>
        <time>2018-07-04T11:45:32.613000Z</time>
      </trkpt>
      <trkpt lat="37.82625593085587" lon="112.00638109537636">
        <ele>1174.0</ele>
        <time>2018-07-04T11:45:38.613000Z</time>
      </trkpt>
      <trkpt lat="37.82660745237851" lon="112.00634430862233">
        <ele>1173.0</ele>
        <time>2018-07-04T11:45:50.613000Z</time>
      </trkpt>
      <trkpt lat="37.8267031921004" lon="112.00633809696646">
        <ele>1172.0</ele>
        <time>2018-07-04T11:45:53.613000Z</time>
      </trkpt>
      <trkpt lat="37.82679805853528" lon="112.00635604304945">
        <ele>1172.0</ele>
        <time>2018-07-04T11:45:56.613000Z</time>
      </trkpt>
      <trkpt lat="37.82689509486732" lon="112.00635400646678">
        <ele>1172.0</ele>
        <time>2018-07-04T11:45:59.613000Z</time>
      </trkpt>
      <trkpt lat="37.82716936082369" lon="112.00631368664686">
        <ele>1172.0</ele>
        <time>2018-07-04T11:46:08.613000Z</time>
      </trkpt>
      <trkpt lat="37.82749885832249" lon="112.0062599960533">
        <ele>1170.0</ele>
        <time>2018-07-04T11:46:20.613000Z</time>
      </trkpt>
      <trkpt lat="37.827677802267345" lon="112.00625166401883">
        <ele>1169.0</ele>
        <time>2018-07-04T11:46:26.613000Z</time>
      </trkpt>
      <trkpt lat="37.82777412864469" lon="112.0062198708882">
        <ele>1170.0</ele>
        <time>2018-07-04T11:46:29.613000Z</time>
      </trkpt>
      <trkpt lat="37.827876255130406" lon="112.00621226535519">
        <ele>1170.0</ele>
        <time>2018-07-04T11:46:32.613000Z</time>
      </trkpt>
      <trkpt lat="37.82797750267372" lon="112.00624114133001">
        <ele>1169.0</ele>
        <time>2018-07-04T11:46:35.613000Z</time>
      </trkpt>
      <trkpt lat="37.82808427601189" lon="112.00623837879927">
        <ele>1169.0</ele>
        <time>2018-07-04T11:46:38.613000Z</time>
      </trkpt>
      <trkpt lat="37.828369983764844" lon="112.00619780815055">
        <ele>1168.0</ele>
        <time>2018-07-04T11:46:47.613000Z</time>
      </trkpt>
      <trkpt lat="37.82871530898455" lon="112.0061962807571">
        <ele>1167.0</ele>
        <time>2018-07-04T11:46:59.613000Z</time>
      </trkpt>
      <trkpt lat="37.82905082097625" lon="112.00620744299144">
        <ele>1166.0</ele>
        <time>2018-07-04T11:47:11.613000Z</time>
      </trkpt>
      <trkpt lat="37.829387879461464" lon="112.00616429526035">
        <ele>1166.0</ele>
        <time>2018-07-04T11:47:23.613000Z</time>
      </trkpt>
      <trkpt lat="37.82974806781245" lon="112.00614662706083">
        <ele>1166.0</ele>
        <time>2018-07-04T11:47:35.713000Z</time>
      </trkpt>
      <trkpt lat="37.83002602856733" lon="112.00614356917949">
        <ele>1165.0</ele>
        <time>2018-07-04T11:47:44.613000Z</time>
      </trkpt>
      <trkpt lat="37.830306736189016" lon="112.00617507698627">
        <ele>1163.0</ele>
        <time>2018-07-04T11:47:53.613000Z</time>
      </trkpt>
      <trkpt lat="37.83056630144775" lon="112.00619875043472">
        <ele>1162.0</ele>
        <time>2018-07-04T11:48:02.613000Z</time>
      </trkpt>
      <trkpt lat="37.83072838008868" lon="112.00618488628766">
        <ele>1161.0</ele>
        <time>2018-07-04T11:48:08.613000Z</time>
      </trkpt>
      <trkpt lat="37.83107103658631" lon="112.00614845791976">
        <ele>1160.0</ele>
        <time>2018-07-04T11:48:20.613000Z</time>
      </trkpt>
      <trkpt lat="37.83115993110376" lon="112.00612449881343">
        <ele>1158.0</ele>
        <time>2018-07-04T11:48:23.613000Z</time>
      </trkpt>
      <trkpt lat="37.83134395961772" lon="112.00612521658367">
        <ele>1159.0</ele>
        <time>2018-07-04T11:48:29.613000Z</time>
      </trkpt>
      <trkpt lat="37.83161587670252" lon="112.00618498251254">
        <ele>1160.0</ele>
        <time>2018-07-04T11:48:38.613000Z</time>
      </trkpt>
      <trkpt lat="37.83179904373021" lon="112.00621614749338">
        <ele>1161.0</ele>
        <time>2018-07-04T11:48:44.613000Z</time>
      </trkpt>
      <trkpt lat="37.83206055015727" lon="112.00622170389782">
        <ele>1161.0</ele>
        <time>2018-07-04T11:48:53.613000Z</time>
      </trkpt>
      <trkpt lat="37.83231408636728" lon="112.00616518426264">
        <ele>1161.0</ele>
        <time>2018-07-04T11:49:02.613000Z</time>
      </trkpt>
      <trkpt lat="37.83239845497517" lon="112.0061569579761">
        <ele>1162.0</ele>
        <time>2018-07-04T11:49:05.613000Z</time>
      </trkpt>
      <trkpt lat="37.83255873738692" lon="112.00616066874278">
        <ele>1162.0</ele>
        <time>2018-07-04T11:49:11.613000Z</time>
      </trkpt>
      <trkpt lat="37.83272588238468" lon="112.00622274467192">
        <ele>1161.0</ele>
        <time>2018-07-04T11:49:17.613000Z</time>
      </trkpt>
      <trkpt lat="37.83281400573922" lon="112.00627441303763">
        <ele>1160.0</ele>
        <time>2018-07-04T11:49:20.613000Z</time>
      </trkpt>
      <trkpt lat="37.83314191319273" lon="112.0064374835062">
        <ele>1161.0</ele>
        <time>2018-07-04T11:49:32.613000Z</time>
      </trkpt>
      <trkpt lat="37.83346758542586" lon="112.00657143063547">
        <ele>1161.0</ele>
        <time>2018-07-04T11:49:44.613000Z</time>
      </trkpt>
      <trkpt lat="37.833694989670846" lon="112.00665541033698">
        <ele>1160.0</ele>
        <time>2018-07-04T11:49:53.613000Z</time>
      </trkpt>
      <trkpt lat="37.83396074784179" lon="112.0066703317058">
        <ele>1159.0</ele>
        <time>2018-07-04T11:50:02.613000Z</time>
      </trkpt>
      <trkpt lat="37.834048471734356" lon="112.00668262335812">
        <ele>1157.0</ele>
        <time>2018-07-04T11:50:05.613000Z</time>
      </trkpt>
      <trkpt lat="37.83413412969" lon="112.00672109686965">
        <ele>1157.0</ele>
        <time>2018-07-04T11:50:08.613000Z</time>
      </trkpt>
      <trkpt lat="37.83428512946907" lon="112.00683814925881">
        <ele>1157.0</ele>
        <time>2018-07-04T11:50:14.613000Z</time>
      </trkpt>
      <trkpt lat="37.83437095859013" lon="112.00687630649064">
        <ele>1156.0</ele>
        <time>2018-07-04T11:50:17.613000Z</time>
      </trkpt>
      <trkpt lat="37.83461375976419" lon="112.00694044344348">
        <ele>1157.0</ele>
        <time>2018-07-04T11:50:26.613000Z</time>
      </trkpt>
      <trkpt lat="37.83469314327067" lon="112.00694610895818">
        <ele>1156.0</ele>
        <time>2018-07-04T11:50:29.613000Z</time>
      </trkpt>
      <trkpt lat="37.8347768261202" lon="112.0069784620222">
        <ele>1156.0</ele>
        <time>2018-07-04T11:50:32.613000Z</time>
      </trkpt>
      <trkpt lat="37.83486728622562" lon="112.00696808306489">
        <ele>1154.0</ele>
        <time>2018-07-04T11:50:35.613000Z</time>
      </trkpt>
      <trkpt lat="37.83504297445128" lon="112.00694453195757">
        <ele>1154.0</ele>
        <time>2018-07-04T11:50:41.613000Z</time>
      </trkpt>
      <trkpt lat="37.83512813495085" lon="112.00694101002662">
        <ele>1155.0</ele>
        <time>2018-07-04T11:50:44.613000Z</time>
      </trkpt>
      <trkpt lat="37.835219705411234" lon="112.00694483799872">
        <ele>1154.0</ele>
        <time>2018-07-04T11:50:47.613000Z</time>
      </trkpt>
      <trkpt lat="37.83530454794341" lon="112.0069826142894">
        <ele>1154.0</ele>
        <time>2018-07-04T11:50:50.613000Z</time>
      </trkpt>
      <trkpt lat="37.83536393138867" lon="112.00705629584007">
        <ele>1153.0</ele>
        <time>2018-07-04T11:50:53.613000Z</time>
      </trkpt>
      <trkpt lat="37.83540487222979" lon="112.0071484830617">
        <ele>1154.0</ele>
        <time>2018-07-04T11:50:56.613000Z</time>
      </trkpt>
      <trkpt lat="37.83544356302389" lon="112.00723954854253">
        <ele>1154.0</ele>
        <time>2018-07-04T11:50:59.613000Z</time>
      </trkpt>
      <trkpt lat="37.83550129900592" lon="112.00730498458003">
        <ele>1154.0</ele>
        <time>2018-07-04T11:51:02.613000Z</time>
      </trkpt>
      <trkpt lat="37.83556496251547" lon="112.00736312787852">
        <ele>1154.0</ele>
        <time>2018-07-04T11:51:05.613000Z</time>
      </trkpt>
      <trkpt lat="37.835636068965016" lon="112.00739427794292">
        <ele>1153.0</ele>
        <time>2018-07-04T11:51:08.613000Z</time>
      </trkpt>
      <trkpt lat="37.835804073789774" lon="112.0074503569667">
        <ele>1153.0</ele>
        <time>2018-07-04T11:51:14.613000Z</time>
      </trkpt>
      <trkpt lat="37.83588664428251" lon="112.00745888976202">
        <ele>1153.0</ele>
        <time>2018-07-04T11:51:17.613000Z</time>
      </trkpt>
      <trkpt lat="37.83597951641507" lon="112.00745356827112">
        <ele>1153.0</ele>
        <time>2018-07-04T11:51:20.613000Z</time>
      </trkpt>
      <trkpt lat="37.83606640398431" lon="112.00747537837401">
        <ele>1153.0</ele>
        <time>2018-07-04T11:51:23.613000Z</time>
      </trkpt>
      <trkpt lat="37.8361561842292" lon="112.00748538416813">
        <ele>1152.0</ele>
        <time>2018-07-04T11:51:26.613000Z</time>
      </trkpt>
      <trkpt lat="37.836410981603684" lon="112.00752007030111">
        <ele>1153.0</ele>
        <time>2018-07-04T11:51:35.613000Z</time>
      </trkpt>
      <trkpt lat="37.83658090100602" lon="112.00758391891091">
        <ele>1152.0</ele>
        <time>2018-07-04T11:51:41.613000Z</time>
      </trkpt>
      <trkpt lat="37.83673260645554" lon="112.00767493177538">
        <ele>1152.0</ele>
        <time>2018-07-04T11:51:47.613000Z</time>
      </trkpt>
      <trkpt lat="37.836908269440656" lon="112.00772044654148">
        <ele>1150.0</ele>
        <time>2018-07-04T11:51:53.613000Z</time>
      </trkpt>
      <trkpt lat="37.83699478212866" lon="112.0077708895389">
        <ele>1150.0</ele>
        <time>2018-07-04T11:51:56.613000Z</time>
      </trkpt>
      <trkpt lat="37.83725724126724" lon="112.00785763599306">
        <ele>1150.0</ele>
        <time>2018-07-04T11:52:05.613000Z</time>
      </trkpt>
      <trkpt lat="37.8374292762903" lon="112.00792265731026">
        <ele>1150.0</ele>
        <time>2018-07-04T11:52:11.613000Z</time>
      </trkpt>
      <trkpt lat="37.83759817708859" lon="112.00795248322673">
        <ele>1151.0</ele>
        <time>2018-07-04T11:52:17.613000Z</time>
      </trkpt>
      <trkpt lat="37.83784782813157" lon="112.00807705263321">
        <ele>1150.0</ele>
        <time>2018-07-04T11:52:26.613000Z</time>
      </trkpt>
      <trkpt lat="37.83811716687064" lon="112.0081587510071">
        <ele>1149.0</ele>
        <time>2018-07-04T11:52:35.613000Z</time>
      </trkpt>
      <trkpt lat="37.838214291015376" lon="112.00818942124441">
        <ele>1149.0</ele>
        <time>2018-07-04T11:52:38.613000Z</time>
      </trkpt>
      <trkpt lat="37.83841503824604" lon="112.00828284620464">
        <ele>1150.0</ele>
        <time>2018-07-04T11:52:44.613000Z</time>
      </trkpt>
      <trkpt lat="37.838511070317296" lon="112.00830662244624">
        <ele>1150.0</ele>
        <time>2018-07-04T11:52:47.613000Z</time>
      </trkpt>
      <trkpt lat="37.83878408423837" lon="112.00826577940772">
        <ele>1149.0</ele>
        <time>2018-07-04T11:52:56.613000Z</time>
      </trkpt>
      <trkpt lat="37.83886940635614" lon="112.00823235888213">
        <ele>1149.0</ele>
        <time>2018-07-04T11:52:59.613000Z</time>
      </trkpt>
      <trkpt lat="37.83895398069813" lon="112.00820106162887">
        <ele>1149.0</ele>
        <time>2018-07-04T11:53:02.613000Z</time>
      </trkpt>
      <trkpt lat="37.8390464679549" lon="112.00817269605257">
        <ele>1150.0</ele>
        <time>2018-07-04T11:53:05.613000Z</time>
      </trkpt>
      <trkpt lat="37.83923082088355" lon="112.0081022570513">
        <ele>1149.0</ele>
        <time>2018-07-04T11:53:11.613000Z</time>
      </trkpt>
      <trkpt lat="37.83932133729917" lon="112.0080947913241">
        <ele>1149.0</ele>
        <time>2018-07-04T11:53:14.613000Z</time>
      </trkpt>
      <trkpt lat="37.83956591077666" lon="112.0081050027592">
        <ele>1146.0</ele>
        <time>2018-07-04T11:53:23.613000Z</time>
      </trkpt>
      <trkpt lat="37.83982000957892" lon="112.0080975426957">
        <ele>1145.0</ele>
        <time>2018-07-04T11:53:32.613000Z</time>
      </trkpt>
      <trkpt lat="37.839987364525435" lon="112.00814694348438">
        <ele>1144.0</ele>
        <time>2018-07-04T11:53:38.613000Z</time>
      </trkpt>
      <trkpt lat="37.84025523114096" lon="112.00809505592477">
        <ele>1143.0</ele>
        <time>2018-07-04T11:53:47.613000Z</time>
      </trkpt>
      <trkpt lat="37.8403462656855" lon="112.00807790126632">
        <ele>1142.0</ele>
        <time>2018-07-04T11:53:50.613000Z</time>
      </trkpt>
      <trkpt lat="37.840433738861144" lon="112.00806949271379">
        <ele>1141.0</ele>
        <time>2018-07-04T11:53:53.613000Z</time>
      </trkpt>
      <trkpt lat="37.84061090672312" lon="112.0081164113066">
        <ele>1140.0</ele>
        <time>2018-07-04T11:53:59.613000Z</time>
      </trkpt>
      <trkpt lat="37.840695171063956" lon="112.00815167461926">
        <ele>1138.0</ele>
        <time>2018-07-04T11:54:02.613000Z</time>
      </trkpt>
      <trkpt lat="37.84078520680675" lon="112.00815432433726">
        <ele>1137.0</ele>
        <time>2018-07-04T11:54:05.613000Z</time>
      </trkpt>
      <trkpt lat="37.8410557484227" lon="112.00815400844516">
        <ele>1136.0</ele>
        <time>2018-07-04T11:54:14.613000Z</time>
      </trkpt>
      <trkpt lat="37.841415729558406" lon="112.00815581321875">
        <ele>1137.0</ele>
        <time>2018-07-04T11:54:26.613000Z</time>
      </trkpt>
      <trkpt lat="37.84158996516126" lon="112.0081735156359">
        <ele>1137.0</ele>
        <time>2018-07-04T11:54:32.613000Z</time>
      </trkpt>
      <trkpt lat="37.84165957980981" lon="112.0081018976139">
        <ele>1136.0</ele>
        <time>2018-07-04T11:54:35.613000Z</time>
      </trkpt>
      <trkpt lat="37.84174059893647" lon="112.00804774277772">
        <ele>1136.0</ele>
        <time>2018-07-04T11:54:38.613000Z</time>
      </trkpt>
      <trkpt lat="37.84199901112435" lon="112.00791214221609">
        <ele>1136.0</ele>
        <time>2018-07-04T11:54:47.613000Z</time>
      </trkpt>
      <trkpt lat="37.842252916891695" lon="112.00771147027513">
        <ele>1135.0</ele>
        <time>2018-07-04T11:54:56.613000Z</time>
      </trkpt>
      <trkpt lat="37.842403051038254" lon="112.00759281298221">
        <ele>1134.0</ele>
        <time>2018-07-04T11:55:02.613000Z</time>
      </trkpt>
      <trkpt lat="37.84265158394191" lon="112.0074685168024">
        <ele>1133.0</ele>
        <time>2018-07-04T11:55:11.613000Z</time>
      </trkpt>
      <trkpt lat="37.842945183545886" lon="112.00723487750585">
        <ele>1133.0</ele>
        <time>2018-07-04T11:55:23.613000Z</time>
      </trkpt>
      <trkpt lat="37.84317590332626" lon="112.0070605699149">
        <ele>1132.0</ele>
        <time>2018-07-04T11:55:32.613000Z</time>
      </trkpt>
      <trkpt lat="37.84330724344012" lon="112.00690357440035">
        <ele>1132.0</ele>
        <time>2018-07-04T11:55:38.613000Z</time>
      </trkpt>
      <trkpt lat="37.843539248825394" lon="112.00670242347203">
        <ele>1131.0</ele>
        <time>2018-07-04T11:55:47.613000Z</time>
      </trkpt>
      <trkpt lat="37.84377985510897" lon="112.00652275065296">
        <ele>1133.0</ele>
        <time>2018-07-04T11:55:56.613000Z</time>
      </trkpt>
      <trkpt lat="37.84393971303429" lon="112.00640431270277">
        <ele>1132.0</ele>
        <time>2018-07-04T11:56:02.613000Z</time>
      </trkpt>
      <trkpt lat="37.84419444795572" lon="112.00628523981247">
        <ele>1132.0</ele>
        <time>2018-07-04T11:56:11.613000Z</time>
      </trkpt>
      <trkpt lat="37.844279558754664" lon="112.0062461918176">
        <ele>1132.0</ele>
        <time>2018-07-04T11:56:14.613000Z</time>
      </trkpt>
      <trkpt lat="37.84452179310851" lon="112.00612900179036">
        <ele>1133.0</ele>
        <time>2018-07-04T11:56:23.613000Z</time>
      </trkpt>
      <trkpt lat="37.84487267441708" lon="112.00617137997351">
        <ele>1130.0</ele>
        <time>2018-07-04T11:56:35.613000Z</time>
      </trkpt>
      <trkpt lat="37.844954873976796" lon="112.00620779626183">
        <ele>1131.0</ele>
        <time>2018-07-04T11:56:38.613000Z</time>
      </trkpt>
      <trkpt lat="37.84513059352849" lon="112.00628277304408">
        <ele>1131.0</ele>
        <time>2018-07-04T11:56:44.613000Z</time>
      </trkpt>
      <trkpt lat="37.84540453077487" lon="112.00631193383308">
        <ele>1129.0</ele>
        <time>2018-07-04T11:56:53.613000Z</time>
      </trkpt>
      <trkpt lat="37.84565783046026" lon="112.00643813843857">
        <ele>1130.0</ele>
        <time>2018-07-04T11:57:02.613000Z</time>
      </trkpt>
      <trkpt lat="37.84574732772985" lon="112.0064500214197">
        <ele>1130.0</ele>
        <time>2018-07-04T11:57:05.613000Z</time>
      </trkpt>
      <trkpt lat="37.846017512576815" lon="112.00655486969619">
        <ele>1128.0</ele>
        <time>2018-07-04T11:57:14.613000Z</time>
      </trkpt>
      <trkpt lat="37.84628477676155" lon="112.00663836389366">
        <ele>1127.0</ele>
        <time>2018-07-04T11:57:23.613000Z</time>
      </trkpt>
      <trkpt lat="37.846638191664326" lon="112.00667319187461">
        <ele>1127.0</ele>
        <time>2018-07-04T11:57:35.613000Z</time>
      </trkpt>
      <trkpt lat="37.84691836141374" lon="112.00670505518377">
        <ele>1127.0</ele>
        <time>2018-07-04T11:57:44.613000Z</time>
      </trkpt>
      <trkpt lat="37.84718918338946" lon="112.00673327787851">
        <ele>1127.0</ele>
        <time>2018-07-04T11:57:53.613000Z</time>
      </trkpt>
      <trkpt lat="37.84754543329986" lon="112.00675822943865">
        <ele>1126.0</ele>
        <time>2018-07-04T11:58:05.613000Z</time>
      </trkpt>
      <trkpt lat="37.847817912930275" lon="112.0068033526876">
        <ele>1126.0</ele>
        <time>2018-07-04T11:58:14.613000Z</time>
      </trkpt>
      <trkpt lat="37.84808642166965" lon="112.00684259068669">
        <ele>1124.0</ele>
        <time>2018-07-04T11:58:23.613000Z</time>
      </trkpt>
      <trkpt lat="37.84825873699505" lon="112.0069460133957">
        <ele>1122.0</ele>
        <time>2018-07-04T11:58:29.613000Z</time>
      </trkpt>
      <trkpt lat="37.84842405104287" lon="112.00709980151524">
        <ele>1122.0</ele>
        <time>2018-07-04T11:58:35.613000Z</time>
      </trkpt>
      <trkpt lat="37.84858386355937" lon="112.00737036615408">
        <ele>1121.0</ele>
        <time>2018-07-04T11:58:44.613000Z</time>
      </trkpt>
      <trkpt lat="37.848788649741245" lon="112.00766282203493">
        <ele>1122.0</ele>
        <time>2018-07-04T11:58:53.613000Z</time>
      </trkpt>
      <trkpt lat="37.84900463683924" lon="112.00792959782771">
        <ele>1122.0</ele>
        <time>2018-07-04T11:59:02.613000Z</time>
      </trkpt>
      <trkpt lat="37.849195620924704" lon="112.00821097484094">
        <ele>1123.0</ele>
        <time>2018-07-04T11:59:11.613000Z</time>
      </trkpt>
      <trkpt lat="37.84937294531556" lon="112.00852452265372">
        <ele>1121.0</ele>
        <time>2018-07-04T11:59:20.613000Z</time>
      </trkpt>
      <trkpt lat="37.84957647492062" lon="112.00878454555026">
        <ele>1120.0</ele>
        <time>2018-07-04T11:59:29.613000Z</time>
      </trkpt>
      <trkpt lat="37.84968330651622" lon="112.0089905169076">
        <ele>1120.0</ele>
        <time>2018-07-04T11:59:35.613000Z</time>
      </trkpt>
      <trkpt lat="37.84975440243736" lon="112.00907836274736">
        <ele>1120.0</ele>
        <time>2018-07-04T11:59:38.613000Z</time>
      </trkpt>
      <trkpt lat="37.84986815420194" lon="112.00942219873481">
        <ele>1119.0</ele>
        <time>2018-07-04T11:59:47.613000Z</time>
      </trkpt>
      <trkpt lat="37.849897745199904" lon="112.00981697287206">
        <ele>1116.0</ele>
        <time>2018-07-04T11:59:56.613000Z</time>
      </trkpt>
      <trkpt lat="37.84989414521882" lon="112.01027182635502">
        <ele>1115.0</ele>
        <time>2018-07-04T12:00:08.613000Z</time>
      </trkpt>
      <trkpt lat="37.84988801140875" lon="112.0105132294255">
        <ele>1115.0</ele>
        <time>2018-07-04T12:00:14.613000Z</time>
      </trkpt>
      <trkpt lat="37.84984331661663" lon="112.01085952596864">
        <ele>1114.0</ele>
        <time>2018-07-04T12:00:23.613000Z</time>
      </trkpt>
      <trkpt lat="37.84980852163442" lon="112.01125394255602">
        <ele>1113.0</ele>
        <time>2018-07-04T12:00:32.613000Z</time>
      </trkpt>
      <trkpt lat="37.84979228682951" lon="112.01161105382309">
        <ele>1112.0</ele>
        <time>2018-07-04T12:00:41.613000Z</time>
      </trkpt>
      <trkpt lat="37.849778535051556" lon="112.01195465047694">
        <ele>1112.0</ele>
        <time>2018-07-04T12:00:50.613000Z</time>
      </trkpt>
      <trkpt lat="37.849728937248344" lon="112.01240368531528">
        <ele>1112.0</ele>
        <time>2018-07-04T12:01:02.613000Z</time>
      </trkpt>
      <trkpt lat="37.849719918125366" lon="112.01251993173754">
        <ele>1112.0</ele>
        <time>2018-07-04T12:01:05.613000Z</time>
      </trkpt>
      <trkpt lat="37.84972105031655" lon="112.01287840151977">
        <ele>1112.0</ele>
        <time>2018-07-04T12:01:14.613000Z</time>
      </trkpt>
      <trkpt lat="37.84968525803344" lon="112.01324661067243">
        <ele>1111.0</ele>
        <time>2018-07-04T12:01:23.613000Z</time>
      </trkpt>
      <trkpt lat="37.8496462387033" lon="112.01360563132654">
        <ele>1111.0</ele>
        <time>2018-07-04T12:01:32.613000Z</time>
      </trkpt>
      <trkpt lat="37.84960716864645" lon="112.01398303828151">
        <ele>1112.0</ele>
        <time>2018-07-04T12:01:41.613000Z</time>
      </trkpt>
      <trkpt lat="37.849585205278586" lon="112.01435639102925">
        <ele>1111.0</ele>
        <time>2018-07-04T12:01:50.613000Z</time>
      </trkpt>
      <trkpt lat="37.84955182211579" lon="112.014739210486">
        <ele>1110.0</ele>
        <time>2018-07-04T12:01:59.613000Z</time>
      </trkpt>
      <trkpt lat="37.849501334192134" lon="112.0151271719733">
        <ele>1111.0</ele>
        <time>2018-07-04T12:02:08.613000Z</time>
      </trkpt>
      <trkpt lat="37.8494521847088" lon="112.01552243632212">
        <ele>1110.0</ele>
        <time>2018-07-04T12:02:17.613000Z</time>
      </trkpt>
      <trkpt lat="37.849409319703895" lon="112.01590310417464">
        <ele>1110.0</ele>
        <time>2018-07-04T12:02:26.613000Z</time>
      </trkpt>
      <trkpt lat="37.84936941650283" lon="112.0162926969716">
        <ele>1109.0</ele>
        <time>2018-07-04T12:02:35.613000Z</time>
      </trkpt>
      <trkpt lat="37.84933600392693" lon="112.01669067386695">
        <ele>1108.0</ele>
        <time>2018-07-04T12:02:44.613000Z</time>
      </trkpt>
      <trkpt lat="37.84929367764865" lon="112.01707567809866">
        <ele>1108.0</ele>
        <time>2018-07-04T12:02:53.613000Z</time>
      </trkpt>
      <trkpt lat="37.84922757534152" lon="112.01742635204432">
        <ele>1106.0</ele>
        <time>2018-07-04T12:03:02.613000Z</time>
      </trkpt>
      <trkpt lat="37.84919375320496" lon="112.01777999926067">
        <ele>1105.0</ele>
        <time>2018-07-04T12:03:11.613000Z</time>
      </trkpt>
      <trkpt lat="37.84918554017567" lon="112.01790301905537">
        <ele>1105.0</ele>
        <time>2018-07-04T12:03:14.613000Z</time>
      </trkpt>
      <trkpt lat="37.84913150406356" lon="112.01811283432248">
        <ele>1105.0</ele>
        <time>2018-07-04T12:03:20.613000Z</time>
      </trkpt>
      <trkpt lat="37.84914379286665" lon="112.01827830140054">
        <ele>1106.0</ele>
        <time>2018-07-04T12:03:26.613000Z</time>
      </trkpt>
      <trkpt lat="37.849176747818184" lon="112.01833020929773">
        <ele>1106.0</ele>
        <time>2018-07-04T12:03:29.613000Z</time>
      </trkpt>
      <trkpt lat="37.84922456679221" lon="112.01820880565798">
        <ele>1105.0</ele>
        <time>2018-07-04T12:03:32.613000Z</time>
      </trkpt>
      <trkpt lat="37.84918246012767" lon="112.01782782241214">
        <ele>1106.0</ele>
        <time>2018-07-04T12:03:41.613000Z</time>
      </trkpt>
      <trkpt lat="37.84920684407384" lon="112.01765914222139">
        <ele>1106.0</ele>
        <time>2018-07-04T12:03:47.613000Z</time>
      </trkpt>
      <trkpt lat="37.84924902345845" lon="112.01761425581091">
        <ele>1106.0</ele>
        <time>2018-07-04T12:03:50.613000Z</time>
      </trkpt>
      <trkpt lat="37.84923274167354" lon="112.01742229590259">
        <ele>1108.0</ele>
        <time>2018-07-04T12:03:59.613000Z</time>
      </trkpt>
      <trkpt lat="37.84927235650705" lon="112.01732468836592">
        <ele>1106.0</ele>
        <time>2018-07-04T12:04:05.613000Z</time>
      </trkpt>
      <trkpt lat="37.84927741670024" lon="112.01726196254548">
        <ele>1107.0</ele>
        <time>2018-07-04T12:04:08.613000Z</time>
      </trkpt>
      <trkpt lat="37.84935795982593" lon="112.01711831471152">
        <ele>1107.0</ele>
        <time>2018-07-04T12:04:17.613000Z</time>
      </trkpt>
      <trkpt lat="37.84936828963964" lon="112.01688289876394">
        <ele>1107.0</ele>
        <time>2018-07-04T12:04:29.613000Z</time>
      </trkpt>
      <trkpt lat="37.84936613705462" lon="112.0168248331398">
        <ele>1107.0</ele>
        <time>2018-07-04T12:04:32.613000Z</time>
      </trkpt>
      <trkpt lat="37.84940350832633" lon="112.01665726020128">
        <ele>1107.0</ele>
        <time>2018-07-04T12:04:41.613000Z</time>
      </trkpt>
      <trkpt lat="37.8493636141269" lon="112.01640340385015">
        <ele>1105.0</ele>
        <time>2018-07-04T12:04:56.613000Z</time>
      </trkpt>
      <trkpt lat="37.84936280779654" lon="112.01634389675145">
        <ele>1106.0</ele>
        <time>2018-07-04T12:04:59.613000Z</time>
      </trkpt>
      <trkpt lat="37.84942368307641" lon="112.01600721356178">
        <ele>1106.0</ele>
        <time>2018-07-04T12:05:14.613000Z</time>
      </trkpt>
      <trkpt lat="37.84949293530776" lon="112.01559851738513">
        <ele>1105.0</ele>
        <time>2018-07-04T12:05:26.613000Z</time>
      </trkpt>
      <trkpt lat="37.849535648991065" lon="112.01528647790684">
        <ele>1106.0</ele>
        <time>2018-07-04T12:05:35.613000Z</time>
      </trkpt>
      <trkpt lat="37.84953901096054" lon="112.01517439316515">
        <ele>1105.0</ele>
        <time>2018-07-04T12:05:38.613000Z</time>
      </trkpt>
      <trkpt lat="37.84958511026993" lon="112.01485665674058">
        <ele>1102.0</ele>
        <time>2018-07-04T12:05:47.613000Z</time>
      </trkpt>
      <trkpt lat="37.84959891138605" lon="112.01460658892339">
        <ele>1101.0</ele>
        <time>2018-07-04T12:05:53.613000Z</time>
      </trkpt>
      <trkpt lat="37.84963056525643" lon="112.0142102855937">
        <ele>1099.0</ele>
        <time>2018-07-04T12:06:02.613000Z</time>
      </trkpt>
      <trkpt lat="37.84966741090095" lon="112.01381245880404">
        <ele>1102.0</ele>
        <time>2018-07-04T12:06:11.613000Z</time>
      </trkpt>
      <trkpt lat="37.84967682849666" lon="112.0134228938645">
        <ele>1102.0</ele>
        <time>2018-07-04T12:06:20.613000Z</time>
      </trkpt>
      <trkpt lat="37.84968053350353" lon="112.0132882435029">
        <ele>1102.0</ele>
        <time>2018-07-04T12:06:23.613000Z</time>
      </trkpt>
      <trkpt lat="37.84973993628625" lon="112.01291167533692">
        <ele>1100.0</ele>
        <time>2018-07-04T12:06:32.613000Z</time>
      </trkpt>
      <trkpt lat="37.849765492141444" lon="112.0128015634633">
        <ele>1099.0</ele>
        <time>2018-07-04T12:06:35.613000Z</time>
      </trkpt>
      <trkpt lat="37.8497818437719" lon="112.0125548283323">
        <ele>1097.0</ele>
        <time>2018-07-04T12:06:41.613000Z</time>
      </trkpt>
      <trkpt lat="37.849775717734374" lon="112.01228695837507">
        <ele>1098.0</ele>
        <time>2018-07-04T12:06:47.613000Z</time>
      </trkpt>
      <trkpt lat="37.849812204965964" lon="112.01188932226869">
        <ele>1097.0</ele>
        <time>2018-07-04T12:06:56.613000Z</time>
      </trkpt>
      <trkpt lat="37.8498489171729" lon="112.01160399259172">
        <ele>1097.0</ele>
        <time>2018-07-04T12:07:02.613000Z</time>
      </trkpt>
      <trkpt lat="37.84988681976479" lon="112.01147229148928">
        <ele>1096.0</ele>
        <time>2018-07-04T12:07:05.613000Z</time>
      </trkpt>
      <trkpt lat="37.8499008119035" lon="112.01133055998153">
        <ele>1097.0</ele>
        <time>2018-07-04T12:07:08.613000Z</time>
      </trkpt>
      <trkpt lat="37.849906583853986" lon="112.0109236901234">
        <ele>1095.0</ele>
        <time>2018-07-04T12:07:17.613000Z</time>
      </trkpt>
      <trkpt lat="37.84992664699009" lon="112.01066773615942">
        <ele>1095.0</ele>
        <time>2018-07-04T12:07:23.613000Z</time>
      </trkpt>
      <trkpt lat="37.84997257238023" lon="112.0102652963502">
        <ele>1097.0</ele>
        <time>2018-07-04T12:07:32.613000Z</time>
      </trkpt>
      <trkpt lat="37.84999016066886" lon="112.01001329176341">
        <ele>1097.0</ele>
        <time>2018-07-04T12:07:38.613000Z</time>
      </trkpt>
      <trkpt lat="37.84994805769151" lon="112.0095698205428">
        <ele>1097.0</ele>
        <time>2018-07-04T12:07:47.613000Z</time>
      </trkpt>
      <trkpt lat="37.84987650480549" lon="112.00930959716341">
        <ele>1098.0</ele>
        <time>2018-07-04T12:07:53.613000Z</time>
      </trkpt>
      <trkpt lat="37.84981522832429" lon="112.00920346002039">
        <ele>1098.0</ele>
        <time>2018-07-04T12:07:56.613000Z</time>
      </trkpt>
      <trkpt lat="37.84961410992265" lon="112.0088638988582">
        <ele>1099.0</ele>
        <time>2018-07-04T12:08:05.613000Z</time>
      </trkpt>
      <trkpt lat="37.84954636193924" lon="112.00876542922921">
        <ele>1099.0</ele>
        <time>2018-07-04T12:08:08.613000Z</time>
      </trkpt>
      <trkpt lat="37.84937166923068" lon="112.00841045886713">
        <ele>1100.0</ele>
        <time>2018-07-04T12:08:17.613000Z</time>
      </trkpt>
      <trkpt lat="37.849165191595844" lon="112.00808893544495">
        <ele>1100.0</ele>
        <time>2018-07-04T12:08:26.613000Z</time>
      </trkpt>
      <trkpt lat="37.848920085074724" lon="112.0077657220377">
        <ele>1104.0</ele>
        <time>2018-07-04T12:08:35.613000Z</time>
      </trkpt>
      <trkpt lat="37.848831871670384" lon="112.00763833517797">
        <ele>1104.0</ele>
        <time>2018-07-04T12:08:38.613000Z</time>
      </trkpt>
      <trkpt lat="37.84868344981418" lon="112.00738306785829">
        <ele>1105.0</ele>
        <time>2018-07-04T12:08:44.613000Z</time>
      </trkpt>
      <trkpt lat="37.84840616387922" lon="112.00705063086897">
        <ele>1107.0</ele>
        <time>2018-07-04T12:08:53.613000Z</time>
      </trkpt>
      <trkpt lat="37.848297158706195" lon="112.0069600934577">
        <ele>1109.0</ele>
        <time>2018-07-04T12:08:56.613000Z</time>
      </trkpt>
      <trkpt lat="37.848048947632364" lon="112.00687683852249">
        <ele>1112.0</ele>
        <time>2018-07-04T12:09:02.613000Z</time>
      </trkpt>
      <trkpt lat="37.847957218553226" lon="112.0068854994504">
        <ele>1112.0</ele>
        <time>2018-07-04T12:09:05.613000Z</time>
      </trkpt>
      <trkpt lat="37.847994768420435" lon="112.00694009802025">
        <ele>1114.0</ele>
        <time>2018-07-04T12:09:08.613000Z</time>
      </trkpt>
      <trkpt lat="37.84822280694529" lon="112.00689411774916">
        <ele>1116.0</ele>
        <time>2018-07-04T12:09:14.613000Z</time>
      </trkpt>
      <trkpt lat="37.848485193835224" lon="112.00697572073099">
        <ele>1120.0</ele>
        <time>2018-07-04T12:09:26.613000Z</time>
      </trkpt>
      <trkpt lat="37.84853307934095" lon="112.00702166813537">
        <ele>1120.0</ele>
        <time>2018-07-04T12:09:29.613000Z</time>
      </trkpt>
      <trkpt lat="37.84856245458989" lon="112.00708816154929">
        <ele>1121.0</ele>
        <time>2018-07-04T12:09:32.613000Z</time>
      </trkpt>
      <trkpt lat="37.848574685827536" lon="112.00717195711223">
        <ele>1122.0</ele>
        <time>2018-07-04T12:09:35.613000Z</time>
      </trkpt>
      <trkpt lat="37.84855432600223" lon="112.00726710983437">
        <ele>1122.0</ele>
        <time>2018-07-04T12:09:38.613000Z</time>
      </trkpt>
      <trkpt lat="37.84858317246435" lon="112.00732900821701">
        <ele>1123.0</ele>
        <time>2018-07-04T12:09:41.613000Z</time>
      </trkpt>
      <trkpt lat="37.84863194756056" lon="112.00734954624625">
        <ele>1123.0</ele>
        <time>2018-07-04T12:09:44.613000Z</time>
      </trkpt>
      <trkpt lat="37.848680803751655" lon="112.00734278257022">
        <ele>1123.0</ele>
        <time>2018-07-04T12:09:47.613000Z</time>
      </trkpt>
      <trkpt lat="37.84872166344663" lon="112.00737927007043">
        <ele>1124.0</ele>
        <time>2018-07-04T12:09:50.613000Z</time>
      </trkpt>
      <trkpt lat="37.8488058787178" lon="112.00761686642352">
        <ele>1125.0</ele>
        <time>2018-07-04T12:10:02.613000Z</time>
      </trkpt>
      <trkpt lat="37.848892938813144" lon="112.00771876484268">
        <ele>1126.0</ele>
        <time>2018-07-04T12:10:08.613000Z</time>
      </trkpt>
      <trkpt lat="37.8489228780696" lon="112.0077782306743">
        <ele>1127.0</ele>
        <time>2018-07-04T12:10:11.613000Z</time>
      </trkpt>
      <trkpt lat="37.84892963647616" lon="112.00787797640048">
        <ele>1126.0</ele>
        <time>2018-07-04T12:10:17.613000Z</time>
      </trkpt>
      <trkpt lat="37.84913036759647" lon="112.00816610995525">
        <ele>1127.0</ele>
        <time>2018-07-04T12:10:38.613000Z</time>
      </trkpt>
      <trkpt lat="37.84918998749061" lon="112.00828098776303">
        <ele>1128.0</ele>
        <time>2018-07-04T12:10:44.613000Z</time>
      </trkpt>
      <trkpt lat="37.84927615029293" lon="112.00831963292194">
        <ele>1127.0</ele>
        <time>2018-07-04T12:10:50.613000Z</time>
      </trkpt>
      <trkpt lat="37.84936374750984" lon="112.00842369493412">
        <ele>1127.0</ele>
        <time>2018-07-04T12:10:59.613000Z</time>
      </trkpt>
      <trkpt lat="37.849378329204875" lon="112.0085388489071">
        <ele>1127.0</ele>
        <time>2018-07-04T12:11:05.613000Z</time>
      </trkpt>
      <trkpt lat="37.849425534782334" lon="112.008631562698">
        <ele>1125.0</ele>
        <time>2018-07-04T12:11:11.613000Z</time>
      </trkpt>
      <trkpt lat="37.84957667848328" lon="112.00871561398945">
        <ele>1125.0</ele>
        <time>2018-07-04T12:11:20.613000Z</time>
      </trkpt>
      <trkpt lat="37.849613649444294" lon="112.00878291919199">
        <ele>1124.0</ele>
        <time>2018-07-04T12:11:23.613000Z</time>
      </trkpt>
      <trkpt lat="37.84966660719697" lon="112.00894915983066">
        <ele>1123.0</ele>
        <time>2018-07-04T12:11:29.613000Z</time>
      </trkpt>
      <trkpt lat="37.84978208980904" lon="112.00907376398047">
        <ele>1123.0</ele>
        <time>2018-07-04T12:11:35.613000Z</time>
      </trkpt>
      <trkpt lat="37.849832863728054" lon="112.00915269175658">
        <ele>1123.0</ele>
        <time>2018-07-04T12:11:38.613000Z</time>
      </trkpt>
      <trkpt lat="37.84991618035763" lon="112.00951302152127">
        <ele>1124.0</ele>
        <time>2018-07-04T12:11:47.613000Z</time>
      </trkpt>
      <trkpt lat="37.84995658003819" lon="112.00984937851106">
        <ele>1120.0</ele>
        <time>2018-07-04T12:11:56.613000Z</time>
      </trkpt>
      <trkpt lat="37.84994449003147" lon="112.01010390270929">
        <ele>1118.0</ele>
        <time>2018-07-04T12:12:02.613000Z</time>
      </trkpt>
      <trkpt lat="37.849937050313414" lon="112.01047057141439">
        <ele>1119.0</ele>
        <time>2018-07-04T12:12:11.613000Z</time>
      </trkpt>
      <trkpt lat="37.84990276301716" lon="112.01082395568429">
        <ele>1119.0</ele>
        <time>2018-07-04T12:12:20.613000Z</time>
      </trkpt>
      <trkpt lat="37.849857574612905" lon="112.01103890919052">
        <ele>1115.0</ele>
        <time>2018-07-04T12:12:26.613000Z</time>
      </trkpt>
      <trkpt lat="37.8498209603116" lon="112.01139650018236">
        <ele>1114.0</ele>
        <time>2018-07-04T12:12:35.613000Z</time>
      </trkpt>
      <trkpt lat="37.84983438613096" lon="112.01151561030782">
        <ele>1113.0</ele>
        <time>2018-07-04T12:12:38.613000Z</time>
      </trkpt>
      <trkpt lat="37.84982986610169" lon="112.01164568919067">
        <ele>1113.0</ele>
        <time>2018-07-04T12:12:41.613000Z</time>
      </trkpt>
      <trkpt lat="37.84981655354882" lon="112.01178019018084">
        <ele>1113.0</ele>
        <time>2018-07-04T12:12:44.613000Z</time>
      </trkpt>
      <trkpt lat="37.849764139827116" lon="112.01204409717015">
        <ele>1114.0</ele>
        <time>2018-07-04T12:12:50.613000Z</time>
      </trkpt>
      <trkpt lat="37.84975937478099" lon="112.01240940412275">
        <ele>1114.0</ele>
        <time>2018-07-04T12:12:59.713000Z</time>
      </trkpt>
      <trkpt lat="37.84973513063058" lon="112.01252600026487">
        <ele>1115.0</ele>
        <time>2018-07-04T12:13:02.613000Z</time>
      </trkpt>
      <trkpt lat="37.84973165674462" lon="112.01277900022113">
        <ele>1114.0</ele>
        <time>2018-07-04T12:13:08.613000Z</time>
      </trkpt>
      <trkpt lat="37.84968059367276" lon="112.01315193565065">
        <ele>1114.0</ele>
        <time>2018-07-04T12:13:17.613000Z</time>
      </trkpt>
      <trkpt lat="37.8496482004951" lon="112.01338147838294">
        <ele>1113.0</ele>
        <time>2018-07-04T12:13:23.613000Z</time>
      </trkpt>
      <trkpt lat="37.84964238533304" lon="112.01349651244288">
        <ele>1113.0</ele>
        <time>2018-07-04T12:13:26.613000Z</time>
      </trkpt>
      <trkpt lat="37.84959371128026" lon="112.01384433069342">
        <ele>1112.0</ele>
        <time>2018-07-04T12:13:35.613000Z</time>
      </trkpt>
      <trkpt lat="37.849588325630926" lon="112.01418986461196">
        <ele>1111.0</ele>
        <time>2018-07-04T12:13:44.613000Z</time>
      </trkpt>
      <trkpt lat="37.849559359576546" lon="112.01454874641708">
        <ele>1111.0</ele>
        <time>2018-07-04T12:13:53.613000Z</time>
      </trkpt>
      <trkpt lat="37.84954767689503" lon="112.01478104566063">
        <ele>1110.0</ele>
        <time>2018-07-04T12:13:59.613000Z</time>
      </trkpt>
      <trkpt lat="37.84949377334652" lon="112.01514418270395">
        <ele>1108.0</ele>
        <time>2018-07-04T12:14:08.613000Z</time>
      </trkpt>
      <trkpt lat="37.849455267557325" lon="112.01549035255455">
        <ele>1108.0</ele>
        <time>2018-07-04T12:14:17.613000Z</time>
      </trkpt>
      <trkpt lat="37.849418567541505" lon="112.01584295522873">
        <ele>1108.0</ele>
        <time>2018-07-04T12:14:26.613000Z</time>
      </trkpt>
      <trkpt lat="37.849363377812075" lon="112.01620290626774">
        <ele>1107.0</ele>
        <time>2018-07-04T12:14:35.613000Z</time>
      </trkpt>
      <trkpt lat="37.849365559841026" lon="112.01644721708384">
        <ele>1107.0</ele>
        <time>2018-07-04T12:14:41.613000Z</time>
      </trkpt>
      <trkpt lat="37.84931819288616" lon="112.01680173506196">
        <ele>1105.0</ele>
        <time>2018-07-04T12:14:50.613000Z</time>
      </trkpt>
      <trkpt lat="37.84932231466568" lon="112.01703852138901">
        <ele>1106.0</ele>
        <time>2018-07-04T12:14:56.613000Z</time>
      </trkpt>
      <trkpt lat="37.84925023340744" lon="112.01737687198022">
        <ele>1107.0</ele>
        <time>2018-07-04T12:15:05.613000Z</time>
      </trkpt>
      <trkpt lat="37.84923654614989" lon="112.01761317582813">
        <ele>1106.0</ele>
        <time>2018-07-04T12:15:11.613000Z</time>
      </trkpt>
      <trkpt lat="37.849192520069955" lon="112.01783272170894">
        <ele>1106.0</ele>
        <time>2018-07-04T12:15:17.613000Z</time>
      </trkpt>
      <trkpt lat="37.84921591279977" lon="112.01800494557753">
        <ele>1107.0</ele>
        <time>2018-07-04T12:15:23.613000Z</time>
      </trkpt>
      <trkpt lat="37.849184268390424" lon="112.01816338775944">
        <ele>1108.0</ele>
        <time>2018-07-04T12:15:29.613000Z</time>
      </trkpt>
      <trkpt lat="37.84919607292191" lon="112.01830803628845">
        <ele>1109.0</ele>
        <time>2018-07-04T12:15:35.613000Z</time>
      </trkpt>
      <trkpt lat="37.84917465370696" lon="112.01869170178874">
        <ele>1108.0</ele>
        <time>2018-07-04T12:15:53.613000Z</time>
      </trkpt>
      <trkpt lat="37.84915261222899" lon="112.01900750597513">
        <ele>1108.0</ele>
        <time>2018-07-04T12:16:02.613000Z</time>
      </trkpt>
      <trkpt lat="37.84914989956825" lon="112.01939820620464">
        <ele>1108.0</ele>
        <time>2018-07-04T12:16:11.613000Z</time>
      </trkpt>
      <trkpt lat="37.849197256716934" lon="112.01963830048219">
        <ele>1107.0</ele>
        <time>2018-07-04T12:16:17.613000Z</time>
      </trkpt>
      <trkpt lat="37.84915986759" lon="112.02001224752618">
        <ele>1109.0</ele>
        <time>2018-07-04T12:16:29.613000Z</time>
      </trkpt>
      <trkpt lat="37.849169998400676" lon="112.02017556009294">
        <ele>1110.0</ele>
        <time>2018-07-04T12:16:35.613000Z</time>
      </trkpt>
      <trkpt lat="37.84913292119941" lon="112.02024045763666">
        <ele>1109.0</ele>
        <time>2018-07-04T12:16:38.613000Z</time>
      </trkpt>
      <trkpt lat="37.84905390391795" lon="112.02026426127868">
        <ele>1108.0</ele>
        <time>2018-07-04T12:16:41.613000Z</time>
      </trkpt>
      <trkpt lat="37.84901387516185" lon="112.02031726222987">
        <ele>1109.0</ele>
        <time>2018-07-04T12:16:44.613000Z</time>
      </trkpt>
      <trkpt lat="37.84901583879923" lon="112.02039243013607">
        <ele>1109.0</ele>
        <time>2018-07-04T12:16:47.613000Z</time>
      </trkpt>
      <trkpt lat="37.84905000100874" lon="112.02057218155291">
        <ele>1109.0</ele>
        <time>2018-07-04T12:16:53.613000Z</time>
      </trkpt>
      <trkpt lat="37.8490282599458" lon="112.02098852188911">
        <ele>1109.0</ele>
        <time>2018-07-04T12:17:05.613000Z</time>
      </trkpt>
      <trkpt lat="37.849083765285336" lon="112.02104866277175">
        <ele>1109.0</ele>
        <time>2018-07-04T12:17:08.613000Z</time>
      </trkpt>
      <trkpt lat="37.849101790212536" lon="112.02130310251025">
        <ele>1110.0</ele>
        <time>2018-07-04T12:17:17.613000Z</time>
      </trkpt>
      <trkpt lat="37.84914747193757" lon="112.02146479432794">
        <ele>1111.0</ele>
        <time>2018-07-04T12:17:26.613000Z</time>
      </trkpt>
      <trkpt lat="37.84910796453792" lon="112.02162568592131">
        <ele>1109.0</ele>
        <time>2018-07-04T12:17:35.613000Z</time>
      </trkpt>
      <trkpt lat="37.84910799143366" lon="112.02168645628139">
        <ele>1108.0</ele>
        <time>2018-07-04T12:17:38.613000Z</time>
      </trkpt>
      <trkpt lat="37.8490521790146" lon="112.0217865802145">
        <ele>1109.0</ele>
        <time>2018-07-04T12:17:44.613000Z</time>
      </trkpt>
      <trkpt lat="37.84906094688559" lon="112.02205454655952">
        <ele>1111.0</ele>
        <time>2018-07-04T12:17:56.613000Z</time>
      </trkpt>
      <trkpt lat="37.84903989667284" lon="112.02211322638367">
        <ele>1110.0</ele>
        <time>2018-07-04T12:17:59.613000Z</time>
      </trkpt>
      <trkpt lat="37.84902776456637" lon="112.0223852538658">
        <ele>1110.0</ele>
        <time>2018-07-04T12:18:14.613000Z</time>
      </trkpt>
      <trkpt lat="37.84900750972206" lon="112.02245096469969">
        <ele>1110.0</ele>
        <time>2018-07-04T12:18:17.613000Z</time>
      </trkpt>
      <trkpt lat="37.8490394362126" lon="112.02258400049294">
        <ele>1110.0</ele>
        <time>2018-07-04T12:18:23.613000Z</time>
      </trkpt>
      <trkpt lat="37.84902551213708" lon="112.02281736359129">
        <ele>1109.0</ele>
        <time>2018-07-04T12:18:35.613000Z</time>
      </trkpt>
      <trkpt lat="37.84899118180177" lon="112.0228711789793">
        <ele>1108.0</ele>
        <time>2018-07-04T12:18:38.613000Z</time>
      </trkpt>
      <trkpt lat="37.848999941321146" lon="112.02294310669058">
        <ele>1109.0</ele>
        <time>2018-07-04T12:18:41.613000Z</time>
      </trkpt>
      <trkpt lat="37.849096589477945" lon="112.02322296975998">
        <ele>1109.0</ele>
        <time>2018-07-04T12:18:56.613000Z</time>
      </trkpt>
      <trkpt lat="37.8490832688149" lon="112.02333384024178">
        <ele>1109.0</ele>
        <time>2018-07-04T12:19:02.613000Z</time>
      </trkpt>
      <trkpt lat="37.849033827721804" lon="112.02345823610084">
        <ele>1108.0</ele>
        <time>2018-07-04T12:19:08.613000Z</time>
      </trkpt>
      <trkpt lat="37.84903987730053" lon="112.02352935417203">
        <ele>1109.0</ele>
        <time>2018-07-04T12:19:11.613000Z</time>
      </trkpt>
      <trkpt lat="37.8490112258742" lon="112.02359047122765">
        <ele>1109.0</ele>
        <time>2018-07-04T12:19:14.613000Z</time>
      </trkpt>
      <trkpt lat="37.84896850075667" lon="112.02362706372097">
        <ele>1109.0</ele>
        <time>2018-07-04T12:19:17.613000Z</time>
      </trkpt>
      <trkpt lat="37.84895520600632" lon="112.02374684885774">
        <ele>1109.0</ele>
        <time>2018-07-04T12:19:23.613000Z</time>
      </trkpt>
      <trkpt lat="37.8489762282581" lon="112.02388442522172">
        <ele>1110.0</ele>
        <time>2018-07-04T12:19:29.613000Z</time>
      </trkpt>
      <trkpt lat="37.84904162509625" lon="112.02400747116613">
        <ele>1109.0</ele>
        <time>2018-07-04T12:19:38.613000Z</time>
      </trkpt>
      <trkpt lat="37.849071599012085" lon="112.02409762602598">
        <ele>1109.0</ele>
        <time>2018-07-04T12:19:44.613000Z</time>
      </trkpt>
      <trkpt lat="37.84901060463229" lon="112.02426046876764">
        <ele>1112.0</ele>
        <time>2018-07-04T12:19:53.613000Z</time>
      </trkpt>
      <trkpt lat="37.849042319697446" lon="112.02430603383074">
        <ele>1113.0</ele>
        <time>2018-07-04T12:19:56.613000Z</time>
      </trkpt>
      <trkpt lat="37.849103818224705" lon="112.02433539889618">
        <ele>1113.0</ele>
        <time>2018-07-04T12:19:59.613000Z</time>
      </trkpt>
      <trkpt lat="37.8491601032849" lon="112.02433636275634">
        <ele>1113.0</ele>
        <time>2018-07-04T12:20:02.613000Z</time>
      </trkpt>
      <trkpt lat="37.84915067915359" lon="112.02444471157501">
        <ele>1113.0</ele>
        <time>2018-07-04T12:20:08.613000Z</time>
      </trkpt>
      <trkpt lat="37.84904765720487" lon="112.02443413916069">
        <ele>1114.0</ele>
        <time>2018-07-04T12:20:11.613000Z</time>
      </trkpt>
      <trkpt lat="37.84901383773146" lon="112.02448142270994">
        <ele>1113.0</ele>
        <time>2018-07-04T12:20:14.613000Z</time>
      </trkpt>
      <trkpt lat="37.849009077247274" lon="112.02456785425521">
        <ele>1113.0</ele>
        <time>2018-07-04T12:20:17.613000Z</time>
      </trkpt>
      <trkpt lat="37.84906155530868" lon="112.02462246918715">
        <ele>1112.0</ele>
        <time>2018-07-04T12:20:20.613000Z</time>
      </trkpt>
      <trkpt lat="37.849020555721026" lon="112.02497853748328">
        <ele>1111.0</ele>
        <time>2018-07-04T12:20:32.613000Z</time>
      </trkpt>
      <trkpt lat="37.8490122477128" lon="112.02504235912716">
        <ele>1111.0</ele>
        <time>2018-07-04T12:20:35.613000Z</time>
      </trkpt>
      <trkpt lat="37.8489692554483" lon="112.02508968900801">
        <ele>1113.0</ele>
        <time>2018-07-04T12:20:38.613000Z</time>
      </trkpt>
      <trkpt lat="37.848948483688915" lon="112.02514729253944">
        <ele>1113.0</ele>
        <time>2018-07-04T12:20:41.613000Z</time>
      </trkpt>
      <trkpt lat="37.84896902520672" lon="112.0252797998986">
        <ele>1113.0</ele>
        <time>2018-07-04T12:20:47.613000Z</time>
      </trkpt>
      <trkpt lat="37.848944289601604" lon="112.02550344828701">
        <ele>1114.0</ele>
        <time>2018-07-04T12:20:59.613000Z</time>
      </trkpt>
      <trkpt lat="37.848981567091826" lon="112.02556564293975">
        <ele>1113.0</ele>
        <time>2018-07-04T12:21:02.613000Z</time>
      </trkpt>
      <trkpt lat="37.848864656458346" lon="112.02565949678741">
        <ele>1114.0</ele>
        <time>2018-07-04T12:21:11.613000Z</time>
      </trkpt>
      <trkpt lat="37.84887134648221" lon="112.02579822796568">
        <ele>1113.0</ele>
        <time>2018-07-04T12:21:17.613000Z</time>
      </trkpt>
      <trkpt lat="37.8489398743429" lon="112.02604891244431">
        <ele>1113.0</ele>
        <time>2018-07-04T12:21:29.613000Z</time>
      </trkpt>
      <trkpt lat="37.84892976279234" lon="112.02618061604987">
        <ele>1112.0</ele>
        <time>2018-07-04T12:21:35.613000Z</time>
      </trkpt>
      <trkpt lat="37.84885467943421" lon="112.02625769963358">
        <ele>1112.0</ele>
        <time>2018-07-04T12:21:41.613000Z</time>
      </trkpt>
      <trkpt lat="37.848911018406625" lon="112.02629366105556">
        <ele>1112.0</ele>
        <time>2018-07-04T12:21:44.613000Z</time>
      </trkpt>
      <trkpt lat="37.848884115259345" lon="112.0264142797485">
        <ele>1111.0</ele>
        <time>2018-07-04T12:21:50.613000Z</time>
      </trkpt>
      <trkpt lat="37.848843539691735" lon="112.02647188814286">
        <ele>1110.0</ele>
        <time>2018-07-04T12:21:53.613000Z</time>
      </trkpt>
      <trkpt lat="37.84881551808425" lon="112.02660548882339">
        <ele>1110.0</ele>
        <time>2018-07-04T12:21:59.713000Z</time>
      </trkpt>
      <trkpt lat="37.84876855511132" lon="112.02661550076948">
        <ele>1109.0</ele>
        <time>2018-07-04T12:22:02.613000Z</time>
      </trkpt>
      <trkpt lat="37.84859923511402" lon="112.02651951486676">
        <ele>1111.0</ele>
        <time>2018-07-04T12:22:11.613000Z</time>
      </trkpt>
      <trkpt lat="37.84841176010125" lon="112.0265189965243">
        <ele>1112.0</ele>
        <time>2018-07-04T12:22:23.613000Z</time>
      </trkpt>
      <trkpt lat="37.848330553404466" lon="112.02655145907157">
        <ele>1112.0</ele>
        <time>2018-07-04T12:22:29.613000Z</time>
      </trkpt>
      <trkpt lat="37.848293469596825" lon="112.02651846986484">
        <ele>1113.0</ele>
        <time>2018-07-04T12:22:32.613000Z</time>
      </trkpt>
      <trkpt lat="37.84816385373536" lon="112.02649117104603">
        <ele>1113.0</ele>
        <time>2018-07-04T12:22:41.613000Z</time>
      </trkpt>
      <trkpt lat="37.84809374183945" lon="112.0264306010905">
        <ele>1113.0</ele>
        <time>2018-07-04T12:22:47.613000Z</time>
      </trkpt>
      <trkpt lat="37.84800318577148" lon="112.02640681335838">
        <ele>1113.0</ele>
        <time>2018-07-04T12:22:53.613000Z</time>
      </trkpt>
      <trkpt lat="37.84786695630306" lon="112.02641872904047">
        <ele>1112.0</ele>
        <time>2018-07-04T12:23:02.613000Z</time>
      </trkpt>
      <trkpt lat="37.84778237545153" lon="112.02649662569355">
        <ele>1109.0</ele>
        <time>2018-07-04T12:23:14.613000Z</time>
      </trkpt>
      <trkpt lat="37.84762287961042" lon="112.0267960229236">
        <ele>1110.0</ele>
        <time>2018-07-04T12:23:26.613000Z</time>
      </trkpt>
      <trkpt lat="37.84761211804795" lon="112.02686552795153">
        <ele>1109.0</ele>
        <time>2018-07-04T12:23:29.613000Z</time>
      </trkpt>
      <trkpt lat="37.84753366316041" lon="112.02691340263377">
        <ele>1110.0</ele>
        <time>2018-07-04T12:23:35.613000Z</time>
      </trkpt>
      <trkpt lat="37.847590202502246" lon="112.02697064819603">
        <ele>1111.0</ele>
        <time>2018-07-04T12:23:41.613000Z</time>
      </trkpt>
      <trkpt lat="37.84760615025945" lon="112.02706284919358">
        <ele>1111.0</ele>
        <time>2018-07-04T12:23:44.613000Z</time>
      </trkpt>
      <trkpt lat="37.847591285855984" lon="112.02714478881624">
        <ele>1111.0</ele>
        <time>2018-07-04T12:23:47.613000Z</time>
      </trkpt>
      <trkpt lat="37.84750039653568" lon="112.02736694666999">
        <ele>1112.0</ele>
        <time>2018-07-04T12:23:59.613000Z</time>
      </trkpt>
      <trkpt lat="37.847479245970504" lon="112.0274675558274">
        <ele>1111.0</ele>
        <time>2018-07-04T12:24:05.613000Z</time>
      </trkpt>
      <trkpt lat="37.84753428316951" lon="112.0274826943207">
        <ele>1111.0</ele>
        <time>2018-07-04T12:24:08.613000Z</time>
      </trkpt>
      <trkpt lat="37.84759708852781" lon="112.02744868663393">
        <ele>1112.0</ele>
        <time>2018-07-04T12:24:11.613000Z</time>
      </trkpt>
      <trkpt lat="37.847625665554006" lon="112.02742440729949">
        <ele>1113.0</ele>
        <time>2018-07-04T12:24:14.613000Z</time>
      </trkpt>
      <trkpt lat="37.84764599197132" lon="112.02755293721562">
        <ele>1112.0</ele>
        <time>2018-07-04T12:24:20.613000Z</time>
      </trkpt>
      <trkpt lat="37.84759538396357" lon="112.02767173107398">
        <ele>1114.0</ele>
        <time>2018-07-04T12:24:23.613000Z</time>
      </trkpt>
      <trkpt lat="37.847360813750996" lon="112.02783835709937">
        <ele>1111.0</ele>
        <time>2018-07-04T12:24:26.613000Z</time>
      </trkpt>
      <trkpt lat="37.84737892546375" lon="112.0278940130925">
        <ele>1116.0</ele>
        <time>2018-07-04T12:24:32.613000Z</time>
      </trkpt>
      <trkpt lat="37.84732575957232" lon="112.02796547392556">
        <ele>1118.0</ele>
        <time>2018-07-04T12:24:38.613000Z</time>
      </trkpt>
      <trkpt lat="37.847304600927956" lon="112.02806987149783">
        <ele>1117.0</ele>
        <time>2018-07-04T12:24:44.613000Z</time>
      </trkpt>
      <trkpt lat="37.84731041667228" lon="112.0281296411775">
        <ele>1116.0</ele>
        <time>2018-07-04T12:24:47.613000Z</time>
      </trkpt>
      <trkpt lat="37.847291166668505" lon="112.0282305231909">
        <ele>1116.0</ele>
        <time>2018-07-04T12:24:53.613000Z</time>
      </trkpt>
      <trkpt lat="37.84729466081316" lon="112.02834952340358">
        <ele>1116.0</ele>
        <time>2018-07-04T12:24:59.613000Z</time>
      </trkpt>
    </trkseg>
  </trk>
</gpx>