<?xml version="1.0" encoding="UTF-8"?>
<gpx xmlns="http://www.topografix.com/GPX/1/1" xmlns:gpxtpx="http://www.garmin.com/xmlschemas/TrackPointExtension/v1" xmlns:xsi="http://www.w3.org/2001/XMLSchema-instance" xsi:schemaLocation="http://www.topografix.com/GPX/1/1 http://www.topografix.com/GPX/1/1/gpx.xsd" version="1.1" creator="gpx.py -- https://github.com/tkrajina/gpxpy">
  <trk>
    <name>gpx from keep</name>
    <type>Run</type>
    <trkseg>
      <trkpt lat="37.84710096678574" lon="112.02951632008082">
        <ele>1097.4129488088543</ele>
        <time>2016-05-05T01:09:28.100000Z</time>
      </trkpt>
      <trkpt lat="37.84714761771155" lon="112.02941461881494">
        <ele>1078.6307449983797</ele>
        <time>2016-05-05T01:09:31.700000Z</time>
      </trkpt>
      <trkpt lat="37.84713218235437" lon="112.02929561558899">
        <ele>1080.249246084726</ele>
        <time>2016-05-05T01:09:39.800000Z</time>
      </trkpt>
      <trkpt lat="37.847143836092656" lon="112.02919337840322">
        <ele>1101.2579281145322</ele>
        <time>2016-05-05T01:09:42.800000Z</time>
      </trkpt>
      <trkpt lat="37.84721351172346" lon="112.02910655103435">
        <ele>1095.7886312439248</ele>
        <time>2016-05-05T01:09:45.800000Z</time>
      </trkpt>
      <trkpt lat="37.84716330971694" lon="112.02900324012376">
        <ele>1087.1454129957951</ele>
        <time>2016-05-05T01:09:59.800000Z</time>
      </trkpt>
      <trkpt lat="37.84724511244574" lon="112.02884203495378">
        <ele>1086.82126854499</ele>
        <time>2016-05-05T01:10:06.800000Z</time>
      </trkpt>
      <trkpt lat="37.84730035353056" lon="112.02867055642739">
        <ele>1086.893670412073</ele>
        <time>2016-05-05T01:10:10.800000Z</time>
      </trkpt>
      <trkpt lat="37.84730462266113" lon="112.02848583262526">
        <ele>1087.72741288309</ele>
        <time>2016-05-05T01:10:14.900000Z</time>
      </trkpt>
      <trkpt lat="37.84734099732059" lon="112.02815992841732">
        <ele>1089.1811875511025</ele>
        <time>2016-05-05T01:10:24.900000Z</time>
      </trkpt>
      <trkpt lat="37.84731751964714" lon="112.02800469062123">
        <ele>1090.6794943959728</ele>
        <time>2016-05-05T01:10:28.800000Z</time>
      </trkpt>
      <trkpt lat="37.847382684298076" lon="112.02756303586133">
        <ele>1094.8827321446033</ele>
        <time>2016-05-05T01:10:44.800000Z</time>
      </trkpt>
      <trkpt lat="37.84742226508565" lon="112.02736452203806">
        <ele>1095.82592309083</ele>
        <time>2016-05-05T01:10:52.100000Z</time>
      </trkpt>
      <trkpt lat="37.84760099485711" lon="112.02696992041507">
        <ele>1099.6672999883028</ele>
        <time>2016-05-05T01:11:05.700000Z</time>
      </trkpt>
      <trkpt lat="37.847620400321944" lon="112.02691501804007">
        <ele>1100.440215487262</ele>
        <time>2016-05-05T01:11:09.900000Z</time>
      </trkpt>
      <trkpt lat="37.847805519325526" lon="112.02667349088702">
        <ele>1101.411203311871</ele>
        <time>2016-05-05T01:11:16.800000Z</time>
      </trkpt>
      <trkpt lat="37.8478416427156" lon="112.02655422224517">
        <ele>1101.914390096794</ele>
        <time>2016-05-05T01:11:20.900000Z</time>
      </trkpt>
      <trkpt lat="37.847901525639166" lon="112.02647957368474">
        <ele>1102.6330485793103</ele>
        <time>2016-05-05T01:11:24.700000Z</time>
      </trkpt>
      <trkpt lat="37.84819233653283" lon="112.02649306069854">
        <ele>1102.6581428079883</ele>
        <time>2016-05-05T01:11:35.700000Z</time>
      </trkpt>
      <trkpt lat="37.848323666193046" lon="112.02648736568234">
        <ele>1102.1653658707114</ele>
        <time>2016-05-05T01:11:41.800000Z</time>
      </trkpt>
      <trkpt lat="37.84852860604683" lon="112.02655332834301">
        <ele>1102.452614558473</ele>
        <time>2016-05-05T01:11:51.700000Z</time>
      </trkpt>
      <trkpt lat="37.84875343764116" lon="112.02658629501701">
        <ele>1103.0409713486856</ele>
        <time>2016-05-05T01:12:02.800000Z</time>
      </trkpt>
      <trkpt lat="37.849000746215346" lon="112.02642697635378">
        <ele>1101.7780397834697</ele>
        <time>2016-05-05T01:12:13.800000Z</time>
      </trkpt>
      <trkpt lat="37.84915060370258" lon="112.02628714175155">
        <ele>1101.286082421076</ele>
        <time>2016-05-05T01:12:20.800000Z</time>
      </trkpt>
      <trkpt lat="37.84934214141082" lon="112.02608266855324">
        <ele>1100.46216948745</ele>
        <time>2016-05-05T01:12:31.800000Z</time>
      </trkpt>
      <trkpt lat="37.849394521582134" lon="112.02607617179795">
        <ele>1100.0319345184857</ele>
        <time>2016-05-05T01:12:35.700000Z</time>
      </trkpt>
      <trkpt lat="37.84943757353352" lon="112.0260055829683">
        <ele>1099.76616182144</ele>
        <time>2016-05-05T01:12:39.800000Z</time>
      </trkpt>
      <trkpt lat="37.84930621510026" lon="112.02560833209643">
        <ele>1100.6062651200664</ele>
        <time>2016-05-05T01:12:46.900000Z</time>
      </trkpt>
      <trkpt lat="37.84920479378004" lon="112.02528031242544">
        <ele>1101.2651785957069</ele>
        <time>2016-05-05T01:12:52.700000Z</time>
      </trkpt>
      <trkpt lat="37.849143747028265" lon="112.0249725733062">
        <ele>1101.3163746579403</ele>
        <time>2016-05-05T01:12:55.700000Z</time>
      </trkpt>
      <trkpt lat="37.849049555763976" lon="112.02478490944249">
        <ele>1101.3041536093435</ele>
        <time>2016-05-05T01:12:59.800000Z</time>
      </trkpt>
      <trkpt lat="37.84902012283398" lon="112.02462968967993">
        <ele>1101.9328426137986</ele>
        <time>2016-05-05T01:13:05.800000Z</time>
      </trkpt>
      <trkpt lat="37.849050839264784" lon="112.02399582029497">
        <ele>1107.6443580764055</ele>
        <time>2016-05-05T01:13:24.800000Z</time>
      </trkpt>
      <trkpt lat="37.849128607867186" lon="112.02352501689333">
        <ele>1110.8116522941748</ele>
        <time>2016-05-05T01:13:36.800000Z</time>
      </trkpt>
      <trkpt lat="37.849110066083966" lon="112.02305423182463">
        <ele>1110.8173803486743</ele>
        <time>2016-05-05T01:13:59.800000Z</time>
      </trkpt>
      <trkpt lat="37.84912831552182" lon="112.02292686673132">
        <ele>1110.9937698076171</ele>
        <time>2016-05-05T01:14:02.800000Z</time>
      </trkpt>
      <trkpt lat="37.84909713259972" lon="112.02241769411685">
        <ele>1112.0982155166641</ele>
        <time>2016-05-05T01:14:17.700000Z</time>
      </trkpt>
      <trkpt lat="37.84910240944736" lon="112.02197233945517">
        <ele>1113.3224494933074</ele>
        <time>2016-05-05T01:14:32.100000Z</time>
      </trkpt>
      <trkpt lat="37.849112623240345" lon="112.0216086502485">
        <ele>1117.0055750950091</ele>
        <time>2016-05-05T01:14:42.900000Z</time>
      </trkpt>
      <trkpt lat="37.849070326710425" lon="112.02120062627618">
        <ele>1118.3090099186943</ele>
        <time>2016-05-05T01:14:54.700000Z</time>
      </trkpt>
      <trkpt lat="37.84912419392593" lon="112.02084937792428">
        <ele>1118.131166501365</ele>
        <time>2016-05-05T01:15:05.900000Z</time>
      </trkpt>
      <trkpt lat="37.84916775043525" lon="112.02059817874249">
        <ele>1116.4922441135327</ele>
        <time>2016-05-05T01:15:15.800000Z</time>
      </trkpt>
      <trkpt lat="37.84914656228673" lon="112.02031156815215">
        <ele>1114.9513494185594</ele>
        <time>2016-05-05T01:15:27.300000Z</time>
      </trkpt>
      <trkpt lat="37.849155740442505" lon="112.02022990976359">
        <ele>1115.2386287987738</ele>
        <time>2016-05-05T01:15:30.400000Z</time>
      </trkpt>
      <trkpt lat="37.84917483118008" lon="112.01989895398353">
        <ele>1116.4976737974125</ele>
        <time>2016-05-05T01:15:37.800000Z</time>
      </trkpt>
      <trkpt lat="37.84916151763466" lon="112.01961153679052">
        <ele>1117.2270917679487</ele>
        <time>2016-05-05T01:15:45.800000Z</time>
      </trkpt>
      <trkpt lat="37.84912647613843" lon="112.01933304701677">
        <ele>1116.7610517100773</ele>
        <time>2016-05-05T01:15:53.800000Z</time>
      </trkpt>
      <trkpt lat="37.84918481120769" lon="112.01913647319218">
        <ele>1117.9073306179098</ele>
        <time>2016-05-05T01:16:04.800000Z</time>
      </trkpt>
      <trkpt lat="37.84923695939655" lon="112.01901858141007">
        <ele>1119.3455677418297</ele>
        <time>2016-05-05T01:16:12Z</time>
      </trkpt>
      <trkpt lat="37.849265220790485" lon="112.0188074124269">
        <ele>1120.7668198124404</ele>
        <time>2016-05-05T01:16:19.800000Z</time>
      </trkpt>
      <trkpt lat="37.84926396429839" lon="112.01867411658746">
        <ele>1121.4640613346141</ele>
        <time>2016-05-05T01:16:23.800000Z</time>
      </trkpt>
      <trkpt lat="37.849235418848444" lon="112.0185002681254">
        <ele>1121.7044842345135</ele>
        <time>2016-05-05T01:16:27.800000Z</time>
      </trkpt>
      <trkpt lat="37.849242863272" lon="112.01826341895834">
        <ele>1122.2246613362956</ele>
        <time>2016-05-05T01:16:34.800000Z</time>
      </trkpt>
      <trkpt lat="37.84919340518829" lon="112.01790409959861">
        <ele>1121.473628730649</ele>
        <time>2016-05-05T01:16:41.800000Z</time>
      </trkpt>
      <trkpt lat="37.84921400360251" lon="112.0175250381833">
        <ele>1120.3551095741282</ele>
        <time>2016-05-05T01:16:52.800000Z</time>
      </trkpt>
      <trkpt lat="37.84918919823961" lon="112.01718059270118">
        <ele>1118.9417595294842</ele>
        <time>2016-05-05T01:16:59.700000Z</time>
      </trkpt>
      <trkpt lat="37.849201396960645" lon="112.01689562589297">
        <ele>1113.2434651735102</ele>
        <time>2016-05-05T01:17:07.800000Z</time>
      </trkpt>
      <trkpt lat="37.84924767474376" lon="112.0167447571455">
        <ele>1113.4711691475295</ele>
        <time>2016-05-05T01:17:13.800000Z</time>
      </trkpt>
      <trkpt lat="37.84931128468483" lon="112.01641355535541">
        <ele>1115.3138901939071</ele>
        <time>2016-05-05T01:17:25.800000Z</time>
      </trkpt>
      <trkpt lat="37.849402458818886" lon="112.01602611817518">
        <ele>1118.31734330947</ele>
        <time>2016-05-05T01:17:40.800000Z</time>
      </trkpt>
      <trkpt lat="37.849439548476624" lon="112.01567248559331">
        <ele>1119.5391385594082</ele>
        <time>2016-05-05T01:17:51.800000Z</time>
      </trkpt>
      <trkpt lat="37.84948048911679" lon="112.01520611773472">
        <ele>1121.3942430648276</ele>
        <time>2016-05-05T01:18:06.800000Z</time>
      </trkpt>
      <trkpt lat="37.849506878470336" lon="112.01480112629856">
        <ele>1120.0814803634428</ele>
        <time>2016-05-05T01:18:17.800000Z</time>
      </trkpt>
      <trkpt lat="37.84952881554875" lon="112.01472001831922">
        <ele>1119.413550330415</ele>
        <time>2016-05-05T01:18:20.800000Z</time>
      </trkpt>
      <trkpt lat="37.849566412626196" lon="112.01438153571995">
        <ele>1117.9713312397976</ele>
        <time>2016-05-05T01:18:32.900000Z</time>
      </trkpt>
      <trkpt lat="37.84962331600684" lon="112.01402872494162">
        <ele>1118.3853067884543</ele>
        <time>2016-05-05T01:18:44.800000Z</time>
      </trkpt>
      <trkpt lat="37.84961350679078" lon="112.01366619242388">
        <ele>1120.032025916784</ele>
        <time>2016-05-05T01:18:55.800000Z</time>
      </trkpt>
      <trkpt lat="37.849646052092055" lon="112.01320011650111">
        <ele>1121.559305792464</ele>
        <time>2016-05-05T01:19:10.800000Z</time>
      </trkpt>
      <trkpt lat="37.849680464617194" lon="112.01284001806773">
        <ele>1122.5652012416017</ele>
        <time>2016-05-05T01:19:20.800000Z</time>
      </trkpt>
      <trkpt lat="37.84967764565116" lon="112.01268916887283">
        <ele>1122.4627768876253</ele>
        <time>2016-05-05T01:19:24.800000Z</time>
      </trkpt>
      <trkpt lat="37.84976659503745" lon="112.01223553104879">
        <ele>1118.6717374940436</ele>
        <time>2016-05-05T01:19:40.800000Z</time>
      </trkpt>
      <trkpt lat="37.84987321583327" lon="112.01186380657941">
        <ele>1119.1919013115887</ele>
        <time>2016-05-05T01:19:54.800000Z</time>
      </trkpt>
      <trkpt lat="37.849891586472175" lon="112.01179757239667">
        <ele>1119.5199544229197</ele>
        <time>2016-05-05T01:19:57.800000Z</time>
      </trkpt>
      <trkpt lat="37.84990829590944" lon="112.01146343807746">
        <ele>1120.8382273644997</ele>
        <time>2016-05-05T01:20:08.800000Z</time>
      </trkpt>
      <trkpt lat="37.849888772403325" lon="112.01099495586837">
        <ele>1122.4614328915402</ele>
        <time>2016-05-05T01:20:22.800000Z</time>
      </trkpt>
      <trkpt lat="37.84988603383247" lon="112.01053999213575">
        <ele>1119.5603973707564</ele>
        <time>2016-05-05T01:20:36.800000Z</time>
      </trkpt>
      <trkpt lat="37.8498688996095" lon="112.01009152169824">
        <ele>1117.529521615617</ele>
        <time>2016-05-05T01:20:48.700000Z</time>
      </trkpt>
      <trkpt lat="37.849850818269" lon="112.00968928031766">
        <ele>1118.2597203431671</ele>
        <time>2016-05-05T01:21:01.900000Z</time>
      </trkpt>
      <trkpt lat="37.849835037426644" lon="112.0094278794688">
        <ele>1120.4762823706997</ele>
        <time>2016-05-05T01:21:09.800000Z</time>
      </trkpt>
      <trkpt lat="37.84976157482567" lon="112.00913026358603">
        <ele>1119.4809406916443</ele>
        <time>2016-05-05T01:21:20.800000Z</time>
      </trkpt>
      <trkpt lat="37.84972542148291" lon="112.00906160629546">
        <ele>1118.9304135480577</ele>
        <time>2016-05-05T01:21:24.800000Z</time>
      </trkpt>
      <trkpt lat="37.84962772494096" lon="112.00888590947837">
        <ele>1117.4319902159145</ele>
        <time>2016-05-05T01:21:32.300000Z</time>
      </trkpt>
      <trkpt lat="37.849483612107264" lon="112.00871778765868">
        <ele>1116.7110943903326</ele>
        <time>2016-05-05T01:21:38.900000Z</time>
      </trkpt>
      <trkpt lat="37.84940051818138" lon="112.00865048803409">
        <ele>1116.437137633397</ele>
        <time>2016-05-05T01:21:43.300000Z</time>
      </trkpt>
      <trkpt lat="37.849214958783925" lon="112.00836910841885">
        <ele>1115.701425480721</ele>
        <time>2016-05-05T01:21:52.800000Z</time>
      </trkpt>
      <trkpt lat="37.84906610914429" lon="112.00806015336119">
        <ele>1114.9962170631334</ele>
        <time>2016-05-05T01:22:03.700000Z</time>
      </trkpt>
      <trkpt lat="37.84900798951203" lon="112.00789688917203">
        <ele>1113.7176589848755</ele>
        <time>2016-05-05T01:22:10.800000Z</time>
      </trkpt>
      <trkpt lat="37.84885308937731" lon="112.00761604984432">
        <ele>1113.2066667097988</ele>
        <time>2016-05-05T01:22:22.200000Z</time>
      </trkpt>
      <trkpt lat="37.84866449694424" lon="112.00735224550066">
        <ele>1112.9584422106072</ele>
        <time>2016-05-05T01:22:32.800000Z</time>
      </trkpt>
      <trkpt lat="37.84846859840662" lon="112.00708222586647">
        <ele>1112.738433973746</ele>
        <time>2016-05-05T01:22:43.800000Z</time>
      </trkpt>
      <trkpt lat="37.84840754722257" lon="112.00699302998898">
        <ele>1112.6474744256113</ele>
        <time>2016-05-05T01:22:47.800000Z</time>
      </trkpt>
      <trkpt lat="37.848279586696826" lon="112.00686870164678">
        <ele>1113.5642361583343</ele>
        <time>2016-05-05T01:22:54.800000Z</time>
      </trkpt>
      <trkpt lat="37.84815958613738" lon="112.00671355707507">
        <ele>1114.174440908629</ele>
        <time>2016-05-05T01:23:01.800000Z</time>
      </trkpt>
      <trkpt lat="37.847792088520585" lon="112.00676117573158">
        <ele>1113.67598244493</ele>
        <time>2016-05-05T01:23:15.800000Z</time>
      </trkpt>
      <trkpt lat="37.847681613195896" lon="112.00677848885198">
        <ele>1113.4823124847067</ele>
        <time>2016-05-05T01:23:19.800000Z</time>
      </trkpt>
      <trkpt lat="37.84739958031732" lon="112.00673446171895">
        <ele>1114.1295527838427</ele>
        <time>2016-05-05T01:23:30.700000Z</time>
      </trkpt>
      <trkpt lat="37.847141446265624" lon="112.00668259273449">
        <ele>1114.6381632844343</ele>
        <time>2016-05-05T01:23:42.300000Z</time>
      </trkpt>
      <trkpt lat="37.8468690688496" lon="112.0066761377569">
        <ele>1114.3597414170672</ele>
        <time>2016-05-05T01:23:52.800000Z</time>
      </trkpt>
      <trkpt lat="37.84679317730854" lon="112.00665073755931">
        <ele>1114.2691655924707</ele>
        <time>2016-05-05T01:23:56.800000Z</time>
      </trkpt>
      <trkpt lat="37.84659970327561" lon="112.00666049183975">
        <ele>1113.9618872735966</ele>
        <time>2016-05-05T01:24:04.800000Z</time>
      </trkpt>
      <trkpt lat="37.846313579240004" lon="112.00662376366076">
        <ele>1113.4869437933817</ele>
        <time>2016-05-05T01:24:15.700000Z</time>
      </trkpt>
      <trkpt lat="37.84621965479019" lon="112.00664080446155">
        <ele>1113.6934910382301</ele>
        <time>2016-05-05T01:24:19.900000Z</time>
      </trkpt>
      <trkpt lat="37.846148375583205" lon="112.00661540372533">
        <ele>1113.986755911384</ele>
        <time>2016-05-05T01:24:23.800000Z</time>
      </trkpt>
      <trkpt lat="37.845860805716974" lon="112.00660868025254">
        <ele>1117.4769281039423</ele>
        <time>2016-05-05T01:24:35.700000Z</time>
      </trkpt>
      <trkpt lat="37.84569726620981" lon="112.00658815612803">
        <ele>1118.9273681622772</ele>
        <time>2016-05-05T01:24:41.800000Z</time>
      </trkpt>
      <trkpt lat="37.845437003255256" lon="112.00643140701881">
        <ele>1120.9336362180202</ele>
        <time>2016-05-05T01:24:53.800000Z</time>
      </trkpt>
      <trkpt lat="37.84524891099546" lon="112.00627410902163">
        <ele>1122.838890362005</ele>
        <time>2016-05-05T01:25:02.800000Z</time>
      </trkpt>
      <trkpt lat="37.84495202279802" lon="112.00620791857557">
        <ele>1122.6153938919197</ele>
        <time>2016-05-05T01:25:14.800000Z</time>
      </trkpt>
      <trkpt lat="37.844775294871035" lon="112.00615198560973">
        <ele>1121.9603566380113</ele>
        <time>2016-05-05T01:25:21.800000Z</time>
      </trkpt>
      <trkpt lat="37.844612727917614" lon="112.00616930479224">
        <ele>1121.9557957508944</ele>
        <time>2016-05-05T01:25:28.800000Z</time>
      </trkpt>
      <trkpt lat="37.84453818269631" lon="112.00614741862839">
        <ele>1122.139739949888</ele>
        <time>2016-05-05T01:25:31.900000Z</time>
      </trkpt>
      <trkpt lat="37.844267608578406" lon="112.00626422459139">
        <ele>1123.9858044611021</ele>
        <time>2016-05-05T01:25:42.800000Z</time>
      </trkpt>
      <trkpt lat="37.84408777903901" lon="112.00633858124341">
        <ele>1124.587840847628</ele>
        <time>2016-05-05T01:25:50.800000Z</time>
      </trkpt>
      <trkpt lat="37.8437982197894" lon="112.00654432196826">
        <ele>1125.4922584307617</ele>
        <time>2016-05-05T01:26:04.800000Z</time>
      </trkpt>
      <trkpt lat="37.84353179893156" lon="112.00672438094132">
        <ele>1127.7746162798035</ele>
        <time>2016-05-05T01:26:18.800000Z</time>
      </trkpt>
      <trkpt lat="37.84327211138679" lon="112.00692119893323">
        <ele>1128.6520036251293</ele>
        <time>2016-05-05T01:26:32.900000Z</time>
      </trkpt>
      <trkpt lat="37.843132616965896" lon="112.00702609679448">
        <ele>1128.900981437536</ele>
        <time>2016-05-05T01:26:40.900000Z</time>
      </trkpt>
      <trkpt lat="37.842855111028705" lon="112.0072848195816">
        <ele>1128.9686083149822</ele>
        <time>2016-05-05T01:26:55.700000Z</time>
      </trkpt>
      <trkpt lat="37.84277385099445" lon="112.00733132324245">
        <ele>1129.2026233080885</ele>
        <time>2016-05-05T01:26:58.800000Z</time>
      </trkpt>
      <trkpt lat="37.84252341998853" lon="112.00751786993955">
        <ele>1128.5581378455552</ele>
        <time>2016-05-05T01:27:11.900000Z</time>
      </trkpt>
      <trkpt lat="37.842437333463764" lon="112.00754518199184">
        <ele>1128.2432027936857</ele>
        <time>2016-05-05T01:27:15.800000Z</time>
      </trkpt>
      <trkpt lat="37.84218142866796" lon="112.00774794888038">
        <ele>1128.3228070704429</ele>
        <time>2016-05-05T01:27:27.700000Z</time>
      </trkpt>
      <trkpt lat="37.84212131031307" lon="112.00780147855654">
        <ele>1128.5951752712488</ele>
        <time>2016-05-05T01:27:30.800000Z</time>
      </trkpt>
      <trkpt lat="37.84183754528526" lon="112.00797586633173">
        <ele>1129.1094915486055</ele>
        <time>2016-05-05T01:27:45.400000Z</time>
      </trkpt>
      <trkpt lat="37.84173098494181" lon="112.00804562074615">
        <ele>1129.567857903279</ele>
        <time>2016-05-05T01:27:48.800000Z</time>
      </trkpt>
      <trkpt lat="37.84167117424408" lon="112.00799534897638">
        <ele>1129.9650074750432</ele>
        <time>2016-05-05T01:27:52.800000Z</time>
      </trkpt>
      <trkpt lat="37.84158378101625" lon="112.00800590175301">
        <ele>1130.5520316423456</ele>
        <time>2016-05-05T01:27:55.800000Z</time>
      </trkpt>
      <trkpt lat="37.8414235948431" lon="112.00813567298897">
        <ele>1131.6761286810902</ele>
        <time>2016-05-05T01:28:02.100000Z</time>
      </trkpt>
      <trkpt lat="37.84120059206054" lon="112.0082224714799">
        <ele>1132.396088356068</ele>
        <time>2016-05-05T01:28:08.800000Z</time>
      </trkpt>
      <trkpt lat="37.840897567095325" lon="112.00821277620965">
        <ele>1135.3666341928313</ele>
        <time>2016-05-05T01:28:21.800000Z</time>
      </trkpt>
      <trkpt lat="37.840796032996806" lon="112.00823441373218">
        <ele>1136.5598572069043</ele>
        <time>2016-05-05T01:28:25.800000Z</time>
      </trkpt>
      <trkpt lat="37.8407181941152" lon="112.00822523222247">
        <ele>1137.5010806594344</ele>
        <time>2016-05-05T01:28:29.800000Z</time>
      </trkpt>
      <trkpt lat="37.84043558072673" lon="112.00810254188119">
        <ele>1137.5410529156122</ele>
        <time>2016-05-05T01:28:42.800000Z</time>
      </trkpt>
      <trkpt lat="37.840210173085254" lon="112.00808526848802">
        <ele>1137.6133835509388</ele>
        <time>2016-05-05T01:28:52.900000Z</time>
      </trkpt>
      <trkpt lat="37.84014150447181" lon="112.00800283005086">
        <ele>1137.5734482425676</ele>
        <time>2016-05-05T01:28:56.800000Z</time>
      </trkpt>
      <trkpt lat="37.84004060267528" lon="112.00799419195819">
        <ele>1137.7732242264167</ele>
        <time>2016-05-05T01:29:00.800000Z</time>
      </trkpt>
      <trkpt lat="37.8399441858369" lon="112.00802853368182">
        <ele>1138.0652907382782</ele>
        <time>2016-05-05T01:29:04.800000Z</time>
      </trkpt>
      <trkpt lat="37.83966602319921" lon="112.00805208443474">
        <ele>1137.5297274749832</ele>
        <time>2016-05-05T01:29:18.800000Z</time>
      </trkpt>
      <trkpt lat="37.83958360575144" lon="112.0080315501904">
        <ele>1137.3643852654661</ele>
        <time>2016-05-05T01:29:22.800000Z</time>
      </trkpt>
      <trkpt lat="37.839476896784426" lon="112.00805994619071">
        <ele>1137.608033810207</ele>
        <time>2016-05-05T01:29:26.800000Z</time>
      </trkpt>
      <trkpt lat="37.839373059454864" lon="112.00803481911373">
        <ele>1137.8753144014465</ele>
        <time>2016-05-05T01:29:30.800000Z</time>
      </trkpt>
      <trkpt lat="37.8392967172238" lon="112.0080699694156">
        <ele>1138.2538317911888</ele>
        <time>2016-05-05T01:29:34.800000Z</time>
      </trkpt>
      <trkpt lat="37.83963158762102" lon="112.00804506030552">
        <ele>1138.7632056261466</ele>
        <time>2016-05-05T01:29:53.800000Z</time>
      </trkpt>
      <trkpt lat="37.83992036498536" lon="112.00801015498706">
        <ele>1137.6585708377102</ele>
        <time>2016-05-05T01:30:03.800000Z</time>
      </trkpt>
      <trkpt lat="37.84002625926904" lon="112.00798202942312">
        <ele>1137.8354735708808</ele>
        <time>2016-05-05T01:30:07.800000Z</time>
      </trkpt>
      <trkpt lat="37.840308103409775" lon="112.00799794447278">
        <ele>1137.4123579802792</ele>
        <time>2016-05-05T01:30:17.800000Z</time>
      </trkpt>
      <trkpt lat="37.84055721661946" lon="112.00807252217969">
        <ele>1138.7130254360995</ele>
        <time>2016-05-05T01:30:27.700000Z</time>
      </trkpt>
      <trkpt lat="37.8407782969521" lon="112.00808520069629">
        <ele>1140.3802111968594</ele>
        <time>2016-05-05T01:30:35.800000Z</time>
      </trkpt>
      <trkpt lat="37.840882516973345" lon="112.00807275367978">
        <ele>1141.2600828895556</ele>
        <time>2016-05-05T01:30:39.800000Z</time>
      </trkpt>
      <trkpt lat="37.84116365458357" lon="112.00814408384188">
        <ele>1141.673056559948</ele>
        <time>2016-05-05T01:30:50.700000Z</time>
      </trkpt>
      <trkpt lat="37.84144343652753" lon="112.00812350634864">
        <ele>1142.1246664300766</ele>
        <time>2016-05-05T01:31:00.800000Z</time>
      </trkpt>
      <trkpt lat="37.84163755083296" lon="112.00808050277368">
        <ele>1142.2807312971322</ele>
        <time>2016-05-05T01:31:07.800000Z</time>
      </trkpt>
      <trkpt lat="37.84188601077972" lon="112.00791774252424">
        <ele>1141.2165404045452</ele>
        <time>2016-05-05T01:31:18.800000Z</time>
      </trkpt>
      <trkpt lat="37.84199632552004" lon="112.00786285518168">
        <ele>1140.2592490508491</ele>
        <time>2016-05-05T01:31:22.800000Z</time>
      </trkpt>
      <trkpt lat="37.84216420347941" lon="112.00770118636046">
        <ele>1138.9969669537952</ele>
        <time>2016-05-05T01:31:30.700000Z</time>
      </trkpt>
      <trkpt lat="37.84232909753763" lon="112.00763088472873">
        <ele>1137.9444092961435</ele>
        <time>2016-05-05T01:31:37.800000Z</time>
      </trkpt>
      <trkpt lat="37.842405650458076" lon="112.00761627858253">
        <ele>1137.5899979415249</ele>
        <time>2016-05-05T01:31:40.800000Z</time>
      </trkpt>
      <trkpt lat="37.842674780000706" lon="112.00743702786195">
        <ele>1136.678457013216</ele>
        <time>2016-05-05T01:31:52Z</time>
      </trkpt>
      <trkpt lat="37.84278953882714" lon="112.00743890637057">
        <ele>1136.0942701790307</ele>
        <time>2016-05-05T01:31:55.800000Z</time>
      </trkpt>
      <trkpt lat="37.84293309274922" lon="112.0073372511497">
        <ele>1135.1930105607908</ele>
        <time>2016-05-05T01:32:02.700000Z</time>
      </trkpt>
      <trkpt lat="37.8430085990497" lon="112.0073096701322">
        <ele>1135.441578397433</ele>
        <time>2016-05-05T01:32:05.800000Z</time>
      </trkpt>
      <trkpt lat="37.84310619237245" lon="112.00724478321764">
        <ele>1135.6914234384801</ele>
        <time>2016-05-05T01:32:09.700000Z</time>
      </trkpt>
      <trkpt lat="37.84331172874003" lon="112.00701039729775">
        <ele>1134.7830316400334</ele>
        <time>2016-05-05T01:32:19.800000Z</time>
      </trkpt>
      <trkpt lat="37.8433777955645" lon="112.00696389567067">
        <ele>1134.5690528880116</ele>
        <time>2016-05-05T01:32:22.900000Z</time>
      </trkpt>
      <trkpt lat="37.843596331425395" lon="112.00664652358901">
        <ele>1133.293413673969</ele>
        <time>2016-05-05T01:32:33.900000Z</time>
      </trkpt>
      <trkpt lat="37.84367520159458" lon="112.00658272077891">
        <ele>1132.7697945100765</ele>
        <time>2016-05-05T01:32:37.800000Z</time>
      </trkpt>
      <trkpt lat="37.84378930210396" lon="112.00644133470648">
        <ele>1131.5607034124062</ele>
        <time>2016-05-05T01:32:44Z</time>
      </trkpt>
      <trkpt lat="37.844021586414286" lon="112.00633615634767">
        <ele>1130.7681347483708</ele>
        <time>2016-05-05T01:32:53.800000Z</time>
      </trkpt>
      <trkpt lat="37.844076319815635" lon="112.00626911297847">
        <ele>1130.8260734076357</ele>
        <time>2016-05-05T01:32:56.800000Z</time>
      </trkpt>
      <trkpt lat="37.844388019134634" lon="112.00609959181128">
        <ele>1131.7115817846993</ele>
        <time>2016-05-05T01:33:08.800000Z</time>
      </trkpt>
      <trkpt lat="37.84450688967042" lon="112.00608741372815">
        <ele>1132.12584532243</ele>
        <time>2016-05-05T01:33:12.800000Z</time>
      </trkpt>
      <trkpt lat="37.84478282142253" lon="112.00617550162306">
        <ele>1132.8438931346052</ele>
        <time>2016-05-05T01:33:23Z</time>
      </trkpt>
      <trkpt lat="37.844896682584746" lon="112.00620549238997">
        <ele>1132.807482656044</ele>
        <time>2016-05-05T01:33:26.800000Z</time>
      </trkpt>
      <trkpt lat="37.84519520831046" lon="112.00626843892229">
        <ele>1132.6376867443464</ele>
        <time>2016-05-05T01:33:38.800000Z</time>
      </trkpt>
      <trkpt lat="37.84554462379321" lon="112.00637057438875">
        <ele>1132.0014749715288</ele>
        <time>2016-05-05T01:33:50.800000Z</time>
      </trkpt>
      <trkpt lat="37.84585373880116" lon="112.00652191132411">
        <ele>1131.7637669066187</ele>
        <time>2016-05-05T01:34:05.700000Z</time>
      </trkpt>
      <trkpt lat="37.84622804451142" lon="112.00664783154969">
        <ele>1130.6853422057977</ele>
        <time>2016-05-05T01:34:19.800000Z</time>
      </trkpt>
      <trkpt lat="37.846539401306806" lon="112.00668428641994">
        <ele>1129.9934663311328</ele>
        <time>2016-05-05T01:34:30.800000Z</time>
      </trkpt>
      <trkpt lat="37.84680202352745" lon="112.00668668789332">
        <ele>1129.125433297409</ele>
        <time>2016-05-05T01:34:40.800000Z</time>
      </trkpt>
      <trkpt lat="37.84715373343915" lon="112.0067474659978">
        <ele>1127.5976038103215</ele>
        <time>2016-05-05T01:34:54.900000Z</time>
      </trkpt>
      <trkpt lat="37.84746016501107" lon="112.0067979777092">
        <ele>1126.293126598121</ele>
        <time>2016-05-05T01:35:05.700000Z</time>
      </trkpt>
      <trkpt lat="37.84775249892423" lon="112.00684497708272">
        <ele>1125.9014168636684</ele>
        <time>2016-05-05T01:35:15.800000Z</time>
      </trkpt>
      <trkpt lat="37.84804985648408" lon="112.00684494160697">
        <ele>1124.9930863948646</ele>
        <time>2016-05-05T01:35:27.800000Z</time>
      </trkpt>
      <trkpt lat="37.848119561060564" lon="112.00685250202345">
        <ele>1124.6287478728168</ele>
        <time>2016-05-05T01:35:30.800000Z</time>
      </trkpt>
      <trkpt lat="37.84827554867136" lon="112.00694925513703">
        <ele>1123.7767500536681</ele>
        <time>2016-05-05T01:35:37.800000Z</time>
      </trkpt>
      <trkpt lat="37.84841263585915" lon="112.00710656069906">
        <ele>1122.7558055498919</ele>
        <time>2016-05-05T01:35:44.800000Z</time>
      </trkpt>
      <trkpt lat="37.848595488219935" lon="112.00738442109302">
        <ele>1121.708202235214</ele>
        <time>2016-05-05T01:35:55.800000Z</time>
      </trkpt>
      <trkpt lat="37.84878589733182" lon="112.00767606780589">
        <ele>1121.2294088065921</ele>
        <time>2016-05-05T01:36:06.700000Z</time>
      </trkpt>
      <trkpt lat="37.84899232127795" lon="112.00796555136631">
        <ele>1120.6724247181648</ele>
        <time>2016-05-05T01:36:18.800000Z</time>
      </trkpt>
      <trkpt lat="37.84907237573699" lon="112.0080512321601">
        <ele>1120.448630970203</ele>
        <time>2016-05-05T01:36:21.800000Z</time>
      </trkpt>
      <trkpt lat="37.84912578570521" lon="112.00815583844845">
        <ele>1120.3944246794085</ele>
        <time>2016-05-05T01:36:25.800000Z</time>
      </trkpt>
      <trkpt lat="37.84920718012901" lon="112.00824719600517">
        <ele>1120.2346462350283</ele>
        <time>2016-05-05T01:36:29.700000Z</time>
      </trkpt>
      <trkpt lat="37.84936109948949" lon="112.0084934374178">
        <ele>1120.017950565616</ele>
        <time>2016-05-05T01:36:39.800000Z</time>
      </trkpt>
      <trkpt lat="37.84959238495509" lon="112.00881752268756">
        <ele>1119.1033101216321</ele>
        <time>2016-05-05T01:36:52.800000Z</time>
      </trkpt>
      <trkpt lat="37.84979232589336" lon="112.00919081194817">
        <ele>1117.5588683997555</ele>
        <time>2016-05-05T01:37:06.800000Z</time>
      </trkpt>
      <trkpt lat="37.84983766174675" lon="112.00927379535955">
        <ele>1116.9278566101232</ele>
        <time>2016-05-05T01:37:09.800000Z</time>
      </trkpt>
      <trkpt lat="37.84994981118365" lon="112.0096092526404">
        <ele>1114.8039757151182</ele>
        <time>2016-05-05T01:37:20.800000Z</time>
      </trkpt>
      <trkpt lat="37.849973609723584" lon="112.00972765167242">
        <ele>1114.4785568816621</ele>
        <time>2016-05-05T01:37:24.800000Z</time>
      </trkpt>
      <trkpt lat="37.8499751012925" lon="112.00986632797135">
        <ele>1113.4979463301493</ele>
        <time>2016-05-05T01:37:28.800000Z</time>
      </trkpt>
      <trkpt lat="37.850001876738325" lon="112.00998743043061">
        <ele>1112.7489002781995</ele>
        <time>2016-05-05T01:37:31.900000Z</time>
      </trkpt>
      <trkpt lat="37.84998458646316" lon="112.01023964667164">
        <ele>1111.6157302233225</ele>
        <time>2016-05-05T01:37:39.800000Z</time>
      </trkpt>
      <trkpt lat="37.84999506400136" lon="112.01036751005888">
        <ele>1111.7989779865134</ele>
        <time>2016-05-05T01:37:43.800000Z</time>
      </trkpt>
      <trkpt lat="37.849989445328646" lon="112.01071109772217">
        <ele>1113.607711411428</ele>
        <time>2016-05-05T01:37:54.800000Z</time>
      </trkpt>
      <trkpt lat="37.84997043612698" lon="112.0110882101575">
        <ele>1115.6504369077365</ele>
        <time>2016-05-05T01:38:06.800000Z</time>
      </trkpt>
      <trkpt lat="37.849952941671" lon="112.01122581080942">
        <ele>1116.3772643015125</ele>
        <time>2016-05-05T01:38:10.800000Z</time>
      </trkpt>
      <trkpt lat="37.84995287089469" lon="112.01152912364292">
        <ele>1117.5650378612943</ele>
        <time>2016-05-05T01:38:20.800000Z</time>
      </trkpt>
      <trkpt lat="37.84992881434045" lon="112.01187082863787">
        <ele>1118.4580701089508</ele>
        <time>2016-05-05T01:38:30.800000Z</time>
      </trkpt>
      <trkpt lat="37.84988457885161" lon="112.01224822277162">
        <ele>1119.238425682087</ele>
        <time>2016-05-05T01:38:41.800000Z</time>
      </trkpt>
      <trkpt lat="37.84987796394257" lon="112.01265805591227">
        <ele>1120.9143885086737</ele>
        <time>2016-05-05T01:38:53.800000Z</time>
      </trkpt>
      <trkpt lat="37.849885698536255" lon="112.0127978204876">
        <ele>1121.6359066681084</ele>
        <time>2016-05-05T01:38:57.800000Z</time>
      </trkpt>
      <trkpt lat="37.84982802774064" lon="112.01303816009757">
        <ele>1121.9767836319354</ele>
        <time>2016-05-05T01:39:05.100000Z</time>
      </trkpt>
      <trkpt lat="37.8497261790411" lon="112.0133569055814">
        <ele>1121.7526298554951</ele>
        <time>2016-05-05T01:39:15.800000Z</time>
      </trkpt>
      <trkpt lat="37.84971424530233" lon="112.01363779418314">
        <ele>1121.0450064238091</ele>
        <time>2016-05-05T01:39:25.800000Z</time>
      </trkpt>
      <trkpt lat="37.849683296599515" lon="112.01373863651837">
        <ele>1120.7505606252082</ele>
        <time>2016-05-05T01:39:28.800000Z</time>
      </trkpt>
      <trkpt lat="37.84964924096257" lon="112.0141652471917">
        <ele>1119.9489140580506</ele>
        <time>2016-05-05T01:39:41.900000Z</time>
      </trkpt>
      <trkpt lat="37.849640942143395" lon="112.01459915819422">
        <ele>1120.1128213452262</ele>
        <time>2016-05-05T01:39:55.800000Z</time>
      </trkpt>
      <trkpt lat="37.84963963879234" lon="112.01486491338919">
        <ele>1119.3590740903026</ele>
        <time>2016-05-05T01:40:02.700000Z</time>
      </trkpt>
      <trkpt lat="37.849573417949024" lon="112.01525206679572">
        <ele>1117.0136527752486</ele>
        <time>2016-05-05T01:40:16.900000Z</time>
      </trkpt>
      <trkpt lat="37.84950255593212" lon="112.0156503087981">
        <ele>1116.0563856599051</ele>
        <time>2016-05-05T01:40:27.800000Z</time>
      </trkpt>
      <trkpt lat="37.849467665031135" lon="112.01599393765491">
        <ele>1114.9998081839312</ele>
        <time>2016-05-05T01:40:38.800000Z</time>
      </trkpt>
      <trkpt lat="37.8494397997753" lon="112.01634838288999">
        <ele>1114.1966511114313</ele>
        <time>2016-05-05T01:40:48.800000Z</time>
      </trkpt>
      <trkpt lat="37.84943642379258" lon="112.01677447455069">
        <ele>1115.5487800896353</ele>
        <time>2016-05-05T01:41:03.800000Z</time>
      </trkpt>
      <trkpt lat="37.84943871320955" lon="112.01692452649358">
        <ele>1116.1873669921747</ele>
        <time>2016-05-05T01:41:07.700000Z</time>
      </trkpt>
      <trkpt lat="37.84937144851041" lon="112.01730223599652">
        <ele>1117.6054837178767</ele>
        <time>2016-05-05T01:41:20.800000Z</time>
      </trkpt>
      <trkpt lat="37.84931811610883" lon="112.01764696225055">
        <ele>1118.186768889309</ele>
        <time>2016-05-05T01:41:31.800000Z</time>
      </trkpt>
      <trkpt lat="37.84927509842594" lon="112.01808767244408">
        <ele>1118.1922671977716</ele>
        <time>2016-05-05T01:41:48.800000Z</time>
      </trkpt>
      <trkpt lat="37.84926881699993" lon="112.01829640147967">
        <ele>1117.6943505761203</ele>
        <time>2016-05-05T01:41:52.800000Z</time>
      </trkpt>
      <trkpt lat="37.84923259632594" lon="112.01805415133703">
        <ele>1117.1055993659975</ele>
        <time>2016-05-05T01:42:04.800000Z</time>
      </trkpt>
      <trkpt lat="37.84923436835349" lon="112.01771240180346">
        <ele>1116.07974974463</ele>
        <time>2016-05-05T01:42:15.800000Z</time>
      </trkpt>
      <trkpt lat="37.849307791844254" lon="112.0173625355899">
        <ele>1113.6902603252154</ele>
        <time>2016-05-05T01:42:27.800000Z</time>
      </trkpt>
      <trkpt lat="37.84933308283907" lon="112.01724519312008">
        <ele>1112.6489688813867</ele>
        <time>2016-05-05T01:42:32.400000Z</time>
      </trkpt>
      <trkpt lat="37.8493589442188" lon="112.01702186751109">
        <ele>1111.5700356255454</ele>
        <time>2016-05-05T01:42:38.800000Z</time>
      </trkpt>
      <trkpt lat="37.84935995058181" lon="112.01656954841098">
        <ele>1109.5815124735955</ele>
        <time>2016-05-05T01:42:50.700000Z</time>
      </trkpt>
      <trkpt lat="37.84937814528987" lon="112.01618049637187">
        <ele>1109.6981637714273</ele>
        <time>2016-05-05T01:43:02Z</time>
      </trkpt>
      <trkpt lat="37.84943388149547" lon="112.0157571080306">
        <ele>1109.7995743264412</ele>
        <time>2016-05-05T01:43:16.800000Z</time>
      </trkpt>
      <trkpt lat="37.84948520211683" lon="112.01536103022502">
        <ele>1107.9221282358044</ele>
        <time>2016-05-05T01:43:32Z</time>
      </trkpt>
      <trkpt lat="37.84952444565904" lon="112.01501470233201">
        <ele>1106.8133294753682</ele>
        <time>2016-05-05T01:43:42.800000Z</time>
      </trkpt>
      <trkpt lat="37.84956194086704" lon="112.01480598603385">
        <ele>1106.3868104419566</ele>
        <time>2016-05-05T01:43:49.800000Z</time>
      </trkpt>
      <trkpt lat="37.84958439125732" lon="112.01445101329134">
        <ele>1105.9321651326445</ele>
        <time>2016-05-05T01:44:02.800000Z</time>
      </trkpt>
      <trkpt lat="37.84963531525891" lon="112.01410171720829">
        <ele>1106.186505611975</ele>
        <time>2016-05-05T01:44:14.800000Z</time>
      </trkpt>
      <trkpt lat="37.84963473068516" lon="112.01383326322704">
        <ele>1106.0902657826457</ele>
        <time>2016-05-05T01:44:22.800000Z</time>
      </trkpt>
      <trkpt lat="37.849692587710365" lon="112.01343314637799">
        <ele>1106.4262614233014</ele>
        <time>2016-05-05T01:44:36.800000Z</time>
      </trkpt>
      <trkpt lat="37.84976181511563" lon="112.01304249347639">
        <ele>1105.8089577419057</ele>
        <time>2016-05-05T01:44:50.800000Z</time>
      </trkpt>
      <trkpt lat="37.84983822317954" lon="112.01270266663276">
        <ele>1105.2219682518246</ele>
        <time>2016-05-05T01:45:00.800000Z</time>
      </trkpt>
      <trkpt lat="37.84984488001228" lon="112.01237177161316">
        <ele>1105.0875827713903</ele>
        <time>2016-05-05T01:45:12.100000Z</time>
      </trkpt>
      <trkpt lat="37.849817365299366" lon="112.01213009374092">
        <ele>1105.729221375636</ele>
        <time>2016-05-05T01:45:22.800000Z</time>
      </trkpt>
      <trkpt lat="37.84986957867252" lon="112.01190165390199">
        <ele>1105.416232714701</ele>
        <time>2016-05-05T01:45:34.800000Z</time>
      </trkpt>
      <trkpt lat="37.84989451675623" lon="112.01153669994503">
        <ele>1105.2051428604727</ele>
        <time>2016-05-05T01:45:45.800000Z</time>
      </trkpt>
      <trkpt lat="37.849894345298914" lon="112.01131637894672">
        <ele>1105.1279862101926</ele>
        <time>2016-05-05T01:45:52.800000Z</time>
      </trkpt>
      <trkpt lat="37.84991152431186" lon="112.01110092274834">
        <ele>1104.8110902390242</ele>
        <time>2016-05-05T01:45:58.800000Z</time>
      </trkpt>
      <trkpt lat="37.84993732776865" lon="112.01099819402948">
        <ele>1105.6522166911832</ele>
        <time>2016-05-05T01:46:05.700000Z</time>
      </trkpt>
      <trkpt lat="37.84992327526601" lon="112.01070083313131">
        <ele>1106.2054759362718</ele>
        <time>2016-05-05T01:46:15.800000Z</time>
      </trkpt>
      <trkpt lat="37.84999306945386" lon="112.01030749768172">
        <ele>1103.657599738818</ele>
        <time>2016-05-05T01:46:31.800000Z</time>
      </trkpt>
      <trkpt lat="37.850049334781396" lon="112.01008717492695">
        <ele>1103.1950499946486</ele>
        <time>2016-05-05T01:46:38.700000Z</time>
      </trkpt>
      <trkpt lat="37.85003032086875" lon="112.00963303150867">
        <ele>1103.1633792096006</ele>
        <time>2016-05-05T01:46:51.800000Z</time>
      </trkpt>
      <trkpt lat="37.84997848585978" lon="112.00945354300706">
        <ele>1103.1404195809905</ele>
        <time>2016-05-05T01:46:55.800000Z</time>
      </trkpt>
      <trkpt lat="37.84990160775097" lon="112.00930217154922">
        <ele>1103.5775241495064</ele>
        <time>2016-05-05T01:46:59.800000Z</time>
      </trkpt>
      <trkpt lat="37.84969414065295" lon="112.00899673299297">
        <ele>1103.7432774482875</ele>
        <time>2016-05-05T01:47:09.700000Z</time>
      </trkpt>
      <trkpt lat="37.849588604145445" lon="112.00881157609824">
        <ele>1103.2585534704554</ele>
        <time>2016-05-05T01:47:16.900000Z</time>
      </trkpt>
      <trkpt lat="37.8494355349867" lon="112.00864453682848">
        <ele>1103.64734785994</ele>
        <time>2016-05-05T01:47:24.700000Z</time>
      </trkpt>
      <trkpt lat="37.84928295708256" lon="112.00831152257344">
        <ele>1103.7378009266142</ele>
        <time>2016-05-05T01:47:35.700000Z</time>
      </trkpt>
      <trkpt lat="37.84912300869331" lon="112.00799418930947">
        <ele>1103.5041442510474</ele>
        <time>2016-05-05T01:47:47.700000Z</time>
      </trkpt>
      <trkpt lat="37.84904288247912" lon="112.00784119991611">
        <ele>1104.6529906133958</ele>
        <time>2016-05-05T01:47:54.800000Z</time>
      </trkpt>
      <trkpt lat="37.848970319967925" lon="112.00779092984631">
        <ele>1104.8278554948774</ele>
        <time>2016-05-05T01:47:57.800000Z</time>
      </trkpt>
      <trkpt lat="37.848861226325376" lon="112.00761685981801">
        <ele>1106.1039782278044</ele>
        <time>2016-05-05T01:48:05.700000Z</time>
      </trkpt>
      <trkpt lat="37.84859445756313" lon="112.00736603986702">
        <ele>1109.1473304176918</ele>
        <time>2016-05-05T01:48:16.800000Z</time>
      </trkpt>
      <trkpt lat="37.84839663087807" lon="112.0071057516701">
        <ele>1112.6846316935294</ele>
        <time>2016-05-05T01:48:27.700000Z</time>
      </trkpt>
      <trkpt lat="37.84831035135605" lon="112.00692411194854">
        <ele>1113.8032246489659</ele>
        <time>2016-05-05T01:48:34.800000Z</time>
      </trkpt>
      <trkpt lat="37.84824924161351" lon="112.00685464904704">
        <ele>1113.6957309087288</ele>
        <time>2016-05-05T01:48:37.800000Z</time>
      </trkpt>
      <trkpt lat="37.84812032653511" lon="112.00677762557862">
        <ele>1113.9135771315425</ele>
        <time>2016-05-05T01:48:44.800000Z</time>
      </trkpt>
      <trkpt lat="37.847993472572874" lon="112.0067373642953">
        <ele>1114.1771567395153</ele>
        <time>2016-05-05T01:48:50.800000Z</time>
      </trkpt>
      <trkpt lat="37.84790383179751" lon="112.00668250178688">
        <ele>1114.2130160525685</ele>
        <time>2016-05-05T01:48:54.700000Z</time>
      </trkpt>
      <trkpt lat="37.84763289291528" lon="112.00664847490046">
        <ele>1114.910065015967</ele>
        <time>2016-05-05T01:49:05.800000Z</time>
      </trkpt>
      <trkpt lat="37.847359998555255" lon="112.00663337003378">
        <ele>1114.8424128620418</ele>
        <time>2016-05-05T01:49:16.900000Z</time>
      </trkpt>
      <trkpt lat="37.84716740037518" lon="112.00662231025629">
        <ele>1114.1458401595848</ele>
        <time>2016-05-05T01:49:24.800000Z</time>
      </trkpt>
      <trkpt lat="37.84688574764859" lon="112.00663288598457">
        <ele>1114.3858380169718</ele>
        <time>2016-05-05T01:49:35.700000Z</time>
      </trkpt>
      <trkpt lat="37.846524901827905" lon="112.00663346965085">
        <ele>1115.8941647207023</ele>
        <time>2016-05-05T01:49:49.800000Z</time>
      </trkpt>
      <trkpt lat="37.84625061004633" lon="112.00663215081447">
        <ele>1117.6484679335372</ele>
        <time>2016-05-05T01:50:00.700000Z</time>
      </trkpt>
      <trkpt lat="37.846176863274195" lon="112.00661540032723">
        <ele>1118.3771238051013</ele>
        <time>2016-05-05T01:50:03.700000Z</time>
      </trkpt>
      <trkpt lat="37.8458792027364" lon="112.0064440588625">
        <ele>1121.0801356358622</ele>
        <time>2016-05-05T01:50:18.700000Z</time>
      </trkpt>
      <trkpt lat="37.84560682981911" lon="112.00634515782644">
        <ele>1123.1038169002488</ele>
        <time>2016-05-05T01:50:29.700000Z</time>
      </trkpt>
      <trkpt lat="37.845274398124886" lon="112.00627951217668">
        <ele>1123.0430235996128</ele>
        <time>2016-05-05T01:50:42.800000Z</time>
      </trkpt>
      <trkpt lat="37.844933636205745" lon="112.00609601272838">
        <ele>1122.1496101031892</ele>
        <time>2016-05-05T01:50:57.700000Z</time>
      </trkpt>
      <trkpt lat="37.84467418428163" lon="112.00603143982832">
        <ele>1122.9838362094988</ele>
        <time>2016-05-05T01:51:07.800000Z</time>
      </trkpt>
      <trkpt lat="37.844534191623026" lon="112.00593928126598">
        <ele>1123.7566190465284</ele>
        <time>2016-05-05T01:51:14.700000Z</time>
      </trkpt>
      <trkpt lat="37.84446447759548" lon="112.00593496464288">
        <ele>1123.958538762036</ele>
        <time>2016-05-05T01:51:18.800000Z</time>
      </trkpt>
      <trkpt lat="37.84438337415748" lon="112.00592875721878">
        <ele>1123.5798620991445</ele>
        <time>2016-05-05T01:51:22.800000Z</time>
      </trkpt>
      <trkpt lat="37.84425849441656" lon="112.00595445141815">
        <ele>1123.3084985215073</ele>
        <time>2016-05-05T01:51:26.700000Z</time>
      </trkpt>
      <trkpt lat="37.84420831882796" lon="112.00594878092157">
        <ele>1122.8816893645665</ele>
        <time>2016-05-05T01:51:29.700000Z</time>
      </trkpt>
      <trkpt lat="37.84412491740896" lon="112.00598528252831">
        <ele>1122.696085095653</ele>
        <time>2016-05-05T01:51:33.700000Z</time>
      </trkpt>
      <trkpt lat="37.84398612688792" lon="112.0061266706504">
        <ele>1123.0238083115787</ele>
        <time>2016-05-05T01:51:37.800000Z</time>
      </trkpt>
      <trkpt lat="37.84390510202916" lon="112.00618506712182">
        <ele>1123.1890210812887</ele>
        <time>2016-05-05T01:51:41.700000Z</time>
      </trkpt>
      <trkpt lat="37.843627705361705" lon="112.00649730824784">
        <ele>1122.4303565624518</ele>
        <time>2016-05-05T01:51:52.900000Z</time>
      </trkpt>
      <trkpt lat="37.84342234959576" lon="112.00676169698654">
        <ele>1121.9268428169833</ele>
        <time>2016-05-05T01:52:02.900000Z</time>
      </trkpt>
      <trkpt lat="37.843180260367525" lon="112.00697094735618">
        <ele>1122.5347129769284</ele>
        <time>2016-05-05T01:52:13.800000Z</time>
      </trkpt>
      <trkpt lat="37.843107040600025" lon="112.00705069829954">
        <ele>1122.7908684889155</ele>
        <time>2016-05-05T01:52:17.700000Z</time>
      </trkpt>
      <trkpt lat="37.84279761341053" lon="112.0071867026515">
        <ele>1124.9875894349761</ele>
        <time>2016-05-05T01:52:31.900000Z</time>
      </trkpt>
      <trkpt lat="37.84254775602038" lon="112.00736270663019">
        <ele>1126.6680252970718</ele>
        <time>2016-05-05T01:52:42.700000Z</time>
      </trkpt>
      <trkpt lat="37.84234102378704" lon="112.00754330127941">
        <ele>1126.3862004916912</ele>
        <time>2016-05-05T01:52:53.700000Z</time>
      </trkpt>
      <trkpt lat="37.84217798099391" lon="112.00772118805679">
        <ele>1127.5667804281848</ele>
        <time>2016-05-05T01:53:01.800000Z</time>
      </trkpt>
      <trkpt lat="37.84208743976322" lon="112.00778688554735">
        <ele>1128.1089012485495</ele>
        <time>2016-05-05T01:53:05.800000Z</time>
      </trkpt>
      <trkpt lat="37.84203896856211" lon="112.00784690144907">
        <ele>1128.5654047052044</ele>
        <time>2016-05-05T01:53:08.700000Z</time>
      </trkpt>
      <trkpt lat="37.84195957520601" lon="112.00790448825035">
        <ele>1128.7907114722605</ele>
        <time>2016-05-05T01:53:12.800000Z</time>
      </trkpt>
      <trkpt lat="37.8417971192076" lon="112.00797614147217">
        <ele>1129.446291904555</ele>
        <time>2016-05-05T01:53:19.800000Z</time>
      </trkpt>
      <trkpt lat="37.841642439226106" lon="112.00807888028862">
        <ele>1130.3709576435394</ele>
        <time>2016-05-05T01:53:26.800000Z</time>
      </trkpt>
      <trkpt lat="37.84146346628409" lon="112.00813945267183">
        <ele>1131.627800380688</ele>
        <time>2016-05-05T01:53:34.800000Z</time>
      </trkpt>
      <trkpt lat="37.841375135118064" lon="112.00819190477317">
        <ele>1131.4145265247614</ele>
        <time>2016-05-05T01:53:38.700000Z</time>
      </trkpt>
      <trkpt lat="37.841093498037516" lon="112.00819761504867">
        <ele>1131.9295399589544</ele>
        <time>2016-05-05T01:53:49.800000Z</time>
      </trkpt>
      <trkpt lat="37.84094007876927" lon="112.00814951686645">
        <ele>1133.0051428434344</ele>
        <time>2016-05-05T01:53:56.700000Z</time>
      </trkpt>
      <trkpt lat="37.840688300313246" lon="112.00815035786307">
        <ele>1133.0958888076175</ele>
        <time>2016-05-05T01:54:06.700000Z</time>
      </trkpt>
      <trkpt lat="37.84045869573865" lon="112.00808442788212">
        <ele>1132.4508509473194</ele>
        <time>2016-05-05T01:54:16.800000Z</time>
      </trkpt>
      <trkpt lat="37.840261510913656" lon="112.00797335122384">
        <ele>1133.1609409304776</ele>
        <time>2016-05-05T01:54:24.700000Z</time>
      </trkpt>
      <trkpt lat="37.840184963768664" lon="112.00798606523529">
        <ele>1133.8300200253277</ele>
        <time>2016-05-05T01:54:27.800000Z</time>
      </trkpt>
      <trkpt lat="37.84002715809591" lon="112.00795337576656">
        <ele>1135.0350688925885</ele>
        <time>2016-05-05T01:54:34.800000Z</time>
      </trkpt>
      <trkpt lat="37.83974491695886" lon="112.00797990045967">
        <ele>1136.1638044889728</ele>
        <time>2016-05-05T01:54:48.800000Z</time>
      </trkpt>
      <trkpt lat="37.839668786742685" lon="112.0080350541449">
        <ele>1136.6819027156298</ele>
        <time>2016-05-05T01:54:51.800000Z</time>
      </trkpt>
      <trkpt lat="37.839365041747634" lon="112.00808536933076">
        <ele>1138.3675457488014</ele>
        <time>2016-05-05T01:55:07.800000Z</time>
      </trkpt>
      <trkpt lat="37.83930795695518" lon="112.00812240958291">
        <ele>1138.3588276238597</ele>
        <time>2016-05-05T01:55:14.700000Z</time>
      </trkpt>
      <trkpt lat="37.83933744496724" lon="112.00805942219614">
        <ele>1139.1027312950175</ele>
        <time>2016-05-05T01:55:20.800000Z</time>
      </trkpt>
      <trkpt lat="37.839452068361304" lon="112.00801534688048">
        <ele>1138.6865371109716</ele>
        <time>2016-05-05T01:55:28.700000Z</time>
      </trkpt>
      <trkpt lat="37.8396654569524" lon="112.0078769194139">
        <ele>1137.6085573262726</ele>
        <time>2016-05-05T01:55:35.700000Z</time>
      </trkpt>
      <trkpt lat="37.839832415294836" lon="112.007842299039">
        <ele>1137.957929913873</ele>
        <time>2016-05-05T01:55:39.800000Z</time>
      </trkpt>
      <trkpt lat="37.839953678952305" lon="112.00784633931079">
        <ele>1138.745935128369</ele>
        <time>2016-05-05T01:55:42.800000Z</time>
      </trkpt>
      <trkpt lat="37.84008589279418" lon="112.00781739973114">
        <ele>1139.1727239941786</ele>
        <time>2016-05-05T01:55:45.800000Z</time>
      </trkpt>
      <trkpt lat="37.84042152335598" lon="112.00790223892528">
        <ele>1140.1124085819852</ele>
        <time>2016-05-05T01:55:56.700000Z</time>
      </trkpt>
      <trkpt lat="37.840571606046865" lon="112.00788600204663">
        <ele>1141.785927646254</ele>
        <time>2016-05-05T01:56:04.800000Z</time>
      </trkpt>
      <trkpt lat="37.84076580317735" lon="112.00799816017593">
        <ele>1142.7089268396267</ele>
        <time>2016-05-05T01:56:11.700000Z</time>
      </trkpt>
      <trkpt lat="37.84089695166639" lon="112.00805410009157">
        <ele>1142.5705913547008</ele>
        <time>2016-05-05T01:56:17.800000Z</time>
      </trkpt>
      <trkpt lat="37.8410951883147" lon="112.00817653008845">
        <ele>1141.57838418424</ele>
        <time>2016-05-05T01:56:24.700000Z</time>
      </trkpt>
      <trkpt lat="37.84142956771611" lon="112.00822595828316">
        <ele>1140.489002159488</ele>
        <time>2016-05-05T01:56:35.800000Z</time>
      </trkpt>
      <trkpt lat="37.841656619431326" lon="112.00823782516173">
        <ele>1140.927828468736</ele>
        <time>2016-05-05T01:56:42.800000Z</time>
      </trkpt>
      <trkpt lat="37.84172673516805" lon="112.00819808011573">
        <ele>1140.5803659681428</ele>
        <time>2016-05-05T01:56:48.600000Z</time>
      </trkpt>
      <trkpt lat="37.841950406488785" lon="112.00797720444686">
        <ele>1139.2219480093015</ele>
        <time>2016-05-05T01:56:55.900000Z</time>
      </trkpt>
      <trkpt lat="37.84212008280379" lon="112.00775795787655">
        <ele>1137.8266147065867</ele>
        <time>2016-05-05T01:57:05.800000Z</time>
      </trkpt>
      <trkpt lat="37.842210973949754" lon="112.00766576947657">
        <ele>1137.4489818517109</ele>
        <time>2016-05-05T01:57:10Z</time>
      </trkpt>
      <trkpt lat="37.84232214050745" lon="112.00759817744273">
        <ele>1136.991012381562</ele>
        <time>2016-05-05T01:57:13.800000Z</time>
      </trkpt>
      <trkpt lat="37.84240172838736" lon="112.0075665411065">
        <ele>1136.9509875309534</ele>
        <time>2016-05-05T01:57:17.800000Z</time>
      </trkpt>
      <trkpt lat="37.84246183245926" lon="112.00751787728746">
        <ele>1136.86402260935</ele>
        <time>2016-05-05T01:57:20.800000Z</time>
      </trkpt>
      <trkpt lat="37.84278813251237" lon="112.00736429983678">
        <ele>1137.007998333479</ele>
        <time>2016-05-05T01:57:34.800000Z</time>
      </trkpt>
      <trkpt lat="37.842888848217264" lon="112.00734428458928">
        <ele>1137.2065283095944</ele>
        <time>2016-05-05T01:57:38.800000Z</time>
      </trkpt>
      <trkpt lat="37.843142747242105" lon="112.00717774114158">
        <ele>1137.1716832375657</ele>
        <time>2016-05-05T01:57:49.800000Z</time>
      </trkpt>
      <trkpt lat="37.84330129432923" lon="112.00705229700357">
        <ele>1136.3735535401245</ele>
        <time>2016-05-05T01:57:56.700000Z</time>
      </trkpt>
      <trkpt lat="37.84340338241283" lon="112.0069357801361">
        <ele>1135.3715224569419</ele>
        <time>2016-05-05T01:58:00.700000Z</time>
      </trkpt>
      <trkpt lat="37.84367420350602" lon="112.00682681207108">
        <ele>1133.5018243066886</ele>
        <time>2016-05-05T01:58:10.900000Z</time>
      </trkpt>
      <trkpt lat="37.84375520219769" lon="112.00677706504744">
        <ele>1133.4650878642542</ele>
        <time>2016-05-05T01:58:14.700000Z</time>
      </trkpt>
      <trkpt lat="37.84398402430189" lon="112.00655889659018">
        <ele>1132.4782023482787</ele>
        <time>2016-05-05T01:58:25.800000Z</time>
      </trkpt>
      <trkpt lat="37.84403384414105" lon="112.00650185508955">
        <ele>1131.9089483069595</ele>
        <time>2016-05-05T01:58:28.800000Z</time>
      </trkpt>
      <trkpt lat="37.844148975046046" lon="112.00646994471518">
        <ele>1130.9990174256486</ele>
        <time>2016-05-05T01:58:32.700000Z</time>
      </trkpt>
      <trkpt lat="37.844415711347445" lon="112.00627528962762">
        <ele>1129.9342637630127</ele>
        <time>2016-05-05T01:58:50.800000Z</time>
      </trkpt>
      <trkpt lat="37.84454535891007" lon="112.0061974250034">
        <ele>1128.3107769274454</ele>
        <time>2016-05-05T01:59:05.800000Z</time>
      </trkpt>
      <trkpt lat="37.84478700758646" lon="112.00622740054018">
        <ele>1127.3412889487943</ele>
        <time>2016-05-05T01:59:16.700000Z</time>
      </trkpt>
      <trkpt lat="37.84513157801835" lon="112.00631656165432">
        <ele>1125.633081541125</ele>
        <time>2016-05-05T01:59:28.800000Z</time>
      </trkpt>
      <trkpt lat="37.845371006369874" lon="112.00636329672378">
        <ele>1124.897335150037</ele>
        <time>2016-05-05T01:59:36.800000Z</time>
      </trkpt>
      <trkpt lat="37.84566526284227" lon="112.00649328088157">
        <ele>1123.8851513153943</ele>
        <time>2016-05-05T01:59:48.700000Z</time>
      </trkpt>
      <trkpt lat="37.845949879561" lon="112.0065805572915">
        <ele>1122.9777667276232</ele>
        <time>2016-05-05T02:00:00Z</time>
      </trkpt>
      <trkpt lat="37.84600324334583" lon="112.00660893357332">
        <ele>1122.8334741997269</ele>
        <time>2016-05-05T02:00:03.800000Z</time>
      </trkpt>
      <trkpt lat="37.84609329857698" lon="112.00661568060609">
        <ele>1123.1543861300015</ele>
        <time>2016-05-05T02:00:09.700000Z</time>
      </trkpt>
      <trkpt lat="37.84634327295331" lon="112.00667430829967">
        <ele>1123.2298243368175</ele>
        <time>2016-05-05T02:00:20.800000Z</time>
      </trkpt>
      <trkpt lat="37.846665536969645" lon="112.0066923807116">
        <ele>1123.2911120604701</ele>
        <time>2016-05-05T02:00:32.900000Z</time>
      </trkpt>
      <trkpt lat="37.84678118486599" lon="112.00666912014901">
        <ele>1122.9326233423985</ele>
        <time>2016-05-05T02:00:36.800000Z</time>
      </trkpt>
      <trkpt lat="37.84712367660812" lon="112.00672773684695">
        <ele>1123.0456558159544</ele>
        <time>2016-05-05T02:00:48.800000Z</time>
      </trkpt>
      <trkpt lat="37.84742844408634" lon="112.0067904127666">
        <ele>1122.1399005975943</ele>
        <time>2016-05-05T02:01:00.700000Z</time>
      </trkpt>
      <trkpt lat="37.84771643056832" lon="112.00683957514865">
        <ele>1122.0264360104381</ele>
        <time>2016-05-05T02:01:10.700000Z</time>
      </trkpt>
      <trkpt lat="37.847932857612435" lon="112.00686631020592">
        <ele>1121.2503933022526</ele>
        <time>2016-05-05T02:01:17.800000Z</time>
      </trkpt>
      <trkpt lat="37.848123891590255" lon="112.00685601556147">
        <ele>1121.179164746762</ele>
        <time>2016-05-05T02:01:24.800000Z</time>
      </trkpt>
      <trkpt lat="37.848199521593344" lon="112.00687817211804">
        <ele>1121.2453904122463</ele>
        <time>2016-05-05T02:01:28.700000Z</time>
      </trkpt>
      <trkpt lat="37.84839144416308" lon="112.00702519909778">
        <ele>1121.2059873378525</ele>
        <time>2016-05-05T02:01:36.700000Z</time>
      </trkpt>
      <trkpt lat="37.84869768204971" lon="112.00741495438588">
        <ele>1118.9827623008046</ele>
        <time>2016-05-05T02:01:51.900000Z</time>
      </trkpt>
      <trkpt lat="37.848873494961445" lon="112.00768822153537">
        <ele>1118.75565587042</ele>
        <time>2016-05-05T02:02:01.900000Z</time>
      </trkpt>
      <trkpt lat="37.84908674820916" lon="112.00796202598231">
        <ele>1117.322235868729</ele>
        <time>2016-05-05T02:02:11.800000Z</time>
      </trkpt>
      <trkpt lat="37.84925126637983" lon="112.00829368538143">
        <ele>1116.8612992707617</ele>
        <time>2016-05-05T02:02:23.800000Z</time>
      </trkpt>
      <trkpt lat="37.84943816505154" lon="112.00867264972686">
        <ele>1115.172939008464</ele>
        <time>2016-05-05T02:02:37.800000Z</time>
      </trkpt>
      <trkpt lat="37.84968424247343" lon="112.00894915772474">
        <ele>1113.3543615873427</ele>
        <time>2016-05-05T02:02:47.900000Z</time>
      </trkpt>
      <trkpt lat="37.8497422367662" lon="112.00915567611683">
        <ele>1112.1308985445867</ele>
        <time>2016-05-05T02:02:55.700000Z</time>
      </trkpt>
      <trkpt lat="37.84986833319275" lon="112.00945355616375">
        <ele>1112.0559731790656</ele>
        <time>2016-05-05T02:03:05.900000Z</time>
      </trkpt>
      <trkpt lat="37.8498836660978" lon="112.00968278861798">
        <ele>1111.7980440143979</ele>
        <time>2016-05-05T02:03:12.800000Z</time>
      </trkpt>
      <trkpt lat="37.849888250842994" lon="112.01006151321786">
        <ele>1110.737232590769</ele>
        <time>2016-05-05T02:03:23.800000Z</time>
      </trkpt>
      <trkpt lat="37.84988056515164" lon="112.01046186802786">
        <ele>1110.237667292619</ele>
        <time>2016-05-05T02:03:33.800000Z</time>
      </trkpt>
      <trkpt lat="37.849890485423835" lon="112.01059486823242">
        <ele>1110.376923885277</ele>
        <time>2016-05-05T02:03:37.700000Z</time>
      </trkpt>
      <trkpt lat="37.84987777077655" lon="112.01076760984263">
        <ele>1110.4612134747142</ele>
        <time>2016-05-05T02:03:41.800000Z</time>
      </trkpt>
      <trkpt lat="37.84985551379727" lon="112.01086357945611">
        <ele>1110.7775029416205</ele>
        <time>2016-05-05T02:03:45.700000Z</time>
      </trkpt>
      <trkpt lat="37.84985343337733" lon="112.01074003917876">
        <ele>1111.1586977683125</ele>
        <time>2016-05-05T02:03:52.700000Z</time>
      </trkpt>
      <trkpt lat="37.84995209620137" lon="112.0105870213485">
        <ele>1111.096314135823</ele>
        <time>2016-05-05T02:04:00.700000Z</time>
      </trkpt>
      <trkpt lat="37.84998017956196" lon="112.01016963264627">
        <ele>1108.6322578300012</ele>
        <time>2016-05-05T02:04:13.700000Z</time>
      </trkpt>
      <trkpt lat="37.84993357824564" lon="112.00977820710035">
        <ele>1108.030005924225</ele>
        <time>2016-05-05T02:04:24.700000Z</time>
      </trkpt>
      <trkpt lat="37.849839447843316" lon="112.00931218089637">
        <ele>1108.8890154880435</ele>
        <time>2016-05-05T02:04:39.800000Z</time>
      </trkpt>
      <trkpt lat="37.84971399347544" lon="112.00898078169439">
        <ele>1110.0434104776189</ele>
        <time>2016-05-05T02:04:50.700000Z</time>
      </trkpt>
      <trkpt lat="37.84950920964442" lon="112.00868588689666">
        <ele>1110.520859147273</ele>
        <time>2016-05-05T02:05:01.700000Z</time>
      </trkpt>
      <trkpt lat="37.8493199120297" lon="112.0084758716267">
        <ele>1111.2791732155513</ele>
        <time>2016-05-05T02:05:12.900000Z</time>
      </trkpt>
      <trkpt lat="37.84912164000427" lon="112.00818151908088">
        <ele>1112.9938490674117</ele>
        <time>2016-05-05T02:05:24.800000Z</time>
      </trkpt>
      <trkpt lat="37.848969279795696" lon="112.00795879620745">
        <ele>1114.8942643480113</ele>
        <time>2016-05-05T02:05:34.700000Z</time>
      </trkpt>
      <trkpt lat="37.84887469598626" lon="112.00774066256736">
        <ele>1115.8561656721088</ele>
        <time>2016-05-05T02:05:42.800000Z</time>
      </trkpt>
      <trkpt lat="37.848798128814614" lon="112.0076684975215">
        <ele>1116.407682066791</ele>
        <time>2016-05-05T02:05:46.700000Z</time>
      </trkpt>
      <trkpt lat="37.8485944784369" lon="112.007359011703">
        <ele>1118.8051492088111</ele>
        <time>2016-05-05T02:05:58.800000Z</time>
      </trkpt>
      <trkpt lat="37.84837316901408" lon="112.00705790910625">
        <ele>1120.7179539897104</ele>
        <time>2016-05-05T02:06:13.700000Z</time>
      </trkpt>
      <trkpt lat="37.84817297326498" lon="112.00686465968722">
        <ele>1121.3323722744965</ele>
        <time>2016-05-05T02:06:24.800000Z</time>
      </trkpt>
      <trkpt lat="37.84790464905253" lon="112.00677251538882">
        <ele>1122.0377827265736</ele>
        <time>2016-05-05T02:06:36.800000Z</time>
      </trkpt>
      <trkpt lat="37.84750966513116" lon="112.00666605982495">
        <ele>1122.5271759706102</ele>
        <time>2016-05-05T02:06:52.100000Z</time>
      </trkpt>
      <trkpt lat="37.84717143301451" lon="112.00663474408303">
        <ele>1122.1088139795036</ele>
        <time>2016-05-05T02:07:06.800000Z</time>
      </trkpt>
      <trkpt lat="37.846865970894314" lon="112.00662315714624">
        <ele>1122.2858819971784</ele>
        <time>2016-05-05T02:07:18.800000Z</time>
      </trkpt>
      <trkpt lat="37.84659198739997" lon="112.00660940396779">
        <ele>1122.9591450205744</ele>
        <time>2016-05-05T02:07:29.700000Z</time>
      </trkpt>
      <trkpt lat="37.84626811487177" lon="112.00658484430602">
        <ele>1123.8965467439382</ele>
        <time>2016-05-05T02:07:43.700000Z</time>
      </trkpt>
      <trkpt lat="37.846043843464926" lon="112.00655027127246">
        <ele>1123.7897640341153</ele>
        <time>2016-05-05T02:07:53.800000Z</time>
      </trkpt>
      <trkpt lat="37.845894062711" lon="112.00655596566428">
        <ele>1123.6743118345623</ele>
        <time>2016-05-05T02:07:57.700000Z</time>
      </trkpt>
      <trkpt lat="37.845624733710025" lon="112.00643706114475">
        <ele>1125.1012673033429</ele>
        <time>2016-05-05T02:08:09.900000Z</time>
      </trkpt>
      <trkpt lat="37.845356226096065" lon="112.0063157239323">
        <ele>1125.716134137131</ele>
        <time>2016-05-05T02:08:20.800000Z</time>
      </trkpt>
      <trkpt lat="37.84509800028872" lon="112.0062038465246">
        <ele>1125.8847883429937</ele>
        <time>2016-05-05T02:08:32.200000Z</time>
      </trkpt>
      <trkpt lat="37.84476763252234" lon="112.00608305769022">
        <ele>1125.0690964468</ele>
        <time>2016-05-05T02:08:45.800000Z</time>
      </trkpt>
      <trkpt lat="37.84467086239307" lon="112.00605360555225">
        <ele>1124.6629996497788</ele>
        <time>2016-05-05T02:08:49.700000Z</time>
      </trkpt>
      <trkpt lat="37.84452079590881" lon="112.00606416549589">
        <ele>1124.2908623882636</ele>
        <time>2016-05-05T02:08:56.700000Z</time>
      </trkpt>
      <trkpt lat="37.844372247604525" lon="112.0061114872929">
        <ele>1124.0558336015156</ele>
        <time>2016-05-05T02:09:02.900000Z</time>
      </trkpt>
      <trkpt lat="37.84426736024964" lon="112.0061655616474">
        <ele>1123.808231672579</ele>
        <time>2016-05-05T02:09:06.900000Z</time>
      </trkpt>
      <trkpt lat="37.844172852899" lon="112.00619611787876">
        <ele>1123.4071322326295</ele>
        <time>2016-05-05T02:09:10.800000Z</time>
      </trkpt>
      <trkpt lat="37.843902607158796" lon="112.00638482634858">
        <ele>1122.5183198919904</ele>
        <time>2016-05-05T02:09:21.900000Z</time>
      </trkpt>
      <trkpt lat="37.843784631815105" lon="112.0064607976128">
        <ele>1122.6749060999748</ele>
        <time>2016-05-05T02:09:25.700000Z</time>
      </trkpt>
      <trkpt lat="37.843584369595746" lon="112.0066546343508">
        <ele>1123.1093773739606</ele>
        <time>2016-05-05T02:09:36.800000Z</time>
      </trkpt>
      <trkpt lat="37.84334000079501" lon="112.00680928166653">
        <ele>1124.312985012465</ele>
        <time>2016-05-05T02:09:48.800000Z</time>
      </trkpt>
      <trkpt lat="37.84326078629991" lon="112.00689768312492">
        <ele>1124.7005277685814</ele>
        <time>2016-05-05T02:09:52.800000Z</time>
      </trkpt>
      <trkpt lat="37.84318697608164" lon="112.00690228723549">
        <ele>1125.1719735412096</ele>
        <time>2016-05-05T02:09:56.700000Z</time>
      </trkpt>
      <trkpt lat="37.84293277839442" lon="112.0071691161667">
        <ele>1125.7935076406957</ele>
        <time>2016-05-05T02:10:06.800000Z</time>
      </trkpt>
      <trkpt lat="37.8427900454359" lon="112.00726833821221">
        <ele>1127.0369727828456</ele>
        <time>2016-05-05T02:10:13.800000Z</time>
      </trkpt>
      <trkpt lat="37.84269087402041" lon="112.00740783200592">
        <ele>1131.963887890306</ele>
        <time>2016-05-05T02:10:17.700000Z</time>
      </trkpt>
      <trkpt lat="37.84244764647916" lon="112.00754409950252">
        <ele>1131.390594992797</ele>
        <time>2016-05-05T02:10:32.700000Z</time>
      </trkpt>
      <trkpt lat="37.842257544506495" lon="112.00760629459855">
        <ele>1131.2158323294582</ele>
        <time>2016-05-05T02:10:39.800000Z</time>
      </trkpt>
      <trkpt lat="37.841994286451325" lon="112.00781852360966">
        <ele>1131.6436810996515</ele>
        <time>2016-05-05T02:10:50.900000Z</time>
      </trkpt>
      <trkpt lat="37.841851206926464" lon="112.00794342672799">
        <ele>1132.1070540514716</ele>
        <time>2016-05-05T02:10:57.800000Z</time>
      </trkpt>
      <trkpt lat="37.84169937132289" lon="112.00800183321037">
        <ele>1132.3476566541547</ele>
        <time>2016-05-05T02:11:05.700000Z</time>
      </trkpt>
      <trkpt lat="37.8415788509827" lon="112.00802158070856">
        <ele>1132.1658683363135</ele>
        <time>2016-05-05T02:11:09.800000Z</time>
      </trkpt>
      <trkpt lat="37.84140742186707" lon="112.00809999305926">
        <ele>1132.0983406606529</ele>
        <time>2016-05-05T02:11:16.700000Z</time>
      </trkpt>
      <trkpt lat="37.84113071638101" lon="112.00818112124425">
        <ele>1133.3609425134757</ele>
        <time>2016-05-05T02:11:32Z</time>
      </trkpt>
      <trkpt lat="37.841050089965805" lon="112.00819707959381">
        <ele>1133.8393215334527</ele>
        <time>2016-05-05T02:11:35.800000Z</time>
      </trkpt>
      <trkpt lat="37.84093021156222" lon="112.00818330771028">
        <ele>1135.7610627946265</ele>
        <time>2016-05-05T02:11:43.800000Z</time>
      </trkpt>
      <trkpt lat="37.84074206462912" lon="112.00822685127946">
        <ele>1138.0852022631493</ele>
        <time>2016-05-05T02:11:52.700000Z</time>
      </trkpt>
      <trkpt lat="37.84062526427659" lon="112.00818145187839">
        <ele>1139.1453816395115</ele>
        <time>2016-05-05T02:11:59.800000Z</time>
      </trkpt>
      <trkpt lat="37.84055554391462" lon="112.00817929765901">
        <ele>1139.5211394976802</ele>
        <time>2016-05-05T02:12:02.900000Z</time>
      </trkpt>
      <trkpt lat="37.84021318791896" lon="112.00807499608324">
        <ele>1140.934221218033</ele>
        <time>2016-05-05T02:12:17.700000Z</time>
      </trkpt>
      <trkpt lat="37.83988290486198" lon="112.0081082844879">
        <ele>1142.2376070368075</ele>
        <time>2016-05-05T02:12:32Z</time>
      </trkpt>
      <trkpt lat="37.8395427610908" lon="112.00817320121227">
        <ele>1143.2843180020493</ele>
        <time>2016-05-05T02:12:45.800000Z</time>
      </trkpt>
      <trkpt lat="37.83933646774878" lon="112.00820620455704">
        <ele>1143.5957338636756</ele>
        <time>2016-05-05T02:12:55.700000Z</time>
      </trkpt>
      <trkpt lat="37.839288895666854" lon="112.00823756707382">
        <ele>1143.4459588668612</ele>
        <time>2016-05-05T02:13:01.700000Z</time>
      </trkpt>
      <trkpt lat="37.83923356200152" lon="112.00823297827662">
        <ele>1143.408617861188</ele>
        <time>2016-05-05T02:13:04.800000Z</time>
      </trkpt>
      <trkpt lat="37.83922979809618" lon="112.00803808000889">
        <ele>1144.0505914913635</ele>
        <time>2016-05-05T02:13:24.800000Z</time>
      </trkpt>
      <trkpt lat="37.839352773555014" lon="112.00810537425626">
        <ele>1144.922500163419</ele>
        <time>2016-05-05T02:13:45.700000Z</time>
      </trkpt>
      <trkpt lat="37.83968706450978" lon="112.00809289978332">
        <ele>1143.778125232211</ele>
        <time>2016-05-05T02:14:09.700000Z</time>
      </trkpt>
      <trkpt lat="37.839899950982705" lon="112.00812396084746">
        <ele>1142.4888951953244</ele>
        <time>2016-05-05T02:14:32Z</time>
      </trkpt>
      <trkpt lat="37.84021418439949" lon="112.00801336372884">
        <ele>1141.7153672828565</ele>
        <time>2016-05-05T02:14:56.800000Z</time>
      </trkpt>
      <trkpt lat="37.840501264353506" lon="112.00800197617411">
        <ele>1142.3126509013985</ele>
        <time>2016-05-05T02:15:26.800000Z</time>
      </trkpt>
      <trkpt lat="37.840737837281765" lon="112.00809682915579">
        <ele>1141.6038154787818</ele>
        <time>2016-05-05T02:15:57.700000Z</time>
      </trkpt>
      <trkpt lat="37.84079225140912" lon="112.008137099914">
        <ele>1143.445124303865</ele>
        <time>2016-05-05T02:16:37.900000Z</time>
      </trkpt>
      <trkpt lat="37.84112911092434" lon="112.00817355254934">
        <ele>1140.1791587773273</ele>
        <time>2016-05-05T02:17:02.800000Z</time>
      </trkpt>
      <trkpt lat="37.84143357650913" lon="112.00815486432151">
        <ele>1138.5845349510632</ele>
        <time>2016-05-05T02:17:24.700000Z</time>
      </trkpt>
      <trkpt lat="37.84149080462226" lon="112.00816107478987">
        <ele>1137.8301797972122</ele>
        <time>2016-05-05T02:17:30.800000Z</time>
      </trkpt>
      <trkpt lat="37.841469757676116" lon="112.00821378919716">
        <ele>1136.7408533292953</ele>
        <time>2016-05-05T02:17:38.800000Z</time>
      </trkpt>
      <trkpt lat="37.841442324072545" lon="112.0081326972649">
        <ele>1136.398324460878</ele>
        <time>2016-05-05T02:17:52.800000Z</time>
      </trkpt>
      <trkpt lat="37.841522595971846" lon="112.00814485196008">
        <ele>1137.9104769162766</ele>
        <time>2016-05-05T02:19:16.800000Z</time>
      </trkpt>
      <trkpt lat="37.8415374148284" lon="112.00808808359831">
        <ele>1138.4494567966779</ele>
        <time>2016-05-05T02:19:19.800000Z</time>
      </trkpt>
      <trkpt lat="37.8416899491301" lon="112.00797696520999">
        <ele>1140.0524190705014</ele>
        <time>2016-05-05T02:19:45.800000Z</time>
      </trkpt>
      <trkpt lat="37.84173058954097" lon="112.00808751991248">
        <ele>1140.6937619755554</ele>
        <time>2016-05-05T02:21:13.900000Z</time>
      </trkpt>
      <trkpt lat="37.841784867665794" lon="112.00808210709587">
        <ele>1140.5627288586677</ele>
        <time>2016-05-05T02:21:21.700000Z</time>
      </trkpt>
      <trkpt lat="37.84190713936213" lon="112.00792909328742">
        <ele>1137.6541832969967</ele>
        <time>2016-05-05T02:21:35.900000Z</time>
      </trkpt>
      <trkpt lat="37.84198768081444" lon="112.00775878462127">
        <ele>1135.231294800642</ele>
        <time>2016-05-05T02:21:48.600000Z</time>
      </trkpt>
      <trkpt lat="37.84204215458587" lon="112.0076874148404">
        <ele>1135.4893974653191</ele>
        <time>2016-05-05T02:21:51.800000Z</time>
      </trkpt>
      <trkpt lat="37.84208944682979" lon="112.00765902609622">
        <ele>1135.8812560829106</ele>
        <time>2016-05-05T02:21:55.800000Z</time>
      </trkpt>
      <trkpt lat="37.8422145272345" lon="112.00756548218217">
        <ele>1136.8925635807716</ele>
        <time>2016-05-05T02:22:07Z</time>
      </trkpt>
      <trkpt lat="37.84241899024313" lon="112.00750950264641">
        <ele>1136.704540535556</ele>
        <time>2016-05-05T02:22:25.700000Z</time>
      </trkpt>
      <trkpt lat="37.842676627007975" lon="112.00736323188367">
        <ele>1134.4391804889804</ele>
        <time>2016-05-05T02:22:41.800000Z</time>
      </trkpt>
      <trkpt lat="37.842925496390365" lon="112.00715452012403">
        <ele>1134.486958214053</ele>
        <time>2016-05-05T02:23:00.800000Z</time>
      </trkpt>
      <trkpt lat="37.843152835461694" lon="112.00697851937565">
        <ele>1133.5073682537263</ele>
        <time>2016-05-05T02:23:19.800000Z</time>
      </trkpt>
      <trkpt lat="37.84320594565176" lon="112.00700094897702">
        <ele>1133.260275340989</ele>
        <time>2016-05-05T02:23:23Z</time>
      </trkpt>
      <trkpt lat="37.84327189830319" lon="112.00699283173422">
        <ele>1132.7926801460312</ele>
        <time>2016-05-05T02:23:26.700000Z</time>
      </trkpt>
      <trkpt lat="37.84336270830072" lon="112.00692821624457">
        <ele>1131.2126797027865</ele>
        <time>2016-05-05T02:23:37.700000Z</time>
      </trkpt>
      <trkpt lat="37.843546488350235" lon="112.00671140424069">
        <ele>1129.721114897121</ele>
        <time>2016-05-05T02:23:56.700000Z</time>
      </trkpt>
      <trkpt lat="37.84356863758901" lon="112.00665328467127">
        <ele>1129.4278589295284</ele>
        <time>2016-05-05T02:23:59.800000Z</time>
      </trkpt>
      <trkpt lat="37.84383564713182" lon="112.00645781811372">
        <ele>1128.909474137557</ele>
        <time>2016-05-05T02:24:09.700000Z</time>
      </trkpt>
      <trkpt lat="37.8440350157714" lon="112.00638183714581">
        <ele>1128.751315156768</ele>
        <time>2016-05-05T02:24:16.700000Z</time>
      </trkpt>
      <trkpt lat="37.84422151392229" lon="112.00625476924955">
        <ele>1128.1097811835682</ele>
        <time>2016-05-05T02:24:23.700000Z</time>
      </trkpt>
      <trkpt lat="37.844484682805465" lon="112.00616472480328">
        <ele>1127.3732116889635</ele>
        <time>2016-05-05T02:24:33.800000Z</time>
      </trkpt>
      <trkpt lat="37.84469638366661" lon="112.00613847955748">
        <ele>1127.3393030518628</ele>
        <time>2016-05-05T02:24:41.700000Z</time>
      </trkpt>
      <trkpt lat="37.84496833129979" lon="112.00619791518052">
        <ele>1126.4550414107564</ele>
        <time>2016-05-05T02:24:51.700000Z</time>
      </trkpt>
      <trkpt lat="37.84526876346785" lon="112.00625842869168">
        <ele>1126.2314277315747</ele>
        <time>2016-05-05T02:25:01.800000Z</time>
      </trkpt>
      <trkpt lat="37.845496219459015" lon="112.00631678847556">
        <ele>1126.117194575281</ele>
        <time>2016-05-05T02:25:09.700000Z</time>
      </trkpt>
      <trkpt lat="37.84583083521337" lon="112.0064689331884">
        <ele>1124.830909270811</ele>
        <time>2016-05-05T02:25:22.800000Z</time>
      </trkpt>
      <trkpt lat="37.845966479475706" lon="112.00656379603944">
        <ele>1124.6855192429666</ele>
        <time>2016-05-05T02:25:30.800000Z</time>
      </trkpt>
      <trkpt lat="37.846065099106376" lon="112.00661000743894">
        <ele>1124.497912193479</ele>
        <time>2016-05-05T02:25:34.800000Z</time>
      </trkpt>
      <trkpt lat="37.84642172138531" lon="112.00666105369305">
        <ele>1123.5286812389886</ele>
        <time>2016-05-05T02:25:45.900000Z</time>
      </trkpt>
      <trkpt lat="37.846658213975715" lon="112.0066915706513">
        <ele>1122.5959195234238</ele>
        <time>2016-05-05T02:25:52.700000Z</time>
      </trkpt>
      <trkpt lat="37.84693033372777" lon="112.00669343036911">
        <ele>1121.3803787849529</ele>
        <time>2016-05-05T02:26:02.800000Z</time>
      </trkpt>
      <trkpt lat="37.84715025708844" lon="112.00673043679032">
        <ele>1119.910854105214</ele>
        <time>2016-05-05T02:26:10.700000Z</time>
      </trkpt>
      <trkpt lat="37.84746243044833" lon="112.00676608066708">
        <ele>1118.699012801214</ele>
        <time>2016-05-05T02:26:21.700000Z</time>
      </trkpt>
      <trkpt lat="37.847618246337795" lon="112.00682931501278">
        <ele>1117.9264068091807</ele>
        <time>2016-05-05T02:26:27.800000Z</time>
      </trkpt>
      <trkpt lat="37.84789086624595" lon="112.00684550119882">
        <ele>1116.5912849442489</ele>
        <time>2016-05-05T02:26:35.700000Z</time>
      </trkpt>
      <trkpt lat="37.84807800211135" lon="112.00686872569702">
        <ele>1115.3636616097338</ele>
        <time>2016-05-05T02:26:42.100000Z</time>
      </trkpt>
      <trkpt lat="37.84838879857465" lon="112.00700249316188">
        <ele>1115.21277181954</ele>
        <time>2016-05-05T02:26:51.900000Z</time>
      </trkpt>
      <trkpt lat="37.84863304003357" lon="112.00734711329126">
        <ele>1115.1510261350727</ele>
        <time>2016-05-05T02:27:02.800000Z</time>
      </trkpt>
      <trkpt lat="37.84890039171475" lon="112.00767578382595">
        <ele>1115.7385740176298</ele>
        <time>2016-05-05T02:27:14.900000Z</time>
      </trkpt>
      <trkpt lat="37.84912083419442" lon="112.00799554115154">
        <ele>1114.8717722911522</ele>
        <time>2016-05-05T02:27:25.800000Z</time>
      </trkpt>
      <trkpt lat="37.84923059775295" lon="112.00821853955361">
        <ele>1114.2697987522815</ele>
        <time>2016-05-05T02:27:33.800000Z</time>
      </trkpt>
      <trkpt lat="37.8494602070743" lon="112.00855857240886">
        <ele>1113.0368450759481</ele>
        <time>2016-05-05T02:27:44.700000Z</time>
      </trkpt>
      <trkpt lat="37.849630115669456" lon="112.00881130082142">
        <ele>1112.0656155693766</ele>
        <time>2016-05-05T02:27:52.800000Z</time>
      </trkpt>
      <trkpt lat="37.849727754485684" lon="112.00891455149761">
        <ele>1110.2814711579397</ele>
        <time>2016-05-05T02:27:56.700000Z</time>
      </trkpt>
      <trkpt lat="37.84991695015758" lon="112.0092516194823">
        <ele>1109.8508207414752</ele>
        <time>2016-05-05T02:28:07.700000Z</time>
      </trkpt>
      <trkpt lat="37.849948633123816" lon="112.00973306114005">
        <ele>1110.4474674001065</ele>
        <time>2016-05-05T02:28:19.700000Z</time>
      </trkpt>
      <trkpt lat="37.84995015806422" lon="112.00986038380485">
        <ele>1110.3257373979723</ele>
        <time>2016-05-05T02:28:23.100000Z</time>
      </trkpt>
      <trkpt lat="37.84988316970052" lon="112.01022127658128">
        <ele>1110.4294264074385</ele>
        <time>2016-05-05T02:28:32.700000Z</time>
      </trkpt>
      <trkpt lat="37.84986564644329" lon="112.01064596328337">
        <ele>1110.2410441190127</ele>
        <time>2016-05-05T02:28:44.800000Z</time>
      </trkpt>
      <trkpt lat="37.84984114791347" lon="112.01095170872249">
        <ele>1110.5753382402281</ele>
        <time>2016-05-05T02:28:53.200000Z</time>
      </trkpt>
      <trkpt lat="37.84977589949106" lon="112.01136910786585">
        <ele>1110.851842634379</ele>
        <time>2016-05-05T02:29:03.700000Z</time>
      </trkpt>
      <trkpt lat="37.84974256460482" lon="112.01182219065497">
        <ele>1111.557748668022</ele>
        <time>2016-05-05T02:29:13.800000Z</time>
      </trkpt>
      <trkpt lat="37.84968797344856" lon="112.0122152651947">
        <ele>1112.3290852177468</ele>
        <time>2016-05-05T02:29:24.700000Z</time>
      </trkpt>
      <trkpt lat="37.84969463068077" lon="112.01263266597094">
        <ele>1113.169570779639</ele>
        <time>2016-05-05T02:29:34.700000Z</time>
      </trkpt>
      <trkpt lat="37.84965074380975" lon="112.01307873249651">
        <ele>1113.6826935434797</ele>
        <time>2016-05-05T02:29:45.700000Z</time>
      </trkpt>
      <trkpt lat="37.84962254324844" lon="112.0135431846495">
        <ele>1114.058795845305</ele>
        <time>2016-05-05T02:29:57.700000Z</time>
      </trkpt>
      <trkpt lat="37.849620555483654" lon="112.01404521643168">
        <ele>1113.6378497174546</ele>
        <time>2016-05-05T02:30:08.700000Z</time>
      </trkpt>
      <trkpt lat="37.84962372055691" lon="112.01417119789387">
        <ele>1113.5886268062225</ele>
        <time>2016-05-05T02:30:11.700000Z</time>
      </trkpt>
      <trkpt lat="37.8495818813448" lon="112.01456942674982">
        <ele>1113.1232978071514</ele>
        <time>2016-05-05T02:30:25.700000Z</time>
      </trkpt>
      <trkpt lat="37.849557574245374" lon="112.01490980163499">
        <ele>1113.146785094823</ele>
        <time>2016-05-05T02:30:46.700000Z</time>
      </trkpt>
      <trkpt lat="37.84956166040539" lon="112.01509391129511">
        <ele>1113.0627988888637</ele>
        <time>2016-05-05T02:30:54.700000Z</time>
      </trkpt>
      <trkpt lat="37.84951939666918" lon="112.01535778187319">
        <ele>1112.243118838193</ele>
        <time>2016-05-05T02:31:08.700000Z</time>
      </trkpt>
      <trkpt lat="37.849517986222324" lon="112.0154718719291">
        <ele>1112.435453849275</ele>
        <time>2016-05-05T02:31:12.700000Z</time>
      </trkpt>
      <trkpt lat="37.84953358245415" lon="112.01561624015865">
        <ele>1112.445021466386</ele>
        <time>2016-05-05T02:31:19.700000Z</time>
      </trkpt>
      <trkpt lat="37.84945425713302" lon="112.01603395238477">
        <ele>1112.475779845968</ele>
        <time>2016-05-05T02:31:39.700000Z</time>
      </trkpt>
      <trkpt lat="37.849399684894216" lon="112.01643030718503">
        <ele>1111.5218049420218</ele>
        <time>2016-05-05T02:31:51.700000Z</time>
      </trkpt>
      <trkpt lat="37.84934662514256" lon="112.01686857203909">
        <ele>1112.088906787077</ele>
        <time>2016-05-05T02:32:02.700000Z</time>
      </trkpt>
      <trkpt lat="37.84930207334778" lon="112.01727358537808">
        <ele>1116.0547771379224</ele>
        <time>2016-05-05T02:32:12.900000Z</time>
      </trkpt>
      <trkpt lat="37.84926235597741" lon="112.01769725772536">
        <ele>1115.2271776682267</ele>
        <time>2016-05-05T02:32:24.700000Z</time>
      </trkpt>
      <trkpt lat="37.849226433704175" lon="112.0181233674892">
        <ele>1114.7170660247327</ele>
        <time>2016-05-05T02:32:35.700000Z</time>
      </trkpt>
      <trkpt lat="37.849210456342746" lon="112.0184037471594">
        <ele>1114.7685744611385</ele>
        <time>2016-05-05T02:32:42.700000Z</time>
      </trkpt>
      <trkpt lat="37.849147414220404" lon="112.01882797526254">
        <ele>1113.4033650212887</ele>
        <time>2016-05-05T02:32:55.400000Z</time>
      </trkpt>
      <trkpt lat="37.84910407427079" lon="112.0192908702136">
        <ele>1111.5172086457758</ele>
        <time>2016-05-05T02:33:05.700000Z</time>
      </trkpt>
      <trkpt lat="37.84907727686664" lon="112.01975809504582">
        <ele>1110.589173409199</ele>
        <time>2016-05-05T02:33:16.800000Z</time>
      </trkpt>
      <trkpt lat="37.8491037252911" lon="112.02020206604219">
        <ele>1109.6121585051392</ele>
        <time>2016-05-05T02:33:27.700000Z</time>
      </trkpt>
      <trkpt lat="37.84908342062617" lon="112.02048192099214">
        <ele>1108.8593517162744</ele>
        <time>2016-05-05T02:33:35.600000Z</time>
      </trkpt>
      <trkpt lat="37.849039526100434" lon="112.02085614790055">
        <ele>1109.1843605256045</ele>
        <time>2016-05-05T02:33:42.700000Z</time>
      </trkpt>
      <trkpt lat="37.849024227347655" lon="112.02119197915535">
        <ele>1109.490841179527</ele>
        <time>2016-05-05T02:33:50.800000Z</time>
      </trkpt>
      <trkpt lat="37.84903638373326" lon="112.02150942326557">
        <ele>1109.3801389610517</ele>
        <time>2016-05-05T02:33:58.700000Z</time>
      </trkpt>
      <trkpt lat="37.84901609089763" lon="112.02188771427677">
        <ele>1108.3846164291124</ele>
        <time>2016-05-05T02:34:06.700000Z</time>
      </trkpt>
      <trkpt lat="37.849016952665615" lon="112.02227006296269">
        <ele>1108.5500201022821</ele>
        <time>2016-05-05T02:34:18.700000Z</time>
      </trkpt>
      <trkpt lat="37.84905437556094" lon="112.02267810021523">
        <ele>1108.4745934699033</ele>
        <time>2016-05-05T02:34:36.700000Z</time>
      </trkpt>
      <trkpt lat="37.849044666105705" lon="112.02305937746885">
        <ele>1107.8664110038228</ele>
        <time>2016-05-05T02:34:58.700000Z</time>
      </trkpt>
      <trkpt lat="37.849003497344995" lon="112.02343714750566">
        <ele>1106.7030421985532</ele>
        <time>2016-05-05T02:35:10.800000Z</time>
      </trkpt>
      <trkpt lat="37.84900439978949" lon="112.02380950850988">
        <ele>1106.0007721809095</ele>
        <time>2016-05-05T02:35:18.700000Z</time>
      </trkpt>
      <trkpt lat="37.849023421100576" lon="112.02410345007192">
        <ele>1105.5771452304862</ele>
        <time>2016-05-05T02:35:25.800000Z</time>
      </trkpt>
      <trkpt lat="37.84901953503961" lon="112.02444228702315">
        <ele>1105.6210264389017</ele>
        <time>2016-05-05T02:35:33.700000Z</time>
      </trkpt>
      <trkpt lat="37.84904993977691" lon="112.024537742342">
        <ele>1105.774832754023</ele>
        <time>2016-05-05T02:35:39.800000Z</time>
      </trkpt>
      <trkpt lat="37.849041928289004" lon="112.02489902971608">
        <ele>1106.3830365339431</ele>
        <time>2016-05-05T02:35:55.800000Z</time>
      </trkpt>
      <trkpt lat="37.84895515908016" lon="112.02529088914729">
        <ele>1106.2065073676433</ele>
        <time>2016-05-05T02:36:12.800000Z</time>
      </trkpt>
      <trkpt lat="37.848942891576606" lon="112.02562243820915">
        <ele>1104.920249682088</ele>
        <time>2016-05-05T02:36:20.700000Z</time>
      </trkpt>
      <trkpt lat="37.84895584292712" lon="112.0257530554788">
        <ele>1105.0359126084354</ele>
        <time>2016-05-05T02:36:24.700000Z</time>
      </trkpt>
      <trkpt lat="37.84911468801051" lon="112.0261186638798">
        <ele>1105.318505400926</ele>
        <time>2016-05-05T02:36:35.700000Z</time>
      </trkpt>
      <trkpt lat="37.849136046047576" lon="112.02625144575268">
        <ele>1106.0308748023008</ele>
        <time>2016-05-05T02:36:39.800000Z</time>
      </trkpt>
      <trkpt lat="37.84907725051658" lon="112.0264291306683">
        <ele>1106.099160802637</ele>
        <time>2016-05-05T02:36:43.900000Z</time>
      </trkpt>
      <trkpt lat="37.84901863598732" lon="112.02653758391573">
        <ele>1106.1364791381707</ele>
        <time>2016-05-05T02:36:48.600000Z</time>
      </trkpt>
      <trkpt lat="37.84874157945462" lon="112.0265557367007">
        <ele>1105.6882632177924</ele>
        <time>2016-05-05T02:36:51.800000Z</time>
      </trkpt>
      <trkpt lat="37.84844355850773" lon="112.02649789841017">
        <ele>1104.4393757064377</ele>
        <time>2016-05-05T02:37:02.100000Z</time>
      </trkpt>
      <trkpt lat="37.84801955677839" lon="112.02647550290592">
        <ele>1101.62398869749</ele>
        <time>2016-05-05T02:37:13.700000Z</time>
      </trkpt>
      <trkpt lat="37.84791406868072" lon="112.02645550308155">
        <ele>1101.261228192371</ele>
        <time>2016-05-05T02:37:17.700000Z</time>
      </trkpt>
      <trkpt lat="37.84781658325742" lon="112.02648796751755">
        <ele>1100.975101092429</ele>
        <time>2016-05-05T02:37:20.700000Z</time>
      </trkpt>
      <trkpt lat="37.84771904545649" lon="112.02664483453694">
        <ele>1100.8847836116074</ele>
        <time>2016-05-05T02:37:24.800000Z</time>
      </trkpt>
      <trkpt lat="37.84768337648099" lon="112.02679817918856">
        <ele>1101.280618417137</ele>
        <time>2016-05-05T02:37:31.800000Z</time>
      </trkpt>
      <trkpt lat="37.847685633669116" lon="112.02686930531348">
        <ele>1101.7121627812783</ele>
        <time>2016-05-05T02:37:34.800000Z</time>
      </trkpt>
      <trkpt lat="37.847539897926964" lon="112.0271995354378">
        <ele>1105.72647834429</ele>
        <time>2016-05-05T02:37:53.700000Z</time>
      </trkpt>
      <trkpt lat="37.8474275900901" lon="112.02750894066553">
        <ele>1109.1471918518093</ele>
        <time>2016-05-05T02:38:05.700000Z</time>
      </trkpt>
      <trkpt lat="37.84740662627538" lon="112.02764254516303">
        <ele>1110.0878833472416</ele>
        <time>2016-05-05T02:38:09.700000Z</time>
      </trkpt>
      <trkpt lat="37.847407856966264" lon="112.02779697235005">
        <ele>1110.407412170109</ele>
        <time>2016-05-05T02:38:13.100000Z</time>
      </trkpt>
      <trkpt lat="37.84734592732784" lon="112.0282478257568">
        <ele>1110.3109171075112</ele>
        <time>2016-05-05T02:38:22.800000Z</time>
      </trkpt>
      <trkpt lat="37.84731221211905" lon="112.0285950968811">
        <ele>1110.378335529133</ele>
        <time>2016-05-05T02:38:29.700000Z</time>
      </trkpt>
      <trkpt lat="37.84729623221961" lon="112.02869084139793">
        <ele>1110.9325744541936</ele>
        <time>2016-05-05T02:38:32.700000Z</time>
      </trkpt>
      <trkpt lat="37.84730220542722" lon="112.02879577925881">
        <ele>1110.6252981550392</ele>
        <time>2016-05-05T02:38:36.700000Z</time>
      </trkpt>
      <trkpt lat="37.847337578188046" lon="112.02896914087427">
        <ele>1110.0925843560096</ele>
        <time>2016-05-05T02:38:40.700000Z</time>
      </trkpt>
      <trkpt lat="37.84736533800343" lon="112.02936374492953">
        <ele>1109.3831851377292</ele>
        <time>2016-05-05T02:38:54.800000Z</time>
      </trkpt>
      <trkpt lat="37.847423475039186" lon="112.02954846694128">
        <ele>1109.0236022265442</ele>
        <time>2016-05-05T02:39:01.800000Z</time>
      </trkpt>
      <trkpt lat="37.847354547367544" lon="112.02976971890162">
        <ele>1108.3541997323944</ele>
        <time>2016-05-05T02:39:14.700000Z</time>
      </trkpt>
      <trkpt lat="37.84730229982033" lon="112.02983166291145">
        <ele>1108.6898383687567</ele>
        <time>2016-05-05T02:39:18.700000Z</time>
      </trkpt>
      <trkpt lat="37.8472550256806" lon="112.02985790427132">
        <ele>1109.219476701535</ele>
        <time>2016-05-05T02:39:22.800000Z</time>
      </trkpt>
      <trkpt lat="37.84710450623675" lon="112.02983466189279">
        <ele>1111.0928486340624</ele>
        <time>2016-05-05T02:39:29.700000Z</time>
      </trkpt>
      <trkpt lat="37.84707782797225" lon="112.02976244951078">
        <ele>1111.7148567940465</ele>
        <time>2016-05-05T02:39:32.700000Z</time>
      </trkpt>
      <trkpt lat="37.84665494173266" lon="112.02949600516384">
        <ele>0.0</ele>
        <time>2016-05-05T02:44:47.100000Z</time>
      </trkpt>
    </trkseg>
  </trk>
</gpx>