<?xml version="1.0" encoding="UTF-8"?>
<gpx xmlns="http://www.topografix.com/GPX/1/1" xmlns:gpxtpx="http://www.garmin.com/xmlschemas/TrackPointExtension/v1" xmlns:xsi="http://www.w3.org/2001/XMLSchema-instance" xsi:schemaLocation="http://www.topografix.com/GPX/1/1 http://www.topografix.com/GPX/1/1/gpx.xsd" version="1.1" creator="gpx.py -- https://github.com/tkrajina/gpxpy">
  <trk>
    <name>gpx from keep</name>
    <type>Run</type>
    <trkseg>
      <trkpt lat="37.84735641767834" lon="112.02902918132436">
        <ele>1130.2</ele>
        <time>2017-05-04T09:10:18.900000Z</time>
      </trkpt>
      <trkpt lat="37.84735945613589" lon="112.02890098179871">
        <ele>1129.09</ele>
        <time>2017-05-04T09:10:33.900000Z</time>
      </trkpt>
      <trkpt lat="37.847377803725685" lon="112.02883417561694">
        <ele>1129.09</ele>
        <time>2017-05-04T09:10:39.900000Z</time>
      </trkpt>
      <trkpt lat="37.84737970352765" lon="112.02851422167922">
        <ele>1127.2</ele>
        <time>2017-05-04T09:11:09.900000Z</time>
      </trkpt>
      <trkpt lat="37.847427784999844" lon="112.02849095650913">
        <ele>1118.8</ele>
        <time>2017-05-04T09:11:21.900000Z</time>
      </trkpt>
      <trkpt lat="37.84736795432038" lon="112.0283340985688">
        <ele>1115.3</ele>
        <time>2017-05-04T09:11:33.900000Z</time>
      </trkpt>
      <trkpt lat="37.847362680865956" lon="112.02827432840142">
        <ele>1112.59</ele>
        <time>2017-05-04T09:11:43.100000Z</time>
      </trkpt>
      <trkpt lat="37.84738109812513" lon="112.02818074861855">
        <ele>1110.7</ele>
        <time>2017-05-04T09:11:49Z</time>
      </trkpt>
      <trkpt lat="37.847369446400755" lon="112.02785755814335">
        <ele>1113.2</ele>
        <time>2017-05-04T09:12:12.900000Z</time>
      </trkpt>
      <trkpt lat="37.847417600423654" lon="112.02770069064263">
        <ele>1114.5</ele>
        <time>2017-05-04T09:12:24.900000Z</time>
      </trkpt>
      <trkpt lat="37.84750773942508" lon="112.02757059340254">
        <ele>1115.3</ele>
        <time>2017-05-04T09:12:36.900000Z</time>
      </trkpt>
      <trkpt lat="37.847572508874784" lon="112.02738884424848">
        <ele>1115.4</ele>
        <time>2017-05-04T09:12:49Z</time>
      </trkpt>
      <trkpt lat="37.8475691626673" lon="112.0273187987988">
        <ele>1115.2</ele>
        <time>2017-05-04T09:12:55Z</time>
      </trkpt>
      <trkpt lat="37.8476493715108" lon="112.02714732626343">
        <ele>1114.5</ele>
        <time>2017-05-04T09:13:06.900000Z</time>
      </trkpt>
      <trkpt lat="37.84768918234507" lon="112.02696558271191">
        <ele>1114.2</ele>
        <time>2017-05-04T09:13:15.900000Z</time>
      </trkpt>
      <trkpt lat="37.84774742147199" lon="112.0267922217601">
        <ele>1113.2</ele>
        <time>2017-05-04T09:13:24.900000Z</time>
      </trkpt>
      <trkpt lat="37.84786412123316" lon="112.02667402472436">
        <ele>1112.4</ele>
        <time>2017-05-04T09:13:30.900000Z</time>
      </trkpt>
      <trkpt lat="37.84814751408575" lon="112.02661882071668">
        <ele>1108.9</ele>
        <time>2017-05-04T09:13:42.900000Z</time>
      </trkpt>
      <trkpt lat="37.84834593371071" lon="112.02658391004276">
        <ele>1107.0</ele>
        <time>2017-05-04T09:13:51.900000Z</time>
      </trkpt>
      <trkpt lat="37.848535778751774" lon="112.0266120130259">
        <ele>1105.2</ele>
        <time>2017-05-04T09:14:00.900000Z</time>
      </trkpt>
      <trkpt lat="37.84859603599534" lon="112.02660199948274">
        <ele>1103.9</ele>
        <time>2017-05-04T09:14:03.900000Z</time>
      </trkpt>
      <trkpt lat="37.84865065551605" lon="112.02656899919694">
        <ele>1104.0</ele>
        <time>2017-05-04T09:14:06.900000Z</time>
      </trkpt>
      <trkpt lat="37.8487323379598" lon="112.02656222837373">
        <ele>1103.0</ele>
        <time>2017-05-04T09:14:09.900000Z</time>
      </trkpt>
      <trkpt lat="37.848889162351554" lon="112.02645565630458">
        <ele>1103.8</ele>
        <time>2017-05-04T09:14:16.200000Z</time>
      </trkpt>
      <trkpt lat="37.84897407319385" lon="112.02635531333651">
        <ele>1100.9</ele>
        <time>2017-05-04T09:14:20Z</time>
      </trkpt>
      <trkpt lat="37.84901579206482" lon="112.02627552914001">
        <ele>1099.59</ele>
        <time>2017-05-04T09:14:22.900000Z</time>
      </trkpt>
      <trkpt lat="37.84906559041458" lon="112.02621873132215">
        <ele>1095.9</ele>
        <time>2017-05-04T09:14:25.900000Z</time>
      </trkpt>
      <trkpt lat="37.84909422460383" lon="112.02605890000841">
        <ele>1095.59</ele>
        <time>2017-05-04T09:14:31.900000Z</time>
      </trkpt>
      <trkpt lat="37.84908412918897" lon="112.02597695933814">
        <ele>1094.9</ele>
        <time>2017-05-04T09:14:34.900000Z</time>
      </trkpt>
      <trkpt lat="37.84915719383499" lon="112.0256353931828">
        <ele>1091.8</ele>
        <time>2017-05-04T09:14:46.900000Z</time>
      </trkpt>
      <trkpt lat="37.84912551047202" lon="112.02520027513148">
        <ele>1088.8</ele>
        <time>2017-05-04T09:14:58.900000Z</time>
      </trkpt>
      <trkpt lat="37.849133921607304" lon="112.024891987601">
        <ele>1086.3</ele>
        <time>2017-05-04T09:15:10.900000Z</time>
      </trkpt>
      <trkpt lat="37.84909873427958" lon="112.02455342098449">
        <ele>1078.4</ele>
        <time>2017-05-04T09:15:22.900000Z</time>
      </trkpt>
      <trkpt lat="37.84908214701396" lon="112.02446526534685">
        <ele>1076.59</ele>
        <time>2017-05-04T09:15:25.900000Z</time>
      </trkpt>
      <trkpt lat="37.849095456426156" lon="112.02405179147944">
        <ele>1070.7</ele>
        <time>2017-05-04T09:15:37.900000Z</time>
      </trkpt>
      <trkpt lat="37.8490786804533" lon="112.02372999729542">
        <ele>1075.8</ele>
        <time>2017-05-04T09:15:46.900000Z</time>
      </trkpt>
      <trkpt lat="37.84914369412632" lon="112.02356503636861">
        <ele>1080.3</ele>
        <time>2017-05-04T09:15:50.100000Z</time>
      </trkpt>
      <trkpt lat="37.849178825749235" lon="112.02331327743431">
        <ele>1085.0</ele>
        <time>2017-05-04T09:15:55.900000Z</time>
      </trkpt>
      <trkpt lat="37.84918387692035" lon="112.02294822238163">
        <ele>1089.8</ele>
        <time>2017-05-04T09:16:04.900000Z</time>
      </trkpt>
      <trkpt lat="37.849190397704874" lon="112.02264293099009">
        <ele>1089.4</ele>
        <time>2017-05-04T09:16:13.900000Z</time>
      </trkpt>
      <trkpt lat="37.84921529291853" lon="112.02246635285778">
        <ele>1089.0</ele>
        <time>2017-05-04T09:16:19.900000Z</time>
      </trkpt>
      <trkpt lat="37.84920347515036" lon="112.0220215404175">
        <ele>1092.8</ele>
        <time>2017-05-04T09:16:31.900000Z</time>
      </trkpt>
      <trkpt lat="37.849193291264015" lon="112.02157619275563">
        <ele>1096.2</ele>
        <time>2017-05-04T09:16:43.900000Z</time>
      </trkpt>
      <trkpt lat="37.84920686753222" lon="112.02117465194387">
        <ele>1092.09</ele>
        <time>2017-05-04T09:16:55.900000Z</time>
      </trkpt>
      <trkpt lat="37.84918352228674" lon="112.02078285425883">
        <ele>1086.4</ele>
        <time>2017-05-04T09:17:07.900000Z</time>
      </trkpt>
      <trkpt lat="37.84918999613094" lon="112.02069768003489">
        <ele>1084.59</ele>
        <time>2017-05-04T09:17:10.900000Z</time>
      </trkpt>
      <trkpt lat="37.84915652416646" lon="112.02033941700141">
        <ele>1077.8</ele>
        <time>2017-05-04T09:17:22.900000Z</time>
      </trkpt>
      <trkpt lat="37.849190023306235" lon="112.02009606380554">
        <ele>1082.8</ele>
        <time>2017-05-04T09:17:28.900000Z</time>
      </trkpt>
      <trkpt lat="37.84921849184444" lon="112.02000466967543">
        <ele>1082.7</ele>
        <time>2017-05-04T09:17:31.900000Z</time>
      </trkpt>
      <trkpt lat="37.849244940270594" lon="112.01966262930574">
        <ele>1083.5</ele>
        <time>2017-05-04T09:17:40.900000Z</time>
      </trkpt>
      <trkpt lat="37.84927988811193" lon="112.01928949722782">
        <ele>1087.8</ele>
        <time>2017-05-04T09:17:49.900000Z</time>
      </trkpt>
      <trkpt lat="37.84929311209885" lon="112.01892421244281">
        <ele>1093.59</ele>
        <time>2017-05-04T09:17:58.900000Z</time>
      </trkpt>
      <trkpt lat="37.84929997070132" lon="112.01850756052905">
        <ele>1098.0</ele>
        <time>2017-05-04T09:18:11Z</time>
      </trkpt>
      <trkpt lat="37.849308012326844" lon="112.01815418024047">
        <ele>1100.0</ele>
        <time>2017-05-04T09:18:19.900000Z</time>
      </trkpt>
      <trkpt lat="37.84931141154537" lon="112.01781242964579">
        <ele>1106.09</ele>
        <time>2017-05-04T09:18:28.900000Z</time>
      </trkpt>
      <trkpt lat="37.84933298733532" lon="112.01737551022603">
        <ele>1114.09</ele>
        <time>2017-05-04T09:18:40.900000Z</time>
      </trkpt>
      <trkpt lat="37.84936804073714" lon="112.0170672878496">
        <ele>1116.4</ele>
        <time>2017-05-04T09:18:49.900000Z</time>
      </trkpt>
      <trkpt lat="37.84937465327715" lon="112.01664714076685">
        <ele>1120.09</ele>
        <time>2017-05-04T09:19:01.900000Z</time>
      </trkpt>
      <trkpt lat="37.849419547134325" lon="112.0162188825528">
        <ele>1124.8</ele>
        <time>2017-05-04T09:19:13.900000Z</time>
      </trkpt>
      <trkpt lat="37.849486203158925" lon="112.01586713733698">
        <ele>1118.8</ele>
        <time>2017-05-04T09:19:25.900000Z</time>
      </trkpt>
      <trkpt lat="37.84952784281943" lon="112.01544050951807">
        <ele>1117.09</ele>
        <time>2017-05-04T09:19:37.900000Z</time>
      </trkpt>
      <trkpt lat="37.84954952861427" lon="112.01525693603107">
        <ele>1118.0</ele>
        <time>2017-05-04T09:19:43.900000Z</time>
      </trkpt>
      <trkpt lat="37.849617642421016" lon="112.01487194516966">
        <ele>1115.7</ele>
        <time>2017-05-04T09:19:55.900000Z</time>
      </trkpt>
      <trkpt lat="37.849637889324306" lon="112.01443370453548">
        <ele>1118.09</ele>
        <time>2017-05-04T09:20:07.900000Z</time>
      </trkpt>
      <trkpt lat="37.84964107564262" lon="112.01398546734352">
        <ele>1120.8</ele>
        <time>2017-05-04T09:20:19.900000Z</time>
      </trkpt>
      <trkpt lat="37.8496477037772" lon="112.01366213316172">
        <ele>1123.4</ele>
        <time>2017-05-04T09:20:28.900000Z</time>
      </trkpt>
      <trkpt lat="37.8497094235332" lon="112.01324011956585">
        <ele>1123.7</ele>
        <time>2017-05-04T09:20:40.900000Z</time>
      </trkpt>
      <trkpt lat="37.84973596177465" lon="112.01316360957873">
        <ele>1120.7</ele>
        <time>2017-05-04T09:20:43.900000Z</time>
      </trkpt>
      <trkpt lat="37.849770867344056" lon="112.01272700523319">
        <ele>1120.5</ele>
        <time>2017-05-04T09:20:55.900000Z</time>
      </trkpt>
      <trkpt lat="37.84979780346975" lon="112.01251343430415">
        <ele>1121.0</ele>
        <time>2017-05-04T09:21:01.900000Z</time>
      </trkpt>
      <trkpt lat="37.84979760362231" lon="112.01230175989751">
        <ele>1122.2</ele>
        <time>2017-05-04T09:21:07.900000Z</time>
      </trkpt>
      <trkpt lat="37.84985431207259" lon="112.01192679688953">
        <ele>1118.2</ele>
        <time>2017-05-04T09:21:19.900000Z</time>
      </trkpt>
      <trkpt lat="37.8498973118209" lon="112.01150858497543">
        <ele>1116.2</ele>
        <time>2017-05-04T09:21:31.900000Z</time>
      </trkpt>
      <trkpt lat="37.84991071078798" lon="112.0112866404819">
        <ele>1118.4</ele>
        <time>2017-05-04T09:21:37.900000Z</time>
      </trkpt>
      <trkpt lat="37.84992065733792" lon="112.01094656294795">
        <ele>1121.4</ele>
        <time>2017-05-04T09:21:46.900000Z</time>
      </trkpt>
      <trkpt lat="37.84987575927588" lon="112.01071327393925">
        <ele>1125.7</ele>
        <time>2017-05-04T09:21:52.900000Z</time>
      </trkpt>
      <trkpt lat="37.84990581163413" lon="112.01027182496112">
        <ele>1127.5</ele>
        <time>2017-05-04T09:22:04.900000Z</time>
      </trkpt>
      <trkpt lat="37.84991576658068" lon="112.00983822128265">
        <ele>1129.4</ele>
        <time>2017-05-04T09:22:16.900000Z</time>
      </trkpt>
      <trkpt lat="37.84988388866236" lon="112.00951491764069">
        <ele>1132.0</ele>
        <time>2017-05-04T09:22:25.900000Z</time>
      </trkpt>
      <trkpt lat="37.849795752565896" lon="112.00922487208537">
        <ele>1130.5</ele>
        <time>2017-05-04T09:22:34.900000Z</time>
      </trkpt>
      <trkpt lat="37.849623989687544" lon="112.00895646357738">
        <ele>1130.2</ele>
        <time>2017-05-04T09:22:43.900000Z</time>
      </trkpt>
      <trkpt lat="37.849557403273714" lon="112.00881157982387">
        <ele>1129.59</ele>
        <time>2017-05-04T09:22:49.900000Z</time>
      </trkpt>
      <trkpt lat="37.849387215384226" lon="112.0085615546318">
        <ele>1131.7</ele>
        <time>2017-05-04T09:22:58.900000Z</time>
      </trkpt>
      <trkpt lat="37.8492190658541" lon="112.00826476523082">
        <ele>1124.8</ele>
        <time>2017-05-04T09:23:10.900000Z</time>
      </trkpt>
      <trkpt lat="37.84901079210734" lon="112.00795825061971">
        <ele>1125.09</ele>
        <time>2017-05-04T09:23:22.900000Z</time>
      </trkpt>
      <trkpt lat="37.848770594550096" lon="112.0076214659886">
        <ele>1126.09</ele>
        <time>2017-05-04T09:23:34.900000Z</time>
      </trkpt>
      <trkpt lat="37.848587314408945" lon="112.00730467948789">
        <ele>1125.5</ele>
        <time>2017-05-04T09:23:46.900000Z</time>
      </trkpt>
      <trkpt lat="37.848397270747235" lon="112.00707304374295">
        <ele>1128.4</ele>
        <time>2017-05-04T09:23:55.900000Z</time>
      </trkpt>
      <trkpt lat="37.84831741706252" lon="112.00701142199088">
        <ele>1129.2</ele>
        <time>2017-05-04T09:23:59Z</time>
      </trkpt>
      <trkpt lat="37.84804397635515" lon="112.00690630312837">
        <ele>1129.5</ele>
        <time>2017-05-04T09:24:07.900000Z</time>
      </trkpt>
      <trkpt lat="37.84777064221304" lon="112.00685659832939">
        <ele>1131.5</ele>
        <time>2017-05-04T09:24:16.900000Z</time>
      </trkpt>
      <trkpt lat="37.847433846984764" lon="112.00679825116057">
        <ele>1131.5</ele>
        <time>2017-05-04T09:24:28.900000Z</time>
      </trkpt>
      <trkpt lat="37.847107140287534" lon="112.00672314352563">
        <ele>1132.9</ele>
        <time>2017-05-04T09:24:40.900000Z</time>
      </trkpt>
      <trkpt lat="37.84680396778337" lon="112.0066715502321">
        <ele>1134.7</ele>
        <time>2017-05-04T09:24:52.900000Z</time>
      </trkpt>
      <trkpt lat="37.84646712377054" lon="112.00662969218813">
        <ele>1135.7</ele>
        <time>2017-05-04T09:25:04.900000Z</time>
      </trkpt>
      <trkpt lat="37.846147175233575" lon="112.00656296355363">
        <ele>1137.0</ele>
        <time>2017-05-04T09:25:16.900000Z</time>
      </trkpt>
      <trkpt lat="37.845825662577155" lon="112.00647488063547">
        <ele>1140.8</ele>
        <time>2017-05-04T09:25:28.900000Z</time>
      </trkpt>
      <trkpt lat="37.84574734384203" lon="112.00644461521041">
        <ele>1141.0</ele>
        <time>2017-05-04T09:25:31.900000Z</time>
      </trkpt>
      <trkpt lat="37.84570226669748" lon="112.00645786579567">
        <ele>1138.0</ele>
        <time>2017-05-04T09:25:34.900000Z</time>
      </trkpt>
      <trkpt lat="37.845637181802644" lon="112.00644787207409">
        <ele>1137.9</ele>
        <time>2017-05-04T09:25:37.900000Z</time>
      </trkpt>
      <trkpt lat="37.845400689700874" lon="112.00632626071538">
        <ele>1142.09</ele>
        <time>2017-05-04T09:25:46.900000Z</time>
      </trkpt>
      <trkpt lat="37.84505716735953" lon="112.00624953370823">
        <ele>1142.2</ele>
        <time>2017-05-04T09:25:58.900000Z</time>
      </trkpt>
      <trkpt lat="37.84474700593817" lon="112.0061763168223">
        <ele>1142.0</ele>
        <time>2017-05-04T09:26:10.900000Z</time>
      </trkpt>
      <trkpt lat="37.84459892976169" lon="112.00615633159038">
        <ele>1140.9</ele>
        <time>2017-05-04T09:26:16.900000Z</time>
      </trkpt>
      <trkpt lat="37.844287201015625" lon="112.00624475995909">
        <ele>1142.9</ele>
        <time>2017-05-04T09:26:28.900000Z</time>
      </trkpt>
      <trkpt lat="37.843982166540634" lon="112.00636292174106">
        <ele>1143.3</ele>
        <time>2017-05-04T09:26:40.900000Z</time>
      </trkpt>
      <trkpt lat="37.84370705770865" lon="112.00654487346245">
        <ele>1141.9</ele>
        <time>2017-05-04T09:26:52.900000Z</time>
      </trkpt>
      <trkpt lat="37.8434720992712" lon="112.00672817242246">
        <ele>1136.8</ele>
        <time>2017-05-04T09:27:04.900000Z</time>
      </trkpt>
      <trkpt lat="37.84320071079991" lon="112.00693661524843">
        <ele>1139.5</ele>
        <time>2017-05-04T09:27:16.900000Z</time>
      </trkpt>
      <trkpt lat="37.842933980948615" lon="112.00712965030716">
        <ele>1138.59</ele>
        <time>2017-05-04T09:27:28.900000Z</time>
      </trkpt>
      <trkpt lat="37.84264735033732" lon="112.00735485564347">
        <ele>1135.0</ele>
        <time>2017-05-04T09:27:43.900000Z</time>
      </trkpt>
      <trkpt lat="37.84237892866365" lon="112.00756978760455">
        <ele>1136.59</ele>
        <time>2017-05-04T09:27:55.900000Z</time>
      </trkpt>
      <trkpt lat="37.842092354613406" lon="112.00777634264858">
        <ele>1136.8</ele>
        <time>2017-05-04T09:28:07.900000Z</time>
      </trkpt>
      <trkpt lat="37.8418321919572" lon="112.00795126817242">
        <ele>1139.09</ele>
        <time>2017-05-04T09:28:19.900000Z</time>
      </trkpt>
      <trkpt lat="37.84161889124844" lon="112.00805996091484">
        <ele>1138.0</ele>
        <time>2017-05-04T09:28:29Z</time>
      </trkpt>
      <trkpt lat="37.84130559238271" lon="112.00812974009249">
        <ele>1138.3</ele>
        <time>2017-05-04T09:28:40.900000Z</time>
      </trkpt>
      <trkpt lat="37.841130557108016" lon="112.00814327683979">
        <ele>1139.9</ele>
        <time>2017-05-04T09:28:46.900000Z</time>
      </trkpt>
      <trkpt lat="37.840772309711596" lon="112.00809141870175">
        <ele>1141.2</ele>
        <time>2017-05-04T09:28:58.900000Z</time>
      </trkpt>
      <trkpt lat="37.84044065965259" lon="112.00803658394503">
        <ele>1143.7</ele>
        <time>2017-05-04T09:29:10.900000Z</time>
      </trkpt>
      <trkpt lat="37.84020413150504" lon="112.008018230629">
        <ele>1147.7</ele>
        <time>2017-05-04T09:29:19.900000Z</time>
      </trkpt>
      <trkpt lat="37.83988224463325" lon="112.00805638370502">
        <ele>1150.0</ele>
        <time>2017-05-04T09:29:31.900000Z</time>
      </trkpt>
      <trkpt lat="37.839570632413555" lon="112.00810642952943">
        <ele>1152.8</ele>
        <time>2017-05-04T09:29:43.900000Z</time>
      </trkpt>
      <trkpt lat="37.8393521781066" lon="112.00812321525787">
        <ele>1154.09</ele>
        <time>2017-05-04T09:29:52.900000Z</time>
      </trkpt>
      <trkpt lat="37.839394118332216" lon="112.00816132498544">
        <ele>1155.4</ele>
        <time>2017-05-04T09:29:59Z</time>
      </trkpt>
      <trkpt lat="37.83945732319509" lon="112.00816483156895">
        <ele>1155.09</ele>
        <time>2017-05-04T09:30:01.900000Z</time>
      </trkpt>
      <trkpt lat="37.83954728454359" lon="112.00820320590847">
        <ele>1151.5</ele>
        <time>2017-05-04T09:30:08Z</time>
      </trkpt>
      <trkpt lat="37.8398723781849" lon="112.00818154171955">
        <ele>1147.4</ele>
        <time>2017-05-04T09:30:19.900000Z</time>
      </trkpt>
      <trkpt lat="37.84021890621531" lon="112.0081596046631">
        <ele>1142.59</ele>
        <time>2017-05-04T09:30:31.900000Z</time>
      </trkpt>
      <trkpt lat="37.84050393893485" lon="112.00819822603727">
        <ele>1140.59</ele>
        <time>2017-05-04T09:30:40.900000Z</time>
      </trkpt>
      <trkpt lat="37.84054912935161" lon="112.00823822764299">
        <ele>1138.3</ele>
        <time>2017-05-04T09:30:43.900000Z</time>
      </trkpt>
      <trkpt lat="37.84084387175555" lon="112.00829631078908">
        <ele>1135.5</ele>
        <time>2017-05-04T09:30:55.900000Z</time>
      </trkpt>
      <trkpt lat="37.841178934549454" lon="112.00829816302837">
        <ele>1135.3</ele>
        <time>2017-05-04T09:31:07.900000Z</time>
      </trkpt>
      <trkpt lat="37.84136401709113" lon="112.00828165155161">
        <ele>1132.5</ele>
        <time>2017-05-04T09:31:13.900000Z</time>
      </trkpt>
      <trkpt lat="37.84165900595302" lon="112.00816483915989">
        <ele>1134.3</ele>
        <time>2017-05-04T09:31:22.900000Z</time>
      </trkpt>
      <trkpt lat="37.841903905867326" lon="112.00801316210277">
        <ele>1136.8</ele>
        <time>2017-05-04T09:31:31.900000Z</time>
      </trkpt>
      <trkpt lat="37.842072138670666" lon="112.00791474683562">
        <ele>1136.7</ele>
        <time>2017-05-04T09:31:37.900000Z</time>
      </trkpt>
      <trkpt lat="37.842377472902825" lon="112.00769467334557">
        <ele>1135.59</ele>
        <time>2017-05-04T09:31:49.900000Z</time>
      </trkpt>
      <trkpt lat="37.84266910341465" lon="112.00752136664825">
        <ele>1132.7</ele>
        <time>2017-05-04T09:32:01.900000Z</time>
      </trkpt>
      <trkpt lat="37.842920836393525" lon="112.00735320113243">
        <ele>1131.59</ele>
        <time>2017-05-04T09:32:10.900000Z</time>
      </trkpt>
      <trkpt lat="37.843218906312" lon="112.0071131272242">
        <ele>1132.2</ele>
        <time>2017-05-04T09:32:22.900000Z</time>
      </trkpt>
      <trkpt lat="37.84345035135943" lon="112.00692496204326">
        <ele>1131.8</ele>
        <time>2017-05-04T09:32:31.900000Z</time>
      </trkpt>
      <trkpt lat="37.84372550928155" lon="112.00672625001663">
        <ele>1129.7</ele>
        <time>2017-05-04T09:32:43.900000Z</time>
      </trkpt>
      <trkpt lat="37.84394551586194" lon="112.00655295434538">
        <ele>1130.9</ele>
        <time>2017-05-04T09:32:52.900000Z</time>
      </trkpt>
      <trkpt lat="37.84425385093724" lon="112.00641965447684">
        <ele>1130.5</ele>
        <time>2017-05-04T09:33:04.900000Z</time>
      </trkpt>
      <trkpt lat="37.84450383423609" lon="112.00629311956321">
        <ele>1130.59</ele>
        <time>2017-05-04T09:33:13.900000Z</time>
      </trkpt>
      <trkpt lat="37.84458554400602" lon="112.00627797247115">
        <ele>1130.2</ele>
        <time>2017-05-04T09:33:16.900000Z</time>
      </trkpt>
      <trkpt lat="37.84463048733556" lon="112.00630959335854">
        <ele>1127.0</ele>
        <time>2017-05-04T09:33:19.900000Z</time>
      </trkpt>
      <trkpt lat="37.844873905495604" lon="112.00638308864805">
        <ele>1128.9</ele>
        <time>2017-05-04T09:33:31.900000Z</time>
      </trkpt>
      <trkpt lat="37.845019061785756" lon="112.00638144947511">
        <ele>1131.59</ele>
        <time>2017-05-04T09:33:37.900000Z</time>
      </trkpt>
      <trkpt lat="37.84523380083496" lon="112.00642818753103">
        <ele>1136.8</ele>
        <time>2017-05-04T09:33:46.900000Z</time>
      </trkpt>
      <trkpt lat="37.84541389265849" lon="112.00644789870616">
        <ele>1138.5</ele>
        <time>2017-05-04T09:33:52.900000Z</time>
      </trkpt>
      <trkpt lat="37.84568551775702" lon="112.0065246344955">
        <ele>1139.59</ele>
        <time>2017-05-04T09:34:01.900000Z</time>
      </trkpt>
      <trkpt lat="37.84601880873206" lon="112.00666623766733">
        <ele>1137.7</ele>
        <time>2017-05-04T09:34:13.900000Z</time>
      </trkpt>
      <trkpt lat="37.84628915160133" lon="112.0067181051878">
        <ele>1136.4</ele>
        <time>2017-05-04T09:34:22.900000Z</time>
      </trkpt>
      <trkpt lat="37.846577012985655" lon="112.00671807084893">
        <ele>1137.4</ele>
        <time>2017-05-04T09:34:31.900000Z</time>
      </trkpt>
      <trkpt lat="37.846882380909015" lon="112.00676128425638">
        <ele>1139.09</ele>
        <time>2017-05-04T09:34:43.900000Z</time>
      </trkpt>
      <trkpt lat="37.84715222560853" lon="112.00679828475742">
        <ele>1141.2</ele>
        <time>2017-05-04T09:34:52.900000Z</time>
      </trkpt>
      <trkpt lat="37.84748554440462" lon="112.00683960269372">
        <ele>1142.3</ele>
        <time>2017-05-04T09:35:04.900000Z</time>
      </trkpt>
      <trkpt lat="37.84776707574776" lon="112.00686984403981">
        <ele>1145.5</ele>
        <time>2017-05-04T09:35:13.900000Z</time>
      </trkpt>
      <trkpt lat="37.848012207959364" lon="112.00691468659424">
        <ele>1146.5</ele>
        <time>2017-05-04T09:35:22.900000Z</time>
      </trkpt>
      <trkpt lat="37.848223957218835" lon="112.00705468315732">
        <ele>1147.59</ele>
        <time>2017-05-04T09:35:31.900000Z</time>
      </trkpt>
      <trkpt lat="37.84845203736023" lon="112.00735983964242">
        <ele>1146.59</ele>
        <time>2017-05-04T09:35:43.900000Z</time>
      </trkpt>
      <trkpt lat="37.84864056302084" lon="112.00755471374664">
        <ele>1146.0</ele>
        <time>2017-05-04T09:35:52.900000Z</time>
      </trkpt>
      <trkpt lat="37.84876052633971" lon="112.00763146884432">
        <ele>1145.9</ele>
        <time>2017-05-04T09:35:56.700000Z</time>
      </trkpt>
      <trkpt lat="37.84895405854598" lon="112.00787662190542">
        <ele>1144.5</ele>
        <time>2017-05-04T09:36:05.900000Z</time>
      </trkpt>
      <trkpt lat="37.84909553964232" lon="112.0081082662526">
        <ele>1141.4</ele>
        <time>2017-05-04T09:36:14.900000Z</time>
      </trkpt>
      <trkpt lat="37.84911724460302" lon="112.00819990118407">
        <ele>1139.7</ele>
        <time>2017-05-04T09:36:17.900000Z</time>
      </trkpt>
      <trkpt lat="37.84934220276353" lon="112.0084612717652">
        <ele>1137.4</ele>
        <time>2017-05-04T09:36:29.900000Z</time>
      </trkpt>
      <trkpt lat="37.849499129582505" lon="112.00869994471422">
        <ele>1136.2</ele>
        <time>2017-05-04T09:36:38.900000Z</time>
      </trkpt>
      <trkpt lat="37.84966563958764" lon="112.00909324101612">
        <ele>1133.2</ele>
        <time>2017-05-04T09:36:50.900000Z</time>
      </trkpt>
      <trkpt lat="37.84978424650314" lon="112.00935462810125">
        <ele>1132.0</ele>
        <time>2017-05-04T09:36:59.900000Z</time>
      </trkpt>
      <trkpt lat="37.8498658016429" lon="112.0096684635826">
        <ele>1134.0</ele>
        <time>2017-05-04T09:37:08.900000Z</time>
      </trkpt>
      <trkpt lat="37.84988574555075" lon="112.01008313958293">
        <ele>1134.5</ele>
        <time>2017-05-04T09:37:20.900000Z</time>
      </trkpt>
      <trkpt lat="37.84990253515655" lon="112.0101864021552">
        <ele>1133.8</ele>
        <time>2017-05-04T09:37:23.900000Z</time>
      </trkpt>
      <trkpt lat="37.8498957096693" lon="112.01029345231468">
        <ele>1133.3</ele>
        <time>2017-05-04T09:37:26.900000Z</time>
      </trkpt>
      <trkpt lat="37.84991257885996" lon="112.01055485701048">
        <ele>1129.09</ele>
        <time>2017-05-04T09:37:32.900000Z</time>
      </trkpt>
      <trkpt lat="37.849867450161604" lon="112.0109568418517">
        <ele>1131.4</ele>
        <time>2017-05-04T09:37:44.900000Z</time>
      </trkpt>
      <trkpt lat="37.84983421500963" lon="112.01128178365275">
        <ele>1129.0</ele>
        <time>2017-05-04T09:37:53.900000Z</time>
      </trkpt>
      <trkpt lat="37.84982423597291" lon="112.01172675286726">
        <ele>1123.9</ele>
        <time>2017-05-04T09:38:05.900000Z</time>
      </trkpt>
      <trkpt lat="37.84978767573652" lon="112.01207684108265">
        <ele>1127.4</ele>
        <time>2017-05-04T09:38:14.900000Z</time>
      </trkpt>
      <trkpt lat="37.84974748447247" lon="112.0124634277634">
        <ele>1133.5</ele>
        <time>2017-05-04T09:38:23.900000Z</time>
      </trkpt>
      <trkpt lat="37.84968419561368" lon="112.01295707501578">
        <ele>1136.8</ele>
        <time>2017-05-04T09:38:32.900000Z</time>
      </trkpt>
      <trkpt lat="37.84967098125957" lon="112.01311711857056">
        <ele>1137.5</ele>
        <time>2017-05-04T09:38:35.900000Z</time>
      </trkpt>
      <trkpt lat="37.849637811231766" lon="112.0132352619708">
        <ele>1139.09</ele>
        <time>2017-05-04T09:38:38.900000Z</time>
      </trkpt>
      <trkpt lat="37.84960275790337" lon="112.01363023787404">
        <ele>1139.0</ele>
        <time>2017-05-04T09:38:50.900000Z</time>
      </trkpt>
      <trkpt lat="37.84957783664163" lon="112.01399358530854">
        <ele>1135.09</ele>
        <time>2017-05-04T09:39:02.900000Z</time>
      </trkpt>
      <trkpt lat="37.84959267637536" lon="112.0144001866555">
        <ele>1122.9</ele>
        <time>2017-05-04T09:39:14.900000Z</time>
      </trkpt>
      <trkpt lat="37.84953616236639" lon="112.01480734087666">
        <ele>1121.8</ele>
        <time>2017-05-04T09:39:26.900000Z</time>
      </trkpt>
      <trkpt lat="37.84950796030012" lon="112.01518205295618">
        <ele>1121.0</ele>
        <time>2017-05-04T09:39:38.900000Z</time>
      </trkpt>
      <trkpt lat="37.84944606493451" lon="112.0155754268343">
        <ele>1120.0</ele>
        <time>2017-05-04T09:39:50.900000Z</time>
      </trkpt>
      <trkpt lat="37.849381331034245" lon="112.01601395455079">
        <ele>1120.2</ele>
        <time>2017-05-04T09:40:02.900000Z</time>
      </trkpt>
      <trkpt lat="37.849342951617075" lon="112.01644058772274">
        <ele>1120.9</ele>
        <time>2017-05-04T09:40:14.900000Z</time>
      </trkpt>
      <trkpt lat="37.84932785320677" lon="112.01679070939076">
        <ele>1121.3</ele>
        <time>2017-05-04T09:40:23.900000Z</time>
      </trkpt>
      <trkpt lat="37.84930617339091" lon="112.01697401916833">
        <ele>1121.0</ele>
        <time>2017-05-04T09:40:29.900000Z</time>
      </trkpt>
      <trkpt lat="37.84923967886891" lon="112.0173674103707">
        <ele>1122.59</ele>
        <time>2017-05-04T09:40:41.900000Z</time>
      </trkpt>
      <trkpt lat="37.849226346400584" lon="112.01747745181311">
        <ele>1122.59</ele>
        <time>2017-05-04T09:40:44.900000Z</time>
      </trkpt>
      <trkpt lat="37.84919649225005" lon="112.017577491875">
        <ele>1122.09</ele>
        <time>2017-05-04T09:40:47.900000Z</time>
      </trkpt>
      <trkpt lat="37.84919133298984" lon="112.01767563663937">
        <ele>1122.0</ele>
        <time>2017-05-04T09:40:50.900000Z</time>
      </trkpt>
      <trkpt lat="37.84924793441385" lon="112.01761560778874">
        <ele>1122.4</ele>
        <time>2017-05-04T09:40:59.900000Z</time>
      </trkpt>
      <trkpt lat="37.849318089122605" lon="112.01727060942052">
        <ele>1119.5</ele>
        <time>2017-05-04T09:41:11.900000Z</time>
      </trkpt>
      <trkpt lat="37.849382909189835" lon="112.01689398196176">
        <ele>1119.09</ele>
        <time>2017-05-04T09:41:23.900000Z</time>
      </trkpt>
      <trkpt lat="37.849416349318865" lon="112.01648572935801">
        <ele>1121.5</ele>
        <time>2017-05-04T09:41:35.900000Z</time>
      </trkpt>
      <trkpt lat="37.84945776238838" lon="112.01613722925754">
        <ele>1121.4</ele>
        <time>2017-05-04T09:41:47.900000Z</time>
      </trkpt>
      <trkpt lat="37.84949798262389" lon="112.01573195713169">
        <ele>1120.4</ele>
        <time>2017-05-04T09:41:59.900000Z</time>
      </trkpt>
      <trkpt lat="37.849531188754504" lon="112.0153137126466">
        <ele>1122.3</ele>
        <time>2017-05-04T09:42:11.900000Z</time>
      </trkpt>
      <trkpt lat="37.84953286891151" lon="112.0151052695777">
        <ele>1121.59</ele>
        <time>2017-05-04T09:42:17.900000Z</time>
      </trkpt>
      <trkpt lat="37.84960608527592" lon="112.01473893364015">
        <ele>1115.5</ele>
        <time>2017-05-04T09:42:29.900000Z</time>
      </trkpt>
      <trkpt lat="37.84963944440709" lon="112.01455373956155">
        <ele>1116.4</ele>
        <time>2017-05-04T09:42:35.900000Z</time>
      </trkpt>
      <trkpt lat="37.849679370566164" lon="112.01416037732916">
        <ele>1118.7</ele>
        <time>2017-05-04T09:42:47.900000Z</time>
      </trkpt>
      <trkpt lat="37.84970250681515" lon="112.0137570176937">
        <ele>1120.2</ele>
        <time>2017-05-04T09:42:59.900000Z</time>
      </trkpt>
      <trkpt lat="37.849717667738425" lon="112.01339178085529">
        <ele>1120.8</ele>
        <time>2017-05-04T09:43:11.900000Z</time>
      </trkpt>
      <trkpt lat="37.84977443225554" lon="112.01299518228008">
        <ele>1119.9</ele>
        <time>2017-05-04T09:43:23.900000Z</time>
      </trkpt>
      <trkpt lat="37.84979098544283" lon="112.01290029072362">
        <ele>1120.5</ele>
        <time>2017-05-04T09:43:26.900000Z</time>
      </trkpt>
      <trkpt lat="37.84980577812812" lon="112.01247666735694">
        <ele>1121.7</ele>
        <time>2017-05-04T09:43:38.900000Z</time>
      </trkpt>
      <trkpt lat="37.849834157298766" lon="112.01204682824455">
        <ele>1123.3</ele>
        <time>2017-05-04T09:43:50.900000Z</time>
      </trkpt>
      <trkpt lat="37.849880867249006" lon="112.0116586219501">
        <ele>1124.9</ele>
        <time>2017-05-04T09:44:02.900000Z</time>
      </trkpt>
      <trkpt lat="37.84991253828024" lon="112.0112182463569">
        <ele>1126.9</ele>
        <time>2017-05-04T09:44:14.900000Z</time>
      </trkpt>
      <trkpt lat="37.849949307774224" lon="112.01079814850267">
        <ele>1127.3</ele>
        <time>2017-05-04T09:44:26.900000Z</time>
      </trkpt>
      <trkpt lat="37.84995725654746" lon="112.01039995385487">
        <ele>1129.3</ele>
        <time>2017-05-04T09:44:38.900000Z</time>
      </trkpt>
      <trkpt lat="37.84998416516926" lon="112.01019828676378">
        <ele>1132.9</ele>
        <time>2017-05-04T09:44:44.900000Z</time>
      </trkpt>
      <trkpt lat="37.84997398241218" lon="112.00997013293902">
        <ele>1132.09</ele>
        <time>2017-05-04T09:44:50.900000Z</time>
      </trkpt>
      <trkpt lat="37.84998405856002" lon="112.00986497527711">
        <ele>1132.4</ele>
        <time>2017-05-04T09:44:53.900000Z</time>
      </trkpt>
      <trkpt lat="37.84994916029032" lon="112.00946165619784">
        <ele>1131.2</ele>
        <time>2017-05-04T09:45:05.900000Z</time>
      </trkpt>
      <trkpt lat="37.849922318821896" lon="112.00936326193003">
        <ele>1130.9</ele>
        <time>2017-05-04T09:45:08.900000Z</time>
      </trkpt>
      <trkpt lat="37.849725544263684" lon="112.00901997684007">
        <ele>1131.4</ele>
        <time>2017-05-04T09:45:20.900000Z</time>
      </trkpt>
      <trkpt lat="37.84953247619674" lon="112.00870832063859">
        <ele>1132.8</ele>
        <time>2017-05-04T09:45:32.900000Z</time>
      </trkpt>
      <trkpt lat="37.84941218087248" lon="112.0085599297375">
        <ele>1134.09</ele>
        <time>2017-05-04T09:45:38.900000Z</time>
      </trkpt>
      <trkpt lat="37.84928895073719" lon="112.00830314200526">
        <ele>1135.0</ele>
        <time>2017-05-04T09:45:47.900000Z</time>
      </trkpt>
      <trkpt lat="37.84921739308584" lon="112.00818826558296">
        <ele>1131.09</ele>
        <time>2017-05-04T09:45:53.900000Z</time>
      </trkpt>
      <trkpt lat="37.84919911193629" lon="112.00813150115353">
        <ele>1129.2</ele>
        <time>2017-05-04T09:45:56.900000Z</time>
      </trkpt>
      <trkpt lat="37.84899378946107" lon="112.00783634009045">
        <ele>1128.5</ele>
        <time>2017-05-04T09:46:08.900000Z</time>
      </trkpt>
      <trkpt lat="37.84880403071069" lon="112.00750820012912">
        <ele>1129.0</ele>
        <time>2017-05-04T09:46:20.900000Z</time>
      </trkpt>
      <trkpt lat="37.84856703125359" lon="112.00719142057461">
        <ele>1134.4</ele>
        <time>2017-05-04T09:46:32.900000Z</time>
      </trkpt>
      <trkpt lat="37.848362283188564" lon="112.00697789789476">
        <ele>1136.59</ele>
        <time>2017-05-04T09:46:41.900000Z</time>
      </trkpt>
      <trkpt lat="37.84821387698372" lon="112.0068862797655">
        <ele>1138.2</ele>
        <time>2017-05-04T09:46:47.900000Z</time>
      </trkpt>
      <trkpt lat="37.847878798009084" lon="112.00679819807802">
        <ele>1141.7</ele>
        <time>2017-05-04T09:46:59.900000Z</time>
      </trkpt>
      <trkpt lat="37.84759065207177" lon="112.00671146245624">
        <ele>1149.59</ele>
        <time>2017-05-04T09:47:11.900000Z</time>
      </trkpt>
      <trkpt lat="37.84728390815852" lon="112.00667473671429">
        <ele>1146.5</ele>
        <time>2017-05-04T09:47:23.900000Z</time>
      </trkpt>
      <trkpt lat="37.846977159489555" lon="112.00663963285702">
        <ele>1141.2</ele>
        <time>2017-05-04T09:47:35.900000Z</time>
      </trkpt>
      <trkpt lat="37.84668886892795" lon="112.00660155339351">
        <ele>1140.2</ele>
        <time>2017-05-04T09:47:47.900000Z</time>
      </trkpt>
      <trkpt lat="37.84644226778837" lon="112.00659455472498">
        <ele>1141.0</ele>
        <time>2017-05-04T09:47:56.900000Z</time>
      </trkpt>
      <trkpt lat="37.84636381370974" lon="112.00660970149634">
        <ele>1140.5</ele>
        <time>2017-05-04T09:47:59.900000Z</time>
      </trkpt>
      <trkpt lat="37.84620893517833" lon="112.00659620442315">
        <ele>1138.4</ele>
        <time>2017-05-04T09:48:05.900000Z</time>
      </trkpt>
      <trkpt lat="37.84591537317896" lon="112.00650622595667">
        <ele>1137.3</ele>
        <time>2017-05-04T09:48:17.900000Z</time>
      </trkpt>
      <trkpt lat="37.84563076378834" lon="112.00641651684333">
        <ele>1137.59</ele>
        <time>2017-05-04T09:48:29.900000Z</time>
      </trkpt>
      <trkpt lat="37.84530201141133" lon="112.00629978211707">
        <ele>1137.4</ele>
        <time>2017-05-04T09:48:41.900000Z</time>
      </trkpt>
      <trkpt lat="37.84498723841883" lon="112.00622629542292">
        <ele>1140.3</ele>
        <time>2017-05-04T09:48:53.900000Z</time>
      </trkpt>
      <trkpt lat="37.84483381581486" lon="112.00617955018231">
        <ele>1139.8</ele>
        <time>2017-05-04T09:48:59.900000Z</time>
      </trkpt>
      <trkpt lat="37.8446086622836" lon="112.00616795373038">
        <ele>1141.9</ele>
        <time>2017-05-04T09:49:08.900000Z</time>
      </trkpt>
      <trkpt lat="37.844338991591876" lon="112.00625475523965">
        <ele>1143.9</ele>
        <time>2017-05-04T09:49:20.900000Z</time>
      </trkpt>
      <trkpt lat="37.844177091935364" lon="112.00632127075545">
        <ele>1133.8</ele>
        <time>2017-05-04T09:49:29.900000Z</time>
      </trkpt>
      <trkpt lat="37.844105460191955" lon="112.00632317146756">
        <ele>1132.09</ele>
        <time>2017-05-04T09:49:32.900000Z</time>
      </trkpt>
      <trkpt lat="37.843832034702785" lon="112.0064864714561">
        <ele>1134.4</ele>
        <time>2017-05-04T09:49:44.900000Z</time>
      </trkpt>
      <trkpt lat="37.84354737230604" lon="112.00668788704714">
        <ele>1134.4</ele>
        <time>2017-05-04T09:49:56.900000Z</time>
      </trkpt>
      <trkpt lat="37.8432903334452" lon="112.00690632958911">
        <ele>1132.59</ele>
        <time>2017-05-04T09:50:08.900000Z</time>
      </trkpt>
      <trkpt lat="37.84304225806057" lon="112.00712152799974">
        <ele>1133.0</ele>
        <time>2017-05-04T09:50:20.900000Z</time>
      </trkpt>
      <trkpt lat="37.842787199822936" lon="112.00731294031044">
        <ele>1135.09</ele>
        <time>2017-05-04T09:50:32.900000Z</time>
      </trkpt>
      <trkpt lat="37.84258565284956" lon="112.00748326225353">
        <ele>1139.5</ele>
        <time>2017-05-04T09:50:41.900000Z</time>
      </trkpt>
      <trkpt lat="37.842445499259725" lon="112.0075362606323">
        <ele>1143.3</ele>
        <time>2017-05-04T09:50:47.900000Z</time>
      </trkpt>
      <trkpt lat="37.842137258743485" lon="112.0077298430106">
        <ele>1149.59</ele>
        <time>2017-05-04T09:50:59.900000Z</time>
      </trkpt>
      <trkpt lat="37.8418522040658" lon="112.00797316141745">
        <ele>1155.09</ele>
        <time>2017-05-04T09:51:11.900000Z</time>
      </trkpt>
      <trkpt lat="37.84157914221828" lon="112.00810646017693">
        <ele>1152.9</ele>
        <time>2017-05-04T09:51:23.900000Z</time>
      </trkpt>
      <trkpt lat="37.841240389030006" lon="112.0081597530864">
        <ele>1155.2</ele>
        <time>2017-05-04T09:51:35.900000Z</time>
      </trkpt>
      <trkpt lat="37.84108389170952" lon="112.00814328240844">
        <ele>1153.9</ele>
        <time>2017-05-04T09:51:41.900000Z</time>
      </trkpt>
      <trkpt lat="37.84121076177128" lon="112.00817813820092">
        <ele>1153.8</ele>
        <time>2017-05-04T09:51:53.900000Z</time>
      </trkpt>
      <trkpt lat="37.841520816063074" lon="112.0081962124673">
        <ele>1153.4</ele>
        <time>2017-05-04T09:52:05.900000Z</time>
      </trkpt>
      <trkpt lat="37.84160577066877" lon="112.00818457867986">
        <ele>1153.09</ele>
        <time>2017-05-04T09:52:08.900000Z</time>
      </trkpt>
      <trkpt lat="37.84190411312016" lon="112.00803478741531">
        <ele>1149.7</ele>
        <time>2017-05-04T09:52:20.900000Z</time>
      </trkpt>
      <trkpt lat="37.84208400744885" lon="112.00793799262149">
        <ele>1150.0</ele>
        <time>2017-05-04T09:52:26.900000Z</time>
      </trkpt>
      <trkpt lat="37.84214911238936" lon="112.00794122864903">
        <ele>1147.0</ele>
        <time>2017-05-04T09:52:29.900000Z</time>
      </trkpt>
      <trkpt lat="37.84245383420093" lon="112.00774467259075">
        <ele>1142.3</ele>
        <time>2017-05-04T09:52:41.900000Z</time>
      </trkpt>
      <trkpt lat="37.84261554068594" lon="112.0076513945008">
        <ele>1140.4</ele>
        <time>2017-05-04T09:52:47.900000Z</time>
      </trkpt>
      <trkpt lat="37.842852446004684" lon="112.00745133332367">
        <ele>1139.2</ele>
        <time>2017-05-04T09:52:56.900000Z</time>
      </trkpt>
      <trkpt lat="37.84314234177296" lon="112.00722288351501">
        <ele>1138.0</ele>
        <time>2017-05-04T09:53:08.900000Z</time>
      </trkpt>
      <trkpt lat="37.84342381630091" lon="112.00699821986255">
        <ele>1135.0</ele>
        <time>2017-05-04T09:53:20.900000Z</time>
      </trkpt>
      <trkpt lat="37.843706995759064" lon="112.00674787714485">
        <ele>1137.0</ele>
        <time>2017-05-04T09:53:32.900000Z</time>
      </trkpt>
      <trkpt lat="37.84397724394366" lon="112.00655808646644">
        <ele>1136.4</ele>
        <time>2017-05-04T09:53:44.900000Z</time>
      </trkpt>
      <trkpt lat="37.844117227632566" lon="112.00647130005395">
        <ele>1138.8</ele>
        <time>2017-05-04T09:53:50.900000Z</time>
      </trkpt>
      <trkpt lat="37.84442200599738" lon="112.00634800223335">
        <ele>1138.8</ele>
        <time>2017-05-04T09:54:02.900000Z</time>
      </trkpt>
      <trkpt lat="37.84456732102409" lon="112.00629311199185">
        <ele>1138.8</ele>
        <time>2017-05-04T09:54:08.900000Z</time>
      </trkpt>
      <trkpt lat="37.844702182781106" lon="112.00628633816355">
        <ele>1141.09</ele>
        <time>2017-05-04T09:54:14.900000Z</time>
      </trkpt>
      <trkpt lat="37.84486885937402" lon="112.0063465973906">
        <ele>1146.2</ele>
        <time>2017-05-04T09:54:26.900000Z</time>
      </trkpt>
      <trkpt lat="37.845169022725344" lon="112.00640630012585">
        <ele>1147.0</ele>
        <time>2017-05-04T09:54:38.900000Z</time>
      </trkpt>
      <trkpt lat="37.84550732103712" lon="112.0065062746273">
        <ele>1142.7</ele>
        <time>2017-05-04T09:54:50.900000Z</time>
      </trkpt>
      <trkpt lat="37.8456989786272" lon="112.00655977328461">
        <ele>1140.7</ele>
        <time>2017-05-04T09:54:56.900000Z</time>
      </trkpt>
      <trkpt lat="37.84593874211227" lon="112.00667624873314">
        <ele>1138.8</ele>
        <time>2017-05-04T09:55:05.900000Z</time>
      </trkpt>
      <trkpt lat="37.84629215131785" lon="112.00671296891367">
        <ele>1137.3</ele>
        <time>2017-05-04T09:55:17.900000Z</time>
      </trkpt>
      <trkpt lat="37.846563743675844" lon="112.00670969277924">
        <ele>1138.59</ele>
        <time>2017-05-04T09:55:26.900000Z</time>
      </trkpt>
      <trkpt lat="37.84685214290439" lon="112.00671128024408">
        <ele>1140.09</ele>
        <time>2017-05-04T09:55:35.900000Z</time>
      </trkpt>
      <trkpt lat="37.84714066944687" lon="112.00676125344394">
        <ele>1141.5</ele>
        <time>2017-05-04T09:55:47.900000Z</time>
      </trkpt>
      <trkpt lat="37.84746386441723" lon="112.00683122561335">
        <ele>1137.8</ele>
        <time>2017-05-04T09:55:59.900000Z</time>
      </trkpt>
      <trkpt lat="37.847805626933464" lon="112.00686145977016">
        <ele>1138.3</ele>
        <time>2017-05-04T09:56:11.900000Z</time>
      </trkpt>
      <trkpt lat="37.848052155114" lon="112.0068930568609">
        <ele>1140.9</ele>
        <time>2017-05-04T09:56:20.900000Z</time>
      </trkpt>
      <trkpt lat="37.84812911835937" lon="112.00692305232258">
        <ele>1143.0</ele>
        <time>2017-05-04T09:56:24.100000Z</time>
      </trkpt>
      <trkpt lat="37.84836409597321" lon="112.00709818679185">
        <ele>1145.9</ele>
        <time>2017-05-04T09:56:33.900000Z</time>
      </trkpt>
      <trkpt lat="37.84843392082846" lon="112.00715656606121">
        <ele>1147.5</ele>
        <time>2017-05-04T09:56:37Z</time>
      </trkpt>
      <trkpt lat="37.848642260605516" lon="112.00743982990289">
        <ele>1151.2</ele>
        <time>2017-05-04T09:56:48.900000Z</time>
      </trkpt>
      <trkpt lat="37.848888841076686" lon="112.00772822636984">
        <ele>1150.8</ele>
        <time>2017-05-04T09:57:00.900000Z</time>
      </trkpt>
      <trkpt lat="37.849093902251816" lon="112.00801987285637">
        <ele>1148.09</ele>
        <time>2017-05-04T09:57:12.900000Z</time>
      </trkpt>
      <trkpt lat="37.84909390216598" lon="112.00811151025192">
        <ele>1148.9</ele>
        <time>2017-05-04T09:57:15.900000Z</time>
      </trkpt>
      <trkpt lat="37.84929917687955" lon="112.0084231620064">
        <ele>1146.7</ele>
        <time>2017-05-04T09:57:27.900000Z</time>
      </trkpt>
      <trkpt lat="37.84935050953504" lon="112.00849641218714">
        <ele>1146.7</ele>
        <time>2017-05-04T09:57:30.900000Z</time>
      </trkpt>
      <trkpt lat="37.84937710813964" lon="112.00858480327057">
        <ele>1146.2</ele>
        <time>2017-05-04T09:57:33.900000Z</time>
      </trkpt>
      <trkpt lat="37.849480518304695" lon="112.00875482182582">
        <ele>1142.8</ele>
        <time>2017-05-04T09:57:39.900000Z</time>
      </trkpt>
      <trkpt lat="37.8495022479491" lon="112.00883834809805">
        <ele>1142.59</ele>
        <time>2017-05-04T09:57:42.900000Z</time>
      </trkpt>
      <trkpt lat="37.84968580627078" lon="112.00915487189137">
        <ele>1141.9</ele>
        <time>2017-05-04T09:57:54.900000Z</time>
      </trkpt>
      <trkpt lat="37.84975906305882" lon="112.00933814144086">
        <ele>1141.2</ele>
        <time>2017-05-04T09:58:00.900000Z</time>
      </trkpt>
      <trkpt lat="37.84983570296309" lon="112.00975497089586">
        <ele>1141.09</ele>
        <time>2017-05-04T09:58:12.900000Z</time>
      </trkpt>
      <trkpt lat="37.84986744232874" lon="112.01021830486852">
        <ele>1139.0</ele>
        <time>2017-05-04T09:58:24.900000Z</time>
      </trkpt>
      <trkpt lat="37.84986243264442" lon="112.01063163625315">
        <ele>1135.7</ele>
        <time>2017-05-04T09:58:37Z</time>
      </trkpt>
      <trkpt lat="37.84985065547962" lon="112.01085492948746">
        <ele>1135.3</ele>
        <time>2017-05-04T09:58:42.900000Z</time>
      </trkpt>
      <trkpt lat="37.8498358184262" lon="112.01129016374747">
        <ele>1134.0</ele>
        <time>2017-05-04T09:58:54.900000Z</time>
      </trkpt>
      <trkpt lat="37.8497960683306" lon="112.01170999552349">
        <ele>1136.5</ele>
        <time>2017-05-04T09:59:07.200000Z</time>
      </trkpt>
      <trkpt lat="37.84977084968077" lon="112.01207846511014">
        <ele>1137.4</ele>
        <time>2017-05-04T09:59:16.900000Z</time>
      </trkpt>
      <trkpt lat="37.84971929233479" lon="112.01245505065688">
        <ele>1137.8</ele>
        <time>2017-05-04T09:59:28.900000Z</time>
      </trkpt>
      <trkpt lat="37.84967254806229" lon="112.01285678010231">
        <ele>1136.4</ele>
        <time>2017-05-04T09:59:40.900000Z</time>
      </trkpt>
      <trkpt lat="37.84964255511912" lon="112.01328365269639">
        <ele>1138.3</ele>
        <time>2017-05-04T09:59:52.900000Z</time>
      </trkpt>
      <trkpt lat="37.84964624247603" lon="112.01351019985424">
        <ele>1138.4</ele>
        <time>2017-05-04T09:59:58.900000Z</time>
      </trkpt>
      <trkpt lat="37.84961104164557" lon="112.01395708455493">
        <ele>1137.3</ele>
        <time>2017-05-04T10:00:10.900000Z</time>
      </trkpt>
      <trkpt lat="37.849592795032" lon="112.01435882325988">
        <ele>1137.2</ele>
        <time>2017-05-04T10:00:22.900000Z</time>
      </trkpt>
      <trkpt lat="37.84956424210806" lon="112.01476029638626">
        <ele>1134.3</ele>
        <time>2017-05-04T10:00:34.900000Z</time>
      </trkpt>
      <trkpt lat="37.8495194693487" lon="112.01504714526604">
        <ele>1132.9</ele>
        <time>2017-05-04T10:00:43.900000Z</time>
      </trkpt>
      <trkpt lat="37.84942784739394" lon="112.0153988867869">
        <ele>1132.09</ele>
        <time>2017-05-04T10:00:55.900000Z</time>
      </trkpt>
      <trkpt lat="37.84940612435076" lon="112.0155957083349">
        <ele>1131.0</ele>
        <time>2017-05-04T10:01:01.900000Z</time>
      </trkpt>
      <trkpt lat="37.849387774686434" lon="112.01594230871808">
        <ele>1128.8</ele>
        <time>2017-05-04T10:01:13.900000Z</time>
      </trkpt>
      <trkpt lat="37.849372860042436" lon="112.01632216588938">
        <ele>1128.5</ele>
        <time>2017-05-04T10:01:25.900000Z</time>
      </trkpt>
      <trkpt lat="37.849331101207234" lon="112.0166974335376">
        <ele>1128.0</ele>
        <time>2017-05-04T10:01:37.900000Z</time>
      </trkpt>
      <trkpt lat="37.84926134427767" lon="112.0170924446584">
        <ele>1128.2</ele>
        <time>2017-05-04T10:01:49.900000Z</time>
      </trkpt>
      <trkpt lat="37.84921293507308" lon="112.01751909019681">
        <ele>1124.7</ele>
        <time>2017-05-04T10:02:01.900000Z</time>
      </trkpt>
      <trkpt lat="37.84918817069414" lon="112.01793248923734">
        <ele>1125.7</ele>
        <time>2017-05-04T10:02:13.900000Z</time>
      </trkpt>
      <trkpt lat="37.8491813744094" lon="112.0180341499178">
        <ele>1126.7</ele>
        <time>2017-05-04T10:02:16.900000Z</time>
      </trkpt>
      <trkpt lat="37.84915482855927" lon="112.01811580562891">
        <ele>1124.7</ele>
        <time>2017-05-04T10:02:19.900000Z</time>
      </trkpt>
      <trkpt lat="37.84911490356013" lon="112.01851920886534">
        <ele>1123.3</ele>
        <time>2017-05-04T10:02:31.900000Z</time>
      </trkpt>
      <trkpt lat="37.8490982131457" lon="112.01895911465853">
        <ele>1123.09</ele>
        <time>2017-05-04T10:02:43.900000Z</time>
      </trkpt>
      <trkpt lat="37.849104926867135" lon="112.01917920284637">
        <ele>1124.0</ele>
        <time>2017-05-04T10:02:49.900000Z</time>
      </trkpt>
      <trkpt lat="37.84908333085116" lon="112.01953124234974">
        <ele>1124.3</ele>
        <time>2017-05-04T10:02:58.900000Z</time>
      </trkpt>
      <trkpt lat="37.84909489874185" lon="112.01986110960262">
        <ele>1123.0</ele>
        <time>2017-05-04T10:03:07.900000Z</time>
      </trkpt>
      <trkpt lat="37.84911001836168" lon="112.02018286775449">
        <ele>1122.8</ele>
        <time>2017-05-04T10:03:16.900000Z</time>
      </trkpt>
      <trkpt lat="37.849085032144096" lon="112.02048786937823">
        <ele>1123.59</ele>
        <time>2017-05-04T10:03:25.900000Z</time>
      </trkpt>
      <trkpt lat="37.84911530363943" lon="112.02082639561668">
        <ele>1124.09</ele>
        <time>2017-05-04T10:03:34.900000Z</time>
      </trkpt>
      <trkpt lat="37.84912847402841" lon="112.02106974816493">
        <ele>1123.4</ele>
        <time>2017-05-04T10:03:40.900000Z</time>
      </trkpt>
      <trkpt lat="37.849098304513376" lon="112.0212879607447">
        <ele>1123.0</ele>
        <time>2017-05-04T10:03:46.900000Z</time>
      </trkpt>
      <trkpt lat="37.8491000623137" lon="112.02173790251058">
        <ele>1121.0</ele>
        <time>2017-05-04T10:03:58.900000Z</time>
      </trkpt>
      <trkpt lat="37.84910187309611" lon="112.02217000352229">
        <ele>1119.2</ele>
        <time>2017-05-04T10:04:10.900000Z</time>
      </trkpt>
      <trkpt lat="37.84908530325578" lon="112.0225783164555">
        <ele>1118.59</ele>
        <time>2017-05-04T10:04:22.900000Z</time>
      </trkpt>
      <trkpt lat="37.8490805811351" lon="112.02302151576158">
        <ele>1118.0</ele>
        <time>2017-05-04T10:04:34.900000Z</time>
      </trkpt>
      <trkpt lat="37.84908056076527" lon="112.02312995027518">
        <ele>1118.3</ele>
        <time>2017-05-04T10:04:37.900000Z</time>
      </trkpt>
      <trkpt lat="37.849045456785596" lon="112.02357343100921">
        <ele>1122.09</ele>
        <time>2017-05-04T10:04:49.900000Z</time>
      </trkpt>
      <trkpt lat="37.84901712759995" lon="112.02381843072027">
        <ele>1125.2</ele>
        <time>2017-05-04T10:04:55.900000Z</time>
      </trkpt>
      <trkpt lat="37.84901866685604" lon="112.02415672318125">
        <ele>1126.2</ele>
        <time>2017-05-04T10:05:04.900000Z</time>
      </trkpt>
      <trkpt lat="37.84898882745959" lon="112.02425678202526">
        <ele>1126.9</ele>
        <time>2017-05-04T10:05:07.900000Z</time>
      </trkpt>
      <trkpt lat="37.8489888282967" lon="112.02435846012253">
        <ele>1127.0</ele>
        <time>2017-05-04T10:05:10.900000Z</time>
      </trkpt>
      <trkpt lat="37.8490271747067" lon="112.02452828029351">
        <ele>1123.09</ele>
        <time>2017-05-04T10:05:16.900000Z</time>
      </trkpt>
      <trkpt lat="37.8490204816575" lon="112.0245966980232">
        <ele>1123.3</ele>
        <time>2017-05-04T10:05:19.900000Z</time>
      </trkpt>
      <trkpt lat="37.84895715482181" lon="112.02463862121157">
        <ele>1125.09</ele>
        <time>2017-05-04T10:05:22.900000Z</time>
      </trkpt>
      <trkpt lat="37.8488822637245" lon="112.02484685681931">
        <ele>1125.5</ele>
        <time>2017-05-04T10:05:28.900000Z</time>
      </trkpt>
      <trkpt lat="37.84889577707791" lon="112.02507184965002">
        <ele>1124.8</ele>
        <time>2017-05-04T10:05:34.900000Z</time>
      </trkpt>
      <trkpt lat="37.848945713061354" lon="112.02527196026584">
        <ele>1126.7</ele>
        <time>2017-05-04T10:05:40.900000Z</time>
      </trkpt>
      <trkpt lat="37.84901414901783" lon="112.02535010604184">
        <ele>1128.5</ele>
        <time>2017-05-04T10:05:43.900000Z</time>
      </trkpt>
      <trkpt lat="37.849065666300184" lon="112.02546530299023">
        <ele>1128.4</ele>
        <time>2017-05-04T10:05:46.900000Z</time>
      </trkpt>
      <trkpt lat="37.84909575520081" lon="112.02568191488686">
        <ele>1129.3</ele>
        <time>2017-05-04T10:05:52.900000Z</time>
      </trkpt>
      <trkpt lat="37.849067306424345" lon="112.02587392583749">
        <ele>1130.4</ele>
        <time>2017-05-04T10:05:58.900000Z</time>
      </trkpt>
      <trkpt lat="37.84902070311143" lon="112.0259537095691">
        <ele>1131.09</ele>
        <time>2017-05-04T10:06:01.900000Z</time>
      </trkpt>
      <trkpt lat="37.84897600806857" lon="112.02613382497736">
        <ele>1132.3</ele>
        <time>2017-05-04T10:06:07.900000Z</time>
      </trkpt>
      <trkpt lat="37.84898398787889" lon="112.0262987906011">
        <ele>1132.8</ele>
        <time>2017-05-04T10:06:13.900000Z</time>
      </trkpt>
      <trkpt lat="37.848927372294355" lon="112.0263688408664">
        <ele>1131.9</ele>
        <time>2017-05-04T10:06:16.900000Z</time>
      </trkpt>
      <trkpt lat="37.84880736997093" lon="112.02640049659902">
        <ele>1130.9</ele>
        <time>2017-05-04T10:06:22.900000Z</time>
      </trkpt>
      <trkpt lat="37.84872258113179" lon="112.02645405369476">
        <ele>1129.8</ele>
        <time>2017-05-04T10:06:28.900000Z</time>
      </trkpt>
      <trkpt lat="37.848639041199114" lon="112.02654898802676">
        <ele>1129.3</ele>
        <time>2017-05-04T10:06:34.900000Z</time>
      </trkpt>
      <trkpt lat="37.84840565936533" lon="112.02667395962173">
        <ele>1129.59</ele>
        <time>2017-05-04T10:06:55.900000Z</time>
      </trkpt>
      <trkpt lat="37.84835746151616" lon="112.02663718544581">
        <ele>1123.7</ele>
        <time>2017-05-04T10:07:17Z</time>
      </trkpt>
      <trkpt lat="37.84828426542103" lon="112.02651062822025">
        <ele>1123.3</ele>
        <time>2017-05-04T10:07:31.900000Z</time>
      </trkpt>
      <trkpt lat="37.84831920407391" lon="112.0265338818396">
        <ele>1121.8</ele>
        <time>2017-05-04T10:07:43.900000Z</time>
      </trkpt>
      <trkpt lat="37.84828081889792" lon="112.02658391787055">
        <ele>1120.8</ele>
        <time>2017-05-04T10:08:01.900000Z</time>
      </trkpt>
      <trkpt lat="37.84820434348163" lon="112.0265706754915">
        <ele>1119.5</ele>
        <time>2017-05-04T10:08:07.900000Z</time>
      </trkpt>
      <trkpt lat="37.848052451017644" lon="112.0264503481032">
        <ele>1118.3</ele>
        <time>2017-05-04T10:08:37.900000Z</time>
      </trkpt>
      <trkpt lat="37.84800741328018" lon="112.02645035351709">
        <ele>1118.59</ele>
        <time>2017-05-04T10:08:40.900000Z</time>
      </trkpt>
      <trkpt lat="37.84793076390275" lon="112.02650390972423">
        <ele>1118.3</ele>
        <time>2017-05-04T10:08:46.900000Z</time>
      </trkpt>
      <trkpt lat="37.84786070070982" lon="112.02652879860003">
        <ele>1118.59</ele>
        <time>2017-05-04T10:08:53Z</time>
      </trkpt>
      <trkpt lat="37.84773925320535" lon="112.0266989203298">
        <ele>1117.5</ele>
        <time>2017-05-04T10:09:05Z</time>
      </trkpt>
      <trkpt lat="37.847764311623315" lon="112.02676571640613">
        <ele>1118.8</ele>
        <time>2017-05-04T10:09:26Z</time>
      </trkpt>
      <trkpt lat="37.84773406806069" lon="112.02671054993364">
        <ele>1121.7</ele>
        <time>2017-05-04T10:09:34.900000Z</time>
      </trkpt>
      <trkpt lat="37.84766424540732" lon="112.0267473383886">
        <ele>1122.9</ele>
        <time>2017-05-04T10:09:41Z</time>
      </trkpt>
      <trkpt lat="37.847582557715405" lon="112.02686066353428">
        <ele>1122.8</ele>
        <time>2017-05-04T10:09:52.900000Z</time>
      </trkpt>
      <trkpt lat="37.84748433788425" lon="112.02696723000248">
        <ele>1121.0</ele>
        <time>2017-05-04T10:10:04.900000Z</time>
      </trkpt>
      <trkpt lat="37.84745750761583" lon="112.02706053647927">
        <ele>1120.7</ele>
        <time>2017-05-04T10:10:10.900000Z</time>
      </trkpt>
      <trkpt lat="37.84751270378934" lon="112.027434016228">
        <ele>1118.8</ele>
        <time>2017-05-04T10:10:28.900000Z</time>
      </trkpt>
      <trkpt lat="37.84748429449102" lon="112.02761413859096">
        <ele>1118.3</ele>
        <time>2017-05-04T10:10:40.900000Z</time>
      </trkpt>
    </trkseg>
  </trk>
</gpx>