<?xml version="1.0" encoding="UTF-8"?>
<gpx xmlns="http://www.topografix.com/GPX/1/1" xmlns:gpxtpx="http://www.garmin.com/xmlschemas/TrackPointExtension/v1" xmlns:xsi="http://www.w3.org/2001/XMLSchema-instance" xsi:schemaLocation="http://www.topografix.com/GPX/1/1 http://www.topografix.com/GPX/1/1/gpx.xsd" version="1.1" creator="gpx.py -- https://github.com/tkrajina/gpxpy">
  <trk>
    <name>gpx from keep</name>
    <type>Run</type>
    <trkseg>
      <trkpt lat="37.8468520416811" lon="112.02946906107664">
        <ele>0.0</ele>
        <time>2016-06-18T10:12:56.500000Z</time>
      </trkpt>
      <trkpt lat="37.846657713428" lon="112.02958673664035">
        <ele>0.0</ele>
        <time>2016-06-18T10:12:59.800000Z</time>
      </trkpt>
      <trkpt lat="37.846867049152735" lon="112.02946706517032">
        <ele>0.0</ele>
        <time>2016-06-18T10:13:26.800000Z</time>
      </trkpt>
      <trkpt lat="37.84660682579502" lon="112.02953888418986">
        <ele>0.0</ele>
        <time>2016-06-18T10:15:26.900000Z</time>
      </trkpt>
      <trkpt lat="37.84776360565084" lon="112.02620347291254">
        <ele>1184.0684281112092</ele>
        <time>2016-06-18T10:18:54Z</time>
      </trkpt>
      <trkpt lat="37.848188534658426" lon="112.02639029432035">
        <ele>1175.562437710601</ele>
        <time>2016-06-18T10:19:01.400000Z</time>
      </trkpt>
      <trkpt lat="37.84841900229431" lon="112.02644678833214">
        <ele>1136.7264086176729</ele>
        <time>2016-06-18T10:19:05.400000Z</time>
      </trkpt>
      <trkpt lat="37.84852593506503" lon="112.0264329830877">
        <ele>1121.7215090809764</ele>
        <time>2016-06-18T10:19:09.400000Z</time>
      </trkpt>
      <trkpt lat="37.84871966374497" lon="112.02653248149943">
        <ele>1088.3163968561892</ele>
        <time>2016-06-18T10:19:19.400000Z</time>
      </trkpt>
      <trkpt lat="37.84880321932922" lon="112.02653571673312">
        <ele>1083.56322061127</ele>
        <time>2016-06-18T10:19:23.400000Z</time>
      </trkpt>
      <trkpt lat="37.8490067023603" lon="112.02612002904038">
        <ele>1086.9570949370536</ele>
        <time>2016-06-18T10:19:38.400000Z</time>
      </trkpt>
      <trkpt lat="37.84911837117311" lon="112.02585174412111">
        <ele>1087.9506713035935</ele>
        <time>2016-06-18T10:19:46.400000Z</time>
      </trkpt>
      <trkpt lat="37.8491553389232" lon="112.02551532187934">
        <ele>1088.7800676610686</ele>
        <time>2016-06-18T10:19:57.400000Z</time>
      </trkpt>
      <trkpt lat="37.84913554575639" lon="112.02540742254007">
        <ele>1089.4083218785229</ele>
        <time>2016-06-18T10:20:00.400000Z</time>
      </trkpt>
      <trkpt lat="37.84911059594199" lon="112.02488928614918">
        <ele>1092.0335478596455</ele>
        <time>2016-06-18T10:20:12.400000Z</time>
      </trkpt>
      <trkpt lat="37.84910380883274" lon="112.02458370771522">
        <ele>1096.4567487868449</ele>
        <time>2016-06-18T10:20:20.400000Z</time>
      </trkpt>
      <trkpt lat="37.84905786453337" lon="112.02451637802598">
        <ele>1097.7613229264198</ele>
        <time>2016-06-18T10:20:23.400000Z</time>
      </trkpt>
      <trkpt lat="37.848959221832196" lon="112.0240653287614">
        <ele>1102.1487681298358</ele>
        <time>2016-06-18T10:20:37.400000Z</time>
      </trkpt>
      <trkpt lat="37.848910437435215" lon="112.02363969880354">
        <ele>1105.2447536791556</ele>
        <time>2016-06-18T10:20:48.400000Z</time>
      </trkpt>
      <trkpt lat="37.84889701077262" lon="112.02318324326392">
        <ele>1107.2495046305025</ele>
        <time>2016-06-18T10:21:02.400000Z</time>
      </trkpt>
      <trkpt lat="37.84890911278309" lon="112.02302126593906">
        <ele>1107.2097659152985</ele>
        <time>2016-06-18T10:21:06.400000Z</time>
      </trkpt>
      <trkpt lat="37.84897067577977" lon="112.02272840600928">
        <ele>1107.1998096874545</ele>
        <time>2016-06-18T10:21:13.400000Z</time>
      </trkpt>
      <trkpt lat="37.848990567303794" lon="112.02229521368963">
        <ele>1106.2174871895315</ele>
        <time>2016-06-18T10:21:24.400000Z</time>
      </trkpt>
      <trkpt lat="37.849027002165265" lon="112.02186608091424">
        <ele>1105.825508163441</ele>
        <time>2016-06-18T10:21:35.400000Z</time>
      </trkpt>
      <trkpt lat="37.849038057312676" lon="112.02149265840555">
        <ele>1106.6130747187203</ele>
        <time>2016-06-18T10:21:46.400000Z</time>
      </trkpt>
      <trkpt lat="37.8490343849762" lon="112.0212476794213">
        <ele>1106.7197932785498</ele>
        <time>2016-06-18T10:21:53.400000Z</time>
      </trkpt>
      <trkpt lat="37.84900985082928" lon="112.02109166435083">
        <ele>1106.5635883280456</ele>
        <time>2016-06-18T10:21:57.400000Z</time>
      </trkpt>
      <trkpt lat="37.849053764778944" lon="112.02080855709549">
        <ele>1105.1400312758597</ele>
        <time>2016-06-18T10:22:07.400000Z</time>
      </trkpt>
      <trkpt lat="37.84908717784141" lon="112.02069444767045">
        <ele>1104.7519278977609</ele>
        <time>2016-06-18T10:22:11.400000Z</time>
      </trkpt>
      <trkpt lat="37.84912761288688" lon="112.02029615827385">
        <ele>1103.9945408215453</ele>
        <time>2016-06-18T10:22:21.400000Z</time>
      </trkpt>
      <trkpt lat="37.84916364971516" lon="112.01982162511952">
        <ele>1103.9438693148345</ele>
        <time>2016-06-18T10:22:33.400000Z</time>
      </trkpt>
      <trkpt lat="37.84914787461701" lon="112.01954150916299">
        <ele>1103.7226490806686</ele>
        <time>2016-06-18T10:22:41.400000Z</time>
      </trkpt>
      <trkpt lat="37.84915752890405" lon="112.01909321567531">
        <ele>1104.6399769255231</ele>
        <time>2016-06-18T10:22:54.400000Z</time>
      </trkpt>
      <trkpt lat="37.849146839644206" lon="112.0189369377729">
        <ele>1104.6546699243013</ele>
        <time>2016-06-18T10:22:58.400000Z</time>
      </trkpt>
      <trkpt lat="37.84918838606851" lon="112.01853461147563">
        <ele>1104.0923562868918</ele>
        <time>2016-06-18T10:23:10.400000Z</time>
      </trkpt>
      <trkpt lat="37.84921261626558" lon="112.01840753214923">
        <ele>1103.9523325082037</ele>
        <time>2016-06-18T10:23:14.400000Z</time>
      </trkpt>
      <trkpt lat="37.84920859861166" lon="112.01829181233684">
        <ele>1103.9137514469992</ele>
        <time>2016-06-18T10:23:17.400000Z</time>
      </trkpt>
      <trkpt lat="37.849236098929715" lon="112.01786921658206">
        <ele>1103.7227158701858</ele>
        <time>2016-06-18T10:23:28.400000Z</time>
      </trkpt>
      <trkpt lat="37.8492361729239" lon="112.01745636189516">
        <ele>1104.3722794735975</ele>
        <time>2016-06-18T10:23:39.400000Z</time>
      </trkpt>
      <trkpt lat="37.84927526274359" lon="112.01706351384323">
        <ele>1105.1897941889872</ele>
        <time>2016-06-18T10:23:50.400000Z</time>
      </trkpt>
      <trkpt lat="37.84930277168007" lon="112.01664147175347">
        <ele>1105.5149289967478</ele>
        <time>2016-06-18T10:24:01.400000Z</time>
      </trkpt>
      <trkpt lat="37.84936108783249" lon="112.01626376938061">
        <ele>1104.2949821945194</ele>
        <time>2016-06-18T10:24:12.400000Z</time>
      </trkpt>
      <trkpt lat="37.84942753601399" lon="112.01588958408324">
        <ele>1102.8399194392107</ele>
        <time>2016-06-18T10:24:23.400000Z</time>
      </trkpt>
      <trkpt lat="37.84950883114598" lon="112.01554270623363">
        <ele>1101.6464931113433</ele>
        <time>2016-06-18T10:24:33.400000Z</time>
      </trkpt>
      <trkpt lat="37.84957113353488" lon="112.01519691485208">
        <ele>1101.6283249831276</ele>
        <time>2016-06-18T10:24:44.400000Z</time>
      </trkpt>
      <trkpt lat="37.849611472564135" lon="112.01494223744497">
        <ele>1101.8601830513073</ele>
        <time>2016-06-18T10:24:51.400000Z</time>
      </trkpt>
      <trkpt lat="37.84962224096594" lon="112.01478191754356">
        <ele>1101.563236436557</ele>
        <time>2016-06-18T10:24:55.400000Z</time>
      </trkpt>
      <trkpt lat="37.84969019136536" lon="112.01436043369684">
        <ele>1100.364969592119</ele>
        <time>2016-06-18T10:25:06.400000Z</time>
      </trkpt>
      <trkpt lat="37.84973209186952" lon="112.01394138998138">
        <ele>1100.015946806071</ele>
        <time>2016-06-18T10:25:17.400000Z</time>
      </trkpt>
      <trkpt lat="37.849752281799454" lon="112.01352532642579">
        <ele>1100.4478887321725</ele>
        <time>2016-06-18T10:25:28.400000Z</time>
      </trkpt>
      <trkpt lat="37.84975228535756" lon="112.01324200683489">
        <ele>1101.1481347097795</ele>
        <time>2016-06-18T10:25:36.400000Z</time>
      </trkpt>
      <trkpt lat="37.84979961673216" lon="112.01282405375495">
        <ele>1102.3400934415122</ele>
        <time>2016-06-18T10:25:47.400000Z</time>
      </trkpt>
      <trkpt lat="37.84983567967892" lon="112.01245692910467">
        <ele>1101.9409062240616</ele>
        <time>2016-06-18T10:25:59.400000Z</time>
      </trkpt>
      <trkpt lat="37.84988871772379" lon="112.01203763030536">
        <ele>1100.6144957524166</ele>
        <time>2016-06-18T10:26:10.400000Z</time>
      </trkpt>
      <trkpt lat="37.849919679035835" lon="112.01165375130323">
        <ele>1099.9205285662913</ele>
        <time>2016-06-18T10:26:20.400000Z</time>
      </trkpt>
      <trkpt lat="37.84991089699295" lon="112.01122284218832">
        <ele>1099.5089605035146</ele>
        <time>2016-06-18T10:26:31.400000Z</time>
      </trkpt>
      <trkpt lat="37.84995943261213" lon="112.0108614043995">
        <ele>1099.306555258657</ele>
        <time>2016-06-18T10:26:42.400000Z</time>
      </trkpt>
      <trkpt lat="37.85000010998481" lon="112.01049726668376">
        <ele>1098.5333703879473</ele>
        <time>2016-06-18T10:26:53.400000Z</time>
      </trkpt>
      <trkpt lat="37.8500371352631" lon="112.01008393247385">
        <ele>1097.6828246558</ele>
        <time>2016-06-18T10:27:04.400000Z</time>
      </trkpt>
      <trkpt lat="37.850042173033806" lon="112.00993903738768">
        <ele>1097.55053809955</ele>
        <time>2016-06-18T10:27:08.400000Z</time>
      </trkpt>
      <trkpt lat="37.850000178087285" lon="112.00955004577739">
        <ele>1096.9050232807724</ele>
        <time>2016-06-18T10:27:19.400000Z</time>
      </trkpt>
      <trkpt lat="37.849849754004325" lon="112.00922135145179">
        <ele>1096.1100867789935</ele>
        <time>2016-06-18T10:27:27.400000Z</time>
      </trkpt>
      <trkpt lat="37.84967565142334" lon="112.00891834220623">
        <ele>1097.014261418769</ele>
        <time>2016-06-18T10:27:35.400000Z</time>
      </trkpt>
      <trkpt lat="37.84947896485848" lon="112.00863777366116">
        <ele>1099.5445388331095</ele>
        <time>2016-06-18T10:27:46.400000Z</time>
      </trkpt>
      <trkpt lat="37.84940175871435" lon="112.00850613754031">
        <ele>1100.0309028435784</ele>
        <time>2016-06-18T10:27:50.400000Z</time>
      </trkpt>
      <trkpt lat="37.849187183854006" lon="112.0082198963235">
        <ele>1101.6876977505906</ele>
        <time>2016-06-18T10:28:01.400000Z</time>
      </trkpt>
      <trkpt lat="37.849045160612924" lon="112.00798798132263">
        <ele>1102.5958916899954</ele>
        <time>2016-06-18T10:28:08.400000Z</time>
      </trkpt>
      <trkpt lat="37.848829988862065" lon="112.00772066456334">
        <ele>1103.025285939751</ele>
        <time>2016-06-18T10:28:16.400000Z</time>
      </trkpt>
      <trkpt lat="37.84868953954371" lon="112.00750740284903">
        <ele>1104.149556123384</ele>
        <time>2016-06-18T10:28:23.400000Z</time>
      </trkpt>
      <trkpt lat="37.84858869900379" lon="112.00738658441519">
        <ele>1104.4074211611298</ele>
        <time>2016-06-18T10:28:27.400000Z</time>
      </trkpt>
      <trkpt lat="37.84845561612562" lon="112.00715980722957">
        <ele>1106.5956676390017</ele>
        <time>2016-06-18T10:28:34.400000Z</time>
      </trkpt>
      <trkpt lat="37.848194860232155" lon="112.0068946617075">
        <ele>1110.1731954688382</ele>
        <time>2016-06-18T10:28:45.400000Z</time>
      </trkpt>
      <trkpt lat="37.84809999203113" lon="112.00686412777041">
        <ele>1111.2713513750978</ele>
        <time>2016-06-18T10:28:49.400000Z</time>
      </trkpt>
      <trkpt lat="37.84776382724753" lon="112.00686741161974">
        <ele>1115.1723358447452</ele>
        <time>2016-06-18T10:29:01.400000Z</time>
      </trkpt>
      <trkpt lat="37.84756867515931" lon="112.00680283037454">
        <ele>1116.5042950807701</ele>
        <time>2016-06-18T10:29:07.400000Z</time>
      </trkpt>
      <trkpt lat="37.847461767134696" lon="112.0068066274926">
        <ele>1117.0896879691152</ele>
        <time>2016-06-18T10:29:11.400000Z</time>
      </trkpt>
      <trkpt lat="37.847270776676" lon="112.00680232529007">
        <ele>1117.497649121795</ele>
        <time>2016-06-18T10:29:18.400000Z</time>
      </trkpt>
      <trkpt lat="37.846923224094525" lon="112.00671208269877">
        <ele>1118.6026709567188</ele>
        <time>2016-06-18T10:29:32.400000Z</time>
      </trkpt>
      <trkpt lat="37.84680665674987" lon="112.00667965924805">
        <ele>1118.9836260964248</ele>
        <time>2016-06-18T10:29:36.400000Z</time>
      </trkpt>
      <trkpt lat="37.846423594001195" lon="112.00666997373895">
        <ele>1123.3733321177579</ele>
        <time>2016-06-18T10:29:48.400000Z</time>
      </trkpt>
      <trkpt lat="37.8463091183088" lon="112.00666404054806">
        <ele>1124.2924997873874</ele>
        <time>2016-06-18T10:29:52.400000Z</time>
      </trkpt>
      <trkpt lat="37.84610309476949" lon="112.00660594824213">
        <ele>1125.624587891006</ele>
        <time>2016-06-18T10:29:59.400000Z</time>
      </trkpt>
      <trkpt lat="37.846014057958115" lon="112.00662163690046">
        <ele>1126.1531119192798</ele>
        <time>2016-06-18T10:30:02.400000Z</time>
      </trkpt>
      <trkpt lat="37.84568455977221" lon="112.00648192553804">
        <ele>1127.314829293344</ele>
        <time>2016-06-18T10:30:13.400000Z</time>
      </trkpt>
      <trkpt lat="37.84549447531323" lon="112.00644680785348">
        <ele>1128.1465536200853</ele>
        <time>2016-06-18T10:30:20.400000Z</time>
      </trkpt>
      <trkpt lat="37.845421623741956" lon="112.00649385056246">
        <ele>1128.300661213128</ele>
        <time>2016-06-18T10:30:24.400000Z</time>
      </trkpt>
      <trkpt lat="37.845296189517434" lon="112.00643250505493">
        <ele>1128.3838429561906</ele>
        <time>2016-06-18T10:30:28.400000Z</time>
      </trkpt>
      <trkpt lat="37.84518981401246" lon="112.00634872159222">
        <ele>1128.051744254988</ele>
        <time>2016-06-18T10:30:32.400000Z</time>
      </trkpt>
      <trkpt lat="37.84490098244192" lon="112.00621927766164">
        <ele>1126.9631991881204</ele>
        <time>2016-06-18T10:30:43.400000Z</time>
      </trkpt>
      <trkpt lat="37.84468015823224" lon="112.00612064108549">
        <ele>1126.4112514506544</ele>
        <time>2016-06-18T10:30:50.400000Z</time>
      </trkpt>
      <trkpt lat="37.84460255035911" lon="112.00612497528707">
        <ele>1126.499782673605</ele>
        <time>2016-06-18T10:30:54.400000Z</time>
      </trkpt>
      <trkpt lat="37.844390188342864" lon="112.00619095608158">
        <ele>1126.24252046304</ele>
        <time>2016-06-18T10:31:01.400000Z</time>
      </trkpt>
      <trkpt lat="37.84415957520758" lon="112.00628153729797">
        <ele>1126.776495172239</ele>
        <time>2016-06-18T10:31:08.400000Z</time>
      </trkpt>
      <trkpt lat="37.843862973010374" lon="112.00648349435036">
        <ele>1127.2353607819778</ele>
        <time>2016-06-18T10:31:16.400000Z</time>
      </trkpt>
      <trkpt lat="37.84362030825358" lon="112.00670355640564">
        <ele>1128.0872817884483</ele>
        <time>2016-06-18T10:31:26.400000Z</time>
      </trkpt>
      <trkpt lat="37.84351781481351" lon="112.00677384962275">
        <ele>1128.571021805163</ele>
        <time>2016-06-18T10:31:30.400000Z</time>
      </trkpt>
      <trkpt lat="37.84317947940167" lon="112.00695986464116">
        <ele>1129.3988234203964</ele>
        <time>2016-06-18T10:31:41.400000Z</time>
      </trkpt>
      <trkpt lat="37.842942448372405" lon="112.00720182291845">
        <ele>1129.7240594144332</ele>
        <time>2016-06-18T10:31:51.400000Z</time>
      </trkpt>
      <trkpt lat="37.84271575677221" lon="112.00734268335593">
        <ele>1129.9536999193633</ele>
        <time>2016-06-18T10:31:59.400000Z</time>
      </trkpt>
      <trkpt lat="37.842565448199764" lon="112.00743487839156">
        <ele>1130.4687365188822</ele>
        <time>2016-06-18T10:32:06.400000Z</time>
      </trkpt>
      <trkpt lat="37.84241796290909" lon="112.00758140648584">
        <ele>1131.3043738569186</ele>
        <time>2016-06-18T10:32:13.400000Z</time>
      </trkpt>
      <trkpt lat="37.842291353275606" lon="112.00764170183604">
        <ele>1131.918878807409</ele>
        <time>2016-06-18T10:32:17.400000Z</time>
      </trkpt>
      <trkpt lat="37.84215052570839" lon="112.00773903215479">
        <ele>1132.5715674251467</ele>
        <time>2016-06-18T10:32:21.400000Z</time>
      </trkpt>
      <trkpt lat="37.84188168722631" lon="112.00800343335472">
        <ele>1134.1662812110842</ele>
        <time>2016-06-18T10:32:32.400000Z</time>
      </trkpt>
      <trkpt lat="37.84179736796593" lon="112.00807534768047">
        <ele>1134.7126781978152</ele>
        <time>2016-06-18T10:32:35.400000Z</time>
      </trkpt>
      <trkpt lat="37.841668565846014" lon="112.00814321263753">
        <ele>1135.7213154005815</ele>
        <time>2016-06-18T10:32:39.400000Z</time>
      </trkpt>
      <trkpt lat="37.84131436556723" lon="112.00819056043797">
        <ele>1137.8598002072274</ele>
        <time>2016-06-18T10:32:54.400000Z</time>
      </trkpt>
      <trkpt lat="37.840998923522136" lon="112.00815951158378">
        <ele>1138.6601319537522</ele>
        <time>2016-06-18T10:33:05.400000Z</time>
      </trkpt>
      <trkpt lat="37.84078480199752" lon="112.008087362456">
        <ele>1138.566555953469</ele>
        <time>2016-06-18T10:33:12.400000Z</time>
      </trkpt>
      <trkpt lat="37.84066416089225" lon="112.00814792788827">
        <ele>1138.5083440324158</ele>
        <time>2016-06-18T10:33:16.400000Z</time>
      </trkpt>
      <trkpt lat="37.84035766583543" lon="112.00811904052169">
        <ele>1139.6055220833432</ele>
        <time>2016-06-18T10:33:27.400000Z</time>
      </trkpt>
      <trkpt lat="37.84027819592565" lon="112.00811094049092">
        <ele>1139.7999694110126</ele>
        <time>2016-06-18T10:33:30.400000Z</time>
      </trkpt>
      <trkpt lat="37.84006378562047" lon="112.00804473841868">
        <ele>1139.4259026990892</ele>
        <time>2016-06-18T10:33:37.400000Z</time>
      </trkpt>
      <trkpt lat="37.83997683275191" lon="112.00799825431648">
        <ele>1139.4430158039572</ele>
        <time>2016-06-18T10:33:41.400000Z</time>
      </trkpt>
      <trkpt lat="37.83987676411782" lon="112.00798312852683">
        <ele>1139.0272273798105</ele>
        <time>2016-06-18T10:33:45.400000Z</time>
      </trkpt>
      <trkpt lat="37.839777367677314" lon="112.00801584869994">
        <ele>1138.4007168065216</ele>
        <time>2016-06-18T10:33:49.400000Z</time>
      </trkpt>
      <trkpt lat="37.839680012956" lon="112.00800045226553">
        <ele>1138.4563230322058</ele>
        <time>2016-06-18T10:33:53.400000Z</time>
      </trkpt>
      <trkpt lat="37.839472201368054" lon="112.00799642231135">
        <ele>1138.7936499204511</ele>
        <time>2016-06-18T10:34:01.400000Z</time>
      </trkpt>
      <trkpt lat="37.83935683529494" lon="112.00801643951023">
        <ele>1139.0927544473786</ele>
        <time>2016-06-18T10:34:05.400000Z</time>
      </trkpt>
      <trkpt lat="37.839322458863926" lon="112.00808104933975">
        <ele>1139.4597596019294</ele>
        <time>2016-06-18T10:34:09.400000Z</time>
      </trkpt>
      <trkpt lat="37.839361115333574" lon="112.00812862053505">
        <ele>1139.5633278606595</ele>
        <time>2016-06-18T10:34:13.400000Z</time>
      </trkpt>
      <trkpt lat="37.839439112604495" lon="112.00817591675394">
        <ele>1139.7164341924142</ele>
        <time>2016-06-18T10:34:16.400000Z</time>
      </trkpt>
      <trkpt lat="37.83955466192891" lon="112.00818563439277">
        <ele>1139.4537170335811</ele>
        <time>2016-06-18T10:34:20.400000Z</time>
      </trkpt>
      <trkpt lat="37.83967064422376" lon="112.00814074787576">
        <ele>1139.1231084715316</ele>
        <time>2016-06-18T10:34:24.400000Z</time>
      </trkpt>
      <trkpt lat="37.839957530387856" lon="112.00810313955866">
        <ele>1138.7786382556146</ele>
        <time>2016-06-18T10:34:32.400000Z</time>
      </trkpt>
      <trkpt lat="37.84019070759216" lon="112.00806202355326">
        <ele>1136.5440859445341</ele>
        <time>2016-06-18T10:34:40.400000Z</time>
      </trkpt>
      <trkpt lat="37.84050456159651" lon="112.00807955670355">
        <ele>1135.7522493019744</ele>
        <time>2016-06-18T10:34:50.400000Z</time>
      </trkpt>
      <trkpt lat="37.84086340677082" lon="112.00811276287902">
        <ele>1135.6430393272399</ele>
        <time>2016-06-18T10:35:01.400000Z</time>
      </trkpt>
      <trkpt lat="37.84119156754949" lon="112.00815489320122">
        <ele>1136.5406265733827</ele>
        <time>2016-06-18T10:35:11.400000Z</time>
      </trkpt>
      <trkpt lat="37.841439544540165" lon="112.00815513392659">
        <ele>1137.3583705895562</ele>
        <time>2016-06-18T10:35:19.400000Z</time>
      </trkpt>
      <trkpt lat="37.84171779161315" lon="112.00801156241157">
        <ele>1137.6324687184338</ele>
        <time>2016-06-18T10:35:30.400000Z</time>
      </trkpt>
      <trkpt lat="37.842014888427734" lon="112.00782446810048">
        <ele>1135.69746993256</ele>
        <time>2016-06-18T10:35:40.400000Z</time>
      </trkpt>
      <trkpt lat="37.84233180182251" lon="112.00763385787197">
        <ele>1135.1013828089715</ele>
        <time>2016-06-18T10:35:52.400000Z</time>
      </trkpt>
      <trkpt lat="37.8426046221314" lon="112.00749082879592">
        <ele>1135.3786200883767</ele>
        <time>2016-06-18T10:36:02.400000Z</time>
      </trkpt>
      <trkpt lat="37.842711999334846" lon="112.00742026393822">
        <ele>1135.262808939981</ele>
        <time>2016-06-18T10:36:06.400000Z</time>
      </trkpt>
      <trkpt lat="37.84301507957083" lon="112.0071374797115">
        <ele>1134.4252302018238</ele>
        <time>2016-06-18T10:36:18.400000Z</time>
      </trkpt>
      <trkpt lat="37.84327728800638" lon="112.00691389988617">
        <ele>1133.4588642083409</ele>
        <time>2016-06-18T10:36:28.400000Z</time>
      </trkpt>
      <trkpt lat="37.84358632034851" lon="112.00672842911018">
        <ele>1132.7699178257212</ele>
        <time>2016-06-18T10:36:42.400000Z</time>
      </trkpt>
      <trkpt lat="37.84383477590007" lon="112.00656810495917">
        <ele>1131.3542874781356</ele>
        <time>2016-06-18T10:36:51.400000Z</time>
      </trkpt>
      <trkpt lat="37.84405201167241" lon="112.00641427234333">
        <ele>1130.3648317544153</ele>
        <time>2016-06-18T10:36:58.400000Z</time>
      </trkpt>
      <trkpt lat="37.844298477575826" lon="112.00628449414037">
        <ele>1129.3247411557138</ele>
        <time>2016-06-18T10:37:06.400000Z</time>
      </trkpt>
      <trkpt lat="37.844386031595896" lon="112.00622015000118">
        <ele>1128.6818154792654</ele>
        <time>2016-06-18T10:37:09.500000Z</time>
      </trkpt>
      <trkpt lat="37.84461256064035" lon="112.00613443491523">
        <ele>1128.5533064121148</ele>
        <time>2016-06-18T10:37:16.400000Z</time>
      </trkpt>
      <trkpt lat="37.84494714564809" lon="112.00620575668138">
        <ele>1128.5136271210004</ele>
        <time>2016-06-18T10:37:27.400000Z</time>
      </trkpt>
      <trkpt lat="37.84531863071636" lon="112.00627653349427">
        <ele>1128.8684596371147</ele>
        <time>2016-06-18T10:37:38.400000Z</time>
      </trkpt>
      <trkpt lat="37.845663682693186" lon="112.00638623817514">
        <ele>1130.3158754804886</ele>
        <time>2016-06-18T10:37:49.400000Z</time>
      </trkpt>
      <trkpt lat="37.84596207013583" lon="112.00649567827466">
        <ele>1130.0527731499035</ele>
        <time>2016-06-18T10:38:00.400000Z</time>
      </trkpt>
      <trkpt lat="37.84621527046311" lon="112.006473212302">
        <ele>1129.8468070697365</ele>
        <time>2016-06-18T10:38:08.400000Z</time>
      </trkpt>
      <trkpt lat="37.846505105756215" lon="112.00663022827953">
        <ele>1128.732804775091</ele>
        <time>2016-06-18T10:38:18.400000Z</time>
      </trkpt>
      <trkpt lat="37.84687454176636" lon="112.00666045905473">
        <ele>1127.687654640181</ele>
        <time>2016-06-18T10:38:29.400000Z</time>
      </trkpt>
      <trkpt lat="37.84722572273528" lon="112.00671664190618">
        <ele>1127.628213449201</ele>
        <time>2016-06-18T10:38:40.400000Z</time>
      </trkpt>
      <trkpt lat="37.84751865470995" lon="112.0067449896609">
        <ele>1127.11363299189</ele>
        <time>2016-06-18T10:38:51.400000Z</time>
      </trkpt>
      <trkpt lat="37.84783068493886" lon="112.0068287490449">
        <ele>1125.788599001265</ele>
        <time>2016-06-18T10:39:02.400000Z</time>
      </trkpt>
      <trkpt lat="37.848140866793436" lon="112.00689547908549">
        <ele>1123.7959777904107</ele>
        <time>2016-06-18T10:39:12.400000Z</time>
      </trkpt>
      <trkpt lat="37.848254858223186" lon="112.00697304508918">
        <ele>1123.1630672392573</ele>
        <time>2016-06-18T10:39:16.400000Z</time>
      </trkpt>
      <trkpt lat="37.8483462544986" lon="112.00707629358317">
        <ele>1122.3933338995014</ele>
        <time>2016-06-18T10:39:20.400000Z</time>
      </trkpt>
      <trkpt lat="37.84855688809917" lon="112.00740929459131">
        <ele>1120.1599625185138</ele>
        <time>2016-06-18T10:39:30.400000Z</time>
      </trkpt>
      <trkpt lat="37.84878468700725" lon="112.00771823713191">
        <ele>1118.6800770629975</ele>
        <time>2016-06-18T10:39:40.400000Z</time>
      </trkpt>
      <trkpt lat="37.8490406738857" lon="112.00803717947532">
        <ele>1117.60434221884</ele>
        <time>2016-06-18T10:39:51.400000Z</time>
      </trkpt>
      <trkpt lat="37.84917887170304" lon="112.00827828591294">
        <ele>1117.3780545213435</ele>
        <time>2016-06-18T10:39:58.400000Z</time>
      </trkpt>
      <trkpt lat="37.849367523872026" lon="112.00852290138842">
        <ele>1115.1489281628076</ele>
        <time>2016-06-18T10:40:06.400000Z</time>
      </trkpt>
      <trkpt lat="37.849542295205154" lon="112.00878265739225">
        <ele>1114.5215324256792</ele>
        <time>2016-06-18T10:40:14.400000Z</time>
      </trkpt>
      <trkpt lat="37.84976422658187" lon="112.00915107802433">
        <ele>1114.3873461511234</ele>
        <time>2016-06-18T10:40:26.400000Z</time>
      </trkpt>
      <trkpt lat="37.84988586748626" lon="112.00939570499314">
        <ele>1113.9875896891158</ele>
        <time>2016-06-18T10:40:33.400000Z</time>
      </trkpt>
      <trkpt lat="37.8499211249125" lon="112.00976901755814">
        <ele>1114.2014162520782</ele>
        <time>2016-06-18T10:40:44.400000Z</time>
      </trkpt>
      <trkpt lat="37.84989618945506" lon="112.01012990473068">
        <ele>1114.7350308359246</ele>
        <time>2016-06-18T10:40:52.400000Z</time>
      </trkpt>
      <trkpt lat="37.84987289238036" lon="112.01048782041026">
        <ele>1115.3631228544714</ele>
        <time>2016-06-18T10:41:00.400000Z</time>
      </trkpt>
      <trkpt lat="37.84986251482664" lon="112.01078896767741">
        <ele>1115.6134780708078</ele>
        <time>2016-06-18T10:41:07.400000Z</time>
      </trkpt>
      <trkpt lat="37.84984062820575" lon="112.01094386921147">
        <ele>1115.540546663705</ele>
        <time>2016-06-18T10:41:11.400000Z</time>
      </trkpt>
      <trkpt lat="37.84983387824916" lon="112.01139721549636">
        <ele>1114.7534249845612</ele>
        <time>2016-06-18T10:41:23.400000Z</time>
      </trkpt>
      <trkpt lat="37.849816019482965" lon="112.01175324659762">
        <ele>1115.0146072814591</ele>
        <time>2016-06-18T10:41:31.400000Z</time>
      </trkpt>
      <trkpt lat="37.849793986916374" lon="112.01214577603966">
        <ele>1116.2060796383864</ele>
        <time>2016-06-18T10:41:39.400000Z</time>
      </trkpt>
      <trkpt lat="37.84975464679194" lon="112.01242612027451">
        <ele>1116.891495056116</ele>
        <time>2016-06-18T10:41:47.400000Z</time>
      </trkpt>
      <trkpt lat="37.849724645786914" lon="112.01257372852781">
        <ele>1116.257642501062</ele>
        <time>2016-06-18T10:41:51.400000Z</time>
      </trkpt>
      <trkpt lat="37.849708322829564" lon="112.01296383064862">
        <ele>1114.09696380675</ele>
        <time>2016-06-18T10:42:01.400000Z</time>
      </trkpt>
      <trkpt lat="37.8496424737696" lon="112.01340584769734">
        <ele>1114.9010490401336</ele>
        <time>2016-06-18T10:42:12.400000Z</time>
      </trkpt>
      <trkpt lat="37.84960012181131" lon="112.01379190449462">
        <ele>1111.9726192379458</ele>
        <time>2016-06-18T10:42:20.400000Z</time>
      </trkpt>
      <trkpt lat="37.84957624679139" lon="112.01426366257037">
        <ele>1112.2146431711342</ele>
        <time>2016-06-18T10:42:32.400000Z</time>
      </trkpt>
      <trkpt lat="37.8495460286648" lon="112.0145832188944">
        <ele>1112.3105779555246</ele>
        <time>2016-06-18T10:42:40.400000Z</time>
      </trkpt>
      <trkpt lat="37.84954796107116" lon="112.01476110938849">
        <ele>1110.2459002391276</ele>
        <time>2016-06-18T10:42:44.400000Z</time>
      </trkpt>
      <trkpt lat="37.849500585881366" lon="112.01510419202914">
        <ele>1109.7837309843794</ele>
        <time>2016-06-18T10:42:52.400000Z</time>
      </trkpt>
      <trkpt lat="37.84945456934009" lon="112.01544727717469">
        <ele>1110.0806662999528</ele>
        <time>2016-06-18T10:43:00.400000Z</time>
      </trkpt>
      <trkpt lat="37.84941384213412" lon="112.01593473555947">
        <ele>1110.1050878206818</ele>
        <time>2016-06-18T10:43:12.400000Z</time>
      </trkpt>
      <trkpt lat="37.84937587282064" lon="112.01631216217562">
        <ele>1110.262425615849</ele>
        <time>2016-06-18T10:43:22.400000Z</time>
      </trkpt>
      <trkpt lat="37.84933521979784" lon="112.01668012979295">
        <ele>1110.2570181252586</ele>
        <time>2016-06-18T10:43:32.400000Z</time>
      </trkpt>
      <trkpt lat="37.849310631866366" lon="112.01693238241805">
        <ele>1110.3110677343004</ele>
        <time>2016-06-18T10:43:38.400000Z</time>
      </trkpt>
      <trkpt lat="37.8492409353163" lon="112.01730657751116">
        <ele>1109.9520668318319</ele>
        <time>2016-06-18T10:43:48.400000Z</time>
      </trkpt>
      <trkpt lat="37.84919415847047" lon="112.01763562157842">
        <ele>1109.636022731225</ele>
        <time>2016-06-18T10:43:55.400000Z</time>
      </trkpt>
      <trkpt lat="37.84919887316869" lon="112.01798602157484">
        <ele>1108.5297263560522</ele>
        <time>2016-06-18T10:44:05.400000Z</time>
      </trkpt>
      <trkpt lat="37.84916338401331" lon="112.01825802100609">
        <ele>1108.36374618584</ele>
        <time>2016-06-18T10:44:12.400000Z</time>
      </trkpt>
      <trkpt lat="37.84918445271764" lon="112.01819448067066">
        <ele>1107.5662002224876</ele>
        <time>2016-06-18T10:44:16.400000Z</time>
      </trkpt>
      <trkpt lat="37.84918666375997" lon="112.01769591494515">
        <ele>1105.8142202646197</ele>
        <time>2016-06-18T10:44:28.400000Z</time>
      </trkpt>
      <trkpt lat="37.849181679497256" lon="112.01753856050168">
        <ele>1105.5293062452986</ele>
        <time>2016-06-18T10:44:32.400000Z</time>
      </trkpt>
      <trkpt lat="37.84925481754953" lon="112.01709785275992">
        <ele>1104.9486886035631</ele>
        <time>2016-06-18T10:44:43.400000Z</time>
      </trkpt>
      <trkpt lat="37.84929519074256" lon="112.01692400295664">
        <ele>1104.4232068123954</ele>
        <time>2016-06-18T10:44:47.400000Z</time>
      </trkpt>
      <trkpt lat="37.849327846543154" lon="112.0165052060252">
        <ele>1103.991020527747</ele>
        <time>2016-06-18T10:44:58.400000Z</time>
      </trkpt>
      <trkpt lat="37.84937787958073" lon="112.01608289655204">
        <ele>1103.928387484543</ele>
        <time>2016-06-18T10:45:08.400000Z</time>
      </trkpt>
      <trkpt lat="37.84942022440593" lon="112.01578928219934">
        <ele>1103.8491903631905</ele>
        <time>2016-06-18T10:45:16.400000Z</time>
      </trkpt>
      <trkpt lat="37.84948685642062" lon="112.01554216815266">
        <ele>1103.0348727568175</ele>
        <time>2016-06-18T10:45:23.400000Z</time>
      </trkpt>
      <trkpt lat="37.849522039966516" lon="112.0151920543604">
        <ele>1103.2742725773626</ele>
        <time>2016-06-18T10:45:34.400000Z</time>
      </trkpt>
      <trkpt lat="37.8495787152735" lon="112.01472758217352">
        <ele>1102.5268240080718</ele>
        <time>2016-06-18T10:45:46.400000Z</time>
      </trkpt>
      <trkpt lat="37.849586908265145" lon="112.01442478911332">
        <ele>1102.1283135259107</ele>
        <time>2016-06-18T10:45:53.400000Z</time>
      </trkpt>
      <trkpt lat="37.84960581591179" lon="112.01426501077297">
        <ele>1102.0816036894214</ele>
        <time>2016-06-18T10:45:57.400000Z</time>
      </trkpt>
      <trkpt lat="37.84961949676023" lon="112.0138473230281">
        <ele>1102.817528295044</ele>
        <time>2016-06-18T10:46:07.400000Z</time>
      </trkpt>
      <trkpt lat="37.84966221714899" lon="112.01342747280012">
        <ele>1102.7123095767354</ele>
        <time>2016-06-18T10:46:18.400000Z</time>
      </trkpt>
      <trkpt lat="37.849715444217935" lon="112.0130343887875">
        <ele>1101.8424008592433</ele>
        <time>2016-06-18T10:46:29.400000Z</time>
      </trkpt>
      <trkpt lat="37.849724489765684" lon="112.0129086792303">
        <ele>1102.0146620265648</ele>
        <time>2016-06-18T10:46:33.400000Z</time>
      </trkpt>
      <trkpt lat="37.84973752851986" lon="112.01262211762322">
        <ele>1102.0905396734001</ele>
        <time>2016-06-18T10:46:41.400000Z</time>
      </trkpt>
      <trkpt lat="37.8497579088537" lon="112.0125174941495">
        <ele>1102.088869966904</ele>
        <time>2016-06-18T10:46:44.400000Z</time>
      </trkpt>
      <trkpt lat="37.84977457734381" lon="112.01210279490572">
        <ele>1102.485812801974</ele>
        <time>2016-06-18T10:46:55.400000Z</time>
      </trkpt>
      <trkpt lat="37.84979460535455" lon="112.01193302173674">
        <ele>1102.5911808916694</ele>
        <time>2016-06-18T10:46:59.400000Z</time>
      </trkpt>
      <trkpt lat="37.8498063427276" lon="112.01153589948606">
        <ele>1103.2352423745922</ele>
        <time>2016-06-18T10:47:09.400000Z</time>
      </trkpt>
      <trkpt lat="37.84981803333373" lon="112.01124853478629">
        <ele>1104.1339114678728</ele>
        <time>2016-06-18T10:47:16.400000Z</time>
      </trkpt>
      <trkpt lat="37.849890278019444" lon="112.01075841715567">
        <ele>1104.728954607283</ele>
        <time>2016-06-18T10:47:28.400000Z</time>
      </trkpt>
      <trkpt lat="37.84991314283607" lon="112.01036238362983">
        <ele>1105.2822534945337</ele>
        <time>2016-06-18T10:47:38.400000Z</time>
      </trkpt>
      <trkpt lat="37.84989827510181" lon="112.01006637788433">
        <ele>1105.5544775665546</ele>
        <time>2016-06-18T10:47:45.400000Z</time>
      </trkpt>
      <trkpt lat="37.84992609571441" lon="112.00964710079504">
        <ele>1105.2617730878692</ele>
        <time>2016-06-18T10:47:56.400000Z</time>
      </trkpt>
      <trkpt lat="37.84989739155792" lon="112.00935191136314">
        <ele>1106.014435270516</ele>
        <time>2016-06-18T10:48:03.400000Z</time>
      </trkpt>
      <trkpt lat="37.84986165747651" lon="112.00923297387118">
        <ele>1106.3257239856891</ele>
        <time>2016-06-18T10:48:06.400000Z</time>
      </trkpt>
      <trkpt lat="37.84979695058842" lon="112.00909457694108">
        <ele>1106.6466208167062</ele>
        <time>2016-06-18T10:48:10.400000Z</time>
      </trkpt>
      <trkpt lat="37.84974366396064" lon="112.00903970810882">
        <ele>1107.403309707132</ele>
        <time>2016-06-18T10:48:14.400000Z</time>
      </trkpt>
      <trkpt lat="37.84961109111366" lon="112.00882238621497">
        <ele>1108.4697520025309</ele>
        <time>2016-06-18T10:48:21.400000Z</time>
      </trkpt>
      <trkpt lat="37.849432644003656" lon="112.00861290982502">
        <ele>1109.4753621448779</ele>
        <time>2016-06-18T10:48:28.400000Z</time>
      </trkpt>
      <trkpt lat="37.849236613139254" lon="112.00829449808406">
        <ele>1109.7194381395166</ele>
        <time>2016-06-18T10:48:40.400000Z</time>
      </trkpt>
      <trkpt lat="37.84905567050359" lon="112.0080120382388">
        <ele>1109.4665940774953</ele>
        <time>2016-06-18T10:48:51.400000Z</time>
      </trkpt>
      <trkpt lat="37.84886939838399" lon="112.00778877936659">
        <ele>1108.3347059830928</ele>
        <time>2016-06-18T10:48:59.400000Z</time>
      </trkpt>
      <trkpt lat="37.848690388784675" lon="112.00749550891118">
        <ele>1107.6985354943488</ele>
        <time>2016-06-18T10:49:11.400000Z</time>
      </trkpt>
      <trkpt lat="37.848497202915866" lon="112.00722548838107">
        <ele>1108.6952819033397</ele>
        <time>2016-06-18T10:49:19.400000Z</time>
      </trkpt>
      <trkpt lat="37.8484145503104" lon="112.00710142452601">
        <ele>1109.361600858279</ele>
        <time>2016-06-18T10:49:23.400000Z</time>
      </trkpt>
      <trkpt lat="37.84819186132669" lon="112.00689952768245">
        <ele>1110.0307265541699</ele>
        <time>2016-06-18T10:49:30.400000Z</time>
      </trkpt>
      <trkpt lat="37.848042734007386" lon="112.00686791896882">
        <ele>1110.5749968179875</ele>
        <time>2016-06-18T10:49:34.400000Z</time>
      </trkpt>
      <trkpt lat="37.847912208970826" lon="112.00687604390018">
        <ele>1111.2322423818703</ele>
        <time>2016-06-18T10:49:38.400000Z</time>
      </trkpt>
      <trkpt lat="37.84760702905954" lon="112.0067695774672">
        <ele>1113.0107042927093</ele>
        <time>2016-06-18T10:49:46.400000Z</time>
      </trkpt>
      <trkpt lat="37.8472844040966" lon="112.00669041470732">
        <ele>1115.286429692547</ele>
        <time>2016-06-18T10:49:57.400000Z</time>
      </trkpt>
      <trkpt lat="37.84701394032423" lon="112.00667909389868">
        <ele>1116.2497860454605</ele>
        <time>2016-06-18T10:50:05.300000Z</time>
      </trkpt>
      <trkpt lat="37.84685874935483" lon="112.0066793827227">
        <ele>1117.1835099230443</ele>
        <time>2016-06-18T10:50:09.400000Z</time>
      </trkpt>
      <trkpt lat="37.84662715483434" lon="112.00664399958579">
        <ele>1118.989733711683</ele>
        <time>2016-06-18T10:50:17.400000Z</time>
      </trkpt>
      <trkpt lat="37.84630177680266" lon="112.00666944764772">
        <ele>1120.7487939890364</ele>
        <time>2016-06-18T10:50:28.400000Z</time>
      </trkpt>
      <trkpt lat="37.846172354846416" lon="112.00667162557568">
        <ele>1121.4464199624902</ele>
        <time>2016-06-18T10:50:32.400000Z</time>
      </trkpt>
      <trkpt lat="37.845986213535845" lon="112.00658785135144">
        <ele>1122.9963069186779</ele>
        <time>2016-06-18T10:50:40.400000Z</time>
      </trkpt>
      <trkpt lat="37.84585521124352" lon="112.0065740811229">
        <ele>1123.6750756442273</ele>
        <time>2016-06-18T10:50:44.400000Z</time>
      </trkpt>
      <trkpt lat="37.84574257285936" lon="112.00649786693978">
        <ele>1123.7684593899485</ele>
        <time>2016-06-18T10:50:48.400000Z</time>
      </trkpt>
      <trkpt lat="37.8454097458533" lon="112.0063827544301">
        <ele>1125.0686515542998</ele>
        <time>2016-06-18T10:50:59.400000Z</time>
      </trkpt>
      <trkpt lat="37.84532685597997" lon="112.00633870377845">
        <ele>1125.3906532193544</ele>
        <time>2016-06-18T10:51:02.400000Z</time>
      </trkpt>
      <trkpt lat="37.845152031141" lon="112.00628141893861">
        <ele>1125.7891794036007</ele>
        <time>2016-06-18T10:51:09.400000Z</time>
      </trkpt>
      <trkpt lat="37.845058346126606" lon="112.00621817765673">
        <ele>1125.8862325329321</ele>
        <time>2016-06-18T10:51:13.400000Z</time>
      </trkpt>
      <trkpt lat="37.84474454720421" lon="112.00618199361246">
        <ele>1125.7005738810335</ele>
        <time>2016-06-18T10:51:24.400000Z</time>
      </trkpt>
      <trkpt lat="37.84452003308253" lon="112.00613795996915">
        <ele>1125.4087672951164</ele>
        <time>2016-06-18T10:51:32.300000Z</time>
      </trkpt>
      <trkpt lat="37.84425461105136" lon="112.00616475223977">
        <ele>1126.8967280854235</ele>
        <time>2016-06-18T10:51:44.400000Z</time>
      </trkpt>
      <trkpt lat="37.844069932504915" lon="112.00622748605512">
        <ele>1126.9014487210407</ele>
        <time>2016-06-18T10:51:52.400000Z</time>
      </trkpt>
      <trkpt lat="37.843731968495874" lon="112.00647053507026">
        <ele>1126.2240334281178</ele>
        <time>2016-06-18T10:52:06.400000Z</time>
      </trkpt>
      <trkpt lat="37.84349047992966" lon="112.00666005177308">
        <ele>1126.5561609979547</ele>
        <time>2016-06-18T10:52:16.400000Z</time>
      </trkpt>
      <trkpt lat="37.84330926865537" lon="112.00683415402081">
        <ele>1127.2043011275327</ele>
        <time>2016-06-18T10:52:24.400000Z</time>
      </trkpt>
      <trkpt lat="37.84302632744332" lon="112.00700448446607">
        <ele>1128.4059982753956</ele>
        <time>2016-06-18T10:52:36.300000Z</time>
      </trkpt>
      <trkpt lat="37.842771369167544" lon="112.00725347319388">
        <ele>1128.6393852294425</ele>
        <time>2016-06-18T10:52:48.400000Z</time>
      </trkpt>
      <trkpt lat="37.84254962550127" lon="112.00746407422724">
        <ele>1129.7409285578376</ele>
        <time>2016-06-18T10:52:55.400000Z</time>
      </trkpt>
      <trkpt lat="37.84226157914922" lon="112.00770955451888">
        <ele>1131.486609553778</ele>
        <time>2016-06-18T10:53:08.400000Z</time>
      </trkpt>
      <trkpt lat="37.841981519321614" lon="112.00791529828132">
        <ele>1132.4932759552298</ele>
        <time>2016-06-18T10:53:19.400000Z</time>
      </trkpt>
      <trkpt lat="37.841759919901556" lon="112.00807778500167">
        <ele>1133.426614957631</ele>
        <time>2016-06-18T10:53:29.300000Z</time>
      </trkpt>
      <trkpt lat="37.84160055493967" lon="112.00811348586585">
        <ele>1134.1067542806222</ele>
        <time>2016-06-18T10:53:35.400000Z</time>
      </trkpt>
      <trkpt lat="37.8414109192995" lon="112.0082016319312">
        <ele>1135.5232412178752</ele>
        <time>2016-06-18T10:53:43.400000Z</time>
      </trkpt>
      <trkpt lat="37.84110571180891" lon="112.00819599168639">
        <ele>1137.4102323771406</ele>
        <time>2016-06-18T10:53:55.400000Z</time>
      </trkpt>
      <trkpt lat="37.84102413378586" lon="112.00816680714291">
        <ele>1137.9578397640862</ele>
        <time>2016-06-18T10:53:58.400000Z</time>
      </trkpt>
      <trkpt lat="37.84101474519791" lon="112.00822222334045">
        <ele>1138.3837057873964</ele>
        <time>2016-06-18T10:54:02.400000Z</time>
      </trkpt>
      <trkpt lat="37.841274196411625" lon="112.0081957012629">
        <ele>1137.4887728605001</ele>
        <time>2016-06-18T10:54:12.400000Z</time>
      </trkpt>
      <trkpt lat="37.841476854956206" lon="112.00819919120548">
        <ele>1137.1329703542644</ele>
        <time>2016-06-18T10:54:20.400000Z</time>
      </trkpt>
      <trkpt lat="37.841826944822095" lon="112.00807399256637">
        <ele>1134.9579467226936</ele>
        <time>2016-06-18T10:54:32.400000Z</time>
      </trkpt>
      <trkpt lat="37.84215775534389" lon="112.0078628359194">
        <ele>1132.8449825130672</ele>
        <time>2016-06-18T10:54:43.400000Z</time>
      </trkpt>
      <trkpt lat="37.84245425838301" lon="112.00760167577384">
        <ele>1131.9320883331272</ele>
        <time>2016-06-18T10:54:54.400000Z</time>
      </trkpt>
      <trkpt lat="37.84277923224636" lon="112.00734646017793">
        <ele>1131.8497270054213</ele>
        <time>2016-06-18T10:55:06.400000Z</time>
      </trkpt>
      <trkpt lat="37.84301448873852" lon="112.00715369856843">
        <ele>1132.3799961019743</ele>
        <time>2016-06-18T10:55:14.400000Z</time>
      </trkpt>
      <trkpt lat="37.843312004535235" lon="112.00691768011588">
        <ele>1132.6234057769734</ele>
        <time>2016-06-18T10:55:26.400000Z</time>
      </trkpt>
      <trkpt lat="37.84341335066786" lon="112.00686820091111">
        <ele>1132.6699460278257</ele>
        <time>2016-06-18T10:55:30.400000Z</time>
      </trkpt>
      <trkpt lat="37.843667084806306" lon="112.00666624786703">
        <ele>1132.9337244196997</ele>
        <time>2016-06-18T10:55:40.400000Z</time>
      </trkpt>
      <trkpt lat="37.844003209537945" lon="112.00640292513333">
        <ele>1134.1038625560834</ele>
        <time>2016-06-18T10:55:51.400000Z</time>
      </trkpt>
      <trkpt lat="37.84420276766608" lon="112.00626342139495">
        <ele>1134.3919910591906</ele>
        <time>2016-06-18T10:55:59.400000Z</time>
      </trkpt>
      <trkpt lat="37.844558932996335" lon="112.00610362606636">
        <ele>1134.3132466989923</ele>
        <time>2016-06-18T10:56:10.400000Z</time>
      </trkpt>
      <trkpt lat="37.84461623528918" lon="112.00608496790746">
        <ele>1134.223156123111</ele>
        <time>2016-06-18T10:56:13.400000Z</time>
      </trkpt>
      <trkpt lat="37.84490217008901" lon="112.00618494821845">
        <ele>1133.2471105204288</ele>
        <time>2016-06-18T10:56:24.400000Z</time>
      </trkpt>
      <trkpt lat="37.845197332851804" lon="112.00628384632367">
        <ele>1131.9073456368346</ele>
        <time>2016-06-18T10:56:34.400000Z</time>
      </trkpt>
      <trkpt lat="37.84541416983397" lon="112.00635491196456">
        <ele>1130.9944559187297</ele>
        <time>2016-06-18T10:56:41.300000Z</time>
      </trkpt>
      <trkpt lat="37.845714748626776" lon="112.00645732368608">
        <ele>1131.4470685526533</ele>
        <time>2016-06-18T10:56:52.400000Z</time>
      </trkpt>
      <trkpt lat="37.84601236974126" lon="112.00655081564815">
        <ele>1131.767278649315</ele>
        <time>2016-06-18T10:57:03.400000Z</time>
      </trkpt>
      <trkpt lat="37.84620351297718" lon="112.00659485351528">
        <ele>1131.918608787811</ele>
        <time>2016-06-18T10:57:10.400000Z</time>
      </trkpt>
      <trkpt lat="37.8465530803774" lon="112.00664617091077">
        <ele>1131.4047411722463</ele>
        <time>2016-06-18T10:57:21.400000Z</time>
      </trkpt>
      <trkpt lat="37.84687201463986" lon="112.00668911234551">
        <ele>1131.692726059111</ele>
        <time>2016-06-18T10:57:32.400000Z</time>
      </trkpt>
      <trkpt lat="37.84717386682368" lon="112.00672854179383">
        <ele>1130.8796514309452</ele>
        <time>2016-06-18T10:57:43.400000Z</time>
      </trkpt>
      <trkpt lat="37.84751551015791" lon="112.00679878204163">
        <ele>1129.4539867332414</ele>
        <time>2016-06-18T10:57:55.300000Z</time>
      </trkpt>
      <trkpt lat="37.847890950715104" lon="112.00681711844855">
        <ele>1127.9610914634616</ele>
        <time>2016-06-18T10:58:06.400000Z</time>
      </trkpt>
      <trkpt lat="37.84815616561473" lon="112.00686006638969">
        <ele>1127.080443178001</ele>
        <time>2016-06-18T10:58:13.400000Z</time>
      </trkpt>
      <trkpt lat="37.84827865533454" lon="112.0069081673141">
        <ele>1126.7550488195875</ele>
        <time>2016-06-18T10:58:17.400000Z</time>
      </trkpt>
      <trkpt lat="37.84847106593127" lon="112.00707357556341">
        <ele>1125.558217395376</ele>
        <time>2016-06-18T10:58:25.400000Z</time>
      </trkpt>
      <trkpt lat="37.84868704793701" lon="112.00734143025598">
        <ele>1124.2592661433587</ele>
        <time>2016-06-18T10:58:35.400000Z</time>
      </trkpt>
      <trkpt lat="37.848913907592646" lon="112.00769254175594">
        <ele>1123.021576743879</ele>
        <time>2016-06-18T10:58:46.400000Z</time>
      </trkpt>
      <trkpt lat="37.849093906444494" lon="112.00792688401008">
        <ele>1122.5625068258898</ele>
        <time>2016-06-18T10:58:54.400000Z</time>
      </trkpt>
      <trkpt lat="37.84926562098729" lon="112.00821042584973">
        <ele>1120.9514604513085</ele>
        <time>2016-06-18T10:59:04.400000Z</time>
      </trkpt>
      <trkpt lat="37.84947137560459" lon="112.00854343321816">
        <ele>1119.1973418180535</ele>
        <time>2016-06-18T10:59:15.400000Z</time>
      </trkpt>
      <trkpt lat="37.849675455099735" lon="112.00889293210837">
        <ele>1116.7618189197563</ele>
        <time>2016-06-18T10:59:27.400000Z</time>
      </trkpt>
      <trkpt lat="37.84982969364799" lon="112.00921567708882">
        <ele>1114.6414894153738</ele>
        <time>2016-06-18T10:59:37.400000Z</time>
      </trkpt>
      <trkpt lat="37.84989414297978" lon="112.0093494788491">
        <ele>1114.0668142189113</ele>
        <time>2016-06-18T10:59:41.400000Z</time>
      </trkpt>
      <trkpt lat="37.84991642390405" lon="112.0096146631015">
        <ele>1113.8111968996016</ele>
        <time>2016-06-18T10:59:48.400000Z</time>
      </trkpt>
      <trkpt lat="37.849891620874935" lon="112.01002258591765">
        <ele>1114.1567223620923</ele>
        <time>2016-06-18T10:59:59.400000Z</time>
      </trkpt>
      <trkpt lat="37.84987527304609" lon="112.01013855766541">
        <ele>1114.1313585570579</ele>
        <time>2016-06-18T11:00:02.400000Z</time>
      </trkpt>
      <trkpt lat="37.84986312882729" lon="112.01057919245906">
        <ele>1114.18837315914</ele>
        <time>2016-06-18T11:00:13.400000Z</time>
      </trkpt>
      <trkpt lat="37.84985587255539" lon="112.01101928953683">
        <ele>1113.9085516527298</ele>
        <time>2016-06-18T11:00:24.400000Z</time>
      </trkpt>
      <trkpt lat="37.849825940823834" lon="112.01142100570067">
        <ele>1113.7329198702002</ele>
        <time>2016-06-18T11:00:36.400000Z</time>
      </trkpt>
      <trkpt lat="37.8497706591215" lon="112.01186408917549">
        <ele>1113.4993454956104</ele>
        <time>2016-06-18T11:00:47.400000Z</time>
      </trkpt>
      <trkpt lat="37.849695397318385" lon="112.01236827510061">
        <ele>1113.0333448245326</ele>
        <time>2016-06-18T11:00:59.400000Z</time>
      </trkpt>
      <trkpt lat="37.849675772732546" lon="112.01277378535436">
        <ele>1111.8620589156355</ele>
        <time>2016-06-18T11:01:11.400000Z</time>
      </trkpt>
      <trkpt lat="37.849654272427806" lon="112.01307819139163">
        <ele>1111.2688303995683</ele>
        <time>2016-06-18T11:01:18.400000Z</time>
      </trkpt>
      <trkpt lat="37.84960726951799" lon="112.01338287273826">
        <ele>1111.1669952084155</ele>
        <time>2016-06-18T11:01:26.300000Z</time>
      </trkpt>
      <trkpt lat="37.84958585244364" lon="112.0136594371146">
        <ele>1111.4676059006524</ele>
        <time>2016-06-18T11:01:33.400000Z</time>
      </trkpt>
      <trkpt lat="37.8495573912529" lon="112.01412173223437">
        <ele>1111.8071476088357</ele>
        <time>2016-06-18T11:01:45.300000Z</time>
      </trkpt>
      <trkpt lat="37.849520284903875" lon="112.01447778555433">
        <ele>1111.8793613891735</ele>
        <time>2016-06-18T11:01:56.400000Z</time>
      </trkpt>
      <trkpt lat="37.84949872738847" lon="112.01490007600496">
        <ele>1111.3250578873613</ele>
        <time>2016-06-18T11:02:06.400000Z</time>
      </trkpt>
      <trkpt lat="37.84942936043093" lon="112.0153440045581">
        <ele>1111.1477454554727</ele>
        <time>2016-06-18T11:02:20.300000Z</time>
      </trkpt>
      <trkpt lat="37.849385549531476" lon="112.01577063168604">
        <ele>1112.3059449761363</ele>
        <time>2016-06-18T11:02:31.400000Z</time>
      </trkpt>
      <trkpt lat="37.84936431091663" lon="112.01608397961448">
        <ele>1112.2604419211232</ele>
        <time>2016-06-18T11:02:38.400000Z</time>
      </trkpt>
      <trkpt lat="37.849292674719024" lon="112.0164703335406">
        <ele>1112.8580066373643</ele>
        <time>2016-06-18T11:02:50.300000Z</time>
      </trkpt>
      <trkpt lat="37.8492306490383" lon="112.01691319609563">
        <ele>1114.5368532914417</ele>
        <time>2016-06-18T11:03:02.300000Z</time>
      </trkpt>
      <trkpt lat="37.8491818091164" lon="112.01729955504338">
        <ele>1114.8739390652943</ele>
        <time>2016-06-18T11:03:12.400000Z</time>
      </trkpt>
      <trkpt lat="37.84912645732978" lon="112.01759047799113">
        <ele>1113.6083093259222</ele>
        <time>2016-06-18T11:03:19.400000Z</time>
      </trkpt>
      <trkpt lat="37.849123624358135" lon="112.01802009747978">
        <ele>1111.851900648632</ele>
        <time>2016-06-18T11:03:30.400000Z</time>
      </trkpt>
      <trkpt lat="37.84909542313463" lon="112.01840267944752">
        <ele>1111.2175420856152</ele>
        <time>2016-06-18T11:03:40.400000Z</time>
      </trkpt>
      <trkpt lat="37.84908410412858" lon="112.01866710835145">
        <ele>1110.5162140884472</ele>
        <time>2016-06-18T11:03:47.400000Z</time>
      </trkpt>
      <trkpt lat="37.84907640891358" lon="112.01909241426145">
        <ele>1108.7426237943837</ele>
        <time>2016-06-18T11:03:59.300000Z</time>
      </trkpt>
      <trkpt lat="37.84905300308897" lon="112.01950988574107">
        <ele>1109.3969462828943</ele>
        <time>2016-06-18T11:04:10.300000Z</time>
      </trkpt>
      <trkpt lat="37.84905472143324" lon="112.0198694963673">
        <ele>1110.9947338725333</ele>
        <time>2016-06-18T11:04:20.400000Z</time>
      </trkpt>
      <trkpt lat="37.84905155327103" lon="112.02032969559374">
        <ele>1111.7961414343713</ele>
        <time>2016-06-18T11:04:31.400000Z</time>
      </trkpt>
      <trkpt lat="37.8490615216921" lon="112.0207501514511">
        <ele>1112.5428636177487</ele>
        <time>2016-06-18T11:04:41.400000Z</time>
      </trkpt>
      <trkpt lat="37.849030917938265" lon="112.02102730797337">
        <ele>1112.598702522448</ele>
        <time>2016-06-18T11:04:49.300000Z</time>
      </trkpt>
      <trkpt lat="37.84901286291515" lon="112.02147887115065">
        <ele>1111.5364562441678</ele>
        <time>2016-06-18T11:05:00.400000Z</time>
      </trkpt>
      <trkpt lat="37.849021252436366" lon="112.02188528005067">
        <ele>1111.0099046019536</ele>
        <time>2016-06-18T11:05:11.400000Z</time>
      </trkpt>
      <trkpt lat="37.849013798022426" lon="112.02223274764165">
        <ele>1110.2332396289112</ele>
        <time>2016-06-18T11:05:18.400000Z</time>
      </trkpt>
      <trkpt lat="37.848992182383036" lon="112.02270136269442">
        <ele>1108.917939901499</ele>
        <time>2016-06-18T11:05:30.300000Z</time>
      </trkpt>
      <trkpt lat="37.84899809068969" lon="112.02312671524913">
        <ele>1108.614226245161</ele>
        <time>2016-06-18T11:05:41.400000Z</time>
      </trkpt>
      <trkpt lat="37.84899782179206" lon="112.02353017046428">
        <ele>1108.912931957075</ele>
        <time>2016-06-18T11:05:51.400000Z</time>
      </trkpt>
      <trkpt lat="37.84900154997828" lon="112.02396229441891">
        <ele>1108.2648000426116</ele>
        <time>2016-06-18T11:06:02.300000Z</time>
      </trkpt>
      <trkpt lat="37.84901906616825" lon="112.02431248497014">
        <ele>1107.9371925545051</ele>
        <time>2016-06-18T11:06:10.400000Z</time>
      </trkpt>
      <trkpt lat="37.849052641529035" lon="112.0246442886296">
        <ele>1108.7887155903077</ele>
        <time>2016-06-18T11:06:18.300000Z</time>
      </trkpt>
      <trkpt lat="37.84910901672577" lon="112.02487089741557">
        <ele>1109.6001666853267</ele>
        <time>2016-06-18T11:06:22.400000Z</time>
      </trkpt>
      <trkpt lat="37.84910935949419" lon="112.02504910812807">
        <ele>1110.2494600049624</ele>
        <time>2016-06-18T11:06:26.300000Z</time>
      </trkpt>
      <trkpt lat="37.849004513715805" lon="112.02550614535723">
        <ele>1113.1620918288443</ele>
        <time>2016-06-18T11:06:38.300000Z</time>
      </trkpt>
      <trkpt lat="37.848928199633015" lon="112.02574143018745">
        <ele>1112.8222432771051</ele>
        <time>2016-06-18T11:06:49.400000Z</time>
      </trkpt>
      <trkpt lat="37.84885040836799" lon="112.02612707916786">
        <ele>1112.1765816460654</ele>
        <time>2016-06-18T11:07:00.400000Z</time>
      </trkpt>
      <trkpt lat="37.848775795592715" lon="112.02643971402651">
        <ele>1112.2174262459073</ele>
        <time>2016-06-18T11:07:08.400000Z</time>
      </trkpt>
      <trkpt lat="37.848732384420614" lon="112.02654437932587">
        <ele>1112.0589415305578</ele>
        <time>2016-06-18T11:07:11.400000Z</time>
      </trkpt>
      <trkpt lat="37.84875299045955" lon="112.02665390522938">
        <ele>1111.968628886189</ele>
        <time>2016-06-18T11:07:15.400000Z</time>
      </trkpt>
      <trkpt lat="37.84873736431522" lon="112.02713448451368">
        <ele>1110.9918701547338</ele>
        <time>2016-06-18T11:07:27.400000Z</time>
      </trkpt>
      <trkpt lat="37.848752183653446" lon="112.02727917131462">
        <ele>1110.5039309160236</ele>
        <time>2016-06-18T11:07:31.400000Z</time>
      </trkpt>
      <trkpt lat="37.84873835124773" lon="112.02769836820403">
        <ele>1109.1713027248763</ele>
        <time>2016-06-18T11:07:42.400000Z</time>
      </trkpt>
      <trkpt lat="37.848731661274066" lon="112.02797909793829">
        <ele>1108.723638756432</ele>
        <time>2016-06-18T11:07:49.400000Z</time>
      </trkpt>
      <trkpt lat="37.84863556597112" lon="112.02831690734448">
        <ele>1107.1688349674964</ele>
        <time>2016-06-18T11:08:01.400000Z</time>
      </trkpt>
      <trkpt lat="37.84852423830759" lon="112.02835208006653">
        <ele>1106.5348736134565</ele>
        <time>2016-06-18T11:08:12.300000Z</time>
      </trkpt>
      <trkpt lat="37.84845592717489" lon="112.0283288290294">
        <ele>1106.1394962890943</ele>
        <time>2016-06-18T11:08:15.300000Z</time>
      </trkpt>
      <trkpt lat="37.848395560153804" lon="112.02827582689764">
        <ele>1105.650537389484</ele>
        <time>2016-06-18T11:08:22.400000Z</time>
      </trkpt>
      <trkpt lat="37.84834946136355" lon="112.02826636648986">
        <ele>1105.6702517165386</ele>
        <time>2016-06-18T11:08:26.400000Z</time>
      </trkpt>
      <trkpt lat="37.84826664269482" lon="112.02818713302501">
        <ele>1105.9548417446026</ele>
        <time>2016-06-18T11:08:33.300000Z</time>
      </trkpt>
      <trkpt lat="37.84809529209035" lon="112.02814090586519">
        <ele>1107.1374180763794</ele>
        <time>2016-06-18T11:08:44.400000Z</time>
      </trkpt>
      <trkpt lat="37.84777168931625" lon="112.02811281752462">
        <ele>1106.347205171866</ele>
        <time>2016-06-18T11:09:12.300000Z</time>
      </trkpt>
      <trkpt lat="37.84753679443005" lon="112.0280890458061">
        <ele>1107.3362760062544</ele>
        <time>2016-06-18T11:09:30.300000Z</time>
      </trkpt>
      <trkpt lat="37.84749497156952" lon="112.02810500763276">
        <ele>1107.422112008439</ele>
        <time>2016-06-18T11:09:33.400000Z</time>
      </trkpt>
    </trkseg>
  </trk>
</gpx>