<?xml version="1.0" encoding="UTF-8"?>
<gpx xmlns="http://www.topografix.com/GPX/1/1" xmlns:gpxtpx="http://www.garmin.com/xmlschemas/TrackPointExtension/v1" xmlns:xsi="http://www.w3.org/2001/XMLSchema-instance" xsi:schemaLocation="http://www.topografix.com/GPX/1/1 http://www.topografix.com/GPX/1/1/gpx.xsd" version="1.1" creator="gpx.py -- https://github.com/tkrajina/gpxpy">
  <trk>
    <name>gpx from keep</name>
    <type>Run</type>
    <trkseg>
      <trkpt lat="37.84692013579025" lon="112.0294361502432">
        <ele>0.0</ele>
        <time>2016-07-20T08:46:52.500000Z</time>
      </trkpt>
      <trkpt lat="37.846921660873925" lon="112.0296245929741">
        <ele>0.0</ele>
        <time>2016-07-20T08:47:59.100000Z</time>
      </trkpt>
      <trkpt lat="37.84720328750763" lon="112.03004129041406">
        <ele>1141.0259535975165</ele>
        <time>2016-07-20T08:48:17.900000Z</time>
      </trkpt>
      <trkpt lat="37.84698214838792" lon="112.02994124229208">
        <ele>1143.02748873255</ele>
        <time>2016-07-20T08:48:21.800000Z</time>
      </trkpt>
      <trkpt lat="37.84707538752934" lon="112.02976190886442">
        <ele>1146.228176596555</ele>
        <time>2016-07-20T08:48:25.800000Z</time>
      </trkpt>
      <trkpt lat="37.84698115065158" lon="112.02958286961996">
        <ele>1139.385043872268</ele>
        <time>2016-07-20T08:48:36.900000Z</time>
      </trkpt>
      <trkpt lat="37.84708114365839" lon="112.02941570868028">
        <ele>1124.7159096071414</ele>
        <time>2016-07-20T08:48:51.100000Z</time>
      </trkpt>
      <trkpt lat="37.847170066914366" lon="112.0294422037276">
        <ele>1124.2493288636872</ele>
        <time>2016-07-20T08:49:01.100000Z</time>
      </trkpt>
      <trkpt lat="37.847228733711646" lon="112.02941704325458">
        <ele>1122.003770202664</ele>
        <time>2016-07-20T08:49:15.100000Z</time>
      </trkpt>
      <trkpt lat="37.84723294685245" lon="112.0293602447995">
        <ele>1121.362725009056</ele>
        <time>2016-07-20T08:49:18.100000Z</time>
      </trkpt>
      <trkpt lat="37.84720463073818" lon="112.02929236128571">
        <ele>1119.9971749182514</ele>
        <time>2016-07-20T08:49:25.100000Z</time>
      </trkpt>
      <trkpt lat="37.84719329948136" lon="112.02894589847521">
        <ele>1115.2971686625904</ele>
        <time>2016-07-20T08:49:52.100000Z</time>
      </trkpt>
      <trkpt lat="37.84723608106412" lon="112.02876603654627">
        <ele>1114.065752464492</ele>
        <time>2016-07-20T08:50:03.100000Z</time>
      </trkpt>
      <trkpt lat="37.84718079354386" lon="112.02852939126346">
        <ele>1110.9651021131929</ele>
        <time>2016-07-20T08:50:17.100000Z</time>
      </trkpt>
      <trkpt lat="37.84718119593883" lon="112.02837171449664">
        <ele>1110.1889660438708</ele>
        <time>2016-07-20T08:50:21.100000Z</time>
      </trkpt>
      <trkpt lat="37.84715267457467" lon="112.02817266244489">
        <ele>1109.1066710911803</ele>
        <time>2016-07-20T08:50:28.100000Z</time>
      </trkpt>
      <trkpt lat="37.84724469154222" lon="112.02794438835268">
        <ele>1105.6556516911915</ele>
        <time>2016-07-20T08:50:35.100000Z</time>
      </trkpt>
      <trkpt lat="37.8472548025023" lon="112.0278105133292">
        <ele>1105.3559767906456</ele>
        <time>2016-07-20T08:50:39.100000Z</time>
      </trkpt>
      <trkpt lat="37.84730828014539" lon="112.02758819659762">
        <ele>1106.2046351062147</ele>
        <time>2016-07-20T08:50:46.100000Z</time>
      </trkpt>
      <trkpt lat="37.84744133490725" lon="112.0272292963522">
        <ele>1108.3525467046725</ele>
        <time>2016-07-20T08:50:57.100000Z</time>
      </trkpt>
      <trkpt lat="37.847554777970466" lon="112.02700616546363">
        <ele>1109.098030258082</ele>
        <time>2016-07-20T08:51:04.100000Z</time>
      </trkpt>
      <trkpt lat="37.84770304440092" lon="112.02664240249278">
        <ele>1110.2720626220196</ele>
        <time>2016-07-20T08:51:16.100000Z</time>
      </trkpt>
      <trkpt lat="37.84783784349701" lon="112.02645037390064">
        <ele>1111.592533768332</ele>
        <time>2016-07-20T08:51:23.100000Z</time>
      </trkpt>
      <trkpt lat="37.84795082191566" lon="112.02640709009157">
        <ele>1112.1849513457694</ele>
        <time>2016-07-20T08:51:26.100000Z</time>
      </trkpt>
      <trkpt lat="37.848322611237876" lon="112.02647573691515">
        <ele>1112.6437214954656</ele>
        <time>2016-07-20T08:51:41.100000Z</time>
      </trkpt>
      <trkpt lat="37.848623698949815" lon="112.02650193334837">
        <ele>1112.7704231770815</ele>
        <time>2016-07-20T08:51:52.100000Z</time>
      </trkpt>
      <trkpt lat="37.84881254885908" lon="112.02649542009696">
        <ele>1112.9681662667485</ele>
        <time>2016-07-20T08:52:00.100000Z</time>
      </trkpt>
      <trkpt lat="37.8488616104777" lon="112.02640887367853">
        <ele>1112.687601720823</ele>
        <time>2016-07-20T08:52:04.100000Z</time>
      </trkpt>
      <trkpt lat="37.84887145276084" lon="112.02627608736546">
        <ele>1112.266609475871</ele>
        <time>2016-07-20T08:52:08.100000Z</time>
      </trkpt>
      <trkpt lat="37.84885440453293" lon="112.02615520406837">
        <ele>1111.9046947246152</ele>
        <time>2016-07-20T08:52:12.100000Z</time>
      </trkpt>
      <trkpt lat="37.848897802064755" lon="112.02574549033332">
        <ele>1111.2533452035243</ele>
        <time>2016-07-20T08:52:26.100000Z</time>
      </trkpt>
      <trkpt lat="37.84890284149131" lon="112.02547965537194">
        <ele>1111.0201554277623</ele>
        <time>2016-07-20T08:52:33.100000Z</time>
      </trkpt>
      <trkpt lat="37.84892928968071" lon="112.02532685931897">
        <ele>1110.418545459474</ele>
        <time>2016-07-20T08:52:37.100000Z</time>
      </trkpt>
      <trkpt lat="37.84890192584525" lon="112.02510646358569">
        <ele>1110.1628199704708</ele>
        <time>2016-07-20T08:52:41.100000Z</time>
      </trkpt>
      <trkpt lat="37.84891781129881" lon="112.02484468914808">
        <ele>1110.7223266544656</ele>
        <time>2016-07-20T08:52:48.100000Z</time>
      </trkpt>
      <trkpt lat="37.84895041290594" lon="112.02462320789829">
        <ele>1110.0368841318111</ele>
        <time>2016-07-20T08:52:54.100000Z</time>
      </trkpt>
      <trkpt lat="37.84897534971838" lon="112.02432574082928">
        <ele>1109.8831568570636</ele>
        <time>2016-07-20T08:53:02.100000Z</time>
      </trkpt>
      <trkpt lat="37.84893400704373" lon="112.02395716459776">
        <ele>1111.2596964188933</ele>
        <time>2016-07-20T08:53:12.100000Z</time>
      </trkpt>
      <trkpt lat="37.84889263975048" lon="112.02349773343359">
        <ele>1110.4851808547153</ele>
        <time>2016-07-20T08:53:24.100000Z</time>
      </trkpt>
      <trkpt lat="37.84891412920518" lon="112.02327464029712">
        <ele>1110.8587581547029</ele>
        <time>2016-07-20T08:53:31.100000Z</time>
      </trkpt>
      <trkpt lat="37.84900910679532" lon="112.02306587158185">
        <ele>1111.2611336669258</ele>
        <time>2016-07-20T08:53:39.100000Z</time>
      </trkpt>
      <trkpt lat="37.84901461764959" lon="112.02293364060876">
        <ele>1111.610106137855</ele>
        <time>2016-07-20T08:53:42.100000Z</time>
      </trkpt>
      <trkpt lat="37.8490638824245" lon="112.02267404296869">
        <ele>1112.542744859551</ele>
        <time>2016-07-20T08:53:50.100000Z</time>
      </trkpt>
      <trkpt lat="37.84907453047102" lon="112.02234820283044">
        <ele>1112.665693016047</ele>
        <time>2016-07-20T08:54:00.100000Z</time>
      </trkpt>
      <trkpt lat="37.84910540709606" lon="112.02196747187031">
        <ele>1111.3876071719758</ele>
        <time>2016-07-20T08:54:12.100000Z</time>
      </trkpt>
      <trkpt lat="37.849133548137445" lon="112.02159620940573">
        <ele>1109.7715893093332</ele>
        <time>2016-07-20T08:54:23.100000Z</time>
      </trkpt>
      <trkpt lat="37.84913447256764" lon="112.0214561431706">
        <ele>1109.6040948135826</ele>
        <time>2016-07-20T08:54:27.100000Z</time>
      </trkpt>
      <trkpt lat="37.84919403752711" lon="112.02120331538696">
        <ele>1109.520988438106</ele>
        <time>2016-07-20T08:54:34.100000Z</time>
      </trkpt>
      <trkpt lat="37.84916655118884" lon="112.02083747556487">
        <ele>1109.2172870922611</ele>
        <time>2016-07-20T08:54:45.100000Z</time>
      </trkpt>
      <trkpt lat="37.849127327938724" lon="112.02059710202819">
        <ele>1108.8286476027015</ele>
        <time>2016-07-20T08:54:52.100000Z</time>
      </trkpt>
      <trkpt lat="37.84908621254802" lon="112.02045325933395">
        <ele>1108.5518410169457</ele>
        <time>2016-07-20T08:54:56.100000Z</time>
      </trkpt>
      <trkpt lat="37.849065866129955" lon="112.02005849491253">
        <ele>1107.1227089624158</ele>
        <time>2016-07-20T08:55:08.100000Z</time>
      </trkpt>
      <trkpt lat="37.84905502810925" lon="112.01995493821653">
        <ele>1107.6826362069055</ele>
        <time>2016-07-20T08:55:12.100000Z</time>
      </trkpt>
      <trkpt lat="37.84910059629073" lon="112.01986110891934">
        <ele>1107.7175918854898</ele>
        <time>2016-07-20T08:55:16.100000Z</time>
      </trkpt>
      <trkpt lat="37.84909355758771" lon="112.01956125364057">
        <ele>1108.6894765901307</ele>
        <time>2016-07-20T08:55:27.100000Z</time>
      </trkpt>
      <trkpt lat="37.8491257535625" lon="112.01939793871786">
        <ele>1108.0788105286879</ele>
        <time>2016-07-20T08:55:37.100000Z</time>
      </trkpt>
      <trkpt lat="37.849155539508125" lon="112.0193211467483">
        <ele>1108.4119722564185</ele>
        <time>2016-07-20T08:55:40.100000Z</time>
      </trkpt>
      <trkpt lat="37.84916670563803" lon="112.01920812615181">
        <ele>1108.3946749271665</ele>
        <time>2016-07-20T08:55:43.100000Z</time>
      </trkpt>
      <trkpt lat="37.84914273235755" lon="112.0189504572004">
        <ele>1108.5812234440432</ele>
        <time>2016-07-20T08:55:51.200000Z</time>
      </trkpt>
      <trkpt lat="37.849160526032996" lon="112.01879606911423">
        <ele>1108.7889582168318</ele>
        <time>2016-07-20T08:55:55.100000Z</time>
      </trkpt>
      <trkpt lat="37.849169750500906" lon="112.01840699653722">
        <ele>1109.7683674492225</ele>
        <time>2016-07-20T08:56:06.100000Z</time>
      </trkpt>
      <trkpt lat="37.84918103138939" lon="112.01835075724289">
        <ele>1109.7977678602745</ele>
        <time>2016-07-20T08:56:09.100000Z</time>
      </trkpt>
      <trkpt lat="37.84916573676607" lon="112.01799900340417">
        <ele>1110.4346956751008</ele>
        <time>2016-07-20T08:56:27.100000Z</time>
      </trkpt>
      <trkpt lat="37.8491881608439" lon="112.01793600406994">
        <ele>1110.4097552322028</ele>
        <time>2016-07-20T08:56:31.100000Z</time>
      </trkpt>
      <trkpt lat="37.849192018394184" lon="112.01781812174035">
        <ele>1110.658951945083</ele>
        <time>2016-07-20T08:56:35.100000Z</time>
      </trkpt>
      <trkpt lat="37.849251290636204" lon="112.01767644056457">
        <ele>1110.5514551950453</ele>
        <time>2016-07-20T08:56:39.100000Z</time>
      </trkpt>
      <trkpt lat="37.84932503058417" lon="112.0173106229469">
        <ele>1110.7585164218572</ele>
        <time>2016-07-20T08:56:50.100000Z</time>
      </trkpt>
      <trkpt lat="37.84936241734106" lon="112.01694481300196">
        <ele>1111.6834371856417</ele>
        <time>2016-07-20T08:57:00.100000Z</time>
      </trkpt>
      <trkpt lat="37.84933295152216" lon="112.01661875765339">
        <ele>1110.7386124590885</ele>
        <time>2016-07-20T08:57:11.100000Z</time>
      </trkpt>
      <trkpt lat="37.84939018876392" lon="112.01633460041828">
        <ele>1109.4938777947868</ele>
        <time>2016-07-20T08:57:19.100000Z</time>
      </trkpt>
      <trkpt lat="37.849466630802425" lon="112.0160715308311">
        <ele>1109.239416567131</ele>
        <time>2016-07-20T08:57:27.100000Z</time>
      </trkpt>
      <trkpt lat="37.84951434979004" lon="112.01570086410936">
        <ele>1108.910216518737</ele>
        <time>2016-07-20T08:57:38.100000Z</time>
      </trkpt>
      <trkpt lat="37.849544828382804" lon="112.01528775698402">
        <ele>1109.931183597262</ele>
        <time>2016-07-20T08:57:52.100000Z</time>
      </trkpt>
      <trkpt lat="37.84955464104392" lon="112.01508174624287">
        <ele>1109.8050072351052</ele>
        <time>2016-07-20T08:57:59.100000Z</time>
      </trkpt>
      <trkpt lat="37.849595530422135" lon="112.0147297429688">
        <ele>1107.6132814275113</ele>
        <time>2016-07-20T08:58:10.100000Z</time>
      </trkpt>
      <trkpt lat="37.84960446291406" lon="112.0144529033345">
        <ele>1106.1698747317653</ele>
        <time>2016-07-20T08:58:18.100000Z</time>
      </trkpt>
      <trkpt lat="37.849644198477684" lon="112.01403169625814">
        <ele>1106.4543495608416</ele>
        <time>2016-07-20T08:58:30.100000Z</time>
      </trkpt>
      <trkpt lat="37.84968131412703" lon="112.01376756369545">
        <ele>1107.4820134403096</ele>
        <time>2016-07-20T08:58:38.100000Z</time>
      </trkpt>
      <trkpt lat="37.84967359914206" lon="112.01362022665226">
        <ele>1108.1687877087202</ele>
        <time>2016-07-20T08:58:42.200000Z</time>
      </trkpt>
      <trkpt lat="37.84973085405488" lon="112.01324119837156">
        <ele>1109.468927537208</ele>
        <time>2016-07-20T08:58:53.100000Z</time>
      </trkpt>
      <trkpt lat="37.849732338385984" lon="112.01310305346921">
        <ele>1109.9594083472425</ele>
        <time>2016-07-20T08:58:57.200000Z</time>
      </trkpt>
      <trkpt lat="37.849787603891066" lon="112.01285000783756">
        <ele>1109.6486473166965</ele>
        <time>2016-07-20T08:59:04.100000Z</time>
      </trkpt>
      <trkpt lat="37.8498145636071" lon="112.01244098169148">
        <ele>1110.0195849000072</ele>
        <time>2016-07-20T08:59:16.100000Z</time>
      </trkpt>
      <trkpt lat="37.84985056826255" lon="112.01209467573798">
        <ele>1111.5553308888946</ele>
        <time>2016-07-20T08:59:26.100000Z</time>
      </trkpt>
      <trkpt lat="37.84989965991575" lon="112.01172701418446">
        <ele>1113.0010730335482</ele>
        <time>2016-07-20T08:59:38.100000Z</time>
      </trkpt>
      <trkpt lat="37.84991023125" lon="112.01135800818808">
        <ele>1113.2310790895397</ele>
        <time>2016-07-20T08:59:49.100000Z</time>
      </trkpt>
      <trkpt lat="37.84995006916213" lon="112.01100170680148">
        <ele>1112.2062095364824</ele>
        <time>2016-07-20T09:00:00.100000Z</time>
      </trkpt>
      <trkpt lat="37.84996707773482" lon="112.01056674493839">
        <ele>1113.7395970652099</ele>
        <time>2016-07-20T09:00:12.100000Z</time>
      </trkpt>
      <trkpt lat="37.84997774419635" lon="112.01025992198959">
        <ele>1115.6424174761232</ele>
        <time>2016-07-20T09:00:20.100000Z</time>
      </trkpt>
      <trkpt lat="37.84997158347812" lon="112.00995553565942">
        <ele>1117.1400263838116</ele>
        <time>2016-07-20T09:00:30Z</time>
      </trkpt>
      <trkpt lat="37.84993167383955" lon="112.00959546830289">
        <ele>1116.9211879926959</ele>
        <time>2016-07-20T09:00:40.100000Z</time>
      </trkpt>
      <trkpt lat="37.84991140822686" lon="112.00938299677928">
        <ele>1117.252942870828</ele>
        <time>2016-07-20T09:00:47.100000Z</time>
      </trkpt>
      <trkpt lat="37.84981127273471" lon="112.00911403836635">
        <ele>1118.3765311690263</ele>
        <time>2016-07-20T09:00:55.100000Z</time>
      </trkpt>
      <trkpt lat="37.849712277738696" lon="112.00891860815307">
        <ele>1119.5356762954175</ele>
        <time>2016-07-20T09:01:02.100000Z</time>
      </trkpt>
      <trkpt lat="37.84949780359364" lon="112.00859776417462">
        <ele>1121.1127436254483</ele>
        <time>2016-07-20T09:01:13.100000Z</time>
      </trkpt>
      <trkpt lat="37.849280640050665" lon="112.00826935328026">
        <ele>1123.596346993124</ele>
        <time>2016-07-20T09:01:25Z</time>
      </trkpt>
      <trkpt lat="37.849094556185996" lon="112.00798229878085">
        <ele>1126.0353328630163</ele>
        <time>2016-07-20T09:01:35.100000Z</time>
      </trkpt>
      <trkpt lat="37.848848400085025" lon="112.00764200064256">
        <ele>1128.2620736909726</ele>
        <time>2016-07-20T09:01:49.100000Z</time>
      </trkpt>
      <trkpt lat="37.84861954751133" lon="112.0073225163462">
        <ele>1128.251279723108</ele>
        <time>2016-07-20T09:02:03.100000Z</time>
      </trkpt>
      <trkpt lat="37.848519643286494" lon="112.00716061052903">
        <ele>1127.9751134856124</ele>
        <time>2016-07-20T09:02:10.100000Z</time>
      </trkpt>
      <trkpt lat="37.848345559959014" lon="112.00694492178782">
        <ele>1128.1699268190996</ele>
        <time>2016-07-20T09:02:18.100000Z</time>
      </trkpt>
      <trkpt lat="37.8481803397044" lon="112.00685087290094">
        <ele>1129.0533206870577</ele>
        <time>2016-07-20T09:02:25Z</time>
      </trkpt>
      <trkpt lat="37.84789671181846" lon="112.00679576313577">
        <ele>1129.9521658104766</ele>
        <time>2016-07-20T09:02:35Z</time>
      </trkpt>
      <trkpt lat="37.84772946623317" lon="112.00674415357729">
        <ele>1131.250248046205</ele>
        <time>2016-07-20T09:02:41.100000Z</time>
      </trkpt>
      <trkpt lat="37.847460409637335" lon="112.00671580297526">
        <ele>1132.3876301634132</ele>
        <time>2016-07-20T09:02:51.100000Z</time>
      </trkpt>
      <trkpt lat="37.84735915570073" lon="112.00673419622998">
        <ele>1132.8967864694034</ele>
        <time>2016-07-20T09:02:55.100000Z</time>
      </trkpt>
      <trkpt lat="37.84703449721596" lon="112.00670017572588">
        <ele>1132.2278470308959</ele>
        <time>2016-07-20T09:03:09.100000Z</time>
      </trkpt>
      <trkpt lat="37.846652644422946" lon="112.00664859183414">
        <ele>1131.1142191787949</ele>
        <time>2016-07-20T09:03:23.100000Z</time>
      </trkpt>
      <trkpt lat="37.846466581952825" lon="112.0066294219417">
        <ele>1131.4231546419853</ele>
        <time>2016-07-20T09:03:30.100000Z</time>
      </trkpt>
      <trkpt lat="37.846385425230366" lon="112.0066410549987">
        <ele>1131.213274178828</ele>
        <time>2016-07-20T09:03:33.100000Z</time>
      </trkpt>
      <trkpt lat="37.84609623795852" lon="112.00653972290426">
        <ele>1132.88128079435</ele>
        <time>2016-07-20T09:03:44.100000Z</time>
      </trkpt>
      <trkpt lat="37.84577640637355" lon="112.00643379933057">
        <ele>1134.339619886413</ele>
        <time>2016-07-20T09:03:56.100000Z</time>
      </trkpt>
      <trkpt lat="37.84545312208094" lon="112.00630300781293">
        <ele>1135.9026642290999</ele>
        <time>2016-07-20T09:04:09.100000Z</time>
      </trkpt>
      <trkpt lat="37.84533063289995" lon="112.0062549072875">
        <ele>1136.3922869518144</ele>
        <time>2016-07-20T09:04:13.100000Z</time>
      </trkpt>
      <trkpt lat="37.8450735476139" lon="112.00621547274869">
        <ele>1136.5440918706397</ele>
        <time>2016-07-20T09:04:21.100000Z</time>
      </trkpt>
      <trkpt lat="37.84480033085598" lon="112.0062176678079">
        <ele>1136.4773066409507</ele>
        <time>2016-07-20T09:04:32.100000Z</time>
      </trkpt>
      <trkpt lat="37.844703831993826" lon="112.00618821558415">
        <ele>1136.7325321787944</ele>
        <time>2016-07-20T09:04:36.100000Z</time>
      </trkpt>
      <trkpt lat="37.844427177351726" lon="112.00625150100707">
        <ele>1137.519886969898</ele>
        <time>2016-07-20T09:04:47.100000Z</time>
      </trkpt>
      <trkpt lat="37.84412139097647" lon="112.00634884901484">
        <ele>1136.9813919100795</ele>
        <time>2016-07-20T09:04:59.100000Z</time>
      </trkpt>
      <trkpt lat="37.84383694649244" lon="112.006477010002">
        <ele>1135.5878447336881</ele>
        <time>2016-07-20T09:05:09.100000Z</time>
      </trkpt>
      <trkpt lat="37.84354684819715" lon="112.00668166994971">
        <ele>1135.011555763025</ele>
        <time>2016-07-20T09:05:21.100000Z</time>
      </trkpt>
      <trkpt lat="37.843295262883544" lon="112.0068909212096">
        <ele>1135.9400914286548</ele>
        <time>2016-07-20T09:05:32.100000Z</time>
      </trkpt>
      <trkpt lat="37.84313748207157" lon="112.00703231340499">
        <ele>1136.086790351443</ele>
        <time>2016-07-20T09:05:40.100000Z</time>
      </trkpt>
      <trkpt lat="37.843056229925566" lon="112.00707611376215">
        <ele>1136.4800060261164</ele>
        <time>2016-07-20T09:05:43.100000Z</time>
      </trkpt>
      <trkpt lat="37.84291470558897" lon="112.00722507317862">
        <ele>1137.685877422609</ele>
        <time>2016-07-20T09:05:50.100000Z</time>
      </trkpt>
      <trkpt lat="37.84268867544064" lon="112.0074172932646">
        <ele>1138.8078557058107</ele>
        <time>2016-07-20T09:06:01.100000Z</time>
      </trkpt>
      <trkpt lat="37.842468511730594" lon="112.00755274708466">
        <ele>1135.7921697381632</ele>
        <time>2016-07-20T09:06:13.100000Z</time>
      </trkpt>
      <trkpt lat="37.84238468494954" lon="112.00764142038518">
        <ele>1135.238818728526</ele>
        <time>2016-07-20T09:06:17.100000Z</time>
      </trkpt>
      <trkpt lat="37.84231104989615" lon="112.00767846235262">
        <ele>1134.9164300407963</ele>
        <time>2016-07-20T09:06:20.100000Z</time>
      </trkpt>
      <trkpt lat="37.84222560260543" lon="112.00776470317648">
        <ele>1134.3816795756752</ele>
        <time>2016-07-20T09:06:24.100000Z</time>
      </trkpt>
      <trkpt lat="37.841984953440615" lon="112.00794665456516">
        <ele>1133.0135644210573</ele>
        <time>2016-07-20T09:06:35.100000Z</time>
      </trkpt>
      <trkpt lat="37.84182473431063" lon="112.00808750867797">
        <ele>1131.5983261463648</ele>
        <time>2016-07-20T09:06:43.100000Z</time>
      </trkpt>
      <trkpt lat="37.84164872976364" lon="112.00815348705997">
        <ele>1130.3064691396812</ele>
        <time>2016-07-20T09:06:50.100000Z</time>
      </trkpt>
      <trkpt lat="37.84137685580675" lon="112.00816054775325">
        <ele>1131.7382362400722</ele>
        <time>2016-07-20T09:07:00.100000Z</time>
      </trkpt>
      <trkpt lat="37.84127572261738" lon="112.00813839380696">
        <ele>1132.768284421678</ele>
        <time>2016-07-20T09:07:04.100000Z</time>
      </trkpt>
      <trkpt lat="37.84110988949495" lon="112.00815949834198">
        <ele>1134.2512685757795</ele>
        <time>2016-07-20T09:07:12.100000Z</time>
      </trkpt>
      <trkpt lat="37.84076734447799" lon="112.00811899163573">
        <ele>1134.432396741424</ele>
        <time>2016-07-20T09:07:25.100000Z</time>
      </trkpt>
      <trkpt lat="37.84046787786372" lon="112.0080987535885">
        <ele>1136.9453317540865</ele>
        <time>2016-07-20T09:07:36.100000Z</time>
      </trkpt>
      <trkpt lat="37.84030745348887" lon="112.00803416698848">
        <ele>1137.6608954168346</ele>
        <time>2016-07-20T09:07:43.100000Z</time>
      </trkpt>
      <trkpt lat="37.83995145676756" lon="112.00804691435656">
        <ele>1137.358195245872</ele>
        <time>2016-07-20T09:07:57.100000Z</time>
      </trkpt>
      <trkpt lat="37.83977958609474" lon="112.00809126684128">
        <ele>1138.0959745326609</ele>
        <time>2016-07-20T09:08:04.100000Z</time>
      </trkpt>
      <trkpt lat="37.839670597843934" lon="112.00806478878269">
        <ele>1139.161941677752</ele>
        <time>2016-07-20T09:08:08.100000Z</time>
      </trkpt>
      <trkpt lat="37.83942450990574" lon="112.00806806194895">
        <ele>1141.0613037686117</ele>
        <time>2016-07-20T09:08:16Z</time>
      </trkpt>
      <trkpt lat="37.839309408759696" lon="112.00809024167519">
        <ele>1142.2003572270871</ele>
        <time>2016-07-20T09:08:20.100000Z</time>
      </trkpt>
      <trkpt lat="37.83938639039897" lon="112.00811402039258">
        <ele>1143.109945236164</ele>
        <time>2016-07-20T09:08:28.100000Z</time>
      </trkpt>
      <trkpt lat="37.83954590156491" lon="112.00812048897079">
        <ele>1142.6811004208323</ele>
        <time>2016-07-20T09:08:35.100000Z</time>
      </trkpt>
      <trkpt lat="37.839822777255286" lon="112.00807342076635">
        <ele>1140.0658720257677</ele>
        <time>2016-07-20T09:08:46.100000Z</time>
      </trkpt>
      <trkpt lat="37.84015342210485" lon="112.00800958654543">
        <ele>1139.2548100699635</ele>
        <time>2016-07-20T09:08:57.100000Z</time>
      </trkpt>
      <trkpt lat="37.84020885348992" lon="112.00798119668656">
        <ele>1138.8251279876256</ele>
        <time>2016-07-20T09:09:03.100000Z</time>
      </trkpt>
      <trkpt lat="37.84026041045572" lon="112.0079784873693">
        <ele>1140.4007178139232</ele>
        <time>2016-07-20T09:09:11.100000Z</time>
      </trkpt>
      <trkpt lat="37.840444162666955" lon="112.00804469303117">
        <ele>1141.2014514192263</ele>
        <time>2016-07-20T09:09:18.100000Z</time>
      </trkpt>
      <trkpt lat="37.8405672671113" lon="112.00806846622648">
        <ele>1141.3141840049689</ele>
        <time>2016-07-20T09:09:22.100000Z</time>
      </trkpt>
      <trkpt lat="37.84062102098917" lon="112.00805683618577">
        <ele>1141.1129163906878</ele>
        <time>2016-07-20T09:09:25.100000Z</time>
      </trkpt>
      <trkpt lat="37.84085634309499" lon="112.00811600752725">
        <ele>1140.688239412088</ele>
        <time>2016-07-20T09:09:32.100000Z</time>
      </trkpt>
      <trkpt lat="37.84122117880618" lon="112.00814191443959">
        <ele>1140.4508217959567</ele>
        <time>2016-07-20T09:09:43.100000Z</time>
      </trkpt>
      <trkpt lat="37.841459174938734" lon="112.00812269351913">
        <ele>1139.8307095451214</ele>
        <time>2016-07-20T09:09:51.100000Z</time>
      </trkpt>
      <trkpt lat="37.84180737855604" lon="112.00799317019072">
        <ele>1139.3276863391052</ele>
        <time>2016-07-20T09:10:02.100000Z</time>
      </trkpt>
      <trkpt lat="37.84206812461347" lon="112.00780445837636">
        <ele>1139.363689727295</ele>
        <time>2016-07-20T09:10:09.100000Z</time>
      </trkpt>
      <trkpt lat="37.842313313997174" lon="112.00755546874883">
        <ele>1139.6517491725222</ele>
        <time>2016-07-20T09:10:20.100000Z</time>
      </trkpt>
      <trkpt lat="37.84258780168906" lon="112.00730782813686">
        <ele>1140.4524421320787</ele>
        <time>2016-07-20T09:10:31.100000Z</time>
      </trkpt>
      <trkpt lat="37.84289113232821" lon="112.00712343821887">
        <ele>1140.9033873633157</ele>
        <time>2016-07-20T09:10:42Z</time>
      </trkpt>
      <trkpt lat="37.8431673234858" lon="112.00694202547685">
        <ele>1136.6468841465978</ele>
        <time>2016-07-20T09:10:53.100000Z</time>
      </trkpt>
      <trkpt lat="37.84349103550468" lon="112.00674682165764">
        <ele>1135.176304978953</ele>
        <time>2016-07-20T09:11:03.100000Z</time>
      </trkpt>
      <trkpt lat="37.84359700449158" lon="112.00669382797645">
        <ele>1135.1761282814655</ele>
        <time>2016-07-20T09:11:07.100000Z</time>
      </trkpt>
      <trkpt lat="37.84379153527161" lon="112.00651134486037">
        <ele>1135.5968428986275</ele>
        <time>2016-07-20T09:11:15.100000Z</time>
      </trkpt>
      <trkpt lat="37.84408145990948" lon="112.00636507237996">
        <ele>1139.6989629205307</ele>
        <time>2016-07-20T09:11:25.100000Z</time>
      </trkpt>
      <trkpt lat="37.84429394267602" lon="112.00625854494741">
        <ele>1140.4042062394496</ele>
        <time>2016-07-20T09:11:32.100000Z</time>
      </trkpt>
      <trkpt lat="37.84447129583006" lon="112.00619581197905">
        <ele>1140.598836228719</ele>
        <time>2016-07-20T09:11:36.100000Z</time>
      </trkpt>
      <trkpt lat="37.84465928133889" lon="112.00620687224888">
        <ele>1139.6650945004694</ele>
        <time>2016-07-20T09:11:42.100000Z</time>
      </trkpt>
      <trkpt lat="37.84496402702319" lon="112.00627657578477">
        <ele>1138.5183259326157</ele>
        <time>2016-07-20T09:11:53.100000Z</time>
      </trkpt>
      <trkpt lat="37.84523221995566" lon="112.00632141522948">
        <ele>1136.922225197946</ele>
        <time>2016-07-20T09:12:01.100000Z</time>
      </trkpt>
      <trkpt lat="37.84553913874483" lon="112.0063903076816">
        <ele>1134.7408269614639</ele>
        <time>2016-07-20T09:12:12.100000Z</time>
      </trkpt>
      <trkpt lat="37.8458895035698" lon="112.00653812569897">
        <ele>1133.8816767499268</ele>
        <time>2016-07-20T09:12:23.100000Z</time>
      </trkpt>
      <trkpt lat="37.84611847336996" lon="112.00663486968699">
        <ele>1133.859952993326</ele>
        <time>2016-07-20T09:12:30.100000Z</time>
      </trkpt>
      <trkpt lat="37.84644601384362" lon="112.00670321935085">
        <ele>1132.8891993396146</ele>
        <time>2016-07-20T09:12:38Z</time>
      </trkpt>
      <trkpt lat="37.84668461176035" lon="112.00675563130652">
        <ele>1131.82676342225</ele>
        <time>2016-07-20T09:12:45.100000Z</time>
      </trkpt>
      <trkpt lat="37.84684964557" lon="112.00672993202834">
        <ele>1131.4538255384991</ele>
        <time>2016-07-20T09:12:52Z</time>
      </trkpt>
      <trkpt lat="37.84720663998995" lon="112.00674718937483">
        <ele>1130.9801966333896</ele>
        <time>2016-07-20T09:13:06.100000Z</time>
      </trkpt>
      <trkpt lat="37.8475353303854" lon="112.00679391406686">
        <ele>1130.2634128299483</ele>
        <time>2016-07-20T09:13:14.100000Z</time>
      </trkpt>
      <trkpt lat="37.8478260935578" lon="112.00682172148615">
        <ele>1127.8147170319046</ele>
        <time>2016-07-20T09:13:22.100000Z</time>
      </trkpt>
      <trkpt lat="37.848140679130715" lon="112.00686736665953">
        <ele>1125.5924076122476</ele>
        <time>2016-07-20T09:13:32.100000Z</time>
      </trkpt>
      <trkpt lat="37.84826560100808" lon="112.0069187110445">
        <ele>1123.123857304899</ele>
        <time>2016-07-20T09:13:36.100000Z</time>
      </trkpt>
      <trkpt lat="37.848439842577335" lon="112.00708114804641">
        <ele>1122.091888496744</ele>
        <time>2016-07-20T09:13:43.100000Z</time>
      </trkpt>
      <trkpt lat="37.84866252470421" lon="112.00737684430199">
        <ele>1122.2855317423373</ele>
        <time>2016-07-20T09:13:51.100000Z</time>
      </trkpt>
      <trkpt lat="37.84885903016626" lon="112.0076255101586">
        <ele>1122.1044091140805</ele>
        <time>2016-07-20T09:13:59.100000Z</time>
      </trkpt>
      <trkpt lat="37.84911486613453" lon="112.00799527154741">
        <ele>1120.3329127583095</ele>
        <time>2016-07-20T09:14:11.100000Z</time>
      </trkpt>
      <trkpt lat="37.84930798335972" lon="112.00828935352635">
        <ele>1119.1007858554121</ele>
        <time>2016-07-20T09:14:22.200000Z</time>
      </trkpt>
      <trkpt lat="37.8495017670394" lon="112.00863371614987">
        <ele>1117.485464578637</ele>
        <time>2016-07-20T09:14:33.100000Z</time>
      </trkpt>
      <trkpt lat="37.84970260156345" lon="112.0089797017717">
        <ele>1115.9383097245336</ele>
        <time>2016-07-20T09:14:44Z</time>
      </trkpt>
      <trkpt lat="37.84979808798459" lon="112.00916891520473">
        <ele>1115.490254550405</ele>
        <time>2016-07-20T09:14:51.100000Z</time>
      </trkpt>
      <trkpt lat="37.84985112461047" lon="112.00930866531235">
        <ele>1115.5406377907273</ele>
        <time>2016-07-20T09:14:55.100000Z</time>
      </trkpt>
      <trkpt lat="37.849901847813285" lon="112.00958925442362">
        <ele>1115.9954570494624</ele>
        <time>2016-07-20T09:15:02.100000Z</time>
      </trkpt>
      <trkpt lat="37.84992414815178" lon="112.01003285440484">
        <ele>1116.616143757958</ele>
        <time>2016-07-20T09:15:13.100000Z</time>
      </trkpt>
      <trkpt lat="37.84991496712187" lon="112.01048051653181">
        <ele>1117.2669732708125</ele>
        <time>2016-07-20T09:15:24.100000Z</time>
      </trkpt>
      <trkpt lat="37.84989181134973" lon="112.0109763027147">
        <ele>1117.7098958483825</ele>
        <time>2016-07-20T09:15:36.100000Z</time>
      </trkpt>
      <trkpt lat="37.84986208207981" lon="112.01140153744345">
        <ele>1116.7374203776965</ele>
        <time>2016-07-20T09:15:47.100000Z</time>
      </trkpt>
      <trkpt lat="37.849873505607185" lon="112.01167105818364">
        <ele>1115.7280199941104</ele>
        <time>2016-07-20T09:15:54.100000Z</time>
      </trkpt>
      <trkpt lat="37.84982746982332" lon="112.01210738429504">
        <ele>1115.106756054897</ele>
        <time>2016-07-20T09:16:04.100000Z</time>
      </trkpt>
      <trkpt lat="37.84977719647148" lon="112.01260264848369">
        <ele>1115.3072391008968</ele>
        <time>2016-07-20T09:16:15.100000Z</time>
      </trkpt>
      <trkpt lat="37.84976335875035" lon="112.01279026560441">
        <ele>1115.3876505696032</ele>
        <time>2016-07-20T09:16:21.100000Z</time>
      </trkpt>
      <trkpt lat="37.84972766495562" lon="112.01293652392566">
        <ele>1115.1521574705278</ele>
        <time>2016-07-20T09:16:25.100000Z</time>
      </trkpt>
      <trkpt lat="37.849687241062135" lon="112.01302979636145">
        <ele>1115.0524742529021</ele>
        <time>2016-07-20T09:16:28.200000Z</time>
      </trkpt>
      <trkpt lat="37.84961774458907" lon="112.01351371773359">
        <ele>1115.1145958016598</ele>
        <time>2016-07-20T09:16:40.100000Z</time>
      </trkpt>
      <trkpt lat="37.849571943183996" lon="112.01396736239818">
        <ele>1113.9255631087358</ele>
        <time>2016-07-20T09:16:54.100000Z</time>
      </trkpt>
      <trkpt lat="37.84955103728859" lon="112.01425582548964">
        <ele>1112.5621965737998</ele>
        <time>2016-07-20T09:17:01.200000Z</time>
      </trkpt>
      <trkpt lat="37.8494937106516" lon="112.01466216745814">
        <ele>1109.9560806542513</ele>
        <time>2016-07-20T09:17:12.100000Z</time>
      </trkpt>
      <trkpt lat="37.84943709938546" lon="112.01491414168916">
        <ele>1108.5363994372474</ele>
        <time>2016-07-20T09:17:19.100000Z</time>
      </trkpt>
      <trkpt lat="37.84938044103274" lon="112.01537320873689">
        <ele>1107.153327805696</ele>
        <time>2016-07-20T09:17:31Z</time>
      </trkpt>
      <trkpt lat="37.84932752642272" lon="112.01585282736475">
        <ele>1106.7914298994115</ele>
        <time>2016-07-20T09:17:42.100000Z</time>
      </trkpt>
      <trkpt lat="37.84934486895263" lon="112.01633839090017">
        <ele>1107.7926590638253</ele>
        <time>2016-07-20T09:17:53.100000Z</time>
      </trkpt>
      <trkpt lat="37.849327375088095" lon="112.01648006241336">
        <ele>1108.2268442930265</ele>
        <time>2016-07-20T09:17:56.100000Z</time>
      </trkpt>
      <trkpt lat="37.84931936497085" lon="112.01691426692743">
        <ele>1109.4697138150204</ele>
        <time>2016-07-20T09:18:07.100000Z</time>
      </trkpt>
      <trkpt lat="37.84931840819412" lon="112.01706107538264">
        <ele>1109.9596140592846</ele>
        <time>2016-07-20T09:18:11.100000Z</time>
      </trkpt>
      <trkpt lat="37.849274953797014" lon="112.01746230535379">
        <ele>1110.475413310272</ele>
        <time>2016-07-20T09:18:22.100000Z</time>
      </trkpt>
      <trkpt lat="37.84921139363039" lon="112.01787489733823">
        <ele>1111.1590571056333</ele>
        <time>2016-07-20T09:18:33Z</time>
      </trkpt>
      <trkpt lat="37.849196530598" lon="112.01795060313921">
        <ele>1111.2782386708077</ele>
        <time>2016-07-20T09:18:36.100000Z</time>
      </trkpt>
      <trkpt lat="37.84922226278225" lon="112.01786894786889">
        <ele>1111.0193973429239</ele>
        <time>2016-07-20T09:18:40Z</time>
      </trkpt>
      <trkpt lat="37.84921987576419" lon="112.01775268871005">
        <ele>1110.453637900636</ele>
        <time>2016-07-20T09:18:43.200000Z</time>
      </trkpt>
      <trkpt lat="37.84924174436525" lon="112.01759776414917">
        <ele>1110.1377610095697</ele>
        <time>2016-07-20T09:18:47Z</time>
      </trkpt>
      <trkpt lat="37.849242668443765" lon="112.01746203885365">
        <ele>1110.0851894063464</ele>
        <time>2016-07-20T09:18:50.100000Z</time>
      </trkpt>
      <trkpt lat="37.84930797257687" lon="112.0171056870067">
        <ele>1109.57409042501</ele>
        <time>2016-07-20T09:19:01.100000Z</time>
      </trkpt>
      <trkpt lat="37.84928514558169" lon="112.01663822950889">
        <ele>1107.9837907334659</ele>
        <time>2016-07-20T09:19:13.100000Z</time>
      </trkpt>
      <trkpt lat="37.849310569823054" lon="112.0164743868257">
        <ele>1107.9207188668609</ele>
        <time>2016-07-20T09:19:17.100000Z</time>
      </trkpt>
      <trkpt lat="37.84936083116055" lon="112.0163543402921">
        <ele>1108.0740380219504</ele>
        <time>2016-07-20T09:19:21.100000Z</time>
      </trkpt>
      <trkpt lat="37.849435305214605" lon="112.01601989598468">
        <ele>1109.6839568027933</ele>
        <time>2016-07-20T09:19:31.200000Z</time>
      </trkpt>
      <trkpt lat="37.849453126926385" lon="112.01585876019992">
        <ele>1110.5313881547997</ele>
        <time>2016-07-20T09:19:35.100000Z</time>
      </trkpt>
      <trkpt lat="37.84944084579976" lon="112.0156933029159">
        <ele>1111.2190541388752</ele>
        <time>2016-07-20T09:19:39.100000Z</time>
      </trkpt>
      <trkpt lat="37.84946876329331" lon="112.01522693639318">
        <ele>1115.1805046823713</ele>
        <time>2016-07-20T09:19:51.100000Z</time>
      </trkpt>
      <trkpt lat="37.84953345299506" lon="112.01490088290446">
        <ele>1115.4401811646514</ele>
        <time>2016-07-20T09:20:01.100000Z</time>
      </trkpt>
      <trkpt lat="37.84954604331813" lon="112.01476759804686">
        <ele>1115.841030934527</ele>
        <time>2016-07-20T09:20:05.100000Z</time>
      </trkpt>
      <trkpt lat="37.84953240868962" lon="112.01450752255627">
        <ele>1115.8222425189192</ele>
        <time>2016-07-20T09:20:12.200000Z</time>
      </trkpt>
      <trkpt lat="37.84954594755932" lon="112.01423311685832">
        <ele>1115.1582357004786</ele>
        <time>2016-07-20T09:20:20.100000Z</time>
      </trkpt>
      <trkpt lat="37.849620379940625" lon="112.01382326215439">
        <ele>1114.925867618948</ele>
        <time>2016-07-20T09:20:31.100000Z</time>
      </trkpt>
      <trkpt lat="37.84965801341835" lon="112.01356805206319">
        <ele>1114.7917229025863</ele>
        <time>2016-07-20T09:20:38Z</time>
      </trkpt>
      <trkpt lat="37.84968646273579" lon="112.01320524816714">
        <ele>1113.7077589351914</ele>
        <time>2016-07-20T09:20:49.100000Z</time>
      </trkpt>
      <trkpt lat="37.84969742665557" lon="112.0130727794021">
        <ele>1112.9876783918269</ele>
        <time>2016-07-20T09:20:53Z</time>
      </trkpt>
      <trkpt lat="37.84973734382611" lon="112.01296707126677">
        <ele>1112.6595351691333</ele>
        <time>2016-07-20T09:20:57.100000Z</time>
      </trkpt>
      <trkpt lat="37.849782419053085" lon="112.01267293599031">
        <ele>1112.5092417735964</ele>
        <time>2016-07-20T09:21:04.100000Z</time>
      </trkpt>
      <trkpt lat="37.84978474052159" lon="112.01252722312093">
        <ele>1111.6259708987775</ele>
        <time>2016-07-20T09:21:08.100000Z</time>
      </trkpt>
      <trkpt lat="37.84979425833863" lon="112.01242611553766">
        <ele>1111.0593596627828</ele>
        <time>2016-07-20T09:21:11Z</time>
      </trkpt>
      <trkpt lat="37.84983997145127" lon="112.01228688629067">
        <ele>1110.8049204746378</ele>
        <time>2016-07-20T09:21:15.100000Z</time>
      </trkpt>
      <trkpt lat="37.84983328788469" lon="112.01215928815763">
        <ele>1110.7514136013108</ele>
        <time>2016-07-20T09:21:19.100000Z</time>
      </trkpt>
      <trkpt lat="37.84980447665165" lon="112.01208386780877">
        <ele>1110.6673939009231</ele>
        <time>2016-07-20T09:21:23.100000Z</time>
      </trkpt>
      <trkpt lat="37.849814522267515" lon="112.01170837131333">
        <ele>1111.7262405711767</ele>
        <time>2016-07-20T09:21:39.100000Z</time>
      </trkpt>
      <trkpt lat="37.84982961927316" lon="112.01127610723465">
        <ele>1110.0382591122182</ele>
        <time>2016-07-20T09:21:54.100000Z</time>
      </trkpt>
      <trkpt lat="37.84987566222196" lon="112.01093197050194">
        <ele>1110.436284700291</ele>
        <time>2016-07-20T09:22:05.100000Z</time>
      </trkpt>
      <trkpt lat="37.84991275517125" lon="112.01058729637789">
        <ele>1111.7081183463108</ele>
        <time>2016-07-20T09:22:16.100000Z</time>
      </trkpt>
      <trkpt lat="37.84991932791444" lon="112.01047375781633">
        <ele>1111.9810554212354</ele>
        <time>2016-07-20T09:22:20.100000Z</time>
      </trkpt>
      <trkpt lat="37.84994423436414" lon="112.01039968508346">
        <ele>1112.1732651187622</ele>
        <time>2016-07-20T09:22:23.100000Z</time>
      </trkpt>
      <trkpt lat="37.84996472511298" lon="112.01007366874241">
        <ele>1112.4526479545598</ele>
        <time>2016-07-20T09:22:31.100000Z</time>
      </trkpt>
      <trkpt lat="37.84995202002396" lon="112.0096884572569">
        <ele>1112.3808409866904</ele>
        <time>2016-07-20T09:22:42Z</time>
      </trkpt>
      <trkpt lat="37.84994701048517" lon="112.00945462805818">
        <ele>1111.6941803938275</ele>
        <time>2016-07-20T09:22:49.200000Z</time>
      </trkpt>
      <trkpt lat="37.849866366175945" lon="112.00920026436664">
        <ele>1112.1934232567598</ele>
        <time>2016-07-20T09:22:57Z</time>
      </trkpt>
      <trkpt lat="37.849650154446486" lon="112.00882427379099">
        <ele>1112.9179790680225</ele>
        <time>2016-07-20T09:23:09.100000Z</time>
      </trkpt>
      <trkpt lat="37.849359407688354" lon="112.00851506311395">
        <ele>1114.8525040494183</ele>
        <time>2016-07-20T09:23:21Z</time>
      </trkpt>
      <trkpt lat="37.84928486906214" lon="112.00830719725981">
        <ele>1115.942835631026</ele>
        <time>2016-07-20T09:23:27.100000Z</time>
      </trkpt>
      <trkpt lat="37.84907049512851" lon="112.00795337779925">
        <ele>1117.7010687388015</ele>
        <time>2016-07-20T09:23:39.100000Z</time>
      </trkpt>
      <trkpt lat="37.84900497174556" lon="112.00781660570242">
        <ele>1117.4468791388238</ele>
        <time>2016-07-20T09:23:43.100000Z</time>
      </trkpt>
      <trkpt lat="37.84886286382069" lon="112.00761361584344">
        <ele>1117.186534902278</ele>
        <time>2016-07-20T09:23:51Z</time>
      </trkpt>
      <trkpt lat="37.84878062087187" lon="112.00753415311921">
        <ele>1116.91277850993</ele>
        <time>2016-07-20T09:23:54.100000Z</time>
      </trkpt>
      <trkpt lat="37.848681201064316" lon="112.00739170934278">
        <ele>1117.2526034408409</ele>
        <time>2016-07-20T09:23:58.100000Z</time>
      </trkpt>
      <trkpt lat="37.84851764073477" lon="112.00710411535407">
        <ele>1118.155189565545</ele>
        <time>2016-07-20T09:24:06.100000Z</time>
      </trkpt>
      <trkpt lat="37.848444321815265" lon="112.00703465372904">
        <ele>1118.6825907484206</ele>
        <time>2016-07-20T09:24:09.100000Z</time>
      </trkpt>
      <trkpt lat="37.8482940195788" lon="112.00694195450245">
        <ele>1118.9530572201354</ele>
        <time>2016-07-20T09:24:13.100000Z</time>
      </trkpt>
      <trkpt lat="37.848202832834154" lon="112.00685952019819">
        <ele>1119.4297693113986</ele>
        <time>2016-07-20T09:24:17Z</time>
      </trkpt>
      <trkpt lat="37.84810057648278" lon="112.00685007148142">
        <ele>1119.859629502939</ele>
        <time>2016-07-20T09:24:20.100000Z</time>
      </trkpt>
      <trkpt lat="37.84794505054954" lon="112.00687171499038">
        <ele>1124.6324410262218</ele>
        <time>2016-07-20T09:24:24.100000Z</time>
      </trkpt>
      <trkpt lat="37.84761751365905" lon="112.00680201361303">
        <ele>1126.2639958513325</ele>
        <time>2016-07-20T09:24:35.100000Z</time>
      </trkpt>
      <trkpt lat="37.847258503947785" lon="112.00673258636857">
        <ele>1126.7566953190683</ele>
        <time>2016-07-20T09:24:47Z</time>
      </trkpt>
      <trkpt lat="37.84694447653519" lon="112.00668180529746">
        <ele>1127.6625177667884</ele>
        <time>2016-07-20T09:24:58.100000Z</time>
      </trkpt>
      <trkpt lat="37.84669118352645" lon="112.0066442622591">
        <ele>1128.7844091202633</ele>
        <time>2016-07-20T09:25:08.100000Z</time>
      </trkpt>
      <trkpt lat="37.84634770650855" lon="112.0066432219868">
        <ele>1131.7164112232654</ele>
        <time>2016-07-20T09:25:19.100000Z</time>
      </trkpt>
      <trkpt lat="37.84619859072545" lon="112.0066078290279">
        <ele>1132.4753269240123</ele>
        <time>2016-07-20T09:25:23.100000Z</time>
      </trkpt>
      <trkpt lat="37.846005608701866" lon="112.00654351806453">
        <ele>1133.3415314384524</ele>
        <time>2016-07-20T09:25:30.100000Z</time>
      </trkpt>
      <trkpt lat="37.84593844108313" lon="112.00650406072054">
        <ele>1133.5551020210883</ele>
        <time>2016-07-20T09:25:33.100000Z</time>
      </trkpt>
      <trkpt lat="37.845674936765356" lon="112.00643354112273">
        <ele>1132.9642797084089</ele>
        <time>2016-07-20T09:25:44.100000Z</time>
      </trkpt>
      <trkpt lat="37.84561673053676" lon="112.00639137966792">
        <ele>1132.7837801975418</ele>
        <time>2016-07-20T09:25:47.100000Z</time>
      </trkpt>
      <trkpt lat="37.84529815824585" lon="112.00631816364668">
        <ele>1130.3683672246882</ele>
        <time>2016-07-20T09:25:58.100000Z</time>
      </trkpt>
      <trkpt lat="37.845003277220435" lon="112.0062157514385">
        <ele>1129.2064245084503</ele>
        <time>2016-07-20T09:26:09.100000Z</time>
      </trkpt>
      <trkpt lat="37.84468352317482" lon="112.00617497284607">
        <ele>1128.5932475257641</ele>
        <time>2016-07-20T09:26:21.100000Z</time>
      </trkpt>
      <trkpt lat="37.84458103855383" lon="112.00615119784752">
        <ele>1129.007656127754</ele>
        <time>2016-07-20T09:26:25.100000Z</time>
      </trkpt>
      <trkpt lat="37.84427889965531" lon="112.00629909320453">
        <ele>1130.912030584018</ele>
        <time>2016-07-20T09:26:36.100000Z</time>
      </trkpt>
      <trkpt lat="37.844065066828136" lon="112.00640345837657">
        <ele>1132.3356841647253</ele>
        <time>2016-07-20T09:26:44Z</time>
      </trkpt>
      <trkpt lat="37.8437752219243" lon="112.00661406492175">
        <ele>1133.9293923623793</ele>
        <time>2016-07-20T09:26:56.100000Z</time>
      </trkpt>
      <trkpt lat="37.843521519832855" lon="112.00680520533861">
        <ele>1134.7602153629466</ele>
        <time>2016-07-20T09:27:07.100000Z</time>
      </trkpt>
      <trkpt lat="37.843252908152564" lon="112.0069922933745">
        <ele>1134.7523189496656</ele>
        <time>2016-07-20T09:27:18.100000Z</time>
      </trkpt>
      <trkpt lat="37.84307360315726" lon="112.00716423372972">
        <ele>1134.5314573782462</ele>
        <time>2016-07-20T09:27:26Z</time>
      </trkpt>
      <trkpt lat="37.84298532270645" lon="112.0071993849838">
        <ele>1134.3720563481133</ele>
        <time>2016-07-20T09:27:30.100000Z</time>
      </trkpt>
      <trkpt lat="37.84291973519431" lon="112.0072672414861">
        <ele>1134.5145649247017</ele>
        <time>2016-07-20T09:27:34.100000Z</time>
      </trkpt>
      <trkpt lat="37.84282352976897" lon="112.00732158601774">
        <ele>1134.4499338815958</ele>
        <time>2016-07-20T09:27:38.100000Z</time>
      </trkpt>
      <trkpt lat="37.842732629385864" lon="112.00741674739228">
        <ele>1133.9537670456584</ele>
        <time>2016-07-20T09:27:42.100000Z</time>
      </trkpt>
      <trkpt lat="37.84264409379744" lon="112.0074464925235">
        <ele>1133.1103620680426</ele>
        <time>2016-07-20T09:27:46.100000Z</time>
      </trkpt>
      <trkpt lat="37.84235634755298" lon="112.00768224136182">
        <ele>1130.4787436850365</ele>
        <time>2016-07-20T09:27:58.100000Z</time>
      </trkpt>
      <trkpt lat="37.84207512869514" lon="112.00791285426509">
        <ele>1128.4802537513062</ele>
        <time>2016-07-20T09:28:10.100000Z</time>
      </trkpt>
      <trkpt lat="37.84178413539288" lon="112.008054534859">
        <ele>1129.6953803578958</ele>
        <time>2016-07-20T09:28:20.100000Z</time>
      </trkpt>
      <trkpt lat="37.841577759251166" lon="112.00811538080585">
        <ele>1130.5523688215983</ele>
        <time>2016-07-20T09:28:27.100000Z</time>
      </trkpt>
      <trkpt lat="37.841411458719975" lon="112.00820271313674">
        <ele>1130.6451119632143</ele>
        <time>2016-07-20T09:28:34.100000Z</time>
      </trkpt>
      <trkpt lat="37.841290611937666" lon="112.00824111265202">
        <ele>1130.7301871203974</ele>
        <time>2016-07-20T09:28:38Z</time>
      </trkpt>
      <trkpt lat="37.841112072046414" lon="112.00824708094692">
        <ele>1130.5628520335886</ele>
        <time>2016-07-20T09:28:44.100000Z</time>
      </trkpt>
      <trkpt lat="37.84079883010877" lon="112.00820603005438">
        <ele>1128.6734443740052</ele>
        <time>2016-07-20T09:28:55Z</time>
      </trkpt>
      <trkpt lat="37.8404526028406" lon="112.00812632775626">
        <ele>1127.1695253283401</ele>
        <time>2016-07-20T09:29:10.100000Z</time>
      </trkpt>
      <trkpt lat="37.84008384331179" lon="112.00814286110862">
        <ele>1126.1883436141948</ele>
        <time>2016-07-20T09:29:22.100000Z</time>
      </trkpt>
      <trkpt lat="37.83979347652265" lon="112.00816479145745">
        <ele>1126.677021977024</ele>
        <time>2016-07-20T09:29:33.100000Z</time>
      </trkpt>
      <trkpt lat="37.83951615348838" lon="112.00817969200463">
        <ele>1127.6197243195247</ele>
        <time>2016-07-20T09:29:43.100000Z</time>
      </trkpt>
      <trkpt lat="37.839403799873764" lon="112.00819024779095">
        <ele>1128.0390114314814</ele>
        <time>2016-07-20T09:29:47Z</time>
      </trkpt>
      <trkpt lat="37.83934584199543" lon="112.0082472917149">
        <ele>1128.0926526727503</ele>
        <time>2016-07-20T09:29:51Z</time>
      </trkpt>
      <trkpt lat="37.839442365925734" lon="112.00817672731792">
        <ele>1127.589680261187</ele>
        <time>2016-07-20T09:29:58.100000Z</time>
      </trkpt>
      <trkpt lat="37.83951922032668" lon="112.00815184895202">
        <ele>1127.608173125983</ele>
        <time>2016-07-20T09:30:01.100000Z</time>
      </trkpt>
      <trkpt lat="37.83962858153937" lon="112.0081439967018">
        <ele>1128.2595274496034</ele>
        <time>2016-07-20T09:30:05Z</time>
      </trkpt>
      <trkpt lat="37.83990314272728" lon="112.0080539483596">
        <ele>1128.2801918230011</ele>
        <time>2016-07-20T09:30:12.100000Z</time>
      </trkpt>
      <trkpt lat="37.840244399143444" lon="112.0079798408625">
        <ele>1127.2806875658928</ele>
        <time>2016-07-20T09:30:23Z</time>
      </trkpt>
      <trkpt lat="37.84050037995598" lon="112.00802576414847">
        <ele>1128.0739847601517</ele>
        <time>2016-07-20T09:30:31.100000Z</time>
      </trkpt>
      <trkpt lat="37.84086526832444" lon="112.00812546756204">
        <ele>1129.7876119263692</ele>
        <time>2016-07-20T09:30:45.100000Z</time>
      </trkpt>
      <trkpt lat="37.840947128038536" lon="112.00815113792882">
        <ele>1130.5281810969718</ele>
        <time>2016-07-20T09:30:49.100000Z</time>
      </trkpt>
      <trkpt lat="37.84118038620151" lon="112.00817435738256">
        <ele>1132.5252119236166</ele>
        <time>2016-07-20T09:30:57.100000Z</time>
      </trkpt>
      <trkpt lat="37.84128460303565" lon="112.00816299161787">
        <ele>1133.397581998546</ele>
        <time>2016-07-20T09:31:01.100000Z</time>
      </trkpt>
      <trkpt lat="37.84161537942297" lon="112.00805482531356">
        <ele>1134.816422299968</ele>
        <time>2016-07-20T09:31:12.100000Z</time>
      </trkpt>
      <trkpt lat="37.841914882662394" lon="112.00787962449631">
        <ele>1136.7626029353025</ele>
        <time>2016-07-20T09:31:24.100000Z</time>
      </trkpt>
      <trkpt lat="37.842128370159664" lon="112.00761658198041">
        <ele>1139.5642434052968</ele>
        <time>2016-07-20T09:31:35Z</time>
      </trkpt>
      <trkpt lat="37.84228636666385" lon="112.00749356991105">
        <ele>1142.1421470677676</ele>
        <time>2016-07-20T09:31:42Z</time>
      </trkpt>
      <trkpt lat="37.842366738819756" lon="112.00747193516452">
        <ele>1143.487795733996</ele>
        <time>2016-07-20T09:31:46.100000Z</time>
      </trkpt>
      <trkpt lat="37.842454832895015" lon="112.00740813048058">
        <ele>1144.2044257278676</ele>
        <time>2016-07-20T09:31:50Z</time>
      </trkpt>
      <trkpt lat="37.84266889227924" lon="112.00731836070031">
        <ele>1143.886359799601</ele>
        <time>2016-07-20T09:31:58Z</time>
      </trkpt>
      <trkpt lat="37.84283422027856" lon="112.00719345611668">
        <ele>1142.7461941176823</ele>
        <time>2016-07-20T09:32:05Z</time>
      </trkpt>
      <trkpt lat="37.84310986268859" lon="112.00692284016006">
        <ele>1141.0057452809215</ele>
        <time>2016-07-20T09:32:17.100000Z</time>
      </trkpt>
      <trkpt lat="37.843278133877" lon="112.0068119921638">
        <ele>1141.0072541794348</ele>
        <time>2016-07-20T09:32:24.100000Z</time>
      </trkpt>
      <trkpt lat="37.84336614077311" lon="112.00677765207709">
        <ele>1140.7870572322174</ele>
        <time>2016-07-20T09:32:28.100000Z</time>
      </trkpt>
      <trkpt lat="37.843618241603814" lon="112.00657759166536">
        <ele>1139.3550955243863</ele>
        <time>2016-07-20T09:32:38.100000Z</time>
      </trkpt>
      <trkpt lat="37.84390803821256" lon="112.00638320383995">
        <ele>1137.4050552680942</ele>
        <time>2016-07-20T09:32:50Z</time>
      </trkpt>
      <trkpt lat="37.84397682574643" lon="112.00633426951597">
        <ele>1137.2725885898892</ele>
        <time>2016-07-20T09:32:54.100000Z</time>
      </trkpt>
      <trkpt lat="37.84432396506802" lon="112.00619880295272">
        <ele>1136.3590200428275</ele>
        <time>2016-07-20T09:33:08.100000Z</time>
      </trkpt>
      <trkpt lat="37.844506757390576" lon="112.00613174444028">
        <ele>1135.6338657160088</ele>
        <time>2016-07-20T09:33:16.100000Z</time>
      </trkpt>
      <trkpt lat="37.84461340522164" lon="112.00612416306507">
        <ele>1135.3477463175159</ele>
        <time>2016-07-20T09:33:20Z</time>
      </trkpt>
      <trkpt lat="37.84489775170319" lon="112.00621089845214">
        <ele>1134.6245266956698</ele>
        <time>2016-07-20T09:33:31.100000Z</time>
      </trkpt>
      <trkpt lat="37.84517130471325" lon="112.00627790261332">
        <ele>1134.687902706773</ele>
        <time>2016-07-20T09:33:42Z</time>
      </trkpt>
      <trkpt lat="37.845282472169316" lon="112.0063014063063">
        <ele>1134.623018985295</ele>
        <time>2016-07-20T09:33:46.100000Z</time>
      </trkpt>
      <trkpt lat="37.84562194567656" lon="112.00646220034247">
        <ele>1135.004533228891</ele>
        <time>2016-07-20T09:33:57Z</time>
      </trkpt>
      <trkpt lat="37.845895318695405" lon="112.0064986596526">
        <ele>1133.5568586643249</ele>
        <time>2016-07-20T09:34:06.100000Z</time>
      </trkpt>
      <trkpt lat="37.846164461857335" lon="112.00658891133334">
        <ele>1131.9366498953111</ele>
        <time>2016-07-20T09:34:18.100000Z</time>
      </trkpt>
      <trkpt lat="37.84647851321371" lon="112.00663158300691">
        <ele>1130.995736346462</ele>
        <time>2016-07-20T09:34:30.100000Z</time>
      </trkpt>
      <trkpt lat="37.84674922726901" lon="112.00664993186864">
        <ele>1129.7024397095277</ele>
        <time>2016-07-20T09:34:42.100000Z</time>
      </trkpt>
      <trkpt lat="37.84701272871512" lon="112.00672153291987">
        <ele>1129.0188009180974</ele>
        <time>2016-07-20T09:34:52.100000Z</time>
      </trkpt>
      <trkpt lat="37.8473718196296" lon="112.00676365867263">
        <ele>1127.22664239843</ele>
        <time>2016-07-20T09:35:04.100000Z</time>
      </trkpt>
      <trkpt lat="37.84767853302339" lon="112.00681065630836">
        <ele>1125.8539867836562</ele>
        <time>2016-07-20T09:35:15.200000Z</time>
      </trkpt>
      <trkpt lat="37.84796170110992" lon="112.00683792401615">
        <ele>1125.2932617700267</ele>
        <time>2016-07-20T09:35:26Z</time>
      </trkpt>
      <trkpt lat="37.848151550098564" lon="112.00686114818802">
        <ele>1124.410934440397</ele>
        <time>2016-07-20T09:35:33Z</time>
      </trkpt>
      <trkpt lat="37.84833450211958" lon="112.0069227575063">
        <ele>1123.090589758525</ele>
        <time>2016-07-20T09:35:40.100000Z</time>
      </trkpt>
      <trkpt lat="37.848429999368875" lon="112.007015463246">
        <ele>1122.299167326055</ele>
        <time>2016-07-20T09:35:44.100000Z</time>
      </trkpt>
      <trkpt lat="37.84863742116719" lon="112.00733359707773">
        <ele>1120.640924772035</ele>
        <time>2016-07-20T09:35:55Z</time>
      </trkpt>
      <trkpt lat="37.84884865856567" lon="112.00764632565249">
        <ele>1119.094350107879</ele>
        <time>2016-07-20T09:36:06.100000Z</time>
      </trkpt>
      <trkpt lat="37.84895661573426" lon="112.0078376961066">
        <ele>1118.5335514322896</ele>
        <time>2016-07-20T09:36:14.100000Z</time>
      </trkpt>
      <trkpt lat="37.849033105357336" lon="112.00793608201948">
        <ele>1117.7993960866474</ele>
        <time>2016-07-20T09:36:18.100000Z</time>
      </trkpt>
      <trkpt lat="37.849078881616826" lon="112.00805312360072">
        <ele>1117.2388995214126</ele>
        <time>2016-07-20T09:36:22.100000Z</time>
      </trkpt>
      <trkpt lat="37.849209621935806" lon="112.00824719571368">
        <ele>1116.0153813671056</ele>
        <time>2016-07-20T09:36:29.100000Z</time>
      </trkpt>
      <trkpt lat="37.84929021292677" lon="112.00833503936417">
        <ele>1115.3389875318426</ele>
        <time>2016-07-20T09:36:33Z</time>
      </trkpt>
      <trkpt lat="37.849481681970964" lon="112.00863642174048">
        <ele>1113.78604635867</ele>
        <time>2016-07-20T09:36:43.100000Z</time>
      </trkpt>
      <trkpt lat="37.849567595860506" lon="112.00875940686464">
        <ele>1113.3813498359066</ele>
        <time>2016-07-20T09:36:47Z</time>
      </trkpt>
      <trkpt lat="37.84962558875244" lon="112.00887428595941">
        <ele>1113.0737578829417</ele>
        <time>2016-07-20T09:36:50Z</time>
      </trkpt>
      <trkpt lat="37.84983957799878" lon="112.00917593861226">
        <ele>1113.426313884431</ele>
        <time>2016-07-20T09:37:00Z</time>
      </trkpt>
      <trkpt lat="37.84995589782068" lon="112.00938488372375">
        <ele>1113.320975479734</ele>
        <time>2016-07-20T09:37:07.100000Z</time>
      </trkpt>
      <trkpt lat="37.84998699206069" lon="112.0096054636684">
        <ele>1113.2284814591949</ele>
        <time>2016-07-20T09:37:14Z</time>
      </trkpt>
      <trkpt lat="37.849984386699575" lon="112.00975333118895">
        <ele>1113.4905475702092</ele>
        <time>2016-07-20T09:37:18Z</time>
      </trkpt>
      <trkpt lat="37.84995152678728" lon="112.01013341235871">
        <ele>1114.3825361406864</ele>
        <time>2016-07-20T09:37:29Z</time>
      </trkpt>
      <trkpt lat="37.849931622955836" lon="112.01053701307933">
        <ele>1115.0052527527637</ele>
        <time>2016-07-20T09:37:44.100000Z</time>
      </trkpt>
      <trkpt lat="37.84990659871865" lon="112.0108368107188">
        <ele>1115.9451661136102</ele>
        <time>2016-07-20T09:38:01.100000Z</time>
      </trkpt>
      <trkpt lat="37.84986698923711" lon="112.01102172118247">
        <ele>1115.7715447551748</ele>
        <time>2016-07-20T09:38:12.100000Z</time>
      </trkpt>
      <trkpt lat="37.84982903169131" lon="112.01138451045499">
        <ele>1115.1633036685146</ele>
        <time>2016-07-20T09:38:31.100000Z</time>
      </trkpt>
      <trkpt lat="37.84981500192073" lon="112.01172999798042">
        <ele>1114.8670736511256</ele>
        <time>2016-07-20T09:38:49.100000Z</time>
      </trkpt>
      <trkpt lat="37.84981602654587" lon="112.01203061026808">
        <ele>1115.7173892313892</ele>
        <time>2016-07-20T09:39:04Z</time>
      </trkpt>
      <trkpt lat="37.84977612235709" lon="112.01222471643922">
        <ele>1116.0248699739227</ele>
        <time>2016-07-20T09:39:15Z</time>
      </trkpt>
      <trkpt lat="37.8497606636779" lon="112.01259670300819">
        <ele>1113.0569456080561</ele>
        <time>2016-07-20T09:39:38Z</time>
      </trkpt>
      <trkpt lat="37.8496935594036" lon="112.0130027615001">
        <ele>1111.7311960081174</ele>
        <time>2016-07-20T09:40:00Z</time>
      </trkpt>
      <trkpt lat="37.84962784242404" lon="112.01339909086695">
        <ele>1110.847781710294</ele>
        <time>2016-07-20T09:40:22.300000Z</time>
      </trkpt>
      <trkpt lat="37.84959497855808" lon="112.01378784992828">
        <ele>1109.939878112322</ele>
        <time>2016-07-20T09:40:41.100000Z</time>
      </trkpt>
      <trkpt lat="37.84954442951954" lon="112.01400602525247">
        <ele>1109.37304784315</ele>
        <time>2016-07-20T09:40:52.100000Z</time>
      </trkpt>
      <trkpt lat="37.84955400207977" lon="112.01435720580972">
        <ele>1108.8609889593613</ele>
        <time>2016-07-20T09:41:09.100000Z</time>
      </trkpt>
      <trkpt lat="37.849535050305434" lon="112.01472191002958">
        <ele>1109.07865298747</ele>
        <time>2016-07-20T09:41:28Z</time>
      </trkpt>
      <trkpt lat="37.84950063066615" lon="112.01508851153704">
        <ele>1109.4765626399496</ele>
        <time>2016-07-20T09:41:46.300000Z</time>
      </trkpt>
      <trkpt lat="37.84946878547112" lon="112.01531426082647">
        <ele>1110.5202517056432</ele>
        <time>2016-07-20T09:41:58Z</time>
      </trkpt>
      <trkpt lat="37.84942826364198" lon="112.0154432249935">
        <ele>1111.091634591871</ele>
        <time>2016-07-20T09:42:06.100000Z</time>
      </trkpt>
      <trkpt lat="37.849400773718315" lon="112.01585525181542">
        <ele>1110.8181511616988</ele>
        <time>2016-07-20T09:42:27Z</time>
      </trkpt>
      <trkpt lat="37.849344166127196" lon="112.01620348104844">
        <ele>1109.6112265970078</ele>
        <time>2016-07-20T09:42:46.100000Z</time>
      </trkpt>
      <trkpt lat="37.84932683829334" lon="112.01657387817761">
        <ele>1109.135666699071</ele>
        <time>2016-07-20T09:43:05.100000Z</time>
      </trkpt>
      <trkpt lat="37.849269364783964" lon="112.01703837054083">
        <ele>1109.7902162928665</ele>
        <time>2016-07-20T09:43:29.100000Z</time>
      </trkpt>
      <trkpt lat="37.849220394426084" lon="112.01737498298029">
        <ele>1108.3649707548486</ele>
        <time>2016-07-20T09:43:47Z</time>
      </trkpt>
      <trkpt lat="37.84918497669212" lon="112.01771700401441">
        <ele>1107.6912550540594</ele>
        <time>2016-07-20T09:44:06Z</time>
      </trkpt>
      <trkpt lat="37.84920412144976" lon="112.01804955841777">
        <ele>1108.7439281058362</ele>
        <time>2016-07-20T09:44:24Z</time>
      </trkpt>
      <trkpt lat="37.849171858323935" lon="112.01842943740934">
        <ele>1107.8573181198713</ele>
        <time>2016-07-20T09:44:46.100000Z</time>
      </trkpt>
      <trkpt lat="37.84914173757709" lon="112.0186257338235">
        <ele>1108.2753019083382</ele>
        <time>2016-07-20T09:44:56.100000Z</time>
      </trkpt>
      <trkpt lat="37.84916988385192" lon="112.01894315371986">
        <ele>1108.6552741565886</ele>
        <time>2016-07-20T09:45:15Z</time>
      </trkpt>
      <trkpt lat="37.849132308527416" lon="112.01938225578144">
        <ele>1108.8087847639104</ele>
        <time>2016-07-20T09:45:43.100000Z</time>
      </trkpt>
      <trkpt lat="37.849121780577505" lon="112.01946093824438">
        <ele>1108.354699646444</ele>
        <time>2016-07-20T09:45:47.100000Z</time>
      </trkpt>
      <trkpt lat="37.84905407514726" lon="112.01961263120835">
        <ele>1108.1276859295044</ele>
        <time>2016-07-20T09:45:58.100000Z</time>
      </trkpt>
      <trkpt lat="37.849067790713654" lon="112.01985273090897">
        <ele>1108.6574015065291</ele>
        <time>2016-07-20T09:46:10Z</time>
      </trkpt>
      <trkpt lat="37.849098239511896" lon="112.02002685578866">
        <ele>1109.176155621659</ele>
        <time>2016-07-20T09:46:21.100000Z</time>
      </trkpt>
      <trkpt lat="37.84907930122366" lon="112.02040134537121">
        <ele>1108.1046596952303</ele>
        <time>2016-07-20T09:46:43.100000Z</time>
      </trkpt>
      <trkpt lat="37.84906379961019" lon="112.02080990785375">
        <ele>1108.0258283095432</ele>
        <time>2016-07-20T09:47:05.100000Z</time>
      </trkpt>
      <trkpt lat="37.84907038525129" lon="112.02088183152144">
        <ele>1108.1065271156208</ele>
        <time>2016-07-20T09:47:09.100000Z</time>
      </trkpt>
      <trkpt lat="37.84907018697617" lon="112.02115249594308">
        <ele>1108.9919283487698</ele>
        <time>2016-07-20T09:47:24Z</time>
      </trkpt>
      <trkpt lat="37.84908931766249" lon="112.02139963558227">
        <ele>1107.5777650744462</ele>
        <time>2016-07-20T09:47:39.100000Z</time>
      </trkpt>
      <trkpt lat="37.84907144362663" lon="112.02178603710263">
        <ele>1105.7620192715547</ele>
        <time>2016-07-20T09:48:00.100000Z</time>
      </trkpt>
      <trkpt lat="37.849041151297136" lon="112.02215081220476">
        <ele>1105.2581983426708</ele>
        <time>2016-07-20T09:48:22Z</time>
      </trkpt>
      <trkpt lat="37.849082392658744" lon="112.0223503651219">
        <ele>1105.2698217888576</ele>
        <time>2016-07-20T09:48:33.100000Z</time>
      </trkpt>
      <trkpt lat="37.84907505477758" lon="112.02255560357007">
        <ele>1105.4206441583585</ele>
        <time>2016-07-20T09:48:44.100000Z</time>
      </trkpt>
      <trkpt lat="37.84904557559053" lon="112.02262131584276">
        <ele>1105.1635547826197</ele>
        <time>2016-07-20T09:48:48Z</time>
      </trkpt>
      <trkpt lat="37.84908293635378" lon="112.02305369426186">
        <ele>1103.5564299396246</ele>
        <time>2016-07-20T09:49:11.100000Z</time>
      </trkpt>
      <trkpt lat="37.84909622592219" lon="112.02325731207613">
        <ele>1104.0737662972906</ele>
        <time>2016-07-20T09:49:23.200000Z</time>
      </trkpt>
      <trkpt lat="37.84913679050408" lon="112.02340765647256">
        <ele>1105.364473506103</ele>
        <time>2016-07-20T09:49:31.100000Z</time>
      </trkpt>
      <trkpt lat="37.84911147592426" lon="112.02374243247831">
        <ele>1103.4802876327228</ele>
        <time>2016-07-20T09:49:52.100000Z</time>
      </trkpt>
      <trkpt lat="37.849057371754064" lon="112.02388630046657">
        <ele>1099.8351716114826</ele>
        <time>2016-07-20T09:50:04Z</time>
      </trkpt>
      <trkpt lat="37.84904364987712" lon="112.02414833718633">
        <ele>1097.0462745801701</ele>
        <time>2016-07-20T09:50:18Z</time>
      </trkpt>
      <trkpt lat="37.84905741826205" lon="112.02427597361493">
        <ele>1097.3759017142295</ele>
        <time>2016-07-20T09:50:25.100000Z</time>
      </trkpt>
      <trkpt lat="37.849042027707306" lon="112.02435007068522">
        <ele>1098.2556558468486</ele>
        <time>2016-07-20T09:50:29Z</time>
      </trkpt>
      <trkpt lat="37.84905271340631" lon="112.02441280709563">
        <ele>1099.3727005460094</ele>
        <time>2016-07-20T09:50:33Z</time>
      </trkpt>
      <trkpt lat="37.849106059699636" lon="112.02455342010447">
        <ele>1100.527055985157</ele>
        <time>2016-07-20T09:50:41Z</time>
      </trkpt>
      <trkpt lat="37.84908084895644" lon="112.02485251188718">
        <ele>1103.6636634769889</ele>
        <time>2016-07-20T09:50:57.100000Z</time>
      </trkpt>
      <trkpt lat="37.849022558576074" lon="112.02493932546955">
        <ele>1102.8230321872627</ele>
        <time>2016-07-20T09:51:05Z</time>
      </trkpt>
      <trkpt lat="37.84894514873736" lon="112.02517731042326">
        <ele>1103.398319981178</ele>
        <time>2016-07-20T09:51:22Z</time>
      </trkpt>
      <trkpt lat="37.84887422578192" lon="112.02521923529885">
        <ele>1104.152276920091</ele>
        <time>2016-07-20T09:51:26Z</time>
      </trkpt>
      <trkpt lat="37.84881487055196" lon="112.02519571518032">
        <ele>1105.6930527685786</ele>
        <time>2016-07-20T09:51:32Z</time>
      </trkpt>
      <trkpt lat="37.84873695484746" lon="112.02521438408472">
        <ele>1106.8223612463476</ele>
        <time>2016-07-20T09:51:39.100000Z</time>
      </trkpt>
      <trkpt lat="37.84867870484873" lon="112.02518329185307">
        <ele>1106.0696866617711</ele>
        <time>2016-07-20T09:51:46Z</time>
      </trkpt>
      <trkpt lat="37.84863541221213" lon="112.02524170954909">
        <ele>1105.3534678259414</ele>
        <time>2016-07-20T09:51:53Z</time>
      </trkpt>
      <trkpt lat="37.84857632971599" lon="112.0252176485241">
        <ele>1104.7274871475606</ele>
        <time>2016-07-20T09:52:00Z</time>
      </trkpt>
      <trkpt lat="37.84871049910448" lon="112.02536988388296">
        <ele>1102.8504228708825</ele>
        <time>2016-07-20T09:52:06Z</time>
      </trkpt>
      <trkpt lat="37.848809549624534" lon="112.02567113199281">
        <ele>1100.0996704151223</ele>
        <time>2016-07-20T09:52:14Z</time>
      </trkpt>
      <trkpt lat="37.84882074028527" lon="112.02574901522216">
        <ele>1098.9898453811259</ele>
        <time>2016-07-20T09:52:18.100000Z</time>
      </trkpt>
      <trkpt lat="37.848852837000756" lon="112.02582121703134">
        <ele>1097.9574519431478</ele>
        <time>2016-07-20T09:52:22Z</time>
      </trkpt>
      <trkpt lat="37.84890208333391" lon="112.0261827828707">
        <ele>1098.088149429227</ele>
        <time>2016-07-20T09:52:29.100000Z</time>
      </trkpt>
      <trkpt lat="37.848919942518656" lon="112.0264088666664">
        <ele>1097.7686433241488</ele>
        <time>2016-07-20T09:52:33Z</time>
      </trkpt>
      <trkpt lat="37.84899045511433" lon="112.02662818480323">
        <ele>1099.903085736742</ele>
        <time>2016-07-20T09:52:45Z</time>
      </trkpt>
      <trkpt lat="37.84893461470622" lon="112.02671338045927">
        <ele>1100.8214680742012</ele>
        <time>2016-07-20T09:52:49Z</time>
      </trkpt>
      <trkpt lat="37.84880493890401" lon="112.02670906898608">
        <ele>1102.450046722377</ele>
        <time>2016-07-20T09:53:00Z</time>
      </trkpt>
      <trkpt lat="37.848744355603515" lon="112.02663578673005">
        <ele>1102.145403168902</ele>
        <time>2016-07-20T09:53:04Z</time>
      </trkpt>
      <trkpt lat="37.84857845632146" lon="112.0265806368063">
        <ele>1101.466729651958</ele>
        <time>2016-07-20T09:53:13.200000Z</time>
      </trkpt>
      <trkpt lat="37.84833627699867" lon="112.02654145210435">
        <ele>1101.2582057329098</ele>
        <time>2016-07-20T09:53:31.100000Z</time>
      </trkpt>
      <trkpt lat="37.8480507639613" lon="112.02647306520053">
        <ele>1105.2436437141698</ele>
        <time>2016-07-20T09:53:56Z</time>
      </trkpt>
      <trkpt lat="37.84796145804185" lon="112.02649011361807">
        <ele>1105.807257856034</ele>
        <time>2016-07-20T09:54:03Z</time>
      </trkpt>
      <trkpt lat="37.847888031375085" lon="112.0265563801892">
        <ele>1107.2453788858247</ele>
        <time>2016-07-20T09:54:10.100000Z</time>
      </trkpt>
      <trkpt lat="37.84781011053111" lon="112.02668160356991">
        <ele>1108.5042037607109</ele>
        <time>2016-07-20T09:54:17Z</time>
      </trkpt>
      <trkpt lat="37.84774389269946" lon="112.02689742438338">
        <ele>1109.2389943232492</ele>
        <time>2016-07-20T09:54:31Z</time>
      </trkpt>
      <trkpt lat="37.84759504998369" lon="112.0270653879461">
        <ele>1110.824926466985</ele>
        <time>2016-07-20T09:54:45.100000Z</time>
      </trkpt>
      <trkpt lat="37.84750365646354" lon="112.02736532359349">
        <ele>1116.89724884416</ele>
        <time>2016-07-20T09:55:04.100000Z</time>
      </trkpt>
      <trkpt lat="37.847446103419756" lon="112.02748405716667">
        <ele>1119.269944548833</ele>
        <time>2016-07-20T09:55:15Z</time>
      </trkpt>
      <trkpt lat="37.84743608809019" lon="112.02758033819511">
        <ele>1119.878742215547</ele>
        <time>2016-07-20T09:55:22.100000Z</time>
      </trkpt>
      <trkpt lat="37.84739410765839" lon="112.0276574214201">
        <ele>1119.0987206724017</ele>
        <time>2016-07-20T09:55:26Z</time>
      </trkpt>
      <trkpt lat="37.84738769771779" lon="112.0277234120893">
        <ele>1118.0525158747666</ele>
        <time>2016-07-20T09:55:29Z</time>
      </trkpt>
      <trkpt lat="37.84740943549411" lon="112.0278161742151">
        <ele>1116.0830446588334</ele>
        <time>2016-07-20T09:55:36Z</time>
      </trkpt>
    </trkseg>
  </trk>
</gpx>