<?xml version="1.0" encoding="UTF-8"?>
<gpx xmlns="http://www.topografix.com/GPX/1/1" xmlns:gpxtpx="http://www.garmin.com/xmlschemas/TrackPointExtension/v1" xmlns:xsi="http://www.w3.org/2001/XMLSchema-instance" xsi:schemaLocation="http://www.topografix.com/GPX/1/1 http://www.topografix.com/GPX/1/1/gpx.xsd" version="1.1" creator="gpx.py -- https://github.com/tkrajina/gpxpy">
  <trk>
    <name>gpx from keep</name>
    <type>Run</type>
    <trkseg>
      <trkpt lat="37.8476268873038" lon="112.0292544453351">
        <ele>1127.0</ele>
        <time>2018-03-24T08:51:14.500000Z</time>
      </trkpt>
      <trkpt lat="37.84737534520809" lon="112.0292688102568">
        <ele>1103.0</ele>
        <time>2018-03-24T08:51:18.100000Z</time>
      </trkpt>
      <trkpt lat="37.84733719633666" lon="112.0292268927617">
        <ele>1101.0</ele>
        <time>2018-03-24T08:51:24.100000Z</time>
      </trkpt>
      <trkpt lat="37.84735988082483" lon="112.02914549150483">
        <ele>1101.0</ele>
        <time>2018-03-24T08:51:30.200000Z</time>
      </trkpt>
      <trkpt lat="37.84733305552365" lon="112.02907186026393">
        <ele>1101.0</ele>
        <time>2018-03-24T08:51:36.200000Z</time>
      </trkpt>
      <trkpt lat="37.84734073644301" lon="112.02898558393149">
        <ele>1101.0</ele>
        <time>2018-03-24T08:51:42.200000Z</time>
      </trkpt>
      <trkpt lat="37.84736794776772" lon="112.02893125696264">
        <ele>1100.0</ele>
        <time>2018-03-24T08:51:45.200000Z</time>
      </trkpt>
      <trkpt lat="37.84737149827005" lon="112.02885987019329">
        <ele>1102.0</ele>
        <time>2018-03-24T08:51:51.200000Z</time>
      </trkpt>
      <trkpt lat="37.847397453662644" lon="112.02878873582148">
        <ele>1101.0</ele>
        <time>2018-03-24T08:51:57.200000Z</time>
      </trkpt>
      <trkpt lat="37.8473376155006" lon="112.02863431038587">
        <ele>1099.0</ele>
        <time>2018-03-24T08:52:06.200000Z</time>
      </trkpt>
      <trkpt lat="37.847328554910874" lon="112.02856994225279">
        <ele>1098.0</ele>
        <time>2018-03-24T08:52:09.200000Z</time>
      </trkpt>
      <trkpt lat="37.847390818448105" lon="112.02830515699875">
        <ele>1093.0</ele>
        <time>2018-03-24T08:52:24.200000Z</time>
      </trkpt>
      <trkpt lat="37.84736393432892" lon="112.02825593907208">
        <ele>1094.0</ele>
        <time>2018-03-24T08:52:27.200000Z</time>
      </trkpt>
      <trkpt lat="37.84739432065275" lon="112.02792091437102">
        <ele>1098.0</ele>
        <time>2018-03-24T08:52:39.200000Z</time>
      </trkpt>
      <trkpt lat="37.847535735893544" lon="112.02763171841765">
        <ele>1103.0</ele>
        <time>2018-03-24T08:52:48.200000Z</time>
      </trkpt>
      <trkpt lat="37.847589643467735" lon="112.02752670679706">
        <ele>1101.0</ele>
        <time>2018-03-24T08:52:51.200000Z</time>
      </trkpt>
      <trkpt lat="37.84768828564341" lon="112.02715591653488">
        <ele>1097.0</ele>
        <time>2018-03-24T08:53:00.200000Z</time>
      </trkpt>
      <trkpt lat="37.84772482448214" lon="112.02705443626085">
        <ele>1095.0</ele>
        <time>2018-03-24T08:53:03.200000Z</time>
      </trkpt>
      <trkpt lat="37.84777922508392" lon="112.02680776757794">
        <ele>1096.0</ele>
        <time>2018-03-24T08:53:09.200000Z</time>
      </trkpt>
      <trkpt lat="37.84789868267158" lon="112.02661007195853">
        <ele>1099.0</ele>
        <time>2018-03-24T08:53:15.200000Z</time>
      </trkpt>
      <trkpt lat="37.847918118520866" lon="112.02650872010983">
        <ele>1102.0</ele>
        <time>2018-03-24T08:53:18.200000Z</time>
      </trkpt>
      <trkpt lat="37.848185122080174" lon="112.02648863635052">
        <ele>1097.0</ele>
        <time>2018-03-24T08:53:27.200000Z</time>
      </trkpt>
      <trkpt lat="37.848256784808584" lon="112.02647120748654">
        <ele>1098.0</ele>
        <time>2018-03-24T08:53:30.200000Z</time>
      </trkpt>
      <trkpt lat="37.848342390416725" lon="112.02646113823587">
        <ele>1098.0</ele>
        <time>2018-03-24T08:53:33.200000Z</time>
      </trkpt>
      <trkpt lat="37.84843582195551" lon="112.02643307958687">
        <ele>1100.0</ele>
        <time>2018-03-24T08:53:36.200000Z</time>
      </trkpt>
      <trkpt lat="37.848645266565086" lon="112.02650611299421">
        <ele>1101.0</ele>
        <time>2018-03-24T08:53:42.200000Z</time>
      </trkpt>
      <trkpt lat="37.848816061773896" lon="112.0265218932137">
        <ele>1101.0</ele>
        <time>2018-03-24T08:53:48.200000Z</time>
      </trkpt>
      <trkpt lat="37.84891906749953" lon="112.02655570242439">
        <ele>1104.0</ele>
        <time>2018-03-24T08:53:51.200000Z</time>
      </trkpt>
      <trkpt lat="37.848909469793774" lon="112.02634958236035">
        <ele>1102.0</ele>
        <time>2018-03-24T08:54:00.200000Z</time>
      </trkpt>
      <trkpt lat="37.84894702976139" lon="112.02602294268274">
        <ele>1101.0</ele>
        <time>2018-03-24T08:54:09.200000Z</time>
      </trkpt>
      <trkpt lat="37.848884323241066" lon="112.02571056412641">
        <ele>1103.0</ele>
        <time>2018-03-24T08:54:18.200000Z</time>
      </trkpt>
      <trkpt lat="37.848917750209154" lon="112.02547502881208">
        <ele>1103.0</ele>
        <time>2018-03-24T08:54:24.200000Z</time>
      </trkpt>
      <trkpt lat="37.848943357659536" lon="112.02536341153989">
        <ele>1100.0</ele>
        <time>2018-03-24T08:54:27.200000Z</time>
      </trkpt>
      <trkpt lat="37.8489833221026" lon="112.02526690000217">
        <ele>1099.0</ele>
        <time>2018-03-24T08:54:30.200000Z</time>
      </trkpt>
      <trkpt lat="37.84899875134476" lon="112.02515793889326">
        <ele>1102.0</ele>
        <time>2018-03-24T08:54:33.200000Z</time>
      </trkpt>
      <trkpt lat="37.84900919718704" lon="112.02482193863489">
        <ele>1110.0</ele>
        <time>2018-03-24T08:54:42.200000Z</time>
      </trkpt>
      <trkpt lat="37.849040790403066" lon="112.0245810334905">
        <ele>1110.0</ele>
        <time>2018-03-24T08:54:48.200000Z</time>
      </trkpt>
      <trkpt lat="37.849086893820946" lon="112.02446674476462">
        <ele>1108.0</ele>
        <time>2018-03-24T08:54:51.200000Z</time>
      </trkpt>
      <trkpt lat="37.84911355454993" lon="112.02434511463878">
        <ele>1106.0</ele>
        <time>2018-03-24T08:54:54.200000Z</time>
      </trkpt>
      <trkpt lat="37.84913614656918" lon="112.02411078479258">
        <ele>1107.0</ele>
        <time>2018-03-24T08:55:00.200000Z</time>
      </trkpt>
      <trkpt lat="37.849160459213984" lon="112.02388608062103">
        <ele>1103.0</ele>
        <time>2018-03-24T08:55:06.200000Z</time>
      </trkpt>
      <trkpt lat="37.849217961285596" lon="112.02368230679926">
        <ele>1101.0</ele>
        <time>2018-03-24T08:55:12.200000Z</time>
      </trkpt>
      <trkpt lat="37.84923279739097" lon="112.02349010556654">
        <ele>1101.0</ele>
        <time>2018-03-24T08:55:18.200000Z</time>
      </trkpt>
      <trkpt lat="37.84921949980453" lon="112.02340459041095">
        <ele>1099.0</ele>
        <time>2018-03-24T08:55:21.200000Z</time>
      </trkpt>
      <trkpt lat="37.84916451127443" lon="112.02330183107686">
        <ele>1097.0</ele>
        <time>2018-03-24T08:55:24.200000Z</time>
      </trkpt>
      <trkpt lat="37.849102580534876" lon="112.0230318026497">
        <ele>1093.0</ele>
        <time>2018-03-24T08:55:33.200000Z</time>
      </trkpt>
      <trkpt lat="37.849094614636236" lon="112.02293462604241">
        <ele>1090.0</ele>
        <time>2018-03-24T08:55:36.200000Z</time>
      </trkpt>
      <trkpt lat="37.84909792835655" lon="112.02275160103227">
        <ele>1089.0</ele>
        <time>2018-03-24T08:55:42.200000Z</time>
      </trkpt>
      <trkpt lat="37.8490793179063" lon="112.02250310165311">
        <ele>1089.0</ele>
        <time>2018-03-24T08:55:48.200000Z</time>
      </trkpt>
      <trkpt lat="37.84912029831171" lon="112.02210997443883">
        <ele>1094.0</ele>
        <time>2018-03-24T08:56:00.200000Z</time>
      </trkpt>
      <trkpt lat="37.84913293081946" lon="112.02194183213683">
        <ele>1094.0</ele>
        <time>2018-03-24T08:56:06.200000Z</time>
      </trkpt>
      <trkpt lat="37.849120340572995" lon="112.02176292943662">
        <ele>1090.0</ele>
        <time>2018-03-24T08:56:12.200000Z</time>
      </trkpt>
      <trkpt lat="37.84912978813307" lon="112.02167281418842">
        <ele>1089.0</ele>
        <time>2018-03-24T08:56:15.200000Z</time>
      </trkpt>
      <trkpt lat="37.849110852178214" lon="112.02146989284644">
        <ele>1089.0</ele>
        <time>2018-03-24T08:56:21.200000Z</time>
      </trkpt>
      <trkpt lat="37.84912693912213" lon="112.02135841965317">
        <ele>1088.0</ele>
        <time>2018-03-24T08:56:24.200000Z</time>
      </trkpt>
      <trkpt lat="37.84909779054973" lon="112.02098422622443">
        <ele>1091.0</ele>
        <time>2018-03-24T08:56:33.200000Z</time>
      </trkpt>
      <trkpt lat="37.84914589731012" lon="112.02058943887758">
        <ele>1089.0</ele>
        <time>2018-03-24T08:56:45.200000Z</time>
      </trkpt>
      <trkpt lat="37.849169767098836" lon="112.02021947683538">
        <ele>1088.0</ele>
        <time>2018-03-24T08:56:54.200000Z</time>
      </trkpt>
      <trkpt lat="37.8491490357644" lon="112.01982390077352">
        <ele>1088.0</ele>
        <time>2018-03-24T08:57:06.200000Z</time>
      </trkpt>
      <trkpt lat="37.849152360220934" lon="112.019599019815">
        <ele>1090.0</ele>
        <time>2018-03-24T08:57:12.200000Z</time>
      </trkpt>
      <trkpt lat="37.84917435979075" lon="112.01949497801736">
        <ele>1092.0</ele>
        <time>2018-03-24T08:57:15.200000Z</time>
      </trkpt>
      <trkpt lat="37.849144540645874" lon="112.01928743155668">
        <ele>1094.0</ele>
        <time>2018-03-24T08:57:21.200000Z</time>
      </trkpt>
      <trkpt lat="37.8491651884044" lon="112.01893881375747">
        <ele>1092.0</ele>
        <time>2018-03-24T08:57:30.200000Z</time>
      </trkpt>
      <trkpt lat="37.849194317951564" lon="112.01861300881235">
        <ele>1095.0</ele>
        <time>2018-03-24T08:57:39.200000Z</time>
      </trkpt>
      <trkpt lat="37.84918416363256" lon="112.01836488970919">
        <ele>1094.0</ele>
        <time>2018-03-24T08:57:48.200000Z</time>
      </trkpt>
      <trkpt lat="37.849199419911066" lon="112.01801147284176">
        <ele>1090.0</ele>
        <time>2018-03-24T08:57:57.200000Z</time>
      </trkpt>
      <trkpt lat="37.849196596124756" lon="112.01775604396106">
        <ele>1092.0</ele>
        <time>2018-03-24T08:58:03.200000Z</time>
      </trkpt>
      <trkpt lat="37.84925132194045" lon="112.01740764663666">
        <ele>1095.0</ele>
        <time>2018-03-24T08:58:12.200000Z</time>
      </trkpt>
      <trkpt lat="37.849303868667626" lon="112.01702160374342">
        <ele>1091.0</ele>
        <time>2018-03-24T08:58:24.200000Z</time>
      </trkpt>
      <trkpt lat="37.84936779438552" lon="112.01663818938502">
        <ele>1095.0</ele>
        <time>2018-03-24T08:58:36.200000Z</time>
      </trkpt>
      <trkpt lat="37.849383120814444" lon="112.01624376006627">
        <ele>1091.0</ele>
        <time>2018-03-24T08:58:48.200000Z</time>
      </trkpt>
      <trkpt lat="37.84946579790781" lon="112.01588714627826">
        <ele>1094.0</ele>
        <time>2018-03-24T08:59:00.200000Z</time>
      </trkpt>
      <trkpt lat="37.84948719010636" lon="112.01552026928428">
        <ele>1099.0</ele>
        <time>2018-03-24T08:59:09.200000Z</time>
      </trkpt>
      <trkpt lat="37.84950354214193" lon="112.01520908886792">
        <ele>1096.0</ele>
        <time>2018-03-24T08:59:18.200000Z</time>
      </trkpt>
      <trkpt lat="37.849524653797786" lon="112.01510071559481">
        <ele>1096.0</ele>
        <time>2018-03-24T08:59:21.200000Z</time>
      </trkpt>
      <trkpt lat="37.849522868964684" lon="112.01498628082715">
        <ele>1096.0</ele>
        <time>2018-03-24T08:59:24.200000Z</time>
      </trkpt>
      <trkpt lat="37.849568145857205" lon="112.01459385319681">
        <ele>1096.0</ele>
        <time>2018-03-24T08:59:36.100000Z</time>
      </trkpt>
      <trkpt lat="37.84961475716862" lon="112.01417471348628">
        <ele>1099.0</ele>
        <time>2018-03-24T08:59:51.200000Z</time>
      </trkpt>
      <trkpt lat="37.84965652688672" lon="112.01378406224559">
        <ele>1099.0</ele>
        <time>2018-03-24T09:00:03.200000Z</time>
      </trkpt>
      <trkpt lat="37.84966773988268" lon="112.0134816866659">
        <ele>1100.0</ele>
        <time>2018-03-24T09:00:12.200000Z</time>
      </trkpt>
      <trkpt lat="37.84970327505288" lon="112.01320248394852">
        <ele>1098.0</ele>
        <time>2018-03-24T09:00:21.200000Z</time>
      </trkpt>
      <trkpt lat="37.849699410976555" lon="112.01309901472074">
        <ele>1099.0</ele>
        <time>2018-03-24T09:00:24.200000Z</time>
      </trkpt>
      <trkpt lat="37.84976444008499" lon="112.01279161717412">
        <ele>1095.0</ele>
        <time>2018-03-24T09:00:33.200000Z</time>
      </trkpt>
      <trkpt lat="37.84975244007541" lon="112.01240672033242">
        <ele>1092.0</ele>
        <time>2018-03-24T09:00:45.200000Z</time>
      </trkpt>
      <trkpt lat="37.84978146479481" lon="112.01210555582684">
        <ele>1093.0</ele>
        <time>2018-03-24T09:00:54.200000Z</time>
      </trkpt>
      <trkpt lat="37.84977010472684" lon="112.01196140986764">
        <ele>1097.0</ele>
        <time>2018-03-24T09:00:57.200000Z</time>
      </trkpt>
      <trkpt lat="37.849821303821585" lon="112.01161564602386">
        <ele>1104.0</ele>
        <time>2018-03-24T09:01:06.200000Z</time>
      </trkpt>
      <trkpt lat="37.8498576869381" lon="112.01145333987242">
        <ele>1103.0</ele>
        <time>2018-03-24T09:01:12.200000Z</time>
      </trkpt>
      <trkpt lat="37.849840757264786" lon="112.01127123993174">
        <ele>1101.0</ele>
        <time>2018-03-24T09:01:18.200000Z</time>
      </trkpt>
      <trkpt lat="37.849875543266556" lon="112.0110655137155">
        <ele>1102.0</ele>
        <time>2018-03-24T09:01:24.200000Z</time>
      </trkpt>
      <trkpt lat="37.84986757174341" lon="112.01063704221004">
        <ele>1103.0</ele>
        <time>2018-03-24T09:01:36.200000Z</time>
      </trkpt>
      <trkpt lat="37.84989289807616" lon="112.0102345214208">
        <ele>1101.0</ele>
        <time>2018-03-24T09:01:48.200000Z</time>
      </trkpt>
      <trkpt lat="37.849918292165306" lon="112.00982046017239">
        <ele>1100.0</ele>
        <time>2018-03-24T09:02:00.200000Z</time>
      </trkpt>
      <trkpt lat="37.8499109307601" lon="112.00954519061722">
        <ele>1101.0</ele>
        <time>2018-03-24T09:02:06.200000Z</time>
      </trkpt>
      <trkpt lat="37.849787471758425" lon="112.00918081062508">
        <ele>1106.0</ele>
        <time>2018-03-24T09:02:18.200000Z</time>
      </trkpt>
      <trkpt lat="37.84969707484807" lon="112.0090137628583">
        <ele>1111.0</ele>
        <time>2018-03-24T09:02:24.200000Z</time>
      </trkpt>
      <trkpt lat="37.84948546738028" lon="112.0087326550175">
        <ele>1117.0</ele>
        <time>2018-03-24T09:02:36.200000Z</time>
      </trkpt>
      <trkpt lat="37.84927701564545" lon="112.00839397027971">
        <ele>1114.0</ele>
        <time>2018-03-24T09:02:48.200000Z</time>
      </trkpt>
      <trkpt lat="37.84906035075248" lon="112.00808069812699">
        <ele>1120.0</ele>
        <time>2018-03-24T09:03:00.200000Z</time>
      </trkpt>
      <trkpt lat="37.848852663617315" lon="112.00775958728087">
        <ele>1122.0</ele>
        <time>2018-03-24T09:03:12.200000Z</time>
      </trkpt>
      <trkpt lat="37.84865084306693" lon="112.00747334784995">
        <ele>1121.0</ele>
        <time>2018-03-24T09:03:24.200000Z</time>
      </trkpt>
      <trkpt lat="37.848542531909025" lon="112.00731009110542">
        <ele>1120.0</ele>
        <time>2018-03-24T09:03:30.200000Z</time>
      </trkpt>
      <trkpt lat="37.848473573320454" lon="112.00714277536406">
        <ele>1118.0</ele>
        <time>2018-03-24T09:03:36.200000Z</time>
      </trkpt>
      <trkpt lat="37.848219719575674" lon="112.00692871806876">
        <ele>1119.0</ele>
        <time>2018-03-24T09:03:48.200000Z</time>
      </trkpt>
      <trkpt lat="37.848140618001764" lon="112.00688791037796">
        <ele>1120.0</ele>
        <time>2018-03-24T09:03:51.200000Z</time>
      </trkpt>
      <trkpt lat="37.8481127873879" lon="112.00694062456402">
        <ele>1122.0</ele>
        <time>2018-03-24T09:03:54.200000Z</time>
      </trkpt>
      <trkpt lat="37.848018104439774" lon="112.00693901398712">
        <ele>1120.0</ele>
        <time>2018-03-24T09:03:57.200000Z</time>
      </trkpt>
      <trkpt lat="37.84774596974824" lon="112.00685092472298">
        <ele>1121.0</ele>
        <time>2018-03-24T09:04:06.200000Z</time>
      </trkpt>
      <trkpt lat="37.847666057516854" lon="112.00680903592632">
        <ele>1119.0</ele>
        <time>2018-03-24T09:04:09.300000Z</time>
      </trkpt>
      <trkpt lat="37.84742007204928" lon="112.00677743880695">
        <ele>1118.0</ele>
        <time>2018-03-24T09:04:18.200000Z</time>
      </trkpt>
      <trkpt lat="37.84727376673479" lon="112.00680043275143">
        <ele>1118.0</ele>
        <time>2018-03-24T09:04:24.300000Z</time>
      </trkpt>
      <trkpt lat="37.84694764615153" lon="112.00671072822863">
        <ele>1117.0</ele>
        <time>2018-03-24T09:04:36.200000Z</time>
      </trkpt>
      <trkpt lat="37.84686005520357" lon="112.00669641217695">
        <ele>1116.0</ele>
        <time>2018-03-24T09:04:39.200000Z</time>
      </trkpt>
      <trkpt lat="37.846697138760035" lon="112.00673995174496">
        <ele>1117.0</ele>
        <time>2018-03-24T09:04:45.200000Z</time>
      </trkpt>
      <trkpt lat="37.84650733987765" lon="112.00669996829939">
        <ele>1121.0</ele>
        <time>2018-03-24T09:04:51.200000Z</time>
      </trkpt>
      <trkpt lat="37.846422799386104" lon="112.00666348636507">
        <ele>1121.0</ele>
        <time>2018-03-24T09:04:54.200000Z</time>
      </trkpt>
      <trkpt lat="37.846115956701226" lon="112.00666000892178">
        <ele>1119.0</ele>
        <time>2018-03-24T09:05:06.200000Z</time>
      </trkpt>
      <trkpt lat="37.846034297626495" lon="112.00665812648428">
        <ele>1120.0</ele>
        <time>2018-03-24T09:05:09.200000Z</time>
      </trkpt>
      <trkpt lat="37.84570994140831" lon="112.00652273940774">
        <ele>1121.0</ele>
        <time>2018-03-24T09:05:21.200000Z</time>
      </trkpt>
      <trkpt lat="37.84546440488274" lon="112.0064316740609">
        <ele>1121.0</ele>
        <time>2018-03-24T09:05:30.200000Z</time>
      </trkpt>
      <trkpt lat="37.845379747727385" lon="112.0064343872612">
        <ele>1122.0</ele>
        <time>2018-03-24T09:05:33.200000Z</time>
      </trkpt>
      <trkpt lat="37.84523307794656" lon="112.00639764255959">
        <ele>1121.0</ele>
        <time>2018-03-24T09:05:39.300000Z</time>
      </trkpt>
      <trkpt lat="37.84504020258004" lon="112.00629765086252">
        <ele>1122.0</ele>
        <time>2018-03-24T09:05:45.200000Z</time>
      </trkpt>
      <trkpt lat="37.84475526257516" lon="112.00622794494511">
        <ele>1124.0</ele>
        <time>2018-03-24T09:05:54.200000Z</time>
      </trkpt>
      <trkpt lat="37.8446755374276" lon="112.00621443897613">
        <ele>1125.0</ele>
        <time>2018-03-24T09:05:57.200000Z</time>
      </trkpt>
      <trkpt lat="37.844593217713225" lon="112.00616119783903">
        <ele>1124.0</ele>
        <time>2018-03-24T09:06:00.200000Z</time>
      </trkpt>
      <trkpt lat="37.84434201471013" lon="112.00624178001642">
        <ele>1125.0</ele>
        <time>2018-03-24T09:06:09.200000Z</time>
      </trkpt>
      <trkpt lat="37.84425858034727" lon="112.00628936447454">
        <ele>1125.0</ele>
        <time>2018-03-24T09:06:12.200000Z</time>
      </trkpt>
      <trkpt lat="37.844091629779584" lon="112.0063210106376">
        <ele>1125.0</ele>
        <time>2018-03-24T09:06:18.200000Z</time>
      </trkpt>
      <trkpt lat="37.84400415965193" lon="112.00635724260687">
        <ele>1124.0</ele>
        <time>2018-03-24T09:06:21.200000Z</time>
      </trkpt>
      <trkpt lat="37.843712374410465" lon="112.00658163510172">
        <ele>1125.0</ele>
        <time>2018-03-24T09:06:33.200000Z</time>
      </trkpt>
      <trkpt lat="37.8435696801686" lon="112.00666761104088">
        <ele>1127.0</ele>
        <time>2018-03-24T09:06:39.200000Z</time>
      </trkpt>
      <trkpt lat="37.843432070116954" lon="112.0067773739016">
        <ele>1128.0</ele>
        <time>2018-03-24T09:06:45.200000Z</time>
      </trkpt>
      <trkpt lat="37.843375417019196" lon="112.00685144609315">
        <ele>1128.0</ele>
        <time>2018-03-24T09:06:48.200000Z</time>
      </trkpt>
      <trkpt lat="37.84330480219588" lon="112.00687632321979">
        <ele>1127.0</ele>
        <time>2018-03-24T09:06:51.200000Z</time>
      </trkpt>
      <trkpt lat="37.8430971033859" lon="112.00701664008928">
        <ele>1127.0</ele>
        <time>2018-03-24T09:07:00.200000Z</time>
      </trkpt>
      <trkpt lat="37.84303576829856" lon="112.00711423032298">
        <ele>1129.0</ele>
        <time>2018-03-24T09:07:03.300000Z</time>
      </trkpt>
      <trkpt lat="37.84296533408138" lon="112.00716965290941">
        <ele>1128.0</ele>
        <time>2018-03-24T09:07:06.200000Z</time>
      </trkpt>
      <trkpt lat="37.84290151820288" lon="112.00718912307578">
        <ele>1127.0</ele>
        <time>2018-03-24T09:07:09.200000Z</time>
      </trkpt>
      <trkpt lat="37.84264096328082" lon="112.00740432387644">
        <ele>1132.0</ele>
        <time>2018-03-24T09:07:21.200000Z</time>
      </trkpt>
      <trkpt lat="37.84258344299949" lon="112.00740514168125">
        <ele>1132.0</ele>
        <time>2018-03-24T09:07:24.300000Z</time>
      </trkpt>
      <trkpt lat="37.84233613557548" lon="112.00763629019073">
        <ele>1133.0</ele>
        <time>2018-03-24T09:07:36.200000Z</time>
      </trkpt>
      <trkpt lat="37.842263823398284" lon="112.007684685239">
        <ele>1132.0</ele>
        <time>2018-03-24T09:07:39.200000Z</time>
      </trkpt>
      <trkpt lat="37.842087768783514" lon="112.00776742277897">
        <ele>1131.0</ele>
        <time>2018-03-24T09:07:45.200000Z</time>
      </trkpt>
      <trkpt lat="37.84181503051119" lon="112.0079745174358">
        <ele>1135.0</ele>
        <time>2018-03-24T09:07:57.200000Z</time>
      </trkpt>
      <trkpt lat="37.841684489159995" lon="112.00807995653855">
        <ele>1134.0</ele>
        <time>2018-03-24T09:08:03.200000Z</time>
      </trkpt>
      <trkpt lat="37.841541575704305" lon="112.00814890445376">
        <ele>1136.0</ele>
        <time>2018-03-24T09:08:09.300000Z</time>
      </trkpt>
      <trkpt lat="37.84131032631709" lon="112.00818028885851">
        <ele>1137.0</ele>
        <time>2018-03-24T09:08:18.300000Z</time>
      </trkpt>
      <trkpt lat="37.84123616973688" lon="112.0082103029449">
        <ele>1136.0</ele>
        <time>2018-03-24T09:08:21.200000Z</time>
      </trkpt>
      <trkpt lat="37.841183950919834" lon="112.00825328967586">
        <ele>1136.0</ele>
        <time>2018-03-24T09:08:24.200000Z</time>
      </trkpt>
      <trkpt lat="37.84084604292011" lon="112.00820440251535">
        <ele>1138.0</ele>
        <time>2018-03-24T09:08:36.200000Z</time>
      </trkpt>
      <trkpt lat="37.840693427200314" lon="112.00815981835628">
        <ele>1138.0</ele>
        <time>2018-03-24T09:08:42.200000Z</time>
      </trkpt>
      <trkpt lat="37.84061677041739" lon="112.00811792833494">
        <ele>1139.0</ele>
        <time>2018-03-24T09:08:45.300000Z</time>
      </trkpt>
      <trkpt lat="37.84045813870868" lon="112.00808929365458">
        <ele>1139.0</ele>
        <time>2018-03-24T09:08:51.200000Z</time>
      </trkpt>
      <trkpt lat="37.84039349480683" lon="112.00811362990385">
        <ele>1138.0</ele>
        <time>2018-03-24T09:08:54.200000Z</time>
      </trkpt>
      <trkpt lat="37.84031917498899" lon="112.00810715116172">
        <ele>1139.0</ele>
        <time>2018-03-24T09:08:57.200000Z</time>
      </trkpt>
      <trkpt lat="37.840155999890285" lon="112.00805526977257">
        <ele>1140.0</ele>
        <time>2018-03-24T09:09:03.200000Z</time>
      </trkpt>
      <trkpt lat="37.839890604013014" lon="112.0080736829901">
        <ele>1137.0</ele>
        <time>2018-03-24T09:09:12.300000Z</time>
      </trkpt>
      <trkpt lat="37.83975154028624" lon="112.00812533014228">
        <ele>1136.0</ele>
        <time>2018-03-24T09:09:18.300000Z</time>
      </trkpt>
      <trkpt lat="37.83965847688365" lon="112.00812669283279">
        <ele>1138.0</ele>
        <time>2018-03-24T09:09:21.200000Z</time>
      </trkpt>
      <trkpt lat="37.83958730317569" lon="112.00815724717405">
        <ele>1138.0</ele>
        <time>2018-03-24T09:09:24.200000Z</time>
      </trkpt>
      <trkpt lat="37.83944605542088" lon="112.00812185247044">
        <ele>1142.0</ele>
        <time>2018-03-24T09:09:36.200000Z</time>
      </trkpt>
      <trkpt lat="37.83925366211358" lon="112.00813349906618">
        <ele>1139.0</ele>
        <time>2018-03-24T09:09:48.200000Z</time>
      </trkpt>
      <trkpt lat="37.839329304818335" lon="112.00815133097879">
        <ele>1140.0</ele>
        <time>2018-03-24T09:09:51.200000Z</time>
      </trkpt>
      <trkpt lat="37.83965581740948" lon="112.00810858190175">
        <ele>1140.0</ele>
        <time>2018-03-24T09:10:03.200000Z</time>
      </trkpt>
      <trkpt lat="37.83994856283363" lon="112.00801636890652">
        <ele>1140.0</ele>
        <time>2018-03-24T09:10:15.200000Z</time>
      </trkpt>
      <trkpt lat="37.84002676665259" lon="112.00799392329246">
        <ele>1139.0</ele>
        <time>2018-03-24T09:10:18.200000Z</time>
      </trkpt>
      <trkpt lat="37.84011410053179" lon="112.00800337395398">
        <ele>1142.0</ele>
        <time>2018-03-24T09:10:21.200000Z</time>
      </trkpt>
      <trkpt lat="37.84036105296765" lon="112.00798307074211">
        <ele>1140.0</ele>
        <time>2018-03-24T09:10:30.200000Z</time>
      </trkpt>
      <trkpt lat="37.84060472395316" lon="112.00806305541876">
        <ele>1140.0</ele>
        <time>2018-03-24T09:10:39.200000Z</time>
      </trkpt>
      <trkpt lat="37.8408897446926" lon="112.00810573149184">
        <ele>1137.0</ele>
        <time>2018-03-24T09:10:51.200000Z</time>
      </trkpt>
      <trkpt lat="37.841228989988515" lon="112.0081611060332">
        <ele>1138.0</ele>
        <time>2018-03-24T09:11:03.200000Z</time>
      </trkpt>
      <trkpt lat="37.84146796733875" lon="112.00808538871567">
        <ele>1136.0</ele>
        <time>2018-03-24T09:11:12.200000Z</time>
      </trkpt>
      <trkpt lat="37.84155263463568" lon="112.00807916132203">
        <ele>1138.0</ele>
        <time>2018-03-24T09:11:15.200000Z</time>
      </trkpt>
      <trkpt lat="37.84186747514913" lon="112.00794693889979">
        <ele>1135.0</ele>
        <time>2018-03-24T09:11:27.200000Z</time>
      </trkpt>
      <trkpt lat="37.84202023050098" lon="112.0078528506366">
        <ele>1133.0</ele>
        <time>2018-03-24T09:11:33.200000Z</time>
      </trkpt>
      <trkpt lat="37.84205272642995" lon="112.00778202400647">
        <ele>1134.0</ele>
        <time>2018-03-24T09:11:36.200000Z</time>
      </trkpt>
      <trkpt lat="37.84213484260179" lon="112.0077211932039">
        <ele>1133.0</ele>
        <time>2018-03-24T09:11:39.200000Z</time>
      </trkpt>
      <trkpt lat="37.84236769984675" lon="112.00760520019583">
        <ele>1132.0</ele>
        <time>2018-03-24T09:11:48.200000Z</time>
      </trkpt>
      <trkpt lat="37.842650784250395" lon="112.00738621165925">
        <ele>1131.0</ele>
        <time>2018-03-24T09:12:00.200000Z</time>
      </trkpt>
      <trkpt lat="37.84296403537716" lon="112.00715019051644">
        <ele>1129.0</ele>
        <time>2018-03-24T09:12:12.200000Z</time>
      </trkpt>
      <trkpt lat="37.84313208801032" lon="112.00702150154297">
        <ele>1129.0</ele>
        <time>2018-03-24T09:12:18.200000Z</time>
      </trkpt>
      <trkpt lat="37.84319282509485" lon="112.00694256305952">
        <ele>1129.0</ele>
        <time>2018-03-24T09:12:21.200000Z</time>
      </trkpt>
      <trkpt lat="37.84335912469304" lon="112.00685604333975">
        <ele>1130.0</ele>
        <time>2018-03-24T09:12:27.200000Z</time>
      </trkpt>
      <trkpt lat="37.843583764991514" lon="112.0066754483872">
        <ele>1130.0</ele>
        <time>2018-03-24T09:12:36.200000Z</time>
      </trkpt>
      <trkpt lat="37.84370410228071" lon="112.00653514262811">
        <ele>1129.0</ele>
        <time>2018-03-24T09:12:42.200000Z</time>
      </trkpt>
      <trkpt lat="37.843795959209096" lon="112.00648350234275">
        <ele>1127.0</ele>
        <time>2018-03-24T09:12:45.200000Z</time>
      </trkpt>
      <trkpt lat="37.84384797132983" lon="112.00641916226256">
        <ele>1127.0</ele>
        <time>2018-03-24T09:12:48.200000Z</time>
      </trkpt>
      <trkpt lat="37.84401723254394" lon="112.0063404818266">
        <ele>1125.0</ele>
        <time>2018-03-24T09:12:54.300000Z</time>
      </trkpt>
      <trkpt lat="37.84419257519993" lon="112.00631505178119">
        <ele>1127.0</ele>
        <time>2018-03-24T09:13:00.200000Z</time>
      </trkpt>
      <trkpt lat="37.84444124965188" lon="112.00617256895374">
        <ele>1126.0</ele>
        <time>2018-03-24T09:13:09.200000Z</time>
      </trkpt>
      <trkpt lat="37.84452141222022" lon="112.00613039114668">
        <ele>1125.0</ele>
        <time>2018-03-24T09:13:12.200000Z</time>
      </trkpt>
      <trkpt lat="37.8446584041473" lon="112.00613713254049">
        <ele>1126.0</ele>
        <time>2018-03-24T09:13:18.200000Z</time>
      </trkpt>
      <trkpt lat="37.84483131353821" lon="112.0061998236869">
        <ele>1125.0</ele>
        <time>2018-03-24T09:13:24.200000Z</time>
      </trkpt>
      <trkpt lat="37.8451182212377" lon="112.00624655302104">
        <ele>1122.0</ele>
        <time>2018-03-24T09:13:33.200000Z</time>
      </trkpt>
      <trkpt lat="37.84519078188643" lon="112.00629709228447">
        <ele>1124.0</ele>
        <time>2018-03-24T09:13:36.300000Z</time>
      </trkpt>
      <trkpt lat="37.845345676393464" lon="112.00630518310602">
        <ele>1125.0</ele>
        <time>2018-03-24T09:13:42.200000Z</time>
      </trkpt>
      <trkpt lat="37.84558965178902" lon="112.00637381273938">
        <ele>1124.0</ele>
        <time>2018-03-24T09:13:51.200000Z</time>
      </trkpt>
      <trkpt lat="37.84589692078894" lon="112.00650730939996">
        <ele>1124.0</ele>
        <time>2018-03-24T09:14:03.200000Z</time>
      </trkpt>
      <trkpt lat="37.84597704692737" lon="112.00656839006284">
        <ele>1124.0</ele>
        <time>2018-03-24T09:14:06.200000Z</time>
      </trkpt>
      <trkpt lat="37.84631000227826" lon="112.00664052337336">
        <ele>1124.0</ele>
        <time>2018-03-24T09:14:18.200000Z</time>
      </trkpt>
      <trkpt lat="37.84653689269948" lon="112.00670672255741">
        <ele>1123.0</ele>
        <time>2018-03-24T09:14:27.200000Z</time>
      </trkpt>
      <trkpt lat="37.84673527205751" lon="112.00668966928009">
        <ele>1122.0</ele>
        <time>2018-03-24T09:14:33.200000Z</time>
      </trkpt>
      <trkpt lat="37.84699242703315" lon="112.00670585728237">
        <ele>1123.0</ele>
        <time>2018-03-24T09:14:42.300000Z</time>
      </trkpt>
      <trkpt lat="37.84706558858432" lon="112.0067369343654">
        <ele>1122.0</ele>
        <time>2018-03-24T09:14:45.200000Z</time>
      </trkpt>
      <trkpt lat="37.847225136653556" lon="112.00673123879193">
        <ele>1119.0</ele>
        <time>2018-03-24T09:14:51.200000Z</time>
      </trkpt>
      <trkpt lat="37.84730697536549" lon="112.00676393671988">
        <ele>1119.0</ele>
        <time>2018-03-24T09:14:54.200000Z</time>
      </trkpt>
      <trkpt lat="37.84756793685621" lon="112.00677742116699">
        <ele>1120.0</ele>
        <time>2018-03-24T09:15:03.200000Z</time>
      </trkpt>
      <trkpt lat="37.84761884688523" lon="112.00680985249375">
        <ele>1119.0</ele>
        <time>2018-03-24T09:15:06.200000Z</time>
      </trkpt>
      <trkpt lat="37.84795075452899" lon="112.00686955181416">
        <ele>1120.0</ele>
        <time>2018-03-24T09:15:18.200000Z</time>
      </trkpt>
      <trkpt lat="37.84804929133711" lon="112.00685251040696">
        <ele>1121.0</ele>
        <time>2018-03-24T09:15:21.200000Z</time>
      </trkpt>
      <trkpt lat="37.84820542932414" lon="112.00689871512746">
        <ele>1118.0</ele>
        <time>2018-03-24T09:15:27.200000Z</time>
      </trkpt>
      <trkpt lat="37.84827583284895" lon="112.006944930107">
        <ele>1115.0</ele>
        <time>2018-03-24T09:15:30.200000Z</time>
      </trkpt>
      <trkpt lat="37.84832663040597" lon="112.00701520526685">
        <ele>1118.0</ele>
        <time>2018-03-24T09:15:33.200000Z</time>
      </trkpt>
      <trkpt lat="37.848363255517825" lon="112.00710710721683">
        <ele>1117.0</ele>
        <time>2018-03-24T09:15:36.200000Z</time>
      </trkpt>
      <trkpt lat="37.84850149811909" lon="112.00724089573158">
        <ele>1119.0</ele>
        <time>2018-03-24T09:15:42.200000Z</time>
      </trkpt>
      <trkpt lat="37.84869507262074" lon="112.00756281668237">
        <ele>1118.0</ele>
        <time>2018-03-24T09:15:54.200000Z</time>
      </trkpt>
      <trkpt lat="37.84882054987213" lon="112.0077014733019">
        <ele>1118.0</ele>
        <time>2018-03-24T09:16:00.200000Z</time>
      </trkpt>
      <trkpt lat="37.84890232612602" lon="112.00784689332593">
        <ele>1112.0</ele>
        <time>2018-03-24T09:16:06.200000Z</time>
      </trkpt>
      <trkpt lat="37.84906742099731" lon="112.0079836536021">
        <ele>1110.0</ele>
        <time>2018-03-24T09:16:12.200000Z</time>
      </trkpt>
      <trkpt lat="37.849231740608424" lon="112.0081990765639">
        <ele>1115.0</ele>
        <time>2018-03-24T09:16:21.200000Z</time>
      </trkpt>
      <trkpt lat="37.84927811585781" lon="112.00829719630721">
        <ele>1113.0</ele>
        <time>2018-03-24T09:16:24.200000Z</time>
      </trkpt>
      <trkpt lat="37.84933140115467" lon="112.0083523347979">
        <ele>1113.0</ele>
        <time>2018-03-24T09:16:27.200000Z</time>
      </trkpt>
      <trkpt lat="37.84941222561421" lon="112.00854479187457">
        <ele>1111.0</ele>
        <time>2018-03-24T09:16:33.200000Z</time>
      </trkpt>
      <trkpt lat="37.8495153148844" lon="112.00873157017492">
        <ele>1113.0</ele>
        <time>2018-03-24T09:16:39.200000Z</time>
      </trkpt>
      <trkpt lat="37.84973981377193" lon="112.00905727943868">
        <ele>1111.0</ele>
        <time>2018-03-24T09:16:51.200000Z</time>
      </trkpt>
      <trkpt lat="37.849796582038614" lon="112.00912755619092">
        <ele>1112.0</ele>
        <time>2018-03-24T09:16:54.200000Z</time>
      </trkpt>
      <trkpt lat="37.84983727923003" lon="112.00921946068867">
        <ele>1112.0</ele>
        <time>2018-03-24T09:16:57.200000Z</time>
      </trkpt>
      <trkpt lat="37.849884048926754" lon="112.00927622271837">
        <ele>1112.0</ele>
        <time>2018-03-24T09:17:00.300000Z</time>
      </trkpt>
      <trkpt lat="37.84990673774566" lon="112.00949491099796">
        <ele>1111.0</ele>
        <time>2018-03-24T09:17:06.200000Z</time>
      </trkpt>
      <trkpt lat="37.849939343747444" lon="112.00957059762311">
        <ele>1110.0</ele>
        <time>2018-03-24T09:17:09.300000Z</time>
      </trkpt>
      <trkpt lat="37.84991310827818" lon="112.00981956919814">
        <ele>1112.0</ele>
        <time>2018-03-24T09:17:15.200000Z</time>
      </trkpt>
      <trkpt lat="37.84991409445938" lon="112.01013044324371">
        <ele>1111.0</ele>
        <time>2018-03-24T09:17:24.200000Z</time>
      </trkpt>
      <trkpt lat="37.84995307594541" lon="112.01022957080282">
        <ele>1112.0</ele>
        <time>2018-03-24T09:17:30.200000Z</time>
      </trkpt>
      <trkpt lat="37.849907260651385" lon="112.01037856198879">
        <ele>1112.0</ele>
        <time>2018-03-24T09:17:33.200000Z</time>
      </trkpt>
      <trkpt lat="37.849872479798826" lon="112.01072138419991">
        <ele>1112.0</ele>
        <time>2018-03-24T09:17:42.300000Z</time>
      </trkpt>
      <trkpt lat="37.84982543235298" lon="112.01113039911189">
        <ele>1113.0</ele>
        <time>2018-03-24T09:17:54.200000Z</time>
      </trkpt>
      <trkpt lat="37.84980937817829" lon="112.01123934454627">
        <ele>1113.0</ele>
        <time>2018-03-24T09:17:57.200000Z</time>
      </trkpt>
      <trkpt lat="37.84981583439671" lon="112.01135126116726">
        <ele>1112.0</ele>
        <time>2018-03-24T09:18:00.300000Z</time>
      </trkpt>
      <trkpt lat="37.8497906001099" lon="112.01144506952407">
        <ele>1112.0</ele>
        <time>2018-03-24T09:18:03.200000Z</time>
      </trkpt>
      <trkpt lat="37.84976532693206" lon="112.01164538941092">
        <ele>1110.0</ele>
        <time>2018-03-24T09:18:09.200000Z</time>
      </trkpt>
      <trkpt lat="37.84976663034371" lon="112.01185003224867">
        <ele>1110.0</ele>
        <time>2018-03-24T09:18:15.200000Z</time>
      </trkpt>
      <trkpt lat="37.849745772346296" lon="112.01193194623445">
        <ele>1109.0</ele>
        <time>2018-03-24T09:18:18.200000Z</time>
      </trkpt>
      <trkpt lat="37.84974616579137" lon="112.01226337818848">
        <ele>1110.0</ele>
        <time>2018-03-24T09:18:27.200000Z</time>
      </trkpt>
      <trkpt lat="37.849700144658954" lon="112.01260238735959">
        <ele>1110.0</ele>
        <time>2018-03-24T09:18:36.200000Z</time>
      </trkpt>
      <trkpt lat="37.849717747819135" lon="112.01280081431294">
        <ele>1108.0</ele>
        <time>2018-03-24T09:18:42.300000Z</time>
      </trkpt>
      <trkpt lat="37.84966533201699" lon="112.01300654965023">
        <ele>1109.0</ele>
        <time>2018-03-24T09:18:48.300000Z</time>
      </trkpt>
      <trkpt lat="37.84966307212946" lon="112.01322525628568">
        <ele>1109.0</ele>
        <time>2018-03-24T09:18:54.200000Z</time>
      </trkpt>
      <trkpt lat="37.84962331062509" lon="112.0136534850502">
        <ele>1108.0</ele>
        <time>2018-03-24T09:19:06.200000Z</time>
      </trkpt>
      <trkpt lat="37.84959233678245" lon="112.01385732907264">
        <ele>1109.0</ele>
        <time>2018-03-24T09:19:12.300000Z</time>
      </trkpt>
      <trkpt lat="37.84959150718627" lon="112.01395708689232">
        <ele>1108.0</ele>
        <time>2018-03-24T09:19:15.200000Z</time>
      </trkpt>
      <trkpt lat="37.84955720176935" lon="112.01418769706453">
        <ele>1107.0</ele>
        <time>2018-03-24T09:19:21.200000Z</time>
      </trkpt>
      <trkpt lat="37.84953875271683" lon="112.01447129495702">
        <ele>1106.0</ele>
        <time>2018-03-24T09:19:30.200000Z</time>
      </trkpt>
      <trkpt lat="37.849516710711114" lon="112.01458889975599">
        <ele>1107.0</ele>
        <time>2018-03-24T09:19:33.200000Z</time>
      </trkpt>
      <trkpt lat="37.849528856569385" lon="112.01470568971709">
        <ele>1109.0</ele>
        <time>2018-03-24T09:19:36.200000Z</time>
      </trkpt>
      <trkpt lat="37.84948744633494" lon="112.01514501696438">
        <ele>1108.0</ele>
        <time>2018-03-24T09:19:48.200000Z</time>
      </trkpt>
      <trkpt lat="37.84946623880614" lon="112.015351029367">
        <ele>1107.0</ele>
        <time>2018-03-24T09:19:54.200000Z</time>
      </trkpt>
      <trkpt lat="37.84946598619353" lon="112.0155348710407">
        <ele>1107.0</ele>
        <time>2018-03-24T09:20:00.200000Z</time>
      </trkpt>
      <trkpt lat="37.84942230035136" lon="112.01582253593931">
        <ele>1107.0</ele>
        <time>2018-03-24T09:20:09.200000Z</time>
      </trkpt>
      <trkpt lat="37.849365945332764" lon="112.01598610943059">
        <ele>1106.0</ele>
        <time>2018-03-24T09:20:15.200000Z</time>
      </trkpt>
      <trkpt lat="37.84938694107906" lon="112.01604477481033">
        <ele>1107.0</ele>
        <time>2018-03-24T09:20:18.200000Z</time>
      </trkpt>
      <trkpt lat="37.84936359338007" lon="112.01614562168737">
        <ele>1105.0</ele>
        <time>2018-03-24T09:20:24.200000Z</time>
      </trkpt>
      <trkpt lat="37.84936775722799" lon="112.01620807434617">
        <ele>1105.0</ele>
        <time>2018-03-24T09:20:30.200000Z</time>
      </trkpt>
      <trkpt lat="37.84932854810922" lon="112.01635326271395">
        <ele>1106.0</ele>
        <time>2018-03-24T09:20:39.200000Z</time>
      </trkpt>
      <trkpt lat="37.84932962824568" lon="112.01645086306385">
        <ele>1104.0</ele>
        <time>2018-03-24T09:20:45.300000Z</time>
      </trkpt>
      <trkpt lat="37.84930544901735" lon="112.01655819971441">
        <ele>1107.0</ele>
        <time>2018-03-24T09:20:51.200000Z</time>
      </trkpt>
      <trkpt lat="37.84933289570915" lon="112.01663849415246">
        <ele>1106.0</ele>
        <time>2018-03-24T09:20:57.200000Z</time>
      </trkpt>
      <trkpt lat="37.84930243696367" lon="112.01675989095416">
        <ele>1104.0</ele>
        <time>2018-03-24T09:21:06.200000Z</time>
      </trkpt>
      <trkpt lat="37.84933892964567" lon="112.01680747063351">
        <ele>1104.0</ele>
        <time>2018-03-24T09:21:09.200000Z</time>
      </trkpt>
      <trkpt lat="37.84927449759924" lon="112.01704621052923">
        <ele>1105.0</ele>
        <time>2018-03-24T09:21:21.200000Z</time>
      </trkpt>
      <trkpt lat="37.849303012760046" lon="112.01713272421493">
        <ele>1104.0</ele>
        <time>2018-03-24T09:21:27.200000Z</time>
      </trkpt>
      <trkpt lat="37.84924104644448" lon="112.01726710387796">
        <ele>1104.0</ele>
        <time>2018-03-24T09:21:33.200000Z</time>
      </trkpt>
      <trkpt lat="37.84920311009544" lon="112.01753963940972">
        <ele>1107.0</ele>
        <time>2018-03-24T09:21:48.300000Z</time>
      </trkpt>
      <trkpt lat="37.84918336134416" lon="112.01790599340235">
        <ele>1106.0</ele>
        <time>2018-03-24T09:22:00.200000Z</time>
      </trkpt>
      <trkpt lat="37.84915671387088" lon="112.01821773611798">
        <ele>1107.0</ele>
        <time>2018-03-24T09:22:09.200000Z</time>
      </trkpt>
      <trkpt lat="37.84918667450227" lon="112.01827315915499">
        <ele>1106.0</ele>
        <time>2018-03-24T09:22:12.200000Z</time>
      </trkpt>
      <trkpt lat="37.849200791938664" lon="112.01817284884316">
        <ele>1105.0</ele>
        <time>2018-03-24T09:22:15.300000Z</time>
      </trkpt>
      <trkpt lat="37.84919541145868" lon="112.01805956324314">
        <ele>1104.0</ele>
        <time>2018-03-24T09:22:18.200000Z</time>
      </trkpt>
      <trkpt lat="37.849236115607404" lon="112.01786326841409">
        <ele>1103.0</ele>
        <time>2018-03-24T09:22:24.200000Z</time>
      </trkpt>
      <trkpt lat="37.84927047606199" lon="112.01780080860793">
        <ele>1105.0</ele>
        <time>2018-03-24T09:22:27.200000Z</time>
      </trkpt>
      <trkpt lat="37.849245212134186" lon="112.0174258091948">
        <ele>1104.0</ele>
        <time>2018-03-24T09:22:36.200000Z</time>
      </trkpt>
      <trkpt lat="37.849297574331196" lon="112.01713705072638">
        <ele>1105.0</ele>
        <time>2018-03-24T09:22:45.200000Z</time>
      </trkpt>
      <trkpt lat="37.84928127963386" lon="112.01704648008241">
        <ele>1105.0</ele>
        <time>2018-03-24T09:22:48.200000Z</time>
      </trkpt>
      <trkpt lat="37.84934509021879" lon="112.01664362958863">
        <ele>1105.0</ele>
        <time>2018-03-24T09:23:00.200000Z</time>
      </trkpt>
      <trkpt lat="37.84938693067889" lon="112.01623970420394">
        <ele>1106.0</ele>
        <time>2018-03-24T09:23:12.300000Z</time>
      </trkpt>
      <trkpt lat="37.84942712720085" lon="112.0159379782701">
        <ele>1106.0</ele>
        <time>2018-03-24T09:23:21.200000Z</time>
      </trkpt>
      <trkpt lat="37.849415121172925" lon="112.0156757327997">
        <ele>1103.0</ele>
        <time>2018-03-24T09:23:30.200000Z</time>
      </trkpt>
      <trkpt lat="37.84945050197281" lon="112.0154464665955">
        <ele>1104.0</ele>
        <time>2018-03-24T09:23:36.200000Z</time>
      </trkpt>
      <trkpt lat="37.84944966719421" lon="112.01535860128566">
        <ele>1104.0</ele>
        <time>2018-03-24T09:23:39.200000Z</time>
      </trkpt>
      <trkpt lat="37.84953113718253" lon="112.0149517093919">
        <ele>1103.0</ele>
        <time>2018-03-24T09:23:51.200000Z</time>
      </trkpt>
      <trkpt lat="37.84954882275948" lon="112.01483924084506">
        <ele>1105.0</ele>
        <time>2018-03-24T09:23:54.200000Z</time>
      </trkpt>
      <trkpt lat="37.84953239103778" lon="112.0146083630941">
        <ele>1108.0</ele>
        <time>2018-03-24T09:24:00.200000Z</time>
      </trkpt>
      <trkpt lat="37.84955546090411" lon="112.01451076399344">
        <ele>1108.0</ele>
        <time>2018-03-24T09:24:03.200000Z</time>
      </trkpt>
      <trkpt lat="37.8495350613266" lon="112.0144339871908">
        <ele>1107.0</ele>
        <time>2018-03-24T09:24:06.200000Z</time>
      </trkpt>
      <trkpt lat="37.84960812114711" lon="112.01412361859562">
        <ele>1107.0</ele>
        <time>2018-03-24T09:24:15.200000Z</time>
      </trkpt>
      <trkpt lat="37.84963829774147" lon="112.01372512464665">
        <ele>1108.0</ele>
        <time>2018-03-24T09:24:27.200000Z</time>
      </trkpt>
      <trkpt lat="37.84963914486216" lon="112.01361941974092">
        <ele>1109.0</ele>
        <time>2018-03-24T09:24:30.300000Z</time>
      </trkpt>
      <trkpt lat="37.84961414816547" lon="112.01353777877357">
        <ele>1110.0</ele>
        <time>2018-03-24T09:24:33.300000Z</time>
      </trkpt>
      <trkpt lat="37.849660936768935" lon="112.01321309114246">
        <ele>1109.0</ele>
        <time>2018-03-24T09:24:42.200000Z</time>
      </trkpt>
      <trkpt lat="37.84966094725203" lon="112.01302168927319">
        <ele>1108.0</ele>
        <time>2018-03-24T09:24:48.200000Z</time>
      </trkpt>
      <trkpt lat="37.849677517603276" lon="112.01292085017056">
        <ele>1108.0</ele>
        <time>2018-03-24T09:24:51.200000Z</time>
      </trkpt>
      <trkpt lat="37.84971460633347" lon="112.0124804629931">
        <ele>1107.0</ele>
        <time>2018-03-24T09:25:03.300000Z</time>
      </trkpt>
      <trkpt lat="37.849732543684794" lon="112.01228284408063">
        <ele>1107.0</ele>
        <time>2018-03-24T09:25:09.200000Z</time>
      </trkpt>
      <trkpt lat="37.84978339193785" lon="112.01196384129703">
        <ele>1109.0</ele>
        <time>2018-03-24T09:25:18.200000Z</time>
      </trkpt>
      <trkpt lat="37.849778610607075" lon="112.01155590745465">
        <ele>1108.0</ele>
        <time>2018-03-24T09:25:30.200000Z</time>
      </trkpt>
      <trkpt lat="37.8498147476633" lon="112.01144479630496">
        <ele>1108.0</ele>
        <time>2018-03-24T09:25:33.200000Z</time>
      </trkpt>
      <trkpt lat="37.849851264991415" lon="112.01101766810474">
        <ele>1109.0</ele>
        <time>2018-03-24T09:25:45.200000Z</time>
      </trkpt>
      <trkpt lat="37.84986183856689" lon="112.01083465343157">
        <ele>1108.0</ele>
        <time>2018-03-24T09:25:51.200000Z</time>
      </trkpt>
      <trkpt lat="37.84984752811843" lon="112.01053296820713">
        <ele>1110.0</ele>
        <time>2018-03-24T09:26:00.200000Z</time>
      </trkpt>
      <trkpt lat="37.84986765149472" lon="112.01042456436042">
        <ele>1109.0</ele>
        <time>2018-03-24T09:26:03.200000Z</time>
      </trkpt>
      <trkpt lat="37.84987005474447" lon="112.01025263603523">
        <ele>1110.0</ele>
        <time>2018-03-24T09:26:09.200000Z</time>
      </trkpt>
      <trkpt lat="37.84989074814211" lon="112.01013504157686">
        <ele>1109.0</ele>
        <time>2018-03-24T09:26:12.200000Z</time>
      </trkpt>
      <trkpt lat="37.84988366807204" lon="112.0099590603908">
        <ele>1110.0</ele>
        <time>2018-03-24T09:26:18.200000Z</time>
      </trkpt>
      <trkpt lat="37.84986540229233" lon="112.00989661746665">
        <ele>1111.0</ele>
        <time>2018-03-24T09:26:21.200000Z</time>
      </trkpt>
      <trkpt lat="37.849910877044564" lon="112.00974793348405">
        <ele>1110.0</ele>
        <time>2018-03-24T09:26:30.200000Z</time>
      </trkpt>
      <trkpt lat="37.84990232355662" lon="112.00951978125661">
        <ele>1112.0</ele>
        <time>2018-03-24T09:26:42.200000Z</time>
      </trkpt>
      <trkpt lat="37.849866259793686" lon="112.00942057702444">
        <ele>1113.0</ele>
        <time>2018-03-24T09:26:48.200000Z</time>
      </trkpt>
      <trkpt lat="37.84975170682879" lon="112.00925650501351">
        <ele>1111.0</ele>
        <time>2018-03-24T09:27:00.200000Z</time>
      </trkpt>
      <trkpt lat="37.84975270123217" lon="112.0091032325072">
        <ele>1109.0</ele>
        <time>2018-03-24T09:27:06.200000Z</time>
      </trkpt>
      <trkpt lat="37.84957419987335" lon="112.0088199577395">
        <ele>1111.0</ele>
        <time>2018-03-24T09:27:24.200000Z</time>
      </trkpt>
      <trkpt lat="37.8495140158083" lon="112.00871210731687">
        <ele>1112.0</ele>
        <time>2018-03-24T09:27:33.200000Z</time>
      </trkpt>
      <trkpt lat="37.84942851921327" lon="112.00863156234166">
        <ele>1112.0</ele>
        <time>2018-03-24T09:27:39.200000Z</time>
      </trkpt>
      <trkpt lat="37.84930634291276" lon="112.00838531659664">
        <ele>1114.0</ele>
        <time>2018-03-24T09:27:57.300000Z</time>
      </trkpt>
      <trkpt lat="37.849159330050284" lon="112.0082807211052">
        <ele>1113.0</ele>
        <time>2018-03-24T09:28:09.200000Z</time>
      </trkpt>
      <trkpt lat="37.84912099092917" lon="112.00812583382063">
        <ele>1114.0</ele>
        <time>2018-03-24T09:28:15.200000Z</time>
      </trkpt>
      <trkpt lat="37.849054614084125" lon="112.00800230696895">
        <ele>1115.0</ele>
        <time>2018-03-24T09:28:24.200000Z</time>
      </trkpt>
      <trkpt lat="37.84900332813939" lon="112.00800501625612">
        <ele>1116.0</ele>
        <time>2018-03-24T09:28:27.200000Z</time>
      </trkpt>
      <trkpt lat="37.84886986768885" lon="112.00772201138058">
        <ele>1115.0</ele>
        <time>2018-03-24T09:28:45.200000Z</time>
      </trkpt>
      <trkpt lat="37.848623326570824" lon="112.00742036954165">
        <ele>1116.0</ele>
        <time>2018-03-24T09:29:00.200000Z</time>
      </trkpt>
      <trkpt lat="37.84855536627501" lon="112.00728224726916">
        <ele>1116.0</ele>
        <time>2018-03-24T09:29:06.200000Z</time>
      </trkpt>
      <trkpt lat="37.8483442600402" lon="112.0070170953511">
        <ele>1116.0</ele>
        <time>2018-03-24T09:29:18.200000Z</time>
      </trkpt>
      <trkpt lat="37.84820078807235" lon="112.0069084469164">
        <ele>1118.0</ele>
        <time>2018-03-24T09:29:24.200000Z</time>
      </trkpt>
      <trkpt lat="37.84805226852585" lon="112.00685494285884">
        <ele>1117.0</ele>
        <time>2018-03-24T09:29:30.200000Z</time>
      </trkpt>
      <trkpt lat="37.84782610240732" lon="112.00681874805564">
        <ele>1116.0</ele>
        <time>2018-03-24T09:29:39.200000Z</time>
      </trkpt>
      <trkpt lat="37.84751060922474" lon="112.00676346325486">
        <ele>1117.0</ele>
        <time>2018-03-24T09:29:51.200000Z</time>
      </trkpt>
      <trkpt lat="37.847344415553806" lon="112.00676420256495">
        <ele>1115.0</ele>
        <time>2018-03-24T09:29:57.200000Z</time>
      </trkpt>
      <trkpt lat="37.84718795177934" lon="112.0067343112671">
        <ele>1114.0</ele>
        <time>2018-03-24T09:30:03.200000Z</time>
      </trkpt>
      <trkpt lat="37.84702248535586" lon="112.00673190034989">
        <ele>1115.0</ele>
        <time>2018-03-24T09:30:09.200000Z</time>
      </trkpt>
      <trkpt lat="37.84680998895859" lon="112.00665397928749">
        <ele>1118.0</ele>
        <time>2018-03-24T09:30:18.200000Z</time>
      </trkpt>
      <trkpt lat="37.8466585867093" lon="112.0066575113929">
        <ele>1117.0</ele>
        <time>2018-03-24T09:30:24.200000Z</time>
      </trkpt>
      <trkpt lat="37.84657425957318" lon="112.00664049185121">
        <ele>1119.0</ele>
        <time>2018-03-24T09:30:27.200000Z</time>
      </trkpt>
      <trkpt lat="37.8464081078901" lon="112.00664443808103">
        <ele>1120.0</ele>
        <time>2018-03-24T09:30:33.200000Z</time>
      </trkpt>
      <trkpt lat="37.84634128012405" lon="112.00661403557774">
        <ele>1121.0</ele>
        <time>2018-03-24T09:30:36.200000Z</time>
      </trkpt>
      <trkpt lat="37.846108562059406" lon="112.00659216173206">
        <ele>1120.0</ele>
        <time>2018-03-24T09:30:45.200000Z</time>
      </trkpt>
      <trkpt lat="37.84588873070938" lon="112.00652433994627">
        <ele>1123.0</ele>
        <time>2018-03-24T09:30:54.200000Z</time>
      </trkpt>
      <trkpt lat="37.845829576794344" lon="112.00652705010862">
        <ele>1124.0</ele>
        <time>2018-03-24T09:30:57.200000Z</time>
      </trkpt>
      <trkpt lat="37.84568983552114" lon="112.00644137834534">
        <ele>1124.0</ele>
        <time>2018-03-24T09:31:03.200000Z</time>
      </trkpt>
      <trkpt lat="37.845619536936034" lon="112.00642613922119">
        <ele>1123.0</ele>
        <time>2018-03-24T09:31:06.200000Z</time>
      </trkpt>
      <trkpt lat="37.84545369262972" lon="112.00638464135959">
        <ele>1125.0</ele>
        <time>2018-03-24T09:31:12.200000Z</time>
      </trkpt>
      <trkpt lat="37.845206843252605" lon="112.00627897961391">
        <ele>1126.0</ele>
        <time>2018-03-24T09:31:21.200000Z</time>
      </trkpt>
      <trkpt lat="37.84487849748287" lon="112.00620792734397">
        <ele>1120.0</ele>
        <time>2018-03-24T09:31:33.200000Z</time>
      </trkpt>
      <trkpt lat="37.844704963926006" lon="112.00615396930584">
        <ele>1120.0</ele>
        <time>2018-03-24T09:31:39.200000Z</time>
      </trkpt>
      <trkpt lat="37.84454681646452" lon="112.00613688249126">
        <ele>1123.0</ele>
        <time>2018-03-24T09:31:45.200000Z</time>
      </trkpt>
      <trkpt lat="37.84438224533554" lon="112.0062160958098">
        <ele>1121.0</ele>
        <time>2018-03-24T09:31:51.200000Z</time>
      </trkpt>
      <trkpt lat="37.84431273075023" lon="112.006217243446">
        <ele>1118.0</ele>
        <time>2018-03-24T09:31:54.200000Z</time>
      </trkpt>
      <trkpt lat="37.84399026761438" lon="112.00637966789256">
        <ele>1117.0</ele>
        <time>2018-03-24T09:32:06.200000Z</time>
      </trkpt>
      <trkpt lat="37.84370416422726" lon="112.00660542344448">
        <ele>1117.0</ele>
        <time>2018-03-24T09:32:18.200000Z</time>
      </trkpt>
      <trkpt lat="37.84342969608428" lon="112.00684576306807">
        <ele>1124.0</ele>
        <time>2018-03-24T09:32:30.200000Z</time>
      </trkpt>
      <trkpt lat="37.84325118506844" lon="112.00693309516811">
        <ele>1126.0</ele>
        <time>2018-03-24T09:32:36.200000Z</time>
      </trkpt>
      <trkpt lat="37.84301977032207" lon="112.00717289967375">
        <ele>1124.0</ele>
        <time>2018-03-24T09:32:45.200000Z</time>
      </trkpt>
      <trkpt lat="37.84289234967213" lon="112.0072615681679">
        <ele>1126.0</ele>
        <time>2018-03-24T09:32:51.200000Z</time>
      </trkpt>
      <trkpt lat="37.84267953615247" lon="112.00744957453293">
        <ele>1125.0</ele>
        <time>2018-03-24T09:33:00.200000Z</time>
      </trkpt>
      <trkpt lat="37.84251918259669" lon="112.00753199007377">
        <ele>1127.0</ele>
        <time>2018-03-24T09:33:06.200000Z</time>
      </trkpt>
      <trkpt lat="37.8422527872854" lon="112.00774511947829">
        <ele>1124.0</ele>
        <time>2018-03-24T09:33:15.200000Z</time>
      </trkpt>
      <trkpt lat="37.842021264209876" lon="112.0079617879519">
        <ele>1123.0</ele>
        <time>2018-03-24T09:33:24.200000Z</time>
      </trkpt>
      <trkpt lat="37.841833757207965" lon="112.00806399002788">
        <ele>1124.0</ele>
        <time>2018-03-24T09:33:30.200000Z</time>
      </trkpt>
      <trkpt lat="37.84152884154893" lon="112.00815878059902">
        <ele>1126.0</ele>
        <time>2018-03-24T09:33:39.200000Z</time>
      </trkpt>
      <trkpt lat="37.84142594462697" lon="112.00819750539021">
        <ele>1129.0</ele>
        <time>2018-03-24T09:33:42.200000Z</time>
      </trkpt>
      <trkpt lat="37.841228900794334" lon="112.00820348598452">
        <ele>1127.0</ele>
        <time>2018-03-24T09:33:48.200000Z</time>
      </trkpt>
      <trkpt lat="37.8410772184925" lon="112.00823314656719">
        <ele>1125.0</ele>
        <time>2018-03-24T09:33:54.200000Z</time>
      </trkpt>
      <trkpt lat="37.840959392253794" lon="112.00822133881057">
        <ele>1124.0</ele>
        <time>2018-03-24T09:34:00.100000Z</time>
      </trkpt>
      <trkpt lat="37.84100356538987" lon="112.00813264273955">
        <ele>1126.0</ele>
        <time>2018-03-24T09:34:03.200000Z</time>
      </trkpt>
      <trkpt lat="37.84108752815314" lon="112.00813343968208">
        <ele>1128.0</ele>
        <time>2018-03-24T09:34:06.200000Z</time>
      </trkpt>
      <trkpt lat="37.84115909282999" lon="112.00815406925665">
        <ele>1129.0</ele>
        <time>2018-03-24T09:34:09.200000Z</time>
      </trkpt>
      <trkpt lat="37.84133420659568" lon="112.00812308265598">
        <ele>1127.0</ele>
        <time>2018-03-24T09:34:18.200000Z</time>
      </trkpt>
      <trkpt lat="37.84151522482059" lon="112.0081403435006">
        <ele>1131.0</ele>
        <time>2018-03-24T09:34:27.200000Z</time>
      </trkpt>
      <trkpt lat="37.84161956441579" lon="112.00801382802753">
        <ele>1125.0</ele>
        <time>2018-03-24T09:34:39.200000Z</time>
      </trkpt>
      <trkpt lat="37.84168269342453" lon="112.00795344854276">
        <ele>1126.0</ele>
        <time>2018-03-24T09:34:45.200000Z</time>
      </trkpt>
      <trkpt lat="37.84187812299748" lon="112.00795237909841">
        <ele>1127.0</ele>
        <time>2018-03-24T09:34:54.200000Z</time>
      </trkpt>
      <trkpt lat="37.84204279206768" lon="112.0077602928085">
        <ele>1126.0</ele>
        <time>2018-03-24T09:35:12.200000Z</time>
      </trkpt>
      <trkpt lat="37.84230735980303" lon="112.00764197024137">
        <ele>1121.0</ele>
        <time>2018-03-24T09:35:24.200000Z</time>
      </trkpt>
      <trkpt lat="37.84246887725873" lon="112.00755671865647">
        <ele>1117.0</ele>
        <time>2018-03-24T09:35:30.200000Z</time>
      </trkpt>
      <trkpt lat="37.84275480174565" lon="112.00736178112332">
        <ele>1113.0</ele>
        <time>2018-03-24T09:35:42.200000Z</time>
      </trkpt>
      <trkpt lat="37.842966860138546" lon="112.00718636608642">
        <ele>1121.0</ele>
        <time>2018-03-24T09:35:51.200000Z</time>
      </trkpt>
      <trkpt lat="37.843174853963454" lon="112.00695724281638">
        <ele>1120.0</ele>
        <time>2018-03-24T09:36:00.200000Z</time>
      </trkpt>
      <trkpt lat="37.843407915482864" lon="112.00674448774771">
        <ele>1121.0</ele>
        <time>2018-03-24T09:36:12.200000Z</time>
      </trkpt>
      <trkpt lat="37.843641630709115" lon="112.00655866711607">
        <ele>1121.0</ele>
        <time>2018-03-24T09:36:21.200000Z</time>
      </trkpt>
      <trkpt lat="37.84385584740404" lon="112.00641645822044">
        <ele>1126.0</ele>
        <time>2018-03-24T09:36:30.200000Z</time>
      </trkpt>
      <trkpt lat="37.84419416794472" lon="112.00623585083657">
        <ele>1124.0</ele>
        <time>2018-03-24T09:36:42.200000Z</time>
      </trkpt>
      <trkpt lat="37.84450383668656" lon="112.00611039036444">
        <ele>1129.0</ele>
        <time>2018-03-24T09:36:54.200000Z</time>
      </trkpt>
      <trkpt lat="37.84470548614859" lon="112.00608847128183">
        <ele>1130.0</ele>
        <time>2018-03-24T09:37:00.200000Z</time>
      </trkpt>
      <trkpt lat="37.84503317546879" lon="112.00619763713799">
        <ele>1130.0</ele>
        <time>2018-03-24T09:37:12.200000Z</time>
      </trkpt>
      <trkpt lat="37.84534790330655" lon="112.00628626115416">
        <ele>1127.0</ele>
        <time>2018-03-24T09:37:24.200000Z</time>
      </trkpt>
      <trkpt lat="37.845643853604116" lon="112.00639407953462">
        <ele>1127.0</ele>
        <time>2018-03-24T09:37:36.200000Z</time>
      </trkpt>
      <trkpt lat="37.84589474240611" lon="112.00641891815054">
        <ele>1128.0</ele>
        <time>2018-03-24T09:37:48.200000Z</time>
      </trkpt>
      <trkpt lat="37.84608529460945" lon="112.00647917463543">
        <ele>1128.0</ele>
        <time>2018-03-24T09:38:00.200000Z</time>
      </trkpt>
      <trkpt lat="37.84615976427379" lon="112.0065264701032">
        <ele>1128.0</ele>
        <time>2018-03-24T09:38:06.200000Z</time>
      </trkpt>
      <trkpt lat="37.84628421645648" lon="112.0065532160191">
        <ele>1125.0</ele>
        <time>2018-03-24T09:38:18.200000Z</time>
      </trkpt>
      <trkpt lat="37.84638786223266" lon="112.00655158179158">
        <ele>1125.0</ele>
        <time>2018-03-24T09:38:24.200000Z</time>
      </trkpt>
      <trkpt lat="37.846701057008765" lon="112.00660858002448">
        <ele>1125.0</ele>
        <time>2018-03-24T09:38:45.200000Z</time>
      </trkpt>
      <trkpt lat="37.84688031014847" lon="112.00663667098814">
        <ele>1126.0</ele>
        <time>2018-03-24T09:38:57.200000Z</time>
      </trkpt>
      <trkpt lat="37.84672349534874" lon="112.00663560844988">
        <ele>1122.0</ele>
        <time>2018-03-24T09:39:09.200000Z</time>
      </trkpt>
      <trkpt lat="37.84678104235744" lon="112.00662587038738">
        <ele>1125.0</ele>
        <time>2018-03-24T09:39:15.200000Z</time>
      </trkpt>
      <trkpt lat="37.846851013340654" lon="112.00663505261646">
        <ele>1125.0</ele>
        <time>2018-03-24T09:39:24.200000Z</time>
      </trkpt>
      <trkpt lat="37.847299239307716" lon="112.0067196065613">
        <ele>1125.0</ele>
        <time>2018-03-24T09:40:24.200000Z</time>
      </trkpt>
      <trkpt lat="37.84735671872537" lon="112.00673257465206">
        <ele>1124.0</ele>
        <time>2018-03-24T09:40:27.200000Z</time>
      </trkpt>
      <trkpt lat="37.84743885019261" lon="112.00672049855366">
        <ele>1125.0</ele>
        <time>2018-03-24T09:40:30.200000Z</time>
      </trkpt>
      <trkpt lat="37.84752252238667" lon="112.00672595281307">
        <ele>1124.0</ele>
        <time>2018-03-24T09:40:33.200000Z</time>
      </trkpt>
      <trkpt lat="37.84760690138613" lon="112.00675869351585">
        <ele>1122.0</ele>
        <time>2018-03-24T09:40:36.200000Z</time>
      </trkpt>
      <trkpt lat="37.847875132111874" lon="112.00680215435086">
        <ele>1125.0</ele>
        <time>2018-03-24T09:40:45.200000Z</time>
      </trkpt>
      <trkpt lat="37.84796891973036" lon="112.0067934752291">
        <ele>1126.0</ele>
        <time>2018-03-24T09:40:48.200000Z</time>
      </trkpt>
      <trkpt lat="37.84816471499833" lon="112.00682298372328">
        <ele>1126.0</ele>
        <time>2018-03-24T09:40:54.200000Z</time>
      </trkpt>
      <trkpt lat="37.848250102300355" lon="112.00685232584462">
        <ele>1125.0</ele>
        <time>2018-03-24T09:40:57.200000Z</time>
      </trkpt>
      <trkpt lat="37.848476691145294" lon="112.00709790304433">
        <ele>1124.0</ele>
        <time>2018-03-24T09:41:09.200000Z</time>
      </trkpt>
      <trkpt lat="37.84868726308895" lon="112.00746790646714">
        <ele>1117.0</ele>
        <time>2018-03-24T09:41:21.200000Z</time>
      </trkpt>
      <trkpt lat="37.84886701758204" lon="112.00768538336874">
        <ele>1122.0</ele>
        <time>2018-03-24T09:41:30.200000Z</time>
      </trkpt>
      <trkpt lat="37.849000810008704" lon="112.00794606900902">
        <ele>1121.0</ele>
        <time>2018-03-24T09:41:39.200000Z</time>
      </trkpt>
      <trkpt lat="37.84913597791519" lon="112.0081039363539">
        <ele>1117.0</ele>
        <time>2018-03-24T09:41:45.200000Z</time>
      </trkpt>
      <trkpt lat="37.84923878363423" lon="112.00829449782493">
        <ele>1122.0</ele>
        <time>2018-03-24T09:41:51.200000Z</time>
      </trkpt>
      <trkpt lat="37.84936769851278" lon="112.00844954550135">
        <ele>1119.0</ele>
        <time>2018-03-24T09:41:57.200000Z</time>
      </trkpt>
      <trkpt lat="37.84946205551579" lon="112.00861489403317">
        <ele>1118.0</ele>
        <time>2018-03-24T09:42:03.200000Z</time>
      </trkpt>
      <trkpt lat="37.849640142077085" lon="112.00887263061071">
        <ele>1115.0</ele>
        <time>2018-03-24T09:42:12.200000Z</time>
      </trkpt>
      <trkpt lat="37.84978224082009" lon="112.00905973524375">
        <ele>1114.0</ele>
        <time>2018-03-24T09:42:18.200000Z</time>
      </trkpt>
      <trkpt lat="37.84987163023419" lon="112.00925141464761">
        <ele>1113.0</ele>
        <time>2018-03-24T09:42:24.200000Z</time>
      </trkpt>
      <trkpt lat="37.8499278270453" lon="112.00962982093192">
        <ele>1113.0</ele>
        <time>2018-03-24T09:42:36.200000Z</time>
      </trkpt>
      <trkpt lat="37.84992023150247" lon="112.00976090705578">
        <ele>1114.0</ele>
        <time>2018-03-24T09:42:39.200000Z</time>
      </trkpt>
      <trkpt lat="37.84993822362121" lon="112.01013114629197">
        <ele>1116.0</ele>
        <time>2018-03-24T09:42:48.200000Z</time>
      </trkpt>
      <trkpt lat="37.84991026114572" lon="112.01053435993265">
        <ele>1111.0</ele>
        <time>2018-03-24T09:43:00.200000Z</time>
      </trkpt>
      <trkpt lat="37.84984625265711" lon="112.01089210893538">
        <ele>1113.0</ele>
        <time>2018-03-24T09:43:09.200000Z</time>
      </trkpt>
      <trkpt lat="37.849840603342265" lon="112.01123319164506">
        <ele>1115.0</ele>
        <time>2018-03-24T09:43:18.200000Z</time>
      </trkpt>
      <trkpt lat="37.84980185678512" lon="112.01158564133696">
        <ele>1111.0</ele>
        <time>2018-03-24T09:43:27.200000Z</time>
      </trkpt>
      <trkpt lat="37.8497781946556" lon="112.01199065528348">
        <ele>1110.0</ele>
        <time>2018-03-24T09:43:39.200000Z</time>
      </trkpt>
      <trkpt lat="37.849730102500025" lon="112.01237611073877">
        <ele>1106.0</ele>
        <time>2018-03-24T09:43:51.200000Z</time>
      </trkpt>
      <trkpt lat="37.849688184207686" lon="112.01279757377051">
        <ele>1105.0</ele>
        <time>2018-03-24T09:44:03.200000Z</time>
      </trkpt>
      <trkpt lat="37.849658969322846" lon="112.01314280246805">
        <ele>1103.0</ele>
        <time>2018-03-24T09:44:12.200000Z</time>
      </trkpt>
      <trkpt lat="37.8496251035299" lon="112.01350209206863">
        <ele>1102.0</ele>
        <time>2018-03-24T09:44:24.200000Z</time>
      </trkpt>
      <trkpt lat="37.849652938927974" lon="112.01363428703853">
        <ele>1102.0</ele>
        <time>2018-03-24T09:44:33.200000Z</time>
      </trkpt>
      <trkpt lat="37.84964597155593" lon="112.01369835957402">
        <ele>1103.0</ele>
        <time>2018-03-24T09:44:36.200000Z</time>
      </trkpt>
      <trkpt lat="37.849594224297185" lon="112.01386138403451">
        <ele>1100.0</ele>
        <time>2018-03-24T09:44:45.200000Z</time>
      </trkpt>
      <trkpt lat="37.84960044380443" lon="112.01429724079547">
        <ele>1100.0</ele>
        <time>2018-03-24T09:45:00.200000Z</time>
      </trkpt>
      <trkpt lat="37.84956298846851" lon="112.01472433984422">
        <ele>1096.0</ele>
        <time>2018-03-24T09:45:12.200000Z</time>
      </trkpt>
      <trkpt lat="37.84952489864374" lon="112.01514132010941">
        <ele>1091.0</ele>
        <time>2018-03-24T09:45:24.200000Z</time>
      </trkpt>
      <trkpt lat="37.84944678634689" lon="112.01553624541644">
        <ele>1100.0</ele>
        <time>2018-03-24T09:45:33.200000Z</time>
      </trkpt>
      <trkpt lat="37.84939514004668" lon="112.01592824919676">
        <ele>1102.0</ele>
        <time>2018-03-24T09:45:42.200000Z</time>
      </trkpt>
      <trkpt lat="37.849346122761325" lon="112.0162789113662">
        <ele>1105.0</ele>
        <time>2018-03-24T09:45:51.200000Z</time>
      </trkpt>
      <trkpt lat="37.84932773925423" lon="112.01663903549603">
        <ele>1105.0</ele>
        <time>2018-03-24T09:46:00.200000Z</time>
      </trkpt>
      <trkpt lat="37.84929515313706" lon="112.01703350087092">
        <ele>1103.0</ele>
        <time>2018-03-24T09:46:12.200000Z</time>
      </trkpt>
      <trkpt lat="37.84923984065066" lon="112.01740634333326">
        <ele>1106.0</ele>
        <time>2018-03-24T09:46:21.200000Z</time>
      </trkpt>
      <trkpt lat="37.84921988584484" lon="112.01755585954054">
        <ele>1107.0</ele>
        <time>2018-03-24T09:46:24.200000Z</time>
      </trkpt>
      <trkpt lat="37.849207330042695" lon="112.0179695278727">
        <ele>1113.0</ele>
        <time>2018-03-24T09:46:36.200000Z</time>
      </trkpt>
      <trkpt lat="37.84917442661515" lon="112.01830070116124">
        <ele>1111.0</ele>
        <time>2018-03-24T09:46:54.200000Z</time>
      </trkpt>
      <trkpt lat="37.84919870896926" lon="112.01835319639412">
        <ele>1110.0</ele>
        <time>2018-03-24T09:46:57.200000Z</time>
      </trkpt>
      <trkpt lat="37.849196451073105" lon="112.01846404248674">
        <ele>1111.0</ele>
        <time>2018-03-24T09:47:03.200000Z</time>
      </trkpt>
      <trkpt lat="37.84918026180172" lon="112.01852920493359">
        <ele>1111.0</ele>
        <time>2018-03-24T09:47:06.200000Z</time>
      </trkpt>
      <trkpt lat="37.84921349210095" lon="112.01857976125319">
        <ele>1111.0</ele>
        <time>2018-03-24T09:47:09.200000Z</time>
      </trkpt>
      <trkpt lat="37.849203903907366" lon="112.0189050262642">
        <ele>1112.0</ele>
        <time>2018-03-24T09:47:27.200000Z</time>
      </trkpt>
      <trkpt lat="37.84915540022916" lon="112.01927355966765">
        <ele>1111.0</ele>
        <time>2018-03-24T09:47:48.200000Z</time>
      </trkpt>
      <trkpt lat="37.849164856141414" lon="112.01967967309773">
        <ele>1111.0</ele>
        <time>2018-03-24T09:48:09.200000Z</time>
      </trkpt>
      <trkpt lat="37.84916635555193" lon="112.01974180718172">
        <ele>1115.0</ele>
        <time>2018-03-24T09:48:12.200000Z</time>
      </trkpt>
      <trkpt lat="37.84914284128981" lon="112.01980227815442">
        <ele>1114.0</ele>
        <time>2018-03-24T09:48:15.200000Z</time>
      </trkpt>
      <trkpt lat="37.849171951309394" lon="112.01986110036212">
        <ele>1118.0</ele>
        <time>2018-03-24T09:48:21.200000Z</time>
      </trkpt>
      <trkpt lat="37.8491411532897" lon="112.02012741646288">
        <ele>1114.0</ele>
        <time>2018-03-24T09:48:33.200000Z</time>
      </trkpt>
      <trkpt lat="37.84911062158466" lon="112.0202389183239">
        <ele>1109.0</ele>
        <time>2018-03-24T09:48:45.200000Z</time>
      </trkpt>
      <trkpt lat="37.84911009989409" lon="112.02065308108206">
        <ele>1106.0</ele>
        <time>2018-03-24T09:49:00.200000Z</time>
      </trkpt>
      <trkpt lat="37.84912004705479" lon="112.0207896883212">
        <ele>1108.0</ele>
        <time>2018-03-24T09:49:03.200000Z</time>
      </trkpt>
      <trkpt lat="37.84909410392059" lon="112.02113118404944">
        <ele>1104.0</ele>
        <time>2018-03-24T09:49:12.200000Z</time>
      </trkpt>
      <trkpt lat="37.84907707653831" lon="112.02136715742385">
        <ele>1107.0</ele>
        <time>2018-03-24T09:49:18.200000Z</time>
      </trkpt>
      <trkpt lat="37.84909597491788" lon="112.02176069321543">
        <ele>1103.0</ele>
        <time>2018-03-24T09:49:30.200000Z</time>
      </trkpt>
      <trkpt lat="37.84908100101454" lon="112.022200238211">
        <ele>1099.0</ele>
        <time>2018-03-24T09:49:42.200000Z</time>
      </trkpt>
      <trkpt lat="37.84907639530956" lon="112.02242702984526">
        <ele>1104.0</ele>
        <time>2018-03-24T09:49:48.200000Z</time>
      </trkpt>
      <trkpt lat="37.84910393662552" lon="112.02263931783368">
        <ele>1104.0</ele>
        <time>2018-03-24T09:49:54.200000Z</time>
      </trkpt>
      <trkpt lat="37.8490761281015" lon="112.02302900961733">
        <ele>1105.0</ele>
        <time>2018-03-24T09:50:09.200000Z</time>
      </trkpt>
      <trkpt lat="37.84906664523062" lon="112.02316030314154">
        <ele>1105.0</ele>
        <time>2018-03-24T09:50:15.200000Z</time>
      </trkpt>
      <trkpt lat="37.84910080123711" lon="112.02349811525508">
        <ele>1110.0</ele>
        <time>2018-03-24T09:50:33.200000Z</time>
      </trkpt>
      <trkpt lat="37.84908406654709" lon="112.0238115826744">
        <ele>1114.0</ele>
        <time>2018-03-24T09:50:45.200000Z</time>
      </trkpt>
      <trkpt lat="37.84911102542756" lon="112.02393537208337">
        <ele>1112.0</ele>
        <time>2018-03-24T09:50:51.200000Z</time>
      </trkpt>
      <trkpt lat="37.849082397492296" lon="112.02408408642339">
        <ele>1111.0</ele>
        <time>2018-03-24T09:51:00.200000Z</time>
      </trkpt>
      <trkpt lat="37.84908230233529" lon="112.02416484766994">
        <ele>1112.0</ele>
        <time>2018-03-24T09:51:06.200000Z</time>
      </trkpt>
      <trkpt lat="37.84896087950598" lon="112.02439454001251">
        <ele>1117.0</ele>
        <time>2018-03-24T09:51:18.200000Z</time>
      </trkpt>
      <trkpt lat="37.84894934889126" lon="112.02448262810186">
        <ele>1114.0</ele>
        <time>2018-03-24T09:51:21.200000Z</time>
      </trkpt>
      <trkpt lat="37.84896920127236" lon="112.02455722718382">
        <ele>1113.0</ele>
        <time>2018-03-24T09:51:24.200000Z</time>
      </trkpt>
      <trkpt lat="37.84903446876879" lon="112.0246585779816">
        <ele>1115.0</ele>
        <time>2018-03-24T09:51:30.200000Z</time>
      </trkpt>
      <trkpt lat="37.84906229818325" lon="112.02471265234291">
        <ele>1114.0</ele>
        <time>2018-03-24T09:51:33.100000Z</time>
      </trkpt>
      <trkpt lat="37.84909296810295" lon="112.02485118743387">
        <ele>1114.0</ele>
        <time>2018-03-24T09:51:42.200000Z</time>
      </trkpt>
      <trkpt lat="37.84903810827995" lon="112.02489570498341">
        <ele>1114.0</ele>
        <time>2018-03-24T09:51:45.200000Z</time>
      </trkpt>
      <trkpt lat="37.849032243318504" lon="112.02495788458715">
        <ele>1118.0</ele>
        <time>2018-03-24T09:51:48.200000Z</time>
      </trkpt>
      <trkpt lat="37.84900050064584" lon="112.02504402067679">
        <ele>1117.0</ele>
        <time>2018-03-24T09:51:54.200000Z</time>
      </trkpt>
      <trkpt lat="37.84898791779028" lon="112.02510266941155">
        <ele>1120.0</ele>
        <time>2018-03-24T09:51:57.200000Z</time>
      </trkpt>
      <trkpt lat="37.84897142990649" lon="112.02526266792594">
        <ele>1112.0</ele>
        <time>2018-03-24T09:52:06.200000Z</time>
      </trkpt>
      <trkpt lat="37.849031161818296" lon="112.02544089391473">
        <ele>1110.0</ele>
        <time>2018-03-24T09:52:15.200000Z</time>
      </trkpt>
      <trkpt lat="37.849054915993975" lon="112.02562348785726">
        <ele>1107.0</ele>
        <time>2018-03-24T09:52:24.200000Z</time>
      </trkpt>
      <trkpt lat="37.8490694043517" lon="112.02586699357553">
        <ele>1105.0</ele>
        <time>2018-03-24T09:52:33.200000Z</time>
      </trkpt>
      <trkpt lat="37.848975915676284" lon="112.02627027166818">
        <ele>1104.0</ele>
        <time>2018-03-24T09:52:45.200000Z</time>
      </trkpt>
      <trkpt lat="37.84890925232393" lon="112.02652856989907">
        <ele>1105.0</ele>
        <time>2018-03-24T09:52:51.200000Z</time>
      </trkpt>
      <trkpt lat="37.848875801383116" lon="112.02659277988697">
        <ele>1107.0</ele>
        <time>2018-03-24T09:52:54.200000Z</time>
      </trkpt>
      <trkpt lat="37.848723295217596" lon="112.0265605146713">
        <ele>1107.0</ele>
        <time>2018-03-24T09:53:00.200000Z</time>
      </trkpt>
      <trkpt lat="37.84865571059607" lon="112.02646110960272">
        <ele>1107.0</ele>
        <time>2018-03-24T09:53:03.200000Z</time>
      </trkpt>
      <trkpt lat="37.84855651103419" lon="112.02644610269108">
        <ele>1106.0</ele>
        <time>2018-03-24T09:53:06.200000Z</time>
      </trkpt>
      <trkpt lat="37.84840511914839" lon="112.02648599617817">
        <ele>1108.0</ele>
        <time>2018-03-24T09:53:12.200000Z</time>
      </trkpt>
      <trkpt lat="37.848341612740114" lon="112.02645214363059">
        <ele>1109.0</ele>
        <time>2018-03-24T09:53:15.200000Z</time>
      </trkpt>
      <trkpt lat="37.848275004169885" lon="112.0264728115326">
        <ele>1107.0</ele>
        <time>2018-03-24T09:53:18.200000Z</time>
      </trkpt>
      <trkpt lat="37.84805611218687" lon="112.02651913874601">
        <ele>1112.0</ele>
        <time>2018-03-24T09:53:30.200000Z</time>
      </trkpt>
      <trkpt lat="37.8478766473504" lon="112.02649327279218">
        <ele>1110.0</ele>
        <time>2018-03-24T09:53:45.200000Z</time>
      </trkpt>
      <trkpt lat="37.847816524413176" lon="112.02647685928713">
        <ele>1108.0</ele>
        <time>2018-03-24T09:53:51.200000Z</time>
      </trkpt>
      <trkpt lat="37.847772984682116" lon="112.02656045062048">
        <ele>1108.0</ele>
        <time>2018-03-24T09:53:57.200000Z</time>
      </trkpt>
      <trkpt lat="37.84773005040172" lon="112.02669053775533">
        <ele>1108.0</ele>
        <time>2018-03-24T09:54:03.200000Z</time>
      </trkpt>
      <trkpt lat="37.847718987129035" lon="112.02677167157867">
        <ele>1108.0</ele>
        <time>2018-03-24T09:54:09.200000Z</time>
      </trkpt>
      <trkpt lat="37.84762633831814" lon="112.02692691683407">
        <ele>1108.0</ele>
        <time>2018-03-24T09:54:18.200000Z</time>
      </trkpt>
      <trkpt lat="37.84764326970138" lon="112.02698911684878">
        <ele>1108.0</ele>
        <time>2018-03-24T09:54:24.200000Z</time>
      </trkpt>
      <trkpt lat="37.84764061772741" lon="112.02707025047188">
        <ele>1109.0</ele>
        <time>2018-03-24T09:54:30.100000Z</time>
      </trkpt>
      <trkpt lat="37.84758951438185" lon="112.02721251087783">
        <ele>1114.0</ele>
        <time>2018-03-24T09:54:36.200000Z</time>
      </trkpt>
    </trkseg>
  </trk>
</gpx>