<?xml version="1.0" encoding="UTF-8"?>
<gpx xmlns="http://www.topografix.com/GPX/1/1" xmlns:gpxtpx="http://www.garmin.com/xmlschemas/TrackPointExtension/v1" xmlns:xsi="http://www.w3.org/2001/XMLSchema-instance" xsi:schemaLocation="http://www.topografix.com/GPX/1/1 http://www.topografix.com/GPX/1/1/gpx.xsd" version="1.1" creator="gpx.py -- https://github.com/tkrajina/gpxpy">
  <trk>
    <name>gpx from keep</name>
    <type>Run</type>
    <trkseg>
      <trkpt lat="37.84653492727085" lon="112.02949402550249">
        <ele>0.0</ele>
        <time>2016-05-16T13:13:56.800000Z</time>
      </trkpt>
      <trkpt lat="37.84712327037991" lon="112.02970943196613">
        <ele>1102.1613974619688</ele>
        <time>2016-05-16T13:14:17.600000Z</time>
      </trkpt>
      <trkpt lat="37.84707899751649" lon="112.02983682872858">
        <ele>1113.4275550733573</ele>
        <time>2016-05-16T13:14:21.600000Z</time>
      </trkpt>
      <trkpt lat="37.847025675854454" lon="112.02967861020232">
        <ele>1121.9249081018584</ele>
        <time>2016-05-16T13:14:25.600000Z</time>
      </trkpt>
      <trkpt lat="37.84696436819961" lon="112.02956745495086">
        <ele>1125.6193979320904</ele>
        <time>2016-05-16T13:14:29.500000Z</time>
      </trkpt>
      <trkpt lat="37.847096606700454" lon="112.02952389370073">
        <ele>1114.7563371369415</ele>
        <time>2016-05-16T13:14:44.500000Z</time>
      </trkpt>
      <trkpt lat="37.84717412429765" lon="112.02944707164464">
        <ele>1114.4556301751627</ele>
        <time>2016-05-16T13:14:51.100000Z</time>
      </trkpt>
      <trkpt lat="37.84719419167777" lon="112.02934348056662">
        <ele>1114.8287317267811</ele>
        <time>2016-05-16T13:14:54.600000Z</time>
      </trkpt>
      <trkpt lat="37.847143734638884" lon="112.02912630328765">
        <ele>1114.958137411149</ele>
        <time>2016-05-16T13:15:05.600000Z</time>
      </trkpt>
      <trkpt lat="37.84714718064132" lon="112.02894428125063">
        <ele>1114.9399811876765</ele>
        <time>2016-05-16T13:15:12.600000Z</time>
      </trkpt>
      <trkpt lat="37.84721434584928" lon="112.02856481727808">
        <ele>1114.0670385328792</ele>
        <time>2016-05-16T13:15:20.600000Z</time>
      </trkpt>
      <trkpt lat="37.84725252393227" lon="112.0283822537322">
        <ele>1114.1829609049319</ele>
        <time>2016-05-16T13:15:24.600000Z</time>
      </trkpt>
      <trkpt lat="37.8472408751205" lon="112.02826920439189">
        <ele>1114.398491055201</ele>
        <time>2016-05-16T13:15:28.600000Z</time>
      </trkpt>
      <trkpt lat="37.84726469872708" lon="112.02807744900788">
        <ele>1114.0269791743701</ele>
        <time>2016-05-16T13:15:35.600000Z</time>
      </trkpt>
      <trkpt lat="37.84730200912206" lon="112.02802254241118">
        <ele>1114.0574633890917</ele>
        <time>2016-05-16T13:15:39.700000Z</time>
      </trkpt>
      <trkpt lat="37.84738726266804" lon="112.02799846180761">
        <ele>1114.0296145021525</ele>
        <time>2016-05-16T13:15:43.600000Z</time>
      </trkpt>
      <trkpt lat="37.84772061793461" lon="112.02803222839137">
        <ele>1113.8559193661808</ele>
        <time>2016-05-16T13:15:51.600000Z</time>
      </trkpt>
      <trkpt lat="37.84798304077736" lon="112.02800704465791">
        <ele>1114.340307281173</ele>
        <time>2016-05-16T13:15:59.600000Z</time>
      </trkpt>
      <trkpt lat="37.8483157683008" lon="112.02807407714256">
        <ele>1114.4458097879406</ele>
        <time>2016-05-16T13:16:13.600000Z</time>
      </trkpt>
      <trkpt lat="37.84859301287081" lon="112.02808810740486">
        <ele>1114.4190245093123</ele>
        <time>2016-05-16T13:16:21.600000Z</time>
      </trkpt>
      <trkpt lat="37.848718291711776" lon="112.02811432639405">
        <ele>1114.2320877683633</ele>
        <time>2016-05-16T13:16:24.600000Z</time>
      </trkpt>
      <trkpt lat="37.84883212701497" lon="112.02815947860913">
        <ele>1114.0370022987372</ele>
        <time>2016-05-16T13:16:27.600000Z</time>
      </trkpt>
      <trkpt lat="37.84883788716636" lon="112.0283471741198">
        <ele>1113.8628446853613</ele>
        <time>2016-05-16T13:16:31.600000Z</time>
      </trkpt>
      <trkpt lat="37.848716457946914" lon="112.02872637125051">
        <ele>1112.419758258546</ele>
        <time>2016-05-16T13:16:42.600000Z</time>
      </trkpt>
      <trkpt lat="37.84868815801059" lon="112.02886593239887">
        <ele>1111.894314175453</ele>
        <time>2016-05-16T13:16:46.600000Z</time>
      </trkpt>
      <trkpt lat="37.84868153949564" lon="112.0292291651886">
        <ele>1110.429519512416</ele>
        <time>2016-05-16T13:16:56.600000Z</time>
      </trkpt>
      <trkpt lat="37.848704248809966" lon="112.02936845220994">
        <ele>1110.0809824490052</ele>
        <time>2016-05-16T13:17:00.600000Z</time>
      </trkpt>
      <trkpt lat="37.8486679753217" lon="112.02976631519444">
        <ele>1107.666728259656</ele>
        <time>2016-05-16T13:17:14.600000Z</time>
      </trkpt>
      <trkpt lat="37.84863147329578" lon="112.029501260191">
        <ele>1106.7946295278534</ele>
        <time>2016-05-16T13:17:22.600000Z</time>
      </trkpt>
      <trkpt lat="37.84868557341014" lon="112.02913612494004">
        <ele>1107.2503891739955</ele>
        <time>2016-05-16T13:17:33.600000Z</time>
      </trkpt>
      <trkpt lat="37.84869775240584" lon="112.02904092031301">
        <ele>1107.1497910604767</ele>
        <time>2016-05-16T13:17:36.600000Z</time>
      </trkpt>
      <trkpt lat="37.84865887232098" lon="112.02864632210631">
        <ele>1107.1413105944587</ele>
        <time>2016-05-16T13:17:48.600000Z</time>
      </trkpt>
      <trkpt lat="37.84862354640579" lon="112.02824280388053">
        <ele>1107.7092693268755</ele>
        <time>2016-05-16T13:18:00.600000Z</time>
      </trkpt>
      <trkpt lat="37.848624871117664" lon="112.02814922625998">
        <ele>1107.941693585842</ele>
        <time>2016-05-16T13:18:03.600000Z</time>
      </trkpt>
      <trkpt lat="37.84858731255214" lon="112.02808918990686">
        <ele>1108.234755294333</ele>
        <time>2016-05-16T13:18:07.600000Z</time>
      </trkpt>
      <trkpt lat="37.848489590137255" lon="112.02800292693324">
        <ele>1108.5693713057494</ele>
        <time>2016-05-16T13:18:11.600000Z</time>
      </trkpt>
      <trkpt lat="37.84838030699304" lon="112.0279813038221">
        <ele>1108.6532746497148</ele>
        <time>2016-05-16T13:18:15.600000Z</time>
      </trkpt>
      <trkpt lat="37.84824456166562" lon="112.02801620861842">
        <ele>1108.2613177888193</ele>
        <time>2016-05-16T13:18:21.600000Z</time>
      </trkpt>
      <trkpt lat="37.84801864988305" lon="112.02798080641364">
        <ele>1109.0249318992192</ele>
        <time>2016-05-16T13:18:31.600000Z</time>
      </trkpt>
      <trkpt lat="37.84788813579565" lon="112.02798596072">
        <ele>1109.6583124088384</ele>
        <time>2016-05-16T13:18:35.600000Z</time>
      </trkpt>
      <trkpt lat="37.84772758954809" lon="112.02806441154559">
        <ele>1110.4372047162035</ele>
        <time>2016-05-16T13:18:39.600000Z</time>
      </trkpt>
      <trkpt lat="37.84745705862115" lon="112.02807742587217">
        <ele>1111.9353463313598</ele>
        <time>2016-05-16T13:18:49.600000Z</time>
      </trkpt>
      <trkpt lat="37.84722489078325" lon="112.0280482447787">
        <ele>1111.5029234293477</ele>
        <time>2016-05-16T13:18:57.600000Z</time>
      </trkpt>
      <trkpt lat="37.847177600102384" lon="112.02808043447756">
        <ele>1111.2637011820182</ele>
        <time>2016-05-16T13:19:01.600000Z</time>
      </trkpt>
      <trkpt lat="37.84713451170981" lon="112.02848531217215">
        <ele>1109.391985357552</ele>
        <time>2016-05-16T13:19:16.600000Z</time>
      </trkpt>
      <trkpt lat="37.847088870361105" lon="112.02861567862819">
        <ele>1109.0600680050916</ele>
        <time>2016-05-16T13:19:20.600000Z</time>
      </trkpt>
      <trkpt lat="37.847054110494696" lon="112.0289483493805">
        <ele>1107.9887337933735</ele>
        <time>2016-05-16T13:19:33.600000Z</time>
      </trkpt>
      <trkpt lat="37.847124284237935" lon="112.02941489208926">
        <ele>1107.5695344657247</ele>
        <time>2016-05-16T13:19:45.600000Z</time>
      </trkpt>
      <trkpt lat="37.84717521679014" lon="112.02955174243081">
        <ele>1107.5971011326503</ele>
        <time>2016-05-16T13:19:49.600000Z</time>
      </trkpt>
      <trkpt lat="37.847198785539874" lon="112.02967345045595">
        <ele>1107.954099304114</ele>
        <time>2016-05-16T13:19:53.600000Z</time>
      </trkpt>
      <trkpt lat="37.847174270738385" lon="112.0300358844519">
        <ele>1109.3352248420151</ele>
        <time>2016-05-16T13:20:08.600000Z</time>
      </trkpt>
      <trkpt lat="37.847003874937826" lon="112.02971674901205">
        <ele>1107.390397879356</ele>
        <time>2016-05-16T13:20:19.600000Z</time>
      </trkpt>
      <trkpt lat="37.84695460461563" lon="112.02945845767474">
        <ele>1106.2259218890051</ele>
        <time>2016-05-16T13:20:22.600000Z</time>
      </trkpt>
      <trkpt lat="37.84693320856131" lon="112.02912173073105">
        <ele>1104.2216116017821</ele>
        <time>2016-05-16T13:20:29.600000Z</time>
      </trkpt>
      <trkpt lat="37.84694553166925" lon="112.02896972896578">
        <ele>1103.2060142763444</ele>
        <time>2016-05-16T13:20:33.600000Z</time>
      </trkpt>
      <trkpt lat="37.847018417576855" lon="112.02858106836557">
        <ele>1101.4982226355294</ele>
        <time>2016-05-16T13:20:42.600000Z</time>
      </trkpt>
      <trkpt lat="37.84705678694694" lon="112.02832358819927">
        <ele>1099.9784010799187</ele>
        <time>2016-05-16T13:20:50.600000Z</time>
      </trkpt>
      <trkpt lat="37.84716625422254" lon="112.0280612336127">
        <ele>1099.2761344807852</ele>
        <time>2016-05-16T13:20:57.600000Z</time>
      </trkpt>
      <trkpt lat="37.847475352250086" lon="112.02803225789005">
        <ele>1098.719089476177</ele>
        <time>2016-05-16T13:21:05.600000Z</time>
      </trkpt>
      <trkpt lat="37.84758169529926" lon="112.02803657235744">
        <ele>1098.7519800500777</ele>
        <time>2016-05-16T13:21:08.600000Z</time>
      </trkpt>
      <trkpt lat="37.84780696645221" lon="112.02800436130165">
        <ele>1099.6929542369048</ele>
        <time>2016-05-16T13:21:16.600000Z</time>
      </trkpt>
      <trkpt lat="37.84814247012299" lon="112.02804678214969">
        <ele>1103.5049047708394</ele>
        <time>2016-05-16T13:21:27.600000Z</time>
      </trkpt>
      <trkpt lat="37.848501335134046" lon="112.02807811163248">
        <ele>1110.7766136336547</ele>
        <time>2016-05-16T13:21:38.600000Z</time>
      </trkpt>
      <trkpt lat="37.8487202130616" lon="112.0281056716258">
        <ele>1111.888377355267</ele>
        <time>2016-05-16T13:21:46.600000Z</time>
      </trkpt>
      <trkpt lat="37.84877646655687" lon="112.02817571259357">
        <ele>1111.7268359135558</ele>
        <time>2016-05-16T13:21:49.600000Z</time>
      </trkpt>
      <trkpt lat="37.848698318227214" lon="112.02839208672373">
        <ele>1110.765007057002</ele>
        <time>2016-05-16T13:21:56.600000Z</time>
      </trkpt>
      <trkpt lat="37.848675497426264" lon="112.0286168400551">
        <ele>1109.2706049038868</ele>
        <time>2016-05-16T13:22:07.600000Z</time>
      </trkpt>
      <trkpt lat="37.84861020512652" lon="112.02879318775206">
        <ele>1105.6008058875807</ele>
        <time>2016-05-16T13:22:21.600000Z</time>
      </trkpt>
      <trkpt lat="37.848556838760906" lon="112.02918861049145">
        <ele>1100.752081425613</ele>
        <time>2016-05-16T13:22:46.600000Z</time>
      </trkpt>
      <trkpt lat="37.84856846447131" lon="112.02931194116775">
        <ele>1100.2433421244257</ele>
        <time>2016-05-16T13:22:52.600000Z</time>
      </trkpt>
      <trkpt lat="37.84865619392884" lon="112.02959646193456">
        <ele>1099.882045665772</ele>
        <time>2016-05-16T13:23:03.600000Z</time>
      </trkpt>
      <trkpt lat="37.848663607383145" lon="112.0296692171393">
        <ele>1099.5618536551522</ele>
        <time>2016-05-16T13:23:06.600000Z</time>
      </trkpt>
      <trkpt lat="37.84858372801603" lon="112.02971439513114">
        <ele>1099.851367487068</ele>
        <time>2016-05-16T13:23:18.600000Z</time>
      </trkpt>
      <trkpt lat="37.84853194899586" lon="112.02969790272472">
        <ele>1099.770011213293</ele>
        <time>2016-05-16T13:23:23.600000Z</time>
      </trkpt>
      <trkpt lat="37.84841843898721" lon="112.02952292323492">
        <ele>1099.8872695869898</ele>
        <time>2016-05-16T13:23:27.600000Z</time>
      </trkpt>
      <trkpt lat="37.84836382179447" lon="112.02923380132185">
        <ele>1100.154711672182</ele>
        <time>2016-05-16T13:23:30.600000Z</time>
      </trkpt>
      <trkpt lat="37.84841346078574" lon="112.02881025045248">
        <ele>1100.7400754582163</ele>
        <time>2016-05-16T13:23:36.600000Z</time>
      </trkpt>
      <trkpt lat="37.84852503974626" lon="112.02846323782826">
        <ele>1101.0964729671882</ele>
        <time>2016-05-16T13:23:44.600000Z</time>
      </trkpt>
      <trkpt lat="37.84858456607122" lon="112.02820819028243">
        <ele>1102.0961945282984</ele>
        <time>2016-05-16T13:23:51.600000Z</time>
      </trkpt>
      <trkpt lat="37.84859030668211" lon="112.02808540318966">
        <ele>1102.9947513803509</ele>
        <time>2016-05-16T13:23:55.600000Z</time>
      </trkpt>
      <trkpt lat="37.84850365466089" lon="112.02801996380386">
        <ele>1102.9194488615985</ele>
        <time>2016-05-16T13:24:02.600000Z</time>
      </trkpt>
      <trkpt lat="37.84825288414809" lon="112.02794480800337">
        <ele>1102.0688775343717</ele>
        <time>2016-05-16T13:24:09.600000Z</time>
      </trkpt>
      <trkpt lat="37.84814645641476" lon="112.02797348880955">
        <ele>1101.722422709258</ele>
        <time>2016-05-16T13:24:13.600000Z</time>
      </trkpt>
      <trkpt lat="37.847923871918496" lon="112.02791022964202">
        <ele>1101.9652448511736</ele>
        <time>2016-05-16T13:24:19.700000Z</time>
      </trkpt>
      <trkpt lat="37.84758775499883" lon="112.0278953951859">
        <ele>1103.5500209684449</ele>
        <time>2016-05-16T13:24:30.600000Z</time>
      </trkpt>
      <trkpt lat="37.84736480146122" lon="112.02787026994642">
        <ele>1104.8618280733322</ele>
        <time>2016-05-16T13:24:41.600000Z</time>
      </trkpt>
      <trkpt lat="37.84727021078817" lon="112.0279381648708">
        <ele>1105.007915532031</ele>
        <time>2016-05-16T13:24:45.600000Z</time>
      </trkpt>
      <trkpt lat="37.84721650756005" lon="112.02814344565436">
        <ele>1105.1758529013232</ele>
        <time>2016-05-16T13:24:49.600000Z</time>
      </trkpt>
      <trkpt lat="37.84723183726501" lon="112.02840849054691">
        <ele>1105.1586627993406</ele>
        <time>2016-05-16T13:24:56.600000Z</time>
      </trkpt>
      <trkpt lat="37.84721147657461" lon="112.02851965107774">
        <ele>1105.2069410696608</ele>
        <time>2016-05-16T13:24:59.600000Z</time>
      </trkpt>
      <trkpt lat="37.84717828605819" lon="112.02898187177443">
        <ele>1105.2759754751053</ele>
        <time>2016-05-16T13:25:13.600000Z</time>
      </trkpt>
      <trkpt lat="37.847181051647986" lon="112.02917525280677">
        <ele>1104.8838109636029</ele>
        <time>2016-05-16T13:25:19.600000Z</time>
      </trkpt>
      <trkpt lat="37.84723901388949" lon="112.02964396449109">
        <ele>1103.5715391081098</ele>
        <time>2016-05-16T13:25:30.600000Z</time>
      </trkpt>
      <trkpt lat="37.84724173549287" lon="112.02985628304505">
        <ele>1103.614420186871</ele>
        <time>2016-05-16T13:25:36.700000Z</time>
      </trkpt>
      <trkpt lat="37.84717709918362" lon="112.02998990379156">
        <ele>1101.6522156998863</ele>
        <time>2016-05-16T13:25:49.600000Z</time>
      </trkpt>
      <trkpt lat="37.84709413198077" lon="112.02868031778138">
        <ele>1093.9720613826948</ele>
        <time>2016-05-16T13:26:16.600000Z</time>
      </trkpt>
      <trkpt lat="37.8470985253805" lon="112.02834062193087">
        <ele>1092.7226376218975</ele>
        <time>2016-05-16T13:26:24.600000Z</time>
      </trkpt>
      <trkpt lat="37.84714838093256" lon="112.02804825398061">
        <ele>1092.6611843527182</ele>
        <time>2016-05-16T13:26:30.600000Z</time>
      </trkpt>
      <trkpt lat="37.84719979055134" lon="112.02799686163526">
        <ele>1093.3284327799136</ele>
        <time>2016-05-16T13:26:33.600000Z</time>
      </trkpt>
      <trkpt lat="37.84743290682586" lon="112.02797357462882">
        <ele>1094.628188331228</ele>
        <time>2016-05-16T13:26:37.600000Z</time>
      </trkpt>
      <trkpt lat="37.84782153546081" lon="112.02803627305751">
        <ele>1097.7813515319756</ele>
        <time>2016-05-16T13:26:49.600000Z</time>
      </trkpt>
      <trkpt lat="37.84811595645387" lon="112.0280175763535">
        <ele>1100.7931873794976</ele>
        <time>2016-05-16T13:27:00.600000Z</time>
      </trkpt>
      <trkpt lat="37.84849603990437" lon="112.02802699651025">
        <ele>1103.7340768276295</ele>
        <time>2016-05-16T13:27:11.600000Z</time>
      </trkpt>
      <trkpt lat="37.84864105722796" lon="112.02807944709676">
        <ele>1104.332119317055</ele>
        <time>2016-05-16T13:27:15.600000Z</time>
      </trkpt>
      <trkpt lat="37.84869806783263" lon="112.02817166520049">
        <ele>1104.3571470702132</ele>
        <time>2016-05-16T13:27:18.600000Z</time>
      </trkpt>
      <trkpt lat="37.84870996968984" lon="112.02829174597683">
        <ele>1103.6837251705213</ele>
        <time>2016-05-16T13:27:22.600000Z</time>
      </trkpt>
      <trkpt lat="37.84869487953479" lon="112.02846375831248">
        <ele>1102.9755771230934</ele>
        <time>2016-05-16T13:27:25.600000Z</time>
      </trkpt>
      <trkpt lat="37.84860290908867" lon="112.02888839096103">
        <ele>1100.7000121387618</ele>
        <time>2016-05-16T13:27:35.600000Z</time>
      </trkpt>
      <trkpt lat="37.84856913636202" lon="112.02926082312186">
        <ele>1098.8943108663257</ele>
        <time>2016-05-16T13:27:43.600000Z</time>
      </trkpt>
      <trkpt lat="37.84855930709453" lon="112.02950018700541">
        <ele>1097.5518357185997</ele>
        <time>2016-05-16T13:27:50.600000Z</time>
      </trkpt>
      <trkpt lat="37.84859233308679" lon="112.0297449571717">
        <ele>1097.4441432189767</ele>
        <time>2016-05-16T13:27:57.600000Z</time>
      </trkpt>
      <trkpt lat="37.8485756526579" lon="112.02968897197663">
        <ele>1097.4282716065568</ele>
        <time>2016-05-16T13:28:03.600000Z</time>
      </trkpt>
      <trkpt lat="37.84849917664946" lon="112.0289243748598">
        <ele>1095.6904620666214</ele>
        <time>2016-05-16T13:28:18.600000Z</time>
      </trkpt>
      <trkpt lat="37.84852393417828" lon="112.02825877274313">
        <ele>1093.5537038477744</ele>
        <time>2016-05-16T13:28:40.600000Z</time>
      </trkpt>
      <trkpt lat="37.848463516051716" lon="112.0282257844366">
        <ele>1093.0636333326718</ele>
        <time>2016-05-16T13:28:43.600000Z</time>
      </trkpt>
      <trkpt lat="37.848326554251585" lon="112.0281000394365">
        <ele>1093.921417679607</ele>
        <time>2016-05-16T13:28:53.600000Z</time>
      </trkpt>
      <trkpt lat="37.84820943888669" lon="112.02795860632226">
        <ele>1095.4134513970287</ele>
        <time>2016-05-16T13:29:01.600000Z</time>
      </trkpt>
      <trkpt lat="37.84801459902622" lon="112.02786775772935">
        <ele>1097.6717728798562</ele>
        <time>2016-05-16T13:29:11.600000Z</time>
      </trkpt>
      <trkpt lat="37.8479652001634" lon="112.02787560678063">
        <ele>1098.7682256141163</ele>
        <time>2016-05-16T13:29:14.600000Z</time>
      </trkpt>
      <trkpt lat="37.84789263428914" lon="112.02792456738145">
        <ele>1099.4842333911843</ele>
        <time>2016-05-16T13:29:18.600000Z</time>
      </trkpt>
      <trkpt lat="37.84751433082488" lon="112.02796166490529">
        <ele>1099.7318881043584</ele>
        <time>2016-05-16T13:29:25.600000Z</time>
      </trkpt>
      <trkpt lat="37.847385091768864" lon="112.02810447994">
        <ele>1099.9382466784102</ele>
        <time>2016-05-16T13:29:28.600000Z</time>
      </trkpt>
      <trkpt lat="37.847333183520156" lon="112.02845716067472">
        <ele>1101.1106968608678</ele>
        <time>2016-05-16T13:29:39.600000Z</time>
      </trkpt>
      <trkpt lat="37.84726536323527" lon="112.0288804380329">
        <ele>1102.6047666278278</ele>
        <time>2016-05-16T13:29:53.600000Z</time>
      </trkpt>
      <trkpt lat="37.84727723792111" lon="112.02901215168836">
        <ele>1102.764101942965</ele>
        <time>2016-05-16T13:29:57.700000Z</time>
      </trkpt>
      <trkpt lat="37.84725268768138" lon="112.0293859367198">
        <ele>1102.8772154097624</ele>
        <time>2016-05-16T13:30:05.600000Z</time>
      </trkpt>
      <trkpt lat="37.8472621206246" lon="112.0297337575241">
        <ele>1103.0632425403564</ele>
        <time>2016-05-16T13:30:15.600000Z</time>
      </trkpt>
      <trkpt lat="37.84726322959834" lon="112.02983220855478">
        <ele>1103.3691218299061</ele>
        <time>2016-05-16T13:30:18.600000Z</time>
      </trkpt>
      <trkpt lat="37.84711556204417" lon="112.02975378993011">
        <ele>1102.7057069774603</ele>
        <time>2016-05-16T13:30:28.600000Z</time>
      </trkpt>
      <trkpt lat="37.84704498538188" lon="112.02933754826867">
        <ele>1101.3184026677022</ele>
        <time>2016-05-16T13:30:37.600000Z</time>
      </trkpt>
      <trkpt lat="37.84704684833916" lon="112.02913740396683">
        <ele>1100.0840368097518</ele>
        <time>2016-05-16T13:30:44.600000Z</time>
      </trkpt>
      <trkpt lat="37.84719004513951" lon="112.02830626297273">
        <ele>1098.3147198155648</ele>
        <time>2016-05-16T13:31:04.600000Z</time>
      </trkpt>
      <trkpt lat="37.84725140584758" lon="112.02807690969865">
        <ele>1098.8883918510865</ele>
        <time>2016-05-16T13:31:12.600000Z</time>
      </trkpt>
      <trkpt lat="37.84742924314909" lon="112.0280268543647">
        <ele>1099.4461129193255</ele>
        <time>2016-05-16T13:31:16.600000Z</time>
      </trkpt>
      <trkpt lat="37.84776426929581" lon="112.02804385264712">
        <ele>1100.6652690654441</ele>
        <time>2016-05-16T13:31:27.700000Z</time>
      </trkpt>
      <trkpt lat="37.84800115001371" lon="112.02803381737216">
        <ele>1102.765563848552</ele>
        <time>2016-05-16T13:31:35.600000Z</time>
      </trkpt>
      <trkpt lat="37.848372441268836" lon="112.02808624075654">
        <ele>1105.1866331988463</ele>
        <time>2016-05-16T13:31:48.600000Z</time>
      </trkpt>
      <trkpt lat="37.84870420428056" lon="112.02810621445984">
        <ele>1107.2810905419701</ele>
        <time>2016-05-16T13:31:56.600000Z</time>
      </trkpt>
      <trkpt lat="37.848821267619115" lon="112.02816218446294">
        <ele>1107.8701643991512</ele>
        <time>2016-05-16T13:32:00.600000Z</time>
      </trkpt>
      <trkpt lat="37.84881645560646" lon="112.02834636532833">
        <ele>1108.1198181781463</ele>
        <time>2016-05-16T13:32:03.600000Z</time>
      </trkpt>
      <trkpt lat="37.84872074656111" lon="112.02864036455811">
        <ele>1108.0583016518056</ele>
        <time>2016-05-16T13:32:10.600000Z</time>
      </trkpt>
      <trkpt lat="37.84866997743419" lon="112.02897384889214">
        <ele>1107.2101715628642</ele>
        <time>2016-05-16T13:32:18.600000Z</time>
      </trkpt>
      <trkpt lat="37.848663964869885" lon="112.02941984568453">
        <ele>1106.1142608760088</ele>
        <time>2016-05-16T13:32:29.600000Z</time>
      </trkpt>
      <trkpt lat="37.84868009271197" lon="112.02969490973298">
        <ele>1105.5871882502977</ele>
        <time>2016-05-16T13:32:37.600000Z</time>
      </trkpt>
      <trkpt lat="37.84870574413198" lon="112.02974386164347">
        <ele>1105.4441561209014</ele>
        <time>2016-05-16T13:32:44.600000Z</time>
      </trkpt>
      <trkpt lat="37.84872739027593" lon="112.02933680489643">
        <ele>1104.1932864093255</ele>
        <time>2016-05-16T13:32:58.600000Z</time>
      </trkpt>
      <trkpt lat="37.84874498863676" lon="112.02913692918293">
        <ele>1104.2706748574772</ele>
        <time>2016-05-16T13:33:05.600000Z</time>
      </trkpt>
      <trkpt lat="37.848709242011644" lon="112.02889676247916">
        <ele>1104.1897045343708</ele>
        <time>2016-05-16T13:33:12.600000Z</time>
      </trkpt>
      <trkpt lat="37.84870980456221" lon="112.02867552560087">
        <ele>1103.3123785504347</ele>
        <time>2016-05-16T13:33:19.600000Z</time>
      </trkpt>
      <trkpt lat="37.84865153717854" lon="112.02822495045432">
        <ele>1101.8121849700583</ele>
        <time>2016-05-16T13:33:28.700000Z</time>
      </trkpt>
      <trkpt lat="37.848616978842095" lon="112.02815869312369">
        <ele>1100.9617712551315</ele>
        <time>2016-05-16T13:33:32.600000Z</time>
      </trkpt>
      <trkpt lat="37.848462262777375" lon="112.02807946860203">
        <ele>1099.545044357492</ele>
        <time>2016-05-16T13:33:38.600000Z</time>
      </trkpt>
      <trkpt lat="37.848194461936" lon="112.02797997390897">
        <ele>1098.3503380145355</ele>
        <time>2016-05-16T13:33:46.600000Z</time>
      </trkpt>
      <trkpt lat="37.847986980652735" lon="112.02795187175644">
        <ele>1097.9645317775667</ele>
        <time>2016-05-16T13:33:57.600000Z</time>
      </trkpt>
      <trkpt lat="37.84770855463137" lon="112.02786968770071">
        <ele>1099.6769508891512</ele>
        <time>2016-05-16T13:34:04.600000Z</time>
      </trkpt>
      <trkpt lat="37.847540371997354" lon="112.02785780803904">
        <ele>1101.151095519974</ele>
        <time>2016-05-16T13:34:08.600000Z</time>
      </trkpt>
      <trkpt lat="37.847443685770656" lon="112.02789649432178">
        <ele>1102.5496108965372</ele>
        <time>2016-05-16T13:34:12.600000Z</time>
      </trkpt>
      <trkpt lat="37.847323258154745" lon="112.0278829861926">
        <ele>1104.3498398023512</ele>
        <time>2016-05-16T13:34:18.600000Z</time>
      </trkpt>
      <trkpt lat="37.84725465790966" lon="112.02797251425447">
        <ele>1105.1672615573584</ele>
        <time>2016-05-16T13:34:22.600000Z</time>
      </trkpt>
      <trkpt lat="37.84728985391451" lon="112.02831950332124">
        <ele>1105.1202442790736</ele>
        <time>2016-05-16T13:34:29.600000Z</time>
      </trkpt>
      <trkpt lat="37.84728087906268" lon="112.02843417808344">
        <ele>1105.156300141442</ele>
        <time>2016-05-16T13:34:32.600000Z</time>
      </trkpt>
      <trkpt lat="37.84723868669098" lon="112.02859510572578">
        <ele>1105.061530275528</ele>
        <time>2016-05-16T13:34:36.600000Z</time>
      </trkpt>
      <trkpt lat="37.84720692753955" lon="112.02892128478777">
        <ele>1105.0800613976228</ele>
        <time>2016-05-16T13:34:46.600000Z</time>
      </trkpt>
      <trkpt lat="37.84718264629758" lon="112.02929560951705">
        <ele>1104.1882283397947</ele>
        <time>2016-05-16T13:34:57.600000Z</time>
      </trkpt>
      <trkpt lat="37.84716169654433" lon="112.0294262471901">
        <ele>1103.687285236771</ele>
        <time>2016-05-16T13:35:01.600000Z</time>
      </trkpt>
      <trkpt lat="37.847201149743114" lon="112.02992011914546">
        <ele>1102.6773762389298</ele>
        <time>2016-05-16T13:35:14.600000Z</time>
      </trkpt>
      <trkpt lat="37.84709873967726" lon="112.02953876917286">
        <ele>1101.782939042558</ele>
        <time>2016-05-16T13:35:29.600000Z</time>
      </trkpt>
      <trkpt lat="37.847069024645364" lon="112.0291655295698">
        <ele>1100.942617429859</ele>
        <time>2016-05-16T13:35:39.600000Z</time>
      </trkpt>
      <trkpt lat="37.847105717354715" lon="112.02892562435557">
        <ele>1100.8565699117162</ele>
        <time>2016-05-16T13:35:45.600000Z</time>
      </trkpt>
      <trkpt lat="37.84720996019145" lon="112.0287955198954">
        <ele>1100.8600499669917</ele>
        <time>2016-05-16T13:35:49.600000Z</time>
      </trkpt>
      <trkpt lat="37.84729439860926" lon="112.02855858710191">
        <ele>1101.1629573661087</ele>
        <time>2016-05-16T13:35:55.600000Z</time>
      </trkpt>
      <trkpt lat="37.84729106214864" lon="112.02816534351918">
        <ele>1101.981141692562</ele>
        <time>2016-05-16T13:36:04.600000Z</time>
      </trkpt>
      <trkpt lat="37.84729278730298" lon="112.02802146170637">
        <ele>1102.5071195324256</ele>
        <time>2016-05-16T13:36:08.600000Z</time>
      </trkpt>
      <trkpt lat="37.84736025152554" lon="112.02795167667996">
        <ele>1102.9998588681838</ele>
        <time>2016-05-16T13:36:11.600000Z</time>
      </trkpt>
      <trkpt lat="37.84774650626648" lon="112.02798787092605">
        <ele>1104.5734752981768</ele>
        <time>2016-05-16T13:36:22.600000Z</time>
      </trkpt>
      <trkpt lat="37.84802124441001" lon="112.02802705361655">
        <ele>1107.418201165234</ele>
        <time>2016-05-16T13:36:30.600000Z</time>
      </trkpt>
      <trkpt lat="37.84832525658827" lon="112.02807705099498">
        <ele>1108.3312723233385</ele>
        <time>2016-05-16T13:36:41.600000Z</time>
      </trkpt>
      <trkpt lat="37.84865834427627" lon="112.02810946542714">
        <ele>1107.3729707383907</ele>
        <time>2016-05-16T13:36:52.600000Z</time>
      </trkpt>
      <trkpt lat="37.8487579903586" lon="112.02818626255895">
        <ele>1107.0644110798469</ele>
        <time>2016-05-16T13:36:56.600000Z</time>
      </trkpt>
      <trkpt lat="37.84870647487037" lon="112.0284916140641">
        <ele>1106.015531690817</ele>
        <time>2016-05-16T13:37:03.600000Z</time>
      </trkpt>
      <trkpt lat="37.848670613125215" lon="112.02861711110172">
        <ele>1105.5590909685575</ele>
        <time>2016-05-16T13:37:06.600000Z</time>
      </trkpt>
      <trkpt lat="37.84861054202559" lon="112.02908799142006">
        <ele>1103.7528309353927</ele>
        <time>2016-05-16T13:37:18.600000Z</time>
      </trkpt>
      <trkpt lat="37.848607977686974" lon="112.02945825872034">
        <ele>1102.6011081214397</ele>
        <time>2016-05-16T13:37:28.600000Z</time>
      </trkpt>
      <trkpt lat="37.848636791108135" lon="112.02965191034859">
        <ele>1102.0826782691436</ele>
        <time>2016-05-16T13:37:36.600000Z</time>
      </trkpt>
      <trkpt lat="37.848668344618446" lon="112.02972736748924">
        <ele>1101.8127643421276</ele>
        <time>2016-05-16T13:37:40.600000Z</time>
      </trkpt>
      <trkpt lat="37.84868584473389" lon="112.02967327150013">
        <ele>1101.185271066266</ele>
        <time>2016-05-16T13:37:47.600000Z</time>
      </trkpt>
      <trkpt lat="37.848680079047405" lon="112.02948502629712">
        <ele>1100.0868012086087</ele>
        <time>2016-05-16T13:38:00.600000Z</time>
      </trkpt>
      <trkpt lat="37.84877584765367" lon="112.0286306213973">
        <ele>1101.4396946682632</ele>
        <time>2016-05-16T13:38:48.500000Z</time>
      </trkpt>
      <trkpt lat="37.84876133025585" lon="112.02836557437718">
        <ele>1103.308786900261</ele>
        <time>2016-05-16T13:39:04.600000Z</time>
      </trkpt>
      <trkpt lat="37.84866528826333" lon="112.02815246685451">
        <ele>1103.7104261971565</ele>
        <time>2016-05-16T13:39:20.600000Z</time>
      </trkpt>
      <trkpt lat="37.84849080040867" lon="112.02805999248788">
        <ele>1103.8756334417992</ele>
        <time>2016-05-16T13:39:33.600000Z</time>
      </trkpt>
      <trkpt lat="37.848367427046156" lon="112.02803133923591">
        <ele>1102.6374674486233</ele>
        <time>2016-05-16T13:39:44.600000Z</time>
      </trkpt>
      <trkpt lat="37.84826529995891" lon="112.02796995862685">
        <ele>1102.3606930839703</ele>
        <time>2016-05-16T13:39:48.600000Z</time>
      </trkpt>
      <trkpt lat="37.84823775529789" lon="112.02802540485467">
        <ele>1102.3646724199277</ele>
        <time>2016-05-16T13:40:05.600000Z</time>
      </trkpt>
      <trkpt lat="37.84817699118366" lon="112.0280216258143">
        <ele>1102.3190656665813</ele>
        <time>2016-05-16T13:40:17.600000Z</time>
      </trkpt>
      <trkpt lat="37.84801049323965" lon="112.02788182173255">
        <ele>1102.4487845612846</ele>
        <time>2016-05-16T13:40:34.600000Z</time>
      </trkpt>
      <trkpt lat="37.848020103575564" lon="112.02794294283103">
        <ele>1102.3223212861346</ele>
        <time>2016-05-16T13:40:46.600000Z</time>
      </trkpt>
      <trkpt lat="37.84794199228579" lon="112.0280384221986">
        <ele>1102.7903891946469</ele>
        <time>2016-05-16T13:41:01.600000Z</time>
      </trkpt>
      <trkpt lat="37.84782044397491" lon="112.02803870727135">
        <ele>1102.4147538470825</ele>
        <time>2016-05-16T13:41:19.600000Z</time>
      </trkpt>
      <trkpt lat="37.8477304385429" lon="112.02801140229276">
        <ele>1101.8527503747562</ele>
        <time>2016-05-16T13:41:27.600000Z</time>
      </trkpt>
      <trkpt lat="37.847678978114004" lon="112.02797679047038">
        <ele>1101.8847931715868</ele>
        <time>2016-05-16T13:41:30.600000Z</time>
      </trkpt>
      <trkpt lat="37.84774516225511" lon="112.0278772559567">
        <ele>1102.0916334549</ele>
        <time>2016-05-16T13:41:56.600000Z</time>
      </trkpt>
      <trkpt lat="37.847722498498825" lon="112.02782803643635">
        <ele>1102.4262632178716</ele>
        <time>2016-05-16T13:42:00.600000Z</time>
      </trkpt>
      <trkpt lat="37.84773849527238" lon="112.02793783809848">
        <ele>1102.710186167395</ele>
        <time>2016-05-16T13:42:12.600000Z</time>
      </trkpt>
      <trkpt lat="37.847714189263286" lon="112.02810579262899">
        <ele>1102.9893043637123</ele>
        <time>2016-05-16T13:42:45.600000Z</time>
      </trkpt>
      <trkpt lat="37.84750120827208" lon="112.02810635915391">
        <ele>1105.8148498442122</ele>
        <time>2016-05-16T13:43:03.600000Z</time>
      </trkpt>
      <trkpt lat="37.84747367352257" lon="112.02815801927618">
        <ele>1106.7695778248692</ele>
        <time>2016-05-16T13:43:10.600000Z</time>
      </trkpt>
      <trkpt lat="37.84739258390709" lon="112.02814531765904">
        <ele>1107.3401479136653</ele>
        <time>2016-05-16T13:43:18.600000Z</time>
      </trkpt>
      <trkpt lat="37.847329719891746" lon="112.02821997079407">
        <ele>1108.3947825302116</ele>
        <time>2016-05-16T13:43:25.600000Z</time>
      </trkpt>
      <trkpt lat="37.8473195361053" lon="112.02827676769355">
        <ele>1109.262079626871</ele>
        <time>2016-05-16T13:43:32.600000Z</time>
      </trkpt>
      <trkpt lat="37.847288469019894" lon="112.02833059219662">
        <ele>1109.7747357015933</ele>
        <time>2016-05-16T13:43:36.600000Z</time>
      </trkpt>
      <trkpt lat="37.84733011518606" lon="112.02870300801362">
        <ele>1110.9674141207347</ele>
        <time>2016-05-16T13:44:00.600000Z</time>
      </trkpt>
      <trkpt lat="37.8473347318713" lon="112.0288079460823">
        <ele>1110.8375718287793</ele>
        <time>2016-05-16T13:44:07.700000Z</time>
      </trkpt>
      <trkpt lat="37.8472730266309" lon="112.02896103476954">
        <ele>1110.5358562428237</ele>
        <time>2016-05-16T13:44:18.600000Z</time>
      </trkpt>
      <trkpt lat="37.847241567815885" lon="112.02916983623868">
        <ele>1110.0379619137948</ele>
        <time>2016-05-16T13:44:32.500000Z</time>
      </trkpt>
      <trkpt lat="37.84725718175433" lon="112.0293253517722">
        <ele>1110.089080935971</ele>
        <time>2016-05-16T13:44:42.600000Z</time>
      </trkpt>
      <trkpt lat="37.84723855147192" lon="112.02939702754509">
        <ele>1110.0936540625053</ele>
        <time>2016-05-16T13:44:46.600000Z</time>
      </trkpt>
      <trkpt lat="37.847236809963285" lon="112.02954957127525">
        <ele>1110.3563382870086</ele>
        <time>2016-05-16T13:44:54.600000Z</time>
      </trkpt>
      <trkpt lat="37.847275722845836" lon="112.02982706810828">
        <ele>1111.4146777116139</ele>
        <time>2016-05-16T13:45:10.800000Z</time>
      </trkpt>
      <trkpt lat="37.84729552801664" lon="112.02971941861061">
        <ele>1113.1189098855486</ele>
        <time>2016-05-16T13:45:24.700000Z</time>
      </trkpt>
      <trkpt lat="37.847245556705516" lon="112.02963152213788">
        <ele>1113.7332417168107</ele>
        <time>2016-05-16T13:45:28.900000Z</time>
      </trkpt>
      <trkpt lat="37.84730498964567" lon="112.02951764786866">
        <ele>1114.9052967431203</ele>
        <time>2016-05-16T13:45:36.600000Z</time>
      </trkpt>
      <trkpt lat="37.8473032337722" lon="112.02946084992845">
        <ele>1115.1463968338412</ele>
        <time>2016-05-16T13:45:39.600000Z</time>
      </trkpt>
      <trkpt lat="37.847234278809225" lon="112.02936998142219">
        <ele>1115.4399501581831</ele>
        <time>2016-05-16T13:45:47.500000Z</time>
      </trkpt>
      <trkpt lat="37.84717324259819" lon="112.0293664727055">
        <ele>1114.0481187962541</ele>
        <time>2016-05-16T13:45:53.600000Z</time>
      </trkpt>
      <trkpt lat="37.84708102675155" lon="112.02935458329077">
        <ele>1113.898483201878</ele>
        <time>2016-05-16T13:46:00.700000Z</time>
      </trkpt>
    </trkseg>
  </trk>
</gpx>