<?xml version="1.0" encoding="UTF-8"?>
<gpx xmlns="http://www.topografix.com/GPX/1/1" xmlns:gpxtpx="http://www.garmin.com/xmlschemas/TrackPointExtension/v1" xmlns:xsi="http://www.w3.org/2001/XMLSchema-instance" xsi:schemaLocation="http://www.topografix.com/GPX/1/1 http://www.topografix.com/GPX/1/1/gpx.xsd" version="1.1" creator="gpx.py -- https://github.com/tkrajina/gpxpy">
  <trk>
    <name>gpx from keep</name>
    <type>Run</type>
    <trkseg>
      <trkpt lat="37.8473214184879" lon="112.02902918553521">
        <ele>1135.59</ele>
        <time>2017-08-25T09:10:11.400000Z</time>
      </trkpt>
      <trkpt lat="37.84734098141532" lon="112.02869759750945">
        <ele>1131.9</ele>
        <time>2017-08-25T09:10:23.300000Z</time>
      </trkpt>
      <trkpt lat="37.847409302009865" lon="112.02850421117121">
        <ele>1130.3</ele>
        <time>2017-08-25T09:10:32.300000Z</time>
      </trkpt>
      <trkpt lat="37.84743783200914" lon="112.02816911223383">
        <ele>1126.3</ele>
        <time>2017-08-25T09:10:44.300000Z</time>
      </trkpt>
      <trkpt lat="37.84741090353491" lon="112.02798412494512">
        <ele>1124.9</ele>
        <time>2017-08-25T09:10:50.300000Z</time>
      </trkpt>
      <trkpt lat="37.847461181482345" lon="112.0276341546549">
        <ele>1120.9</ele>
        <time>2017-08-25T09:11:02.300000Z</time>
      </trkpt>
      <trkpt lat="37.847611069015045" lon="112.02727065423593">
        <ele>1118.09</ele>
        <time>2017-08-25T09:11:14.300000Z</time>
      </trkpt>
      <trkpt lat="37.84764238669105" lon="112.02712055301897">
        <ele>1117.8</ele>
        <time>2017-08-25T09:11:20.300000Z</time>
      </trkpt>
      <trkpt lat="37.84771601205279" lon="112.02697720857037">
        <ele>1118.0</ele>
        <time>2017-08-25T09:11:26.300000Z</time>
      </trkpt>
      <trkpt lat="37.84772924257342" lon="112.02689715570155">
        <ele>1117.59</ele>
        <time>2017-08-25T09:11:29.300000Z</time>
      </trkpt>
      <trkpt lat="37.84789243820689" lon="112.02663534826371">
        <ele>1120.09</ele>
        <time>2017-08-25T09:11:41.300000Z</time>
      </trkpt>
      <trkpt lat="37.84794761788875" lon="112.02659558686192">
        <ele>1120.59</ele>
        <time>2017-08-25T09:11:44.400000Z</time>
      </trkpt>
      <trkpt lat="37.8482324648993" lon="112.02660718155947">
        <ele>1123.4</ele>
        <time>2017-08-25T09:11:56.300000Z</time>
      </trkpt>
      <trkpt lat="37.84838238450408" lon="112.0265473962407">
        <ele>1125.4</ele>
        <time>2017-08-25T09:12:02.300000Z</time>
      </trkpt>
      <trkpt lat="37.848654191719255" lon="112.02656548304975">
        <ele>1127.9</ele>
        <time>2017-08-25T09:12:14.300000Z</time>
      </trkpt>
      <trkpt lat="37.84870572336189" lon="112.02657223785917">
        <ele>1126.7</ele>
        <time>2017-08-25T09:12:17.300000Z</time>
      </trkpt>
      <trkpt lat="37.848750763032506" lon="112.02646730182798">
        <ele>1128.2</ele>
        <time>2017-08-25T09:12:23.300000Z</time>
      </trkpt>
      <trkpt lat="37.84878428050423" lon="112.02630719817877">
        <ele>1129.5</ele>
        <time>2017-08-25T09:12:29.300000Z</time>
      </trkpt>
      <trkpt lat="37.84883416142493" lon="112.02621875914059">
        <ele>1131.3</ele>
        <time>2017-08-25T09:12:32.300000Z</time>
      </trkpt>
      <trkpt lat="37.84885586500467" lon="112.02611544975633">
        <ele>1132.4</ele>
        <time>2017-08-25T09:12:35.300000Z</time>
      </trkpt>
      <trkpt lat="37.848890766903025" lon="112.0260489183468">
        <ele>1132.8</ele>
        <time>2017-08-25T09:12:38.300000Z</time>
      </trkpt>
      <trkpt lat="37.84888918274082" lon="112.02592857496052">
        <ele>1132.7</ele>
        <time>2017-08-25T09:12:41.300000Z</time>
      </trkpt>
      <trkpt lat="37.848932368238025" lon="112.02580714493274">
        <ele>1132.8</ele>
        <time>2017-08-25T09:12:44.300000Z</time>
      </trkpt>
      <trkpt lat="37.848940529328814" lon="112.02569545515998">
        <ele>1132.7</ele>
        <time>2017-08-25T09:12:47.300000Z</time>
      </trkpt>
      <trkpt lat="37.84902563478995" lon="112.02552182780722">
        <ele>1133.09</ele>
        <time>2017-08-25T09:12:53.300000Z</time>
      </trkpt>
      <trkpt lat="37.84903218590832" lon="112.0254036489423">
        <ele>1133.3</ele>
        <time>2017-08-25T09:12:56.300000Z</time>
      </trkpt>
      <trkpt lat="37.84905741442287" lon="112.02530196444633">
        <ele>1133.8</ele>
        <time>2017-08-25T09:12:59.300000Z</time>
      </trkpt>
      <trkpt lat="37.849028816310465" lon="112.02503532604196">
        <ele>1135.2</ele>
        <time>2017-08-25T09:13:05.300000Z</time>
      </trkpt>
      <trkpt lat="37.84903727735952" lon="112.02491363325561">
        <ele>1136.4</ele>
        <time>2017-08-25T09:13:08.300000Z</time>
      </trkpt>
      <trkpt lat="37.849017167263185" lon="112.02482358406496">
        <ele>1138.2</ele>
        <time>2017-08-25T09:13:11.300000Z</time>
      </trkpt>
      <trkpt lat="37.84898746474399" lon="112.02477004355661">
        <ele>1139.9</ele>
        <time>2017-08-25T09:13:14.300000Z</time>
      </trkpt>
      <trkpt lat="37.84887405453001" lon="112.02466837776964">
        <ele>1141.0</ele>
        <time>2017-08-25T09:13:17.300000Z</time>
      </trkpt>
      <trkpt lat="37.8488140879821" lon="112.0245685988462">
        <ele>1141.2</ele>
        <time>2017-08-25T09:13:20.300000Z</time>
      </trkpt>
      <trkpt lat="37.84880545420696" lon="112.02444826201591">
        <ele>1141.3</ele>
        <time>2017-08-25T09:13:23.300000Z</time>
      </trkpt>
      <trkpt lat="37.84888561703424" lon="112.02409508364353">
        <ele>1138.8</ele>
        <time>2017-08-25T09:13:32.300000Z</time>
      </trkpt>
      <trkpt lat="37.84887211416071" lon="112.02386820478674">
        <ele>1136.59</ele>
        <time>2017-08-25T09:13:38.300000Z</time>
      </trkpt>
      <trkpt lat="37.848905327642214" lon="112.02352152832535">
        <ele>1134.7</ele>
        <time>2017-08-25T09:13:47.300000Z</time>
      </trkpt>
      <trkpt lat="37.84901201138177" lon="112.02319647960363">
        <ele>1136.3</ele>
        <time>2017-08-25T09:13:56.300000Z</time>
      </trkpt>
      <trkpt lat="37.849033762711905" lon="112.02307830749174">
        <ele>1136.59</ele>
        <time>2017-08-25T09:13:59.300000Z</time>
      </trkpt>
      <trkpt lat="37.84904196805368" lon="112.02275165249823">
        <ele>1136.5</ele>
        <time>2017-08-25T09:14:08.300000Z</time>
      </trkpt>
      <trkpt lat="37.84905876949059" lon="112.02255803917954">
        <ele>1137.0</ele>
        <time>2017-08-25T09:14:14.600000Z</time>
      </trkpt>
      <trkpt lat="37.84905180285666" lon="112.02212485226518">
        <ele>1136.5</ele>
        <time>2017-08-25T09:14:27.300000Z</time>
      </trkpt>
      <trkpt lat="37.849038438473066" lon="112.02175115948761">
        <ele>1138.4</ele>
        <time>2017-08-25T09:14:36.300000Z</time>
      </trkpt>
      <trkpt lat="37.84905508839322" lon="112.02131635753014">
        <ele>1140.4</ele>
        <time>2017-08-25T09:14:48.300000Z</time>
      </trkpt>
      <trkpt lat="37.84907004013507" lon="112.02100783491117">
        <ele>1140.2</ele>
        <time>2017-08-25T09:14:57.300000Z</time>
      </trkpt>
      <trkpt lat="37.84905157953312" lon="112.02091292898292">
        <ele>1140.5</ele>
        <time>2017-08-25T09:15:00.300000Z</time>
      </trkpt>
      <trkpt lat="37.849060085577285" lon="112.02048273496109">
        <ele>1141.0</ele>
        <time>2017-08-25T09:15:12.300000Z</time>
      </trkpt>
      <trkpt lat="37.84904984679817" lon="112.02006282302276">
        <ele>1142.7</ele>
        <time>2017-08-25T09:15:24.300000Z</time>
      </trkpt>
      <trkpt lat="37.849035145902526" lon="112.01988436991496">
        <ele>1139.8</ele>
        <time>2017-08-25T09:15:30.300000Z</time>
      </trkpt>
      <trkpt lat="37.84904165727727" lon="112.01978621932471">
        <ele>1139.4</ele>
        <time>2017-08-25T09:15:33.300000Z</time>
      </trkpt>
      <trkpt lat="37.84912000766868" lon="112.01961127138462">
        <ele>1138.09</ele>
        <time>2017-08-25T09:15:39.300000Z</time>
      </trkpt>
      <trkpt lat="37.84913639904232" lon="112.01917919907306">
        <ele>1139.7</ele>
        <time>2017-08-25T09:15:51.300000Z</time>
      </trkpt>
      <trkpt lat="37.84915471254006" lon="112.01883770799256">
        <ele>1141.8</ele>
        <time>2017-08-25T09:16:00.300000Z</time>
      </trkpt>
      <trkpt lat="37.8491447491504" lon="112.01861599991148">
        <ele>1142.3</ele>
        <time>2017-08-25T09:16:06.300000Z</time>
      </trkpt>
      <trkpt lat="37.84916325638492" lon="112.01840077869298">
        <ele>1142.7</ele>
        <time>2017-08-25T09:16:15.300000Z</time>
      </trkpt>
      <trkpt lat="37.84914321547549" lon="112.01829073867678">
        <ele>1142.59</ele>
        <time>2017-08-25T09:16:18.300000Z</time>
      </trkpt>
      <trkpt lat="37.849169599474656" lon="112.01787922828669">
        <ele>1142.3</ele>
        <time>2017-08-25T09:16:30.300000Z</time>
      </trkpt>
      <trkpt lat="37.84917151321747" lon="112.01777729821985">
        <ele>1141.9</ele>
        <time>2017-08-25T09:16:33.300000Z</time>
      </trkpt>
      <trkpt lat="37.8492446831218" lon="112.01751746417993">
        <ele>1138.3</ele>
        <time>2017-08-25T09:16:45.300000Z</time>
      </trkpt>
      <trkpt lat="37.84928986022634" lon="112.01708243770283">
        <ele>1137.8</ele>
        <time>2017-08-25T09:16:57.300000Z</time>
      </trkpt>
      <trkpt lat="37.849311342809884" lon="112.016968881611">
        <ele>1137.9</ele>
        <time>2017-08-25T09:17:00.300000Z</time>
      </trkpt>
      <trkpt lat="37.849307727927375" lon="112.01661578668342">
        <ele>1137.7</ele>
        <time>2017-08-25T09:17:09.300000Z</time>
      </trkpt>
      <trkpt lat="37.849354559559295" lon="112.01617401055663">
        <ele>1137.7</ele>
        <time>2017-08-25T09:17:21.300000Z</time>
      </trkpt>
      <trkpt lat="37.84940297962102" lon="112.01574737886817">
        <ele>1139.5</ele>
        <time>2017-08-25T09:17:33.300000Z</time>
      </trkpt>
      <trkpt lat="37.84944974274745" lon="112.01533210651083">
        <ele>1140.59</ele>
        <time>2017-08-25T09:17:45.300000Z</time>
      </trkpt>
      <trkpt lat="37.849479429454746" lon="112.0149122441576">
        <ele>1139.9</ele>
        <time>2017-08-25T09:17:57.300000Z</time>
      </trkpt>
      <trkpt lat="37.84953111567912" lon="112.01448535404428">
        <ele>1140.9</ele>
        <time>2017-08-25T09:18:09.300000Z</time>
      </trkpt>
      <trkpt lat="37.84957416366137" lon="112.01413876211531">
        <ele>1141.8</ele>
        <time>2017-08-25T09:18:18.300000Z</time>
      </trkpt>
      <trkpt lat="37.84959442893007" lon="112.01379028310302">
        <ele>1142.3</ele>
        <time>2017-08-25T09:18:27.300000Z</time>
      </trkpt>
      <trkpt lat="37.84962091223006" lon="112.01345018658988">
        <ele>1143.3</ele>
        <time>2017-08-25T09:18:36.300000Z</time>
      </trkpt>
      <trkpt lat="37.849659349221014" lon="112.01310522493213">
        <ele>1143.3</ele>
        <time>2017-08-25T09:18:45.300000Z</time>
      </trkpt>
      <trkpt lat="37.84968586998157" lon="112.01275350867242">
        <ele>1143.4</ele>
        <time>2017-08-25T09:18:54.300000Z</time>
      </trkpt>
      <trkpt lat="37.84972943683795" lon="112.01232501704845">
        <ele>1144.3</ele>
        <time>2017-08-25T09:19:06.300000Z</time>
      </trkpt>
      <trkpt lat="37.849764328780125" lon="112.01226851241871">
        <ele>1144.9</ele>
        <time>2017-08-25T09:19:12.300000Z</time>
      </trkpt>
      <trkpt lat="37.849815834888" lon="112.01228337479512">
        <ele>1146.2</ele>
        <time>2017-08-25T09:19:18.300000Z</time>
      </trkpt>
      <trkpt lat="37.84983593033028" lon="112.01218361812167">
        <ele>1146.59</ele>
        <time>2017-08-25T09:19:24.300000Z</time>
      </trkpt>
      <trkpt lat="37.84980404712959" lon="112.01176514273658">
        <ele>1147.8</ele>
        <time>2017-08-25T09:19:36.300000Z</time>
      </trkpt>
      <trkpt lat="37.84980087675164" lon="112.01136342790345">
        <ele>1149.4</ele>
        <time>2017-08-25T09:19:48.300000Z</time>
      </trkpt>
      <trkpt lat="37.84981580370242" lon="112.01099009864319">
        <ele>1151.0</ele>
        <time>2017-08-25T09:19:58.300000Z</time>
      </trkpt>
      <trkpt lat="37.84983250778235" lon="112.0105664906905">
        <ele>1152.59</ele>
        <time>2017-08-25T09:20:10.900000Z</time>
      </trkpt>
      <trkpt lat="37.84982260547211" lon="112.01033482107803">
        <ele>1153.8</ele>
        <time>2017-08-25T09:20:17.300000Z</time>
      </trkpt>
      <trkpt lat="37.849795960411406" lon="112.01026156566937">
        <ele>1152.7</ele>
        <time>2017-08-25T09:20:20.300000Z</time>
      </trkpt>
      <trkpt lat="37.849785948739" lon="112.0101599241064">
        <ele>1152.09</ele>
        <time>2017-08-25T09:20:23.300000Z</time>
      </trkpt>
      <trkpt lat="37.84981928279938" lon="112.00980309060661">
        <ele>1151.5</ele>
        <time>2017-08-25T09:20:32.300000Z</time>
      </trkpt>
      <trkpt lat="37.84978586880175" lon="112.00935652016479">
        <ele>1152.59</ele>
        <time>2017-08-25T09:20:44.300000Z</time>
      </trkpt>
      <trkpt lat="37.849622608403585" lon="112.0089648436836">
        <ele>1155.4</ele>
        <time>2017-08-25T09:20:56.300000Z</time>
      </trkpt>
      <trkpt lat="37.84943069929285" lon="112.00862831825067">
        <ele>1159.3</ele>
        <time>2017-08-25T09:21:08.300000Z</time>
      </trkpt>
      <trkpt lat="37.849210788924246" lon="112.00831126087117">
        <ele>1160.3</ele>
        <time>2017-08-25T09:21:20.300000Z</time>
      </trkpt>
      <trkpt lat="37.84899237734387" lon="112.00794662921575">
        <ele>1160.59</ele>
        <time>2017-08-25T09:21:32.300000Z</time>
      </trkpt>
      <trkpt lat="37.84879064756256" lon="112.00762957304451">
        <ele>1160.5</ele>
        <time>2017-08-25T09:21:44.300000Z</time>
      </trkpt>
      <trkpt lat="37.848603951869144" lon="112.00736657936187">
        <ele>1164.09</ele>
        <time>2017-08-25T09:21:53.300000Z</time>
      </trkpt>
      <trkpt lat="37.8483606782258" lon="112.0070614246617">
        <ele>1167.0</ele>
        <time>2017-08-25T09:22:05.300000Z</time>
      </trkpt>
      <trkpt lat="37.84822566511232" lon="112.00693655641327">
        <ele>1167.7</ele>
        <time>2017-08-25T09:22:11.300000Z</time>
      </trkpt>
      <trkpt lat="37.84815387206045" lon="112.00690142439939">
        <ele>1167.59</ele>
        <time>2017-08-25T09:22:14.300000Z</time>
      </trkpt>
      <trkpt lat="37.84782548255523" lon="112.00684469806372">
        <ele>1169.3</ele>
        <time>2017-08-25T09:22:26.300000Z</time>
      </trkpt>
      <trkpt lat="37.84750736759239" lon="112.0067998642598">
        <ele>1166.9</ele>
        <time>2017-08-25T09:22:38.300000Z</time>
      </trkpt>
      <trkpt lat="37.84718545033127" lon="112.00675638249407">
        <ele>1163.59</ele>
        <time>2017-08-25T09:22:50.300000Z</time>
      </trkpt>
      <trkpt lat="37.84689717577875" lon="112.00671289674021">
        <ele>1160.9</ele>
        <time>2017-08-25T09:22:59.300000Z</time>
      </trkpt>
      <trkpt lat="37.84655378886062" lon="112.00668158159112">
        <ele>1156.7</ele>
        <time>2017-08-25T09:23:11.300000Z</time>
      </trkpt>
      <trkpt lat="37.84629884148126" lon="112.0066529590162">
        <ele>1152.0</ele>
        <time>2017-08-25T09:23:23.300000Z</time>
      </trkpt>
      <trkpt lat="37.846060651076904" lon="112.00655486455065">
        <ele>1149.5</ele>
        <time>2017-08-25T09:23:32.300000Z</time>
      </trkpt>
      <trkpt lat="37.845837215390894" lon="112.00651299304411">
        <ele>1141.8</ele>
        <time>2017-08-25T09:23:42.200000Z</time>
      </trkpt>
      <trkpt lat="37.84562066645821" lon="112.00643625069887">
        <ele>1139.09</ele>
        <time>2017-08-25T09:23:48.300000Z</time>
      </trkpt>
      <trkpt lat="37.8453555327669" lon="112.00636627197994">
        <ele>1137.59</ele>
        <time>2017-08-25T09:23:57.300000Z</time>
      </trkpt>
      <trkpt lat="37.84507554154623" lon="112.00627467031734">
        <ele>1137.3</ele>
        <time>2017-08-25T09:24:06.300000Z</time>
      </trkpt>
      <trkpt lat="37.84476050133975" lon="112.00619983213166">
        <ele>1136.3</ele>
        <time>2017-08-25T09:24:18.300000Z</time>
      </trkpt>
      <trkpt lat="37.84457564415745" lon="112.00623148039014">
        <ele>1135.8</ele>
        <time>2017-08-25T09:24:24.300000Z</time>
      </trkpt>
      <trkpt lat="37.84440035591724" lon="112.00632962373692">
        <ele>1136.3</ele>
        <time>2017-08-25T09:24:30.300000Z</time>
      </trkpt>
      <trkpt lat="37.84414390552917" lon="112.0064412924153">
        <ele>1139.3</ele>
        <time>2017-08-25T09:24:39.300000Z</time>
      </trkpt>
      <trkpt lat="37.843985582201874" lon="112.00649131873308">
        <ele>1142.8</ele>
        <time>2017-08-25T09:24:45.300000Z</time>
      </trkpt>
      <trkpt lat="37.84367886311937" lon="112.00671976810568">
        <ele>1146.8</ele>
        <time>2017-08-25T09:24:57.300000Z</time>
      </trkpt>
      <trkpt lat="37.84361568080307" lon="112.00679978787208">
        <ele>1145.9</ele>
        <time>2017-08-25T09:25:00.300000Z</time>
      </trkpt>
      <trkpt lat="37.843463730840476" lon="112.00689630735656">
        <ele>1145.3</ele>
        <time>2017-08-25T09:25:06.300000Z</time>
      </trkpt>
      <trkpt lat="37.84323225519024" lon="112.00709474435187">
        <ele>1145.9</ele>
        <time>2017-08-25T09:25:15.300000Z</time>
      </trkpt>
      <trkpt lat="37.84293568069125" lon="112.00728805373377">
        <ele>1147.5</ele>
        <time>2017-08-25T09:25:27.300000Z</time>
      </trkpt>
      <trkpt lat="37.842854114015765" lon="112.0073464512444">
        <ele>1147.8</ele>
        <time>2017-08-25T09:25:30.300000Z</time>
      </trkpt>
      <trkpt lat="37.84270225301761" lon="112.00741323693184">
        <ele>1149.2</ele>
        <time>2017-08-25T09:25:36.300000Z</time>
      </trkpt>
      <trkpt lat="37.84258737951548" lon="112.00754137968389">
        <ele>1148.2</ele>
        <time>2017-08-25T09:25:42.300000Z</time>
      </trkpt>
      <trkpt lat="37.84227734964327" lon="112.00769792907603">
        <ele>1151.8</ele>
        <time>2017-08-25T09:25:54.300000Z</time>
      </trkpt>
      <trkpt lat="37.842115657672" lon="112.00778634154896">
        <ele>1153.4</ele>
        <time>2017-08-25T09:26:00.300000Z</time>
      </trkpt>
      <trkpt lat="37.8418706724075" lon="112.00796667161794">
        <ele>1154.2</ele>
        <time>2017-08-25T09:26:09.300000Z</time>
      </trkpt>
      <trkpt lat="37.84164378297031" lon="112.00808320519963">
        <ele>1157.2</ele>
        <time>2017-08-25T09:26:18.300000Z</time>
      </trkpt>
      <trkpt lat="37.841333709434494" lon="112.00816325607514">
        <ele>1159.4</ele>
        <time>2017-08-25T09:26:30.300000Z</time>
      </trkpt>
      <trkpt lat="37.84100566627037" lon="112.00817302664562">
        <ele>1163.4</ele>
        <time>2017-08-25T09:26:42.300000Z</time>
      </trkpt>
      <trkpt lat="37.84068215541731" lon="112.00811819084981">
        <ele>1167.09</ele>
        <time>2017-08-25T09:26:54.300000Z</time>
      </trkpt>
      <trkpt lat="37.840385485978565" lon="112.00806956918517">
        <ele>1166.59</ele>
        <time>2017-08-25T09:27:06.300000Z</time>
      </trkpt>
      <trkpt lat="37.84015062412538" lon="112.00803824045347">
        <ele>1167.09</ele>
        <time>2017-08-25T09:27:15.300000Z</time>
      </trkpt>
      <trkpt lat="37.83985060933873" lon="112.00811153214677">
        <ele>1169.4</ele>
        <time>2017-08-25T09:27:27.300000Z</time>
      </trkpt>
      <trkpt lat="37.83953064096411" lon="112.00814319743668">
        <ele>1174.4</ele>
        <time>2017-08-25T09:27:39.300000Z</time>
      </trkpt>
      <trkpt lat="37.839314081840016" lon="112.00816133453566">
        <ele>1178.59</ele>
        <time>2017-08-25T09:27:48.300000Z</time>
      </trkpt>
      <trkpt lat="37.83936398770085" lon="112.00816646461018">
        <ele>1178.9</ele>
        <time>2017-08-25T09:27:51.300000Z</time>
      </trkpt>
      <trkpt lat="37.83942734062282" lon="112.00811996248343">
        <ele>1180.0</ele>
        <time>2017-08-25T09:27:54.300000Z</time>
      </trkpt>
      <trkpt lat="37.83973905128187" lon="112.00803666766176">
        <ele>1181.3</ele>
        <time>2017-08-25T09:28:06.300000Z</time>
      </trkpt>
      <trkpt lat="37.83987731154345" lon="112.00798150656212">
        <ele>1182.8</ele>
        <time>2017-08-25T09:28:12.300000Z</time>
      </trkpt>
      <trkpt lat="37.84022223579468" lon="112.00795146027538">
        <ele>1184.5</ele>
        <time>2017-08-25T09:28:24.300000Z</time>
      </trkpt>
      <trkpt lat="37.8403371384185" lon="112.00799631910857">
        <ele>1182.7</ele>
        <time>2017-08-25T09:28:27.300000Z</time>
      </trkpt>
      <trkpt lat="37.84043733026963" lon="112.00806145349158">
        <ele>1179.7</ele>
        <time>2017-08-25T09:28:30.400000Z</time>
      </trkpt>
      <trkpt lat="37.84076223680623" lon="112.00810304353642">
        <ele>1174.8</ele>
        <time>2017-08-25T09:28:42.300000Z</time>
      </trkpt>
      <trkpt lat="37.84104388663994" lon="112.00809300819711">
        <ele>1172.3</ele>
        <time>2017-08-25T09:28:51.300000Z</time>
      </trkpt>
      <trkpt lat="37.84136079168177" lon="112.00808810467487">
        <ele>1172.2</ele>
        <time>2017-08-25T09:29:01.300000Z</time>
      </trkpt>
      <trkpt lat="37.84164054257891" lon="112.00798643218445">
        <ele>1162.09</ele>
        <time>2017-08-25T09:29:10.300000Z</time>
      </trkpt>
      <trkpt lat="37.84196404917233" lon="112.00785961524058">
        <ele>1158.7</ele>
        <time>2017-08-25T09:29:22.300000Z</time>
      </trkpt>
      <trkpt lat="37.84222230324589" lon="112.00768793397664">
        <ele>1151.59</ele>
        <time>2017-08-25T09:29:31.300000Z</time>
      </trkpt>
      <trkpt lat="37.842530734947154" lon="112.00752138315686">
        <ele>1149.7</ele>
        <time>2017-08-25T09:29:43.300000Z</time>
      </trkpt>
      <trkpt lat="37.84277545396833" lon="112.00733970278117">
        <ele>1148.8</ele>
        <time>2017-08-25T09:29:52.300000Z</time>
      </trkpt>
      <trkpt lat="37.843007180220525" lon="112.0071480228646">
        <ele>1146.59</ele>
        <time>2017-08-25T09:30:01.300000Z</time>
      </trkpt>
      <trkpt lat="37.84327232720993" lon="112.00693985045321">
        <ele>1146.59</ele>
        <time>2017-08-25T09:30:10.300000Z</time>
      </trkpt>
      <trkpt lat="37.84351870599551" lon="112.00674789960338">
        <ele>1147.4</ele>
        <time>2017-08-25T09:30:19.300000Z</time>
      </trkpt>
      <trkpt lat="37.8436720674192" lon="112.00663299899955">
        <ele>1148.4</ele>
        <time>2017-08-25T09:30:25.300000Z</time>
      </trkpt>
      <trkpt lat="37.84382395981678" lon="112.00646484757917">
        <ele>1152.59</ele>
        <time>2017-08-25T09:30:31.300000Z</time>
      </trkpt>
      <trkpt lat="37.84391369142493" lon="112.00639807022552">
        <ele>1153.5</ele>
        <time>2017-08-25T09:30:34.400000Z</time>
      </trkpt>
      <trkpt lat="37.84421043531777" lon="112.00623963323103">
        <ele>1153.2</ele>
        <time>2017-08-25T09:30:43.300000Z</time>
      </trkpt>
      <trkpt lat="37.84438702615247" lon="112.00615960057198">
        <ele>1153.59</ele>
        <time>2017-08-25T09:30:49.300000Z</time>
      </trkpt>
      <trkpt lat="37.84468712037845" lon="112.00615145550627">
        <ele>1154.09</ele>
        <time>2017-08-25T09:30:58.300000Z</time>
      </trkpt>
      <trkpt lat="37.845023673128054" lon="112.00619980074678">
        <ele>1155.5</ele>
        <time>2017-08-25T09:31:07.300000Z</time>
      </trkpt>
      <trkpt lat="37.845317249977576" lon="112.00628464295137">
        <ele>1156.0</ele>
        <time>2017-08-25T09:31:16.300000Z</time>
      </trkpt>
      <trkpt lat="37.84558717292081" lon="112.0063862473004">
        <ele>1156.9</ele>
        <time>2017-08-25T09:31:25.300000Z</time>
      </trkpt>
      <trkpt lat="37.84586389813628" lon="112.00648136352653">
        <ele>1154.59</ele>
        <time>2017-08-25T09:31:34.300000Z</time>
      </trkpt>
      <trkpt lat="37.846132341694315" lon="112.00653323114102">
        <ele>1154.09</ele>
        <time>2017-08-25T09:31:43.300000Z</time>
      </trkpt>
      <trkpt lat="37.84641382920974" lon="112.00657806915312">
        <ele>1152.0</ele>
        <time>2017-08-25T09:31:52.300000Z</time>
      </trkpt>
      <trkpt lat="37.846722191121714" lon="112.00661803838798">
        <ele>1151.4</ele>
        <time>2017-08-25T09:32:01.300000Z</time>
      </trkpt>
      <trkpt lat="37.846754071430446" lon="112.0066631765372">
        <ele>1151.9</ele>
        <time>2017-08-25T09:32:10.300000Z</time>
      </trkpt>
      <trkpt lat="37.84702715329406" lon="112.00670639376247">
        <ele>1153.2</ele>
        <time>2017-08-25T09:32:25.300000Z</time>
      </trkpt>
      <trkpt lat="37.847308876960284" lon="112.00676312555835">
        <ele>1153.59</ele>
        <time>2017-08-25T09:32:34.300000Z</time>
      </trkpt>
      <trkpt lat="37.847592066690396" lon="112.00678309483229">
        <ele>1152.2</ele>
        <time>2017-08-25T09:32:43.400000Z</time>
      </trkpt>
      <trkpt lat="37.84787377602598" lon="112.00684469230215">
        <ele>1151.8</ele>
        <time>2017-08-25T09:32:52.300000Z</time>
      </trkpt>
      <trkpt lat="37.84814058341773" lon="112.00689953380028">
        <ele>1151.5</ele>
        <time>2017-08-25T09:33:01.300000Z</time>
      </trkpt>
      <trkpt lat="37.84830573056108" lon="112.00701818119833">
        <ele>1150.3</ele>
        <time>2017-08-25T09:33:07.300000Z</time>
      </trkpt>
      <trkpt lat="37.84849215866844" lon="112.00727955167581">
        <ele>1149.5</ele>
        <time>2017-08-25T09:33:16.300000Z</time>
      </trkpt>
      <trkpt lat="37.84867046668322" lon="112.00753470689435">
        <ele>1148.9</ele>
        <time>2017-08-25T09:33:25.300000Z</time>
      </trkpt>
      <trkpt lat="37.84884900191105" lon="112.0078050007417">
        <ele>1150.09</ele>
        <time>2017-08-25T09:33:34.300000Z</time>
      </trkpt>
      <trkpt lat="37.84909896344656" lon="112.00814313674398">
        <ele>1151.09</ele>
        <time>2017-08-25T09:33:46.300000Z</time>
      </trkpt>
      <trkpt lat="37.84925887510984" lon="112.0082896297067">
        <ele>1149.4</ele>
        <time>2017-08-25T09:33:52.300000Z</time>
      </trkpt>
      <trkpt lat="37.84951908308279" lon="112.00864993323889">
        <ele>1149.0</ele>
        <time>2017-08-25T09:34:07Z</time>
      </trkpt>
      <trkpt lat="37.849705649797194" lon="112.00895807574996">
        <ele>1149.5</ele>
        <time>2017-08-25T09:34:16.300000Z</time>
      </trkpt>
      <trkpt lat="37.849812489033575" lon="112.00916161480154">
        <ele>1149.2</ele>
        <time>2017-08-25T09:34:22.300000Z</time>
      </trkpt>
      <trkpt lat="37.84987922546394" lon="112.00944003871835">
        <ele>1148.09</ele>
        <time>2017-08-25T09:34:30.300000Z</time>
      </trkpt>
      <trkpt lat="37.84990560659495" lon="112.00969495057765">
        <ele>1147.8</ele>
        <time>2017-08-25T09:34:36.300000Z</time>
      </trkpt>
      <trkpt lat="37.84986753828872" lon="112.01009314381639">
        <ele>1148.9</ele>
        <time>2017-08-25T09:34:45.300000Z</time>
      </trkpt>
      <trkpt lat="37.84983580422007" lon="112.0104599810824">
        <ele>1149.0</ele>
        <time>2017-08-25T09:34:54.300000Z</time>
      </trkpt>
      <trkpt lat="37.84983095169865" lon="112.01082005932945">
        <ele>1148.4</ele>
        <time>2017-08-25T09:35:03.300000Z</time>
      </trkpt>
      <trkpt lat="37.84980412383719" lon="112.01127340696445">
        <ele>1147.3</ele>
        <time>2017-08-25T09:35:15.300000Z</time>
      </trkpt>
      <trkpt lat="37.849805835889086" lon="112.01161672920703">
        <ele>1147.59</ele>
        <time>2017-08-25T09:35:24.300000Z</time>
      </trkpt>
      <trkpt lat="37.849784415084905" lon="112.01198519767114">
        <ele>1149.2</ele>
        <time>2017-08-25T09:35:33.300000Z</time>
      </trkpt>
      <trkpt lat="37.84975918857556" lon="112.01235691329869">
        <ele>1149.7</ele>
        <time>2017-08-25T09:35:42.300000Z</time>
      </trkpt>
      <trkpt lat="37.84972773813758" lon="112.01272376631793">
        <ele>1150.8</ele>
        <time>2017-08-25T09:35:51.300000Z</time>
      </trkpt>
      <trkpt lat="37.84970255032679" lon="112.0130835924453">
        <ele>1151.4</ele>
        <time>2017-08-25T09:36:00.300000Z</time>
      </trkpt>
      <trkpt lat="37.84965945724022" lon="112.01344369373521">
        <ele>1150.7</ele>
        <time>2017-08-25T09:36:09.300000Z</time>
      </trkpt>
      <trkpt lat="37.84962607593517" lon="112.01382380216415">
        <ele>1150.3</ele>
        <time>2017-08-25T09:36:18.300000Z</time>
      </trkpt>
      <trkpt lat="37.84959110333808" lon="112.01419201857213">
        <ele>1149.5</ele>
        <time>2017-08-25T09:36:27.300000Z</time>
      </trkpt>
      <trkpt lat="37.849552615291586" lon="112.01455699415278">
        <ele>1150.3</ele>
        <time>2017-08-25T09:36:36.300000Z</time>
      </trkpt>
      <trkpt lat="37.84949428513426" lon="112.01493549266583">
        <ele>1150.5</ele>
        <time>2017-08-25T09:36:45.300000Z</time>
      </trkpt>
      <trkpt lat="37.849457757988226" lon="112.01537563267493">
        <ele>1148.7</ele>
        <time>2017-08-25T09:36:57.300000Z</time>
      </trkpt>
      <trkpt lat="37.84940118503219" lon="112.01571061051116">
        <ele>1148.3</ele>
        <time>2017-08-25T09:37:06.300000Z</time>
      </trkpt>
      <trkpt lat="37.84937772693003" lon="112.01594555422331">
        <ele>1148.8</ele>
        <time>2017-08-25T09:37:12.300000Z</time>
      </trkpt>
      <trkpt lat="37.84935285589515" lon="112.01639219182253">
        <ele>1148.9</ele>
        <time>2017-08-25T09:37:24.300000Z</time>
      </trkpt>
      <trkpt lat="37.84932308340403" lon="112.01675042575027">
        <ele>1143.59</ele>
        <time>2017-08-25T09:37:33.300000Z</time>
      </trkpt>
      <trkpt lat="37.8493046584269" lon="112.01693400532307">
        <ele>1142.7</ele>
        <time>2017-08-25T09:37:39.300000Z</time>
      </trkpt>
      <trkpt lat="37.84936799534699" lon="112.01650709375127">
        <ele>1143.59</ele>
        <time>2017-08-25T09:37:55.300000Z</time>
      </trkpt>
      <trkpt lat="37.84941960176661" lon="112.01610397959318">
        <ele>1148.7</ele>
        <time>2017-08-25T09:38:07.300000Z</time>
      </trkpt>
      <trkpt lat="37.84947094065252" lon="112.01570059894999">
        <ele>1150.8</ele>
        <time>2017-08-25T09:38:19.400000Z</time>
      </trkpt>
      <trkpt lat="37.84953124042145" lon="112.0152955988889">
        <ele>1153.0</ele>
        <time>2017-08-25T09:38:31.300000Z</time>
      </trkpt>
      <trkpt lat="37.84959599468805" lon="112.01485194172831">
        <ele>1152.09</ele>
        <time>2017-08-25T09:38:43.300000Z</time>
      </trkpt>
      <trkpt lat="37.84962085947404" lon="112.01441180829204">
        <ele>1151.5</ele>
        <time>2017-08-25T09:38:55.300000Z</time>
      </trkpt>
      <trkpt lat="37.84965792893081" lon="112.01406873214843">
        <ele>1148.59</ele>
        <time>2017-08-25T09:39:04.300000Z</time>
      </trkpt>
      <trkpt lat="37.84968445892138" lon="112.01371187221713">
        <ele>1147.8</ele>
        <time>2017-08-25T09:39:13.300000Z</time>
      </trkpt>
      <trkpt lat="37.849710974122814" lon="112.01326688327646">
        <ele>1147.8</ele>
        <time>2017-08-25T09:39:25.300000Z</time>
      </trkpt>
      <trkpt lat="37.84973941129949" lon="112.01281513973676">
        <ele>1147.3</ele>
        <time>2017-08-25T09:39:37.300000Z</time>
      </trkpt>
      <trkpt lat="37.849751045242755" lon="112.01245180280421">
        <ele>1148.3</ele>
        <time>2017-08-25T09:39:46.300000Z</time>
      </trkpt>
      <trkpt lat="37.849764269845906" lon="112.01210198512992">
        <ele>1148.5</ele>
        <time>2017-08-25T09:39:55.300000Z</time>
      </trkpt>
      <trkpt lat="37.84980084990134" lon="112.01165187317282">
        <ele>1148.09</ele>
        <time>2017-08-25T09:40:07.300000Z</time>
      </trkpt>
      <trkpt lat="37.84982424037081" lon="112.01125988797396">
        <ele>1146.9</ele>
        <time>2017-08-25T09:40:18.300000Z</time>
      </trkpt>
      <trkpt lat="37.849844114741586" lon="112.01086493246684">
        <ele>1150.3</ele>
        <time>2017-08-25T09:40:30.300000Z</time>
      </trkpt>
      <trkpt lat="37.849834115862265" lon="112.01057324870415">
        <ele>1153.9</ele>
        <time>2017-08-25T09:40:39.300000Z</time>
      </trkpt>
      <trkpt lat="37.84986401361402" lon="112.01018478479939">
        <ele>1157.0</ele>
        <time>2017-08-25T09:40:51.300000Z</time>
      </trkpt>
      <trkpt lat="37.84986923360168" lon="112.00979308263229">
        <ele>1161.7</ele>
        <time>2017-08-25T09:41:03.300000Z</time>
      </trkpt>
      <trkpt lat="37.84985217068039" lon="112.00959845135876">
        <ele>1160.7</ele>
        <time>2017-08-25T09:41:09.300000Z</time>
      </trkpt>
      <trkpt lat="37.8497391086045" lon="112.00929651419044">
        <ele>1160.8</ele>
        <time>2017-08-25T09:41:18.300000Z</time>
      </trkpt>
      <trkpt lat="37.849580693189395" lon="112.00900999226353">
        <ele>1159.5</ele>
        <time>2017-08-25T09:41:27.300000Z</time>
      </trkpt>
      <trkpt lat="37.849368994092714" lon="112.00866806255604">
        <ele>1160.0</ele>
        <time>2017-08-25T09:41:39.300000Z</time>
      </trkpt>
      <trkpt lat="37.84917407705212" lon="112.00833991895206">
        <ele>1159.0</ele>
        <time>2017-08-25T09:41:51.300000Z</time>
      </trkpt>
      <trkpt lat="37.84895398942714" lon="112.00799150631954">
        <ele>1154.2</ele>
        <time>2017-08-25T09:42:04.300000Z</time>
      </trkpt>
      <trkpt lat="37.848783808937796" lon="112.00773986246857">
        <ele>1151.59</ele>
        <time>2017-08-25T09:42:13.300000Z</time>
      </trkpt>
      <trkpt lat="37.848750487803535" lon="112.00763147004238">
        <ele>1144.3</ele>
        <time>2017-08-25T09:42:16.700000Z</time>
      </trkpt>
      <trkpt lat="37.84854729347415" lon="112.00735117823129">
        <ele>1141.59</ele>
        <time>2017-08-25T09:42:26.300000Z</time>
      </trkpt>
      <trkpt lat="37.84831895087956" lon="112.00704304837883">
        <ele>1140.3</ele>
        <time>2017-08-25T09:42:38.300000Z</time>
      </trkpt>
      <trkpt lat="37.84824368941851" lon="112.00698818391558">
        <ele>1139.8</ele>
        <time>2017-08-25T09:42:41.300000Z</time>
      </trkpt>
      <trkpt lat="37.847905597760345" lon="112.0069095633832">
        <ele>1140.3</ele>
        <time>2017-08-25T09:42:53.300000Z</time>
      </trkpt>
      <trkpt lat="37.84757879514751" lon="112.0068666227588">
        <ele>1140.3</ele>
        <time>2017-08-25T09:43:05.300000Z</time>
      </trkpt>
      <trkpt lat="37.84726735039011" lon="112.00685963180425">
        <ele>1139.7</ele>
        <time>2017-08-25T09:43:17.300000Z</time>
      </trkpt>
      <trkpt lat="37.84698718937317" lon="112.00682479499685">
        <ele>1141.09</ele>
        <time>2017-08-25T09:43:29.300000Z</time>
      </trkpt>
      <trkpt lat="37.84665550499486" lon="112.0067813143792">
        <ele>1141.9</ele>
        <time>2017-08-25T09:43:41.300000Z</time>
      </trkpt>
      <trkpt lat="37.84634388728746" lon="112.00674134544212">
        <ele>1145.09</ele>
        <time>2017-08-25T09:43:53.300000Z</time>
      </trkpt>
      <trkpt lat="37.84600550964778" lon="112.00666786112092">
        <ele>1148.2</ele>
        <time>2017-08-25T09:44:06.300000Z</time>
      </trkpt>
      <trkpt lat="37.845638857053295" lon="112.00652301819706">
        <ele>1149.7</ele>
        <time>2017-08-25T09:44:19.800000Z</time>
      </trkpt>
      <trkpt lat="37.84535239847011" lon="112.00641655004395">
        <ele>1154.0</ele>
        <time>2017-08-25T09:44:29.300000Z</time>
      </trkpt>
      <trkpt lat="37.84508053283382" lon="112.00632954261778">
        <ele>1157.0</ele>
        <time>2017-08-25T09:44:38.300000Z</time>
      </trkpt>
      <trkpt lat="37.8448255148764" lon="112.00632470745326">
        <ele>1156.09</ele>
        <time>2017-08-25T09:44:47.300000Z</time>
      </trkpt>
      <trkpt lat="37.844657435798155" lon="112.00627985606567">
        <ele>1156.09</ele>
        <time>2017-08-25T09:44:53.300000Z</time>
      </trkpt>
      <trkpt lat="37.84440879638013" lon="112.00631962126313">
        <ele>1159.0</ele>
        <time>2017-08-25T09:45:02.300000Z</time>
      </trkpt>
      <trkpt lat="37.844105555621425" lon="112.0064731936194">
        <ele>1160.2</ele>
        <time>2017-08-25T09:45:14.300000Z</time>
      </trkpt>
      <trkpt lat="37.84403241429362" lon="112.0065264535286">
        <ele>1160.5</ele>
        <time>2017-08-25T09:45:17.300000Z</time>
      </trkpt>
      <trkpt lat="37.84386720921325" lon="112.00660972897404">
        <ele>1160.59</ele>
        <time>2017-08-25T09:45:23.300000Z</time>
      </trkpt>
      <trkpt lat="37.843562114294755" lon="112.00683953009919">
        <ele>1159.9</ele>
        <time>2017-08-25T09:45:35.300000Z</time>
      </trkpt>
      <trkpt lat="37.84327055422102" lon="112.00707987257508">
        <ele>1158.3</ele>
        <time>2017-08-25T09:45:47.300000Z</time>
      </trkpt>
      <trkpt lat="37.842970659705706" lon="112.00729480740304">
        <ele>1159.3</ele>
        <time>2017-08-25T09:45:59.300000Z</time>
      </trkpt>
      <trkpt lat="37.84265369807841" lon="112.0075013652071">
        <ele>1162.8</ele>
        <time>2017-08-25T09:46:11.300000Z</time>
      </trkpt>
      <trkpt lat="37.84239063373589" lon="112.00764817755372">
        <ele>1163.59</ele>
        <time>2017-08-25T09:46:22.400000Z</time>
      </trkpt>
      <trkpt lat="37.842085423580286" lon="112.00782635189535">
        <ele>1162.4</ele>
        <time>2017-08-25T09:46:34.300000Z</time>
      </trkpt>
      <trkpt lat="37.84183223601131" lon="112.00793640076625">
        <ele>1163.59</ele>
        <time>2017-08-25T09:46:43.300000Z</time>
      </trkpt>
      <trkpt lat="37.84155063059868" lon="112.00811457309187">
        <ele>1165.3</ele>
        <time>2017-08-25T09:46:55.300000Z</time>
      </trkpt>
      <trkpt lat="37.84123409447229" lon="112.00817813541653">
        <ele>1165.59</ele>
        <time>2017-08-25T09:47:07.300000Z</time>
      </trkpt>
      <trkpt lat="37.84093728563851" lon="112.00817654893142">
        <ele>1167.5</ele>
        <time>2017-08-25T09:47:19.300000Z</time>
      </trkpt>
      <trkpt lat="37.84062400695692" lon="112.00814793267982">
        <ele>1165.8</ele>
        <time>2017-08-25T09:47:31.300000Z</time>
      </trkpt>
      <trkpt lat="37.84053210637691" lon="112.00812307446338">
        <ele>1165.59</ele>
        <time>2017-08-25T09:47:34.300000Z</time>
      </trkpt>
      <trkpt lat="37.84045067405455" lon="112.00813632972238">
        <ele>1164.2</ele>
        <time>2017-08-25T09:47:37.300000Z</time>
      </trkpt>
      <trkpt lat="37.84035244455598" lon="112.00823311507891">
        <ele>1157.8</ele>
        <time>2017-08-25T09:47:43.300000Z</time>
      </trkpt>
      <trkpt lat="37.84006558077471" lon="112.00826315457438">
        <ele>1154.9</ele>
        <time>2017-08-25T09:47:52.300000Z</time>
      </trkpt>
      <trkpt lat="37.83978418805523" lon="112.00827805563179">
        <ele>1154.4</ele>
        <time>2017-08-25T09:48:01.300000Z</time>
      </trkpt>
      <trkpt lat="37.83989880416527" lon="112.00823641302387">
        <ele>1153.9</ele>
        <time>2017-08-25T09:48:10.400000Z</time>
      </trkpt>
      <trkpt lat="37.8399523754977" lon="112.00819477772805">
        <ele>1155.09</ele>
        <time>2017-08-25T09:48:13.300000Z</time>
      </trkpt>
      <trkpt lat="37.84014901140314" lon="112.00812474207979">
        <ele>1154.5</ele>
        <time>2017-08-25T09:48:22.300000Z</time>
      </trkpt>
      <trkpt lat="37.840368960024406" lon="112.00815309914236">
        <ele>1153.9</ele>
        <time>2017-08-25T09:48:30.300000Z</time>
      </trkpt>
      <trkpt lat="37.840675639165724" lon="112.00811981353019">
        <ele>1158.7</ele>
        <time>2017-08-25T09:48:42.300000Z</time>
      </trkpt>
      <trkpt lat="37.84084898729858" lon="112.00812628045632">
        <ele>1160.8</ele>
        <time>2017-08-25T09:48:48.300000Z</time>
      </trkpt>
      <trkpt lat="37.841020593167194" lon="112.00807976544415">
        <ele>1162.3</ele>
        <time>2017-08-25T09:48:54.300000Z</time>
      </trkpt>
      <trkpt lat="37.84130549317336" lon="112.00807162193912">
        <ele>1163.59</ele>
        <time>2017-08-25T09:49:03.300000Z</time>
      </trkpt>
      <trkpt lat="37.84157723352902" lon="112.00801806678443">
        <ele>1163.2</ele>
        <time>2017-08-25T09:49:12.300000Z</time>
      </trkpt>
      <trkpt lat="37.84175053227907" lon="112.00794965601807">
        <ele>1163.0</ele>
        <time>2017-08-25T09:49:18.300000Z</time>
      </trkpt>
      <trkpt lat="37.842060552394145" lon="112.0077047128275">
        <ele>1162.4</ele>
        <time>2017-08-25T09:49:30.300000Z</time>
      </trkpt>
      <trkpt lat="37.84231388870845" lon="112.00754465609047">
        <ele>1162.09</ele>
        <time>2017-08-25T09:49:39.300000Z</time>
      </trkpt>
      <trkpt lat="37.84245722974162" lon="112.00742326778968">
        <ele>1162.2</ele>
        <time>2017-08-25T09:49:45.300000Z</time>
      </trkpt>
      <trkpt lat="37.84262708232331" lon="112.00732782667197">
        <ele>1162.09</ele>
        <time>2017-08-25T09:49:51.300000Z</time>
      </trkpt>
      <trkpt lat="37.84286037135983" lon="112.00715804196395">
        <ele>1161.0</ele>
        <time>2017-08-25T09:50:00.300000Z</time>
      </trkpt>
      <trkpt lat="37.84300573194171" lon="112.0069963775468">
        <ele>1161.7</ele>
        <time>2017-08-25T09:50:06.300000Z</time>
      </trkpt>
      <trkpt lat="37.84331573086693" lon="112.00675954721082">
        <ele>1161.2</ele>
        <time>2017-08-25T09:50:18.300000Z</time>
      </trkpt>
      <trkpt lat="37.84355541585329" lon="112.0065378634687">
        <ele>1161.8</ele>
        <time>2017-08-25T09:50:27.300000Z</time>
      </trkpt>
      <trkpt lat="37.84382216722268" lon="112.00633807229984">
        <ele>1159.4</ele>
        <time>2017-08-25T09:50:36.300000Z</time>
      </trkpt>
      <trkpt lat="37.84409877451644" lon="112.00619964073569">
        <ele>1156.59</ele>
        <time>2017-08-25T09:50:45.300000Z</time>
      </trkpt>
      <trkpt lat="37.84428052996038" lon="112.00611636379472">
        <ele>1155.7</ele>
        <time>2017-08-25T09:50:51.300000Z</time>
      </trkpt>
      <trkpt lat="37.84438234580167" lon="112.00609148321558">
        <ele>1154.0</ele>
        <time>2017-08-25T09:50:54.300000Z</time>
      </trkpt>
      <trkpt lat="37.844672288597685" lon="112.00612118264227">
        <ele>1152.59</ele>
        <time>2017-08-25T09:51:03.300000Z</time>
      </trkpt>
      <trkpt lat="37.84486890365563" lon="112.00614981197239">
        <ele>1154.0</ele>
        <time>2017-08-25T09:51:09.300000Z</time>
      </trkpt>
      <trkpt lat="37.84495534787653" lon="112.0061846715673">
        <ele>1153.9</ele>
        <time>2017-08-25T09:51:12.300000Z</time>
      </trkpt>
      <trkpt lat="37.84526887391872" lon="112.00622139626375">
        <ele>1151.9</ele>
        <time>2017-08-25T09:51:21.300000Z</time>
      </trkpt>
      <trkpt lat="37.845588733366256" lon="112.00631785868137">
        <ele>1150.2</ele>
        <time>2017-08-25T09:51:31.300000Z</time>
      </trkpt>
      <trkpt lat="37.84588901264187" lon="112.00642973124512">
        <ele>1149.59</ele>
        <time>2017-08-25T09:51:40.300000Z</time>
      </trkpt>
      <trkpt lat="37.84608395577433" lon="112.0064732279647">
        <ele>1149.9</ele>
        <time>2017-08-25T09:51:46.300000Z</time>
      </trkpt>
      <trkpt lat="37.84638396249841" lon="112.00649454671029">
        <ele>1149.4</ele>
        <time>2017-08-25T09:51:55.300000Z</time>
      </trkpt>
      <trkpt lat="37.84667873302549" lon="112.00654316746316">
        <ele>1148.9</ele>
        <time>2017-08-25T09:52:04.300000Z</time>
      </trkpt>
      <trkpt lat="37.846995767279246" lon="112.00658637937394">
        <ele>1148.09</ele>
        <time>2017-08-25T09:52:13.300000Z</time>
      </trkpt>
      <trkpt lat="37.847297346520456" lon="112.00662634942046">
        <ele>1146.9</ele>
        <time>2017-08-25T09:52:22.300000Z</time>
      </trkpt>
      <trkpt lat="37.847583697775285" lon="112.0066779446862">
        <ele>1146.8</ele>
        <time>2017-08-25T09:52:31.300000Z</time>
      </trkpt>
      <trkpt lat="37.84786875130382" lon="112.00670980741205">
        <ele>1147.5</ele>
        <time>2017-08-25T09:52:40.300000Z</time>
      </trkpt>
      <trkpt lat="37.84814069341792" lon="112.0067714059823">
        <ele>1146.4</ele>
        <time>2017-08-25T09:52:49.300000Z</time>
      </trkpt>
      <trkpt lat="37.848235774975564" lon="112.0068214022982">
        <ele>1146.5</ele>
        <time>2017-08-25T09:52:52.300000Z</time>
      </trkpt>
      <trkpt lat="37.84832211024672" lon="112.00689302465331">
        <ele>1145.5</ele>
        <time>2017-08-25T09:52:55.300000Z</time>
      </trkpt>
      <trkpt lat="37.84846723943681" lon="112.00708303696699">
        <ele>1143.4</ele>
        <time>2017-08-25T09:53:01.300000Z</time>
      </trkpt>
      <trkpt lat="37.84864235531762" lon="112.00740793282166">
        <ele>1141.59</ele>
        <time>2017-08-25T09:53:10.300000Z</time>
      </trkpt>
      <trkpt lat="37.84875413837315" lon="112.00758984111036">
        <ele>1140.9</ele>
        <time>2017-08-25T09:53:16.300000Z</time>
      </trkpt>
      <trkpt lat="37.84888036627905" lon="112.00774985261639">
        <ele>1141.3</ele>
        <time>2017-08-25T09:53:22.300000Z</time>
      </trkpt>
      <trkpt lat="37.84898214198865" lon="112.00792149102635">
        <ele>1140.7</ele>
        <time>2017-08-25T09:53:28.300000Z</time>
      </trkpt>
      <trkpt lat="37.8491804410623" lon="112.00820638125714">
        <ele>1141.0</ele>
        <time>2017-08-25T09:53:37.300000Z</time>
      </trkpt>
      <trkpt lat="37.84936078502435" lon="112.00850803466307">
        <ele>1140.9</ele>
        <time>2017-08-25T09:53:46.300000Z</time>
      </trkpt>
      <trkpt lat="37.849482259539684" lon="112.00871643622216">
        <ele>1140.0</ele>
        <time>2017-08-25T09:53:52.300000Z</time>
      </trkpt>
      <trkpt lat="37.84963904425401" lon="112.00891158856558">
        <ele>1140.59</ele>
        <time>2017-08-25T09:54:00.300000Z</time>
      </trkpt>
      <trkpt lat="37.8497705042119" lon="112.00913837216358">
        <ele>1140.7</ele>
        <time>2017-08-25T09:54:06.300000Z</time>
      </trkpt>
      <trkpt lat="37.84981576114483" lon="112.00924811738152">
        <ele>1140.5</ele>
        <time>2017-08-25T09:54:09.300000Z</time>
      </trkpt>
      <trkpt lat="37.849862209223524" lon="112.00959845015967">
        <ele>1139.7</ele>
        <time>2017-08-25T09:54:19.200000Z</time>
      </trkpt>
      <trkpt lat="37.84987404195423" lon="112.01000339490447">
        <ele>1136.5</ele>
        <time>2017-08-25T09:54:28.300000Z</time>
      </trkpt>
      <trkpt lat="37.84988913267689" lon="112.01040834214481">
        <ele>1135.4</ele>
        <time>2017-08-25T09:54:37.300000Z</time>
      </trkpt>
      <trkpt lat="37.84985737176168" lon="112.01078491335248">
        <ele>1136.4</ele>
        <time>2017-08-25T09:54:46.300000Z</time>
      </trkpt>
      <trkpt lat="37.849819328501255" lon="112.01117662646719">
        <ele>1138.59</ele>
        <time>2017-08-25T09:54:55.300000Z</time>
      </trkpt>
      <trkpt lat="37.849784349913094" lon="112.01154157911057">
        <ele>1139.3</ele>
        <time>2017-08-25T09:55:04.300000Z</time>
      </trkpt>
      <trkpt lat="37.84973927108079" lon="112.0119284326546">
        <ele>1141.9</ele>
        <time>2017-08-25T09:55:13.300000Z</time>
      </trkpt>
      <trkpt lat="37.84969925295306" lon="112.01234854000573">
        <ele>1144.09</ele>
        <time>2017-08-25T09:55:23.300000Z</time>
      </trkpt>
      <trkpt lat="37.84967916390313" lon="112.01272701620059">
        <ele>1146.9</ele>
        <time>2017-08-25T09:55:32.300000Z</time>
      </trkpt>
      <trkpt lat="37.84966430549999" lon="112.0130800825814">
        <ele>1149.5</ele>
        <time>2017-08-25T09:55:41.300000Z</time>
      </trkpt>
      <trkpt lat="37.84965423993427" lon="112.01346532184121">
        <ele>1151.3</ele>
        <time>2017-08-25T09:55:50.300000Z</time>
      </trkpt>
      <trkpt lat="37.84964102688173" lon="112.01381379758763">
        <ele>1151.7</ele>
        <time>2017-08-25T09:55:59.300000Z</time>
      </trkpt>
      <trkpt lat="37.84959752399417" lon="112.01422364850617">
        <ele>1151.7</ele>
        <time>2017-08-25T09:56:10.300000Z</time>
      </trkpt>
      <trkpt lat="37.84955256726223" lon="112.01457375585889">
        <ele>1149.5</ele>
        <time>2017-08-25T09:56:19.300000Z</time>
      </trkpt>
      <trkpt lat="37.84951452842297" lon="112.01497225816232">
        <ele>1147.4</ele>
        <time>2017-08-25T09:56:29.300000Z</time>
      </trkpt>
      <trkpt lat="37.84943970959637" lon="112.01542538017308">
        <ele>1145.4</ele>
        <time>2017-08-25T09:56:41.300000Z</time>
      </trkpt>
      <trkpt lat="37.849372903139" lon="112.0158290304403">
        <ele>1145.3</ele>
        <time>2017-08-25T09:56:50.300000Z</time>
      </trkpt>
      <trkpt lat="37.84934804807386" lon="112.01617401133642">
        <ele>1143.59</ele>
        <time>2017-08-25T09:56:59.300000Z</time>
      </trkpt>
      <trkpt lat="37.84931956947438" lon="112.01655387222415">
        <ele>1142.2</ele>
        <time>2017-08-25T09:57:08.300000Z</time>
      </trkpt>
      <trkpt lat="37.8493395104534" lon="112.01679395236216">
        <ele>1141.4</ele>
        <time>2017-08-25T09:57:14.300000Z</time>
      </trkpt>
      <trkpt lat="37.84930945948395" lon="112.0171557045787">
        <ele>1137.59</ele>
        <time>2017-08-25T09:57:23.300000Z</time>
      </trkpt>
      <trkpt lat="37.84927656359142" lon="112.01737227257215">
        <ele>1136.59</ele>
        <time>2017-08-25T09:57:29.300000Z</time>
      </trkpt>
      <trkpt lat="37.84927653453692" lon="112.01747906801101">
        <ele>1135.7</ele>
        <time>2017-08-25T09:57:32.300000Z</time>
      </trkpt>
      <trkpt lat="37.84921470774546" lon="112.01785407836108">
        <ele>1135.7</ele>
        <time>2017-08-25T09:57:41.300000Z</time>
      </trkpt>
      <trkpt lat="37.849204665954296" lon="112.01814581105914">
        <ele>1135.7</ele>
        <time>2017-08-25T09:57:50.300000Z</time>
      </trkpt>
      <trkpt lat="37.84918482445424" lon="112.01825558507156">
        <ele>1134.8</ele>
        <time>2017-08-25T09:57:53.300000Z</time>
      </trkpt>
      <trkpt lat="37.84921138508011" lon="112.01836265008576">
        <ele>1134.0</ele>
        <time>2017-08-25T09:57:56.300000Z</time>
      </trkpt>
      <trkpt lat="37.84918656820697" lon="112.01879741788069">
        <ele>1133.5</ele>
        <time>2017-08-25T09:58:08.500000Z</time>
      </trkpt>
      <trkpt lat="37.84918507425761" lon="112.01913944734162">
        <ele>1132.8</ele>
        <time>2017-08-25T09:58:17.300000Z</time>
      </trkpt>
      <trkpt lat="37.84917653912217" lon="112.0194776953921">
        <ele>1131.59</ele>
        <time>2017-08-25T09:58:30.300000Z</time>
      </trkpt>
      <trkpt lat="37.849154800703246" lon="112.01958774385457">
        <ele>1132.0</ele>
        <time>2017-08-25T09:58:36.300000Z</time>
      </trkpt>
      <trkpt lat="37.84914484323798" lon="112.02004929229074">
        <ele>1133.09</ele>
        <time>2017-08-25T09:58:48.300000Z</time>
      </trkpt>
      <trkpt lat="37.84918157686813" lon="112.02040457777565">
        <ele>1134.9</ele>
        <time>2017-08-25T09:58:57.300000Z</time>
      </trkpt>
      <trkpt lat="37.84918346164284" lon="112.02070606295857">
        <ele>1137.4</ele>
        <time>2017-08-25T09:59:12.300000Z</time>
      </trkpt>
      <trkpt lat="37.84910669134948" lon="112.02080097975926">
        <ele>1136.2</ele>
        <time>2017-08-25T09:59:21.300000Z</time>
      </trkpt>
      <trkpt lat="37.84907499977561" lon="112.02088101978892">
        <ele>1138.2</ele>
        <time>2017-08-25T09:59:27.300000Z</time>
      </trkpt>
      <trkpt lat="37.84908988867634" lon="112.02128985452713">
        <ele>1138.7</ele>
        <time>2017-08-25T09:59:39.300000Z</time>
      </trkpt>
      <trkpt lat="37.84910698493854" lon="112.02168652579908">
        <ele>1138.4</ele>
        <time>2017-08-25T09:59:51.300000Z</time>
      </trkpt>
      <trkpt lat="37.84910005615486" lon="112.0220396697554">
        <ele>1137.4</ele>
        <time>2017-08-25T10:00:00.300000Z</time>
      </trkpt>
      <trkpt lat="37.84911354219472" lon="112.02246960993621">
        <ele>1138.5</ele>
        <time>2017-08-25T10:00:12.300000Z</time>
      </trkpt>
      <trkpt lat="37.84912876829677" lon="112.02265835157687">
        <ele>1139.09</ele>
        <time>2017-08-25T10:00:18.300000Z</time>
      </trkpt>
      <trkpt lat="37.849096934005956" lon="112.02309479493766">
        <ele>1137.8</ele>
        <time>2017-08-25T10:00:30.300000Z</time>
      </trkpt>
      <trkpt lat="37.849072184487625" lon="112.02321810528456">
        <ele>1137.09</ele>
        <time>2017-08-25T10:00:33.300000Z</time>
      </trkpt>
      <trkpt lat="37.849070536027455" lon="112.02332681105003">
        <ele>1136.59</ele>
        <time>2017-08-25T10:00:36.300000Z</time>
      </trkpt>
      <trkpt lat="37.84898721455127" lon="112.0235399066428">
        <ele>1136.4</ele>
        <time>2017-08-25T10:00:42.300000Z</time>
      </trkpt>
      <trkpt lat="37.84895710165539" lon="112.0237416397709">
        <ele>1134.5</ele>
        <time>2017-08-25T10:00:48.300000Z</time>
      </trkpt>
      <trkpt lat="37.84896879417716" lon="112.02403666327048">
        <ele>1132.5</ele>
        <time>2017-08-25T10:00:57.300000Z</time>
      </trkpt>
      <trkpt lat="37.84894026264197" lon="112.0242567878588">
        <ele>1131.59</ele>
        <time>2017-08-25T10:01:03.300000Z</time>
      </trkpt>
      <trkpt lat="37.848953972921144" lon="112.02450854826249">
        <ele>1130.9</ele>
        <time>2017-08-25T10:01:18.300000Z</time>
      </trkpt>
      <trkpt lat="37.848985424325505" lon="112.02461860649903">
        <ele>1133.8</ele>
        <time>2017-08-25T10:01:24.300000Z</time>
      </trkpt>
      <trkpt lat="37.84898229191333" lon="112.02477680478886">
        <ele>1136.59</ele>
        <time>2017-08-25T10:01:30.300000Z</time>
      </trkpt>
      <trkpt lat="37.84892555655124" lon="112.02499369276775">
        <ele>1137.9</ele>
        <time>2017-08-25T10:01:42.300000Z</time>
      </trkpt>
      <trkpt lat="37.848920759192715" lon="112.02506373383952">
        <ele>1138.5</ele>
        <time>2017-08-25T10:01:48.300000Z</time>
      </trkpt>
      <trkpt lat="37.84887904213692" lon="112.02514189233084">
        <ele>1139.2</ele>
        <time>2017-08-25T10:01:54.300000Z</time>
      </trkpt>
      <trkpt lat="37.84882738464081" lon="112.0253887999135">
        <ele>1141.4</ele>
        <time>2017-08-25T10:02:04.500000Z</time>
      </trkpt>
      <trkpt lat="37.848835658916165" lon="112.02554375554797">
        <ele>1142.8</ele>
        <time>2017-08-25T10:02:08.300000Z</time>
      </trkpt>
      <trkpt lat="37.84887058839074" lon="112.0256735585472">
        <ele>1143.4</ele>
        <time>2017-08-25T10:02:11.300000Z</time>
      </trkpt>
      <trkpt lat="37.84886728815298" lon="112.02579390152054">
        <ele>1144.0</ele>
        <time>2017-08-25T10:02:14.300000Z</time>
      </trkpt>
      <trkpt lat="37.84889060872527" lon="112.02590207222235">
        <ele>1144.3</ele>
        <time>2017-08-25T10:02:17.300000Z</time>
      </trkpt>
      <trkpt lat="37.84884737307886" lon="112.02625039870314">
        <ele>1145.9</ele>
        <time>2017-08-25T10:02:29.300000Z</time>
      </trkpt>
      <trkpt lat="37.84888740510331" lon="112.02629717958446">
        <ele>1145.7</ele>
        <time>2017-08-25T10:02:32.300000Z</time>
      </trkpt>
      <trkpt lat="37.84891725125543" lon="112.02640048339018">
        <ele>1142.9</ele>
        <time>2017-08-25T10:02:38.300000Z</time>
      </trkpt>
      <trkpt lat="37.84887416692929" lon="112.02648378379274">
        <ele>1140.3</ele>
        <time>2017-08-25T10:02:44.300000Z</time>
      </trkpt>
      <trkpt lat="37.84860084326805" lon="112.0265270869869">
        <ele>1136.59</ele>
        <time>2017-08-25T10:02:56.300000Z</time>
      </trkpt>
      <trkpt lat="37.848545679681585" lon="112.02656062817238">
        <ele>1134.5</ele>
        <time>2017-08-25T10:02:59.300000Z</time>
      </trkpt>
      <trkpt lat="37.84834089633844" lon="112.02653874714984">
        <ele>1127.5</ele>
        <time>2017-08-25T10:03:11.300000Z</time>
      </trkpt>
      <trkpt lat="37.84820750000113" lon="112.02660880720383">
        <ele>1123.7</ele>
        <time>2017-08-25T10:03:17.300000Z</time>
      </trkpt>
      <trkpt lat="37.848060679497266" lon="112.02672890069356">
        <ele>1120.2</ele>
        <time>2017-08-25T10:03:23.300000Z</time>
      </trkpt>
      <trkpt lat="37.84798421544749" lon="112.02681572177238">
        <ele>1118.7</ele>
        <time>2017-08-25T10:03:26.300000Z</time>
      </trkpt>
    </trkseg>
  </trk>
</gpx>