<?xml version="1.0" encoding="UTF-8"?>
<gpx xmlns="http://www.topografix.com/GPX/1/1" xmlns:gpxtpx="http://www.garmin.com/xmlschemas/TrackPointExtension/v1" xmlns:xsi="http://www.w3.org/2001/XMLSchema-instance" xsi:schemaLocation="http://www.topografix.com/GPX/1/1 http://www.topografix.com/GPX/1/1/gpx.xsd" version="1.1" creator="gpx.py -- https://github.com/tkrajina/gpxpy">
  <trk>
    <name>gpx from keep</name>
    <type>Run</type>
    <trkseg>
      <trkpt lat="37.847044625223944" lon="112.02937270890489">
        <ele>1144.8</ele>
        <time>2016-11-26T08:21:54.800000Z</time>
      </trkpt>
      <trkpt lat="37.84710305424761" lon="112.02933429569065">
        <ele>1150.8</ele>
        <time>2016-11-26T08:22:06.800000Z</time>
      </trkpt>
      <trkpt lat="37.84715154569035" lon="112.02933129598624">
        <ele>1134.4</ele>
        <time>2016-11-26T08:22:12.800000Z</time>
      </trkpt>
      <trkpt lat="37.84724439962699" lon="112.02907920510314">
        <ele>1125.4</ele>
        <time>2016-11-26T08:22:30.800000Z</time>
      </trkpt>
      <trkpt lat="37.8472252006301" lon="112.02897735329199">
        <ele>1124.4</ele>
        <time>2016-11-26T08:22:36.800000Z</time>
      </trkpt>
      <trkpt lat="37.84707325079994" lon="112.02877483704485">
        <ele>1126.2</ele>
        <time>2016-11-26T08:22:51.800000Z</time>
      </trkpt>
      <trkpt lat="37.847045883684004" lon="112.0287156160972">
        <ele>1124.5</ele>
        <time>2016-11-26T08:23:00.800000Z</time>
      </trkpt>
      <trkpt lat="37.84706750951644" lon="112.02855969616483">
        <ele>1123.0</ele>
        <time>2016-11-26T08:23:13.800000Z</time>
      </trkpt>
      <trkpt lat="37.84713005683777" lon="112.02839475925714">
        <ele>1118.9</ele>
        <time>2016-11-26T08:23:25.800000Z</time>
      </trkpt>
      <trkpt lat="37.84713746985802" lon="112.02830768840404">
        <ele>1117.6</ele>
        <time>2016-11-26T08:23:31.800000Z</time>
      </trkpt>
      <trkpt lat="37.84712180478061" lon="112.02824309994482">
        <ele>1117.1</ele>
        <time>2016-11-26T08:23:37.800000Z</time>
      </trkpt>
      <trkpt lat="37.84721259827375" lon="112.02812679510511">
        <ele>1117.7</ele>
        <time>2016-11-26T08:23:43.800000Z</time>
      </trkpt>
      <trkpt lat="37.84723239941469" lon="112.02787383301458">
        <ele>1117.0</ele>
        <time>2016-11-26T08:23:52.800000Z</time>
      </trkpt>
      <trkpt lat="37.84726400981902" lon="112.02777521606104">
        <ele>1116.5</ele>
        <time>2016-11-26T08:23:55.800000Z</time>
      </trkpt>
      <trkpt lat="37.847242328105054" lon="112.02735883254365">
        <ele>1114.3</ele>
        <time>2016-11-26T08:24:10.800000Z</time>
      </trkpt>
      <trkpt lat="37.84725103712576" lon="112.02729428055056">
        <ele>1114.2</ele>
        <time>2016-11-26T08:24:13.800000Z</time>
      </trkpt>
      <trkpt lat="37.847484222883516" lon="112.02699966858367">
        <ele>1113.4</ele>
        <time>2016-11-26T08:24:25.800000Z</time>
      </trkpt>
      <trkpt lat="37.84756999208078" lon="112.02675624863377">
        <ele>1113.0</ele>
        <time>2016-11-26T08:24:37.800000Z</time>
      </trkpt>
      <trkpt lat="37.84763665284757" lon="112.02667237829284">
        <ele>1112.1</ele>
        <time>2016-11-26T08:24:43.800000Z</time>
      </trkpt>
      <trkpt lat="37.847826513309755" lon="112.02666451773997">
        <ele>1112.6</ele>
        <time>2016-11-26T08:24:55.800000Z</time>
      </trkpt>
      <trkpt lat="37.847894280264825" lon="112.0266390865109">
        <ele>1112.0</ele>
        <time>2016-11-26T08:24:58.800000Z</time>
      </trkpt>
      <trkpt lat="37.84800462844181" lon="112.02664433882148">
        <ele>1111.7</ele>
        <time>2016-11-26T08:25:04.800000Z</time>
      </trkpt>
      <trkpt lat="37.84814292163047" lon="112.0267310536399">
        <ele>1111.8</ele>
        <time>2016-11-26T08:25:10.800000Z</time>
      </trkpt>
      <trkpt lat="37.84841199909399" lon="112.02665593478505">
        <ele>1119.3</ele>
        <time>2016-11-26T08:25:22.800000Z</time>
      </trkpt>
      <trkpt lat="37.84851551339111" lon="112.0265524602142">
        <ele>1122.6</ele>
        <time>2016-11-26T08:25:31.800000Z</time>
      </trkpt>
      <trkpt lat="37.8486072510305" lon="112.02648379159184">
        <ele>1124.1</ele>
        <time>2016-11-26T08:25:34.800000Z</time>
      </trkpt>
      <trkpt lat="37.84868495096045" lon="112.02629315491974">
        <ele>1124.5</ele>
        <time>2016-11-26T08:25:43.800000Z</time>
      </trkpt>
      <trkpt lat="37.848906114427535" lon="112.02601894442145">
        <ele>1125.6</ele>
        <time>2016-11-26T08:25:55.800000Z</time>
      </trkpt>
      <trkpt lat="37.84898053179676" lon="112.02591531229086">
        <ele>1125.4</ele>
        <time>2016-11-26T08:25:58.800000Z</time>
      </trkpt>
      <trkpt lat="37.84908741714852" lon="112.02581737230601">
        <ele>1126.0</ele>
        <time>2016-11-26T08:26:04.800000Z</time>
      </trkpt>
      <trkpt lat="37.84912254387727" lon="112.02574756867789">
        <ele>1126.3</ele>
        <time>2016-11-26T08:26:07.800000Z</time>
      </trkpt>
      <trkpt lat="37.84899660412746" lon="112.0254584143776">
        <ele>1124.1</ele>
        <time>2016-11-26T08:26:13.800000Z</time>
      </trkpt>
      <trkpt lat="37.84891013632691" lon="112.02531583246974">
        <ele>1123.0</ele>
        <time>2016-11-26T08:26:16.800000Z</time>
      </trkpt>
      <trkpt lat="37.84885994465447" lon="112.02520354863984">
        <ele>1121.7</ele>
        <time>2016-11-26T08:26:19.800000Z</time>
      </trkpt>
      <trkpt lat="37.84880581229166" lon="112.02500084498928">
        <ele>1120.9</ele>
        <time>2016-11-26T08:26:25.800000Z</time>
      </trkpt>
      <trkpt lat="37.84882375105304" lon="112.02468318584089">
        <ele>1119.5</ele>
        <time>2016-11-26T08:26:37.800000Z</time>
      </trkpt>
      <trkpt lat="37.84879817052202" lon="112.02450452209216">
        <ele>1118.4</ele>
        <time>2016-11-26T08:26:43.900000Z</time>
      </trkpt>
      <trkpt lat="37.84882158601764" lon="112.02441523050265">
        <ele>1117.5</ele>
        <time>2016-11-26T08:26:46.800000Z</time>
      </trkpt>
      <trkpt lat="37.84881357916606" lon="112.02429549620469">
        <ele>1117.6</ele>
        <time>2016-11-26T08:26:49.800000Z</time>
      </trkpt>
      <trkpt lat="37.84876281259135" lon="112.02419862926715">
        <ele>1117.4</ele>
        <time>2016-11-26T08:26:52.800000Z</time>
      </trkpt>
      <trkpt lat="37.8487395731892" lon="112.02398262650999">
        <ele>1116.2</ele>
        <time>2016-11-26T08:26:58.800000Z</time>
      </trkpt>
      <trkpt lat="37.84874520687763" lon="112.02389318534793">
        <ele>1115.7</ele>
        <time>2016-11-26T08:27:01.800000Z</time>
      </trkpt>
      <trkpt lat="37.84879961707695" lon="112.02364781089925">
        <ele>1113.8</ele>
        <time>2016-11-26T08:27:10.800000Z</time>
      </trkpt>
      <trkpt lat="37.84884382143633" lon="112.02328382541091">
        <ele>1109.9</ele>
        <time>2016-11-26T08:27:22.800000Z</time>
      </trkpt>
      <trkpt lat="37.848877082799206" lon="112.02289344235147">
        <ele>1105.9</ele>
        <time>2016-11-26T08:27:34.800000Z</time>
      </trkpt>
      <trkpt lat="37.84887422338008" lon="112.02248999255006">
        <ele>1105.6</ele>
        <time>2016-11-26T08:27:46.800000Z</time>
      </trkpt>
      <trkpt lat="37.84887717109501" lon="112.02237408325352">
        <ele>1107.6</ele>
        <time>2016-11-26T08:27:49.800000Z</time>
      </trkpt>
      <trkpt lat="37.84895012208782" lon="112.02219106016378">
        <ele>1106.6</ele>
        <time>2016-11-26T08:27:55.800000Z</time>
      </trkpt>
      <trkpt lat="37.848978288639174" lon="112.02176367742774">
        <ele>1103.9</ele>
        <time>2016-11-26T08:28:10.800000Z</time>
      </trkpt>
      <trkpt lat="37.84896888724008" lon="112.02135712154438">
        <ele>1103.8</ele>
        <time>2016-11-26T08:28:22.800000Z</time>
      </trkpt>
      <trkpt lat="37.848961598580665" lon="112.02118553021268">
        <ele>1102.8</ele>
        <time>2016-11-26T08:28:28.800000Z</time>
      </trkpt>
      <trkpt lat="37.84898941866696" lon="112.02094168682437">
        <ele>1100.0</ele>
        <time>2016-11-26T08:28:37.800000Z</time>
      </trkpt>
      <trkpt lat="37.84895598846038" lon="112.02065030831888">
        <ele>1101.4</ele>
        <time>2016-11-26T08:28:46.800000Z</time>
      </trkpt>
      <trkpt lat="37.8489862612739" lon="112.02046806933504">
        <ele>1102.8</ele>
        <time>2016-11-26T08:28:52.900000Z</time>
      </trkpt>
      <trkpt lat="37.84898799793254" lon="112.02011872074755">
        <ele>1111.7</ele>
        <time>2016-11-26T08:29:01.800000Z</time>
      </trkpt>
      <trkpt lat="37.8490916928888" lon="112.01986148303828">
        <ele>1107.2</ele>
        <time>2016-11-26T08:29:10.800000Z</time>
      </trkpt>
      <trkpt lat="37.84912128275776" lon="112.01969157781292">
        <ele>1104.3</ele>
        <time>2016-11-26T08:29:16.800000Z</time>
      </trkpt>
      <trkpt lat="37.849119146447094" lon="112.01960483096187">
        <ele>1103.6</ele>
        <time>2016-11-26T08:29:19.800000Z</time>
      </trkpt>
      <trkpt lat="37.8491455201227" lon="112.01951742173252">
        <ele>1102.2</ele>
        <time>2016-11-26T08:29:22.900000Z</time>
      </trkpt>
      <trkpt lat="37.84913297135255" lon="112.01928082455215">
        <ele>1107.5</ele>
        <time>2016-11-26T08:29:28.800000Z</time>
      </trkpt>
      <trkpt lat="37.84916063548707" lon="112.01919208573479">
        <ele>1106.0</ele>
        <time>2016-11-26T08:29:31.800000Z</time>
      </trkpt>
      <trkpt lat="37.849163552836906" lon="112.01876106780962">
        <ele>1109.7</ele>
        <time>2016-11-26T08:29:43.800000Z</time>
      </trkpt>
      <trkpt lat="37.849178022119915" lon="112.01858634462975">
        <ele>1109.8</ele>
        <time>2016-11-26T08:29:49.900000Z</time>
      </trkpt>
      <trkpt lat="37.84916865496482" lon="112.01847535376655">
        <ele>1112.9</ele>
        <time>2016-11-26T08:29:52.800000Z</time>
      </trkpt>
      <trkpt lat="37.8492043491277" lon="112.0180616110027">
        <ele>1115.0</ele>
        <time>2016-11-26T08:30:04.800000Z</time>
      </trkpt>
      <trkpt lat="37.849204942541554" lon="112.01785914618706">
        <ele>1114.4</ele>
        <time>2016-11-26T08:30:10.800000Z</time>
      </trkpt>
      <trkpt lat="37.849225625519814" lon="112.0177843478626">
        <ele>1112.9</ele>
        <time>2016-11-26T08:30:13.800000Z</time>
      </trkpt>
      <trkpt lat="37.84921668156115" lon="112.01758546373203">
        <ele>1114.7</ele>
        <time>2016-11-26T08:30:19.800000Z</time>
      </trkpt>
      <trkpt lat="37.84923437688588" lon="112.01750611789116">
        <ele>1114.5</ele>
        <time>2016-11-26T08:30:22.800000Z</time>
      </trkpt>
      <trkpt lat="37.84921530817397" lon="112.0173769999015">
        <ele>1119.6</ele>
        <time>2016-11-26T08:30:25.800000Z</time>
      </trkpt>
      <trkpt lat="37.84922983298677" lon="112.01728466888032">
        <ele>1119.9</ele>
        <time>2016-11-26T08:30:28.800000Z</time>
      </trkpt>
      <trkpt lat="37.84921343191916" lon="112.01707626250669">
        <ele>1125.5</ele>
        <time>2016-11-26T08:30:34.800000Z</time>
      </trkpt>
      <trkpt lat="37.84925233856861" lon="112.01679507059815">
        <ele>1129.8</ele>
        <time>2016-11-26T08:30:43.900000Z</time>
      </trkpt>
      <trkpt lat="37.84925094388885" lon="112.01659831255185">
        <ele>1133.2</ele>
        <time>2016-11-26T08:30:49.800000Z</time>
      </trkpt>
      <trkpt lat="37.84928070632653" lon="112.01645235586285">
        <ele>1132.8</ele>
        <time>2016-11-26T08:30:55.800000Z</time>
      </trkpt>
      <trkpt lat="37.849306052594955" lon="112.01612177103192">
        <ele>1133.3</ele>
        <time>2016-11-26T08:31:07.800000Z</time>
      </trkpt>
      <trkpt lat="37.84939003972528" lon="112.01587078301407">
        <ele>1126.8</ele>
        <time>2016-11-26T08:31:16.800000Z</time>
      </trkpt>
      <trkpt lat="37.84941745747548" lon="112.01567484030572">
        <ele>1126.1</ele>
        <time>2016-11-26T08:31:22.800000Z</time>
      </trkpt>
      <trkpt lat="37.8495143133731" lon="112.01532536597003">
        <ele>1118.7</ele>
        <time>2016-11-26T08:31:34.800000Z</time>
      </trkpt>
      <trkpt lat="37.84953178429335" lon="112.01524332472165">
        <ele>1116.3</ele>
        <time>2016-11-26T08:31:37.800000Z</time>
      </trkpt>
      <trkpt lat="37.84952387213716" lon="112.01513124947844">
        <ele>1115.6</ele>
        <time>2016-11-26T08:31:40.800000Z</time>
      </trkpt>
      <trkpt lat="37.84953575565834" lon="112.0147377936974">
        <ele>1116.0</ele>
        <time>2016-11-26T08:31:52.800000Z</time>
      </trkpt>
      <trkpt lat="37.849562385845424" lon="112.01444518668079">
        <ele>1114.2</ele>
        <time>2016-11-26T08:32:01.800000Z</time>
      </trkpt>
      <trkpt lat="37.84953557633043" lon="112.01434040882039">
        <ele>1117.1</ele>
        <time>2016-11-26T08:32:04.800000Z</time>
      </trkpt>
      <trkpt lat="37.84953804459037" lon="112.01396007317567">
        <ele>1120.4</ele>
        <time>2016-11-26T08:32:16.800000Z</time>
      </trkpt>
      <trkpt lat="37.849542733678945" lon="112.01385872012887">
        <ele>1121.8</ele>
        <time>2016-11-26T08:32:19.800000Z</time>
      </trkpt>
      <trkpt lat="37.849527646047875" lon="112.01366687527036">
        <ele>1125.6</ele>
        <time>2016-11-26T08:32:25.800000Z</time>
      </trkpt>
      <trkpt lat="37.849528954303246" lon="112.01327697881018">
        <ele>1128.4</ele>
        <time>2016-11-26T08:32:37.800000Z</time>
      </trkpt>
      <trkpt lat="37.84955886214367" lon="112.0128985053398">
        <ele>1126.4</ele>
        <time>2016-11-26T08:32:49.800000Z</time>
      </trkpt>
      <trkpt lat="37.849585918855304" lon="112.01251026783873">
        <ele>1122.9</ele>
        <time>2016-11-26T08:33:01.800000Z</time>
      </trkpt>
      <trkpt lat="37.84965210480767" lon="112.0121414940643">
        <ele>1122.4</ele>
        <time>2016-11-26T08:33:13.800000Z</time>
      </trkpt>
      <trkpt lat="37.84968148547921" lon="112.01173883273871">
        <ele>1123.1</ele>
        <time>2016-11-26T08:33:25.800000Z</time>
      </trkpt>
      <trkpt lat="37.8496882048067" lon="112.01152883481741">
        <ele>1124.8</ele>
        <time>2016-11-26T08:33:31.800000Z</time>
      </trkpt>
      <trkpt lat="37.849676694721815" lon="112.01142045670937">
        <ele>1125.8</ele>
        <time>2016-11-26T08:33:34.800000Z</time>
      </trkpt>
      <trkpt lat="37.84974312267197" lon="112.01102280725951">
        <ele>1125.5</ele>
        <time>2016-11-26T08:33:46.900000Z</time>
      </trkpt>
      <trkpt lat="37.849767882181155" lon="112.01062322672028">
        <ele>1128.8</ele>
        <time>2016-11-26T08:33:58.800000Z</time>
      </trkpt>
      <trkpt lat="37.84979085190678" lon="112.0102463647885">
        <ele>1129.2</ele>
        <time>2016-11-26T08:34:10.800000Z</time>
      </trkpt>
      <trkpt lat="37.84982844059235" lon="112.009960008134">
        <ele>1130.1</ele>
        <time>2016-11-26T08:34:19.800000Z</time>
      </trkpt>
      <trkpt lat="37.84981490673359" lon="112.00970279868983">
        <ele>1130.3</ele>
        <time>2016-11-26T08:34:28.800000Z</time>
      </trkpt>
      <trkpt lat="37.8498243209579" lon="112.00961004487543">
        <ele>1130.8</ele>
        <time>2016-11-26T08:34:31.800000Z</time>
      </trkpt>
      <trkpt lat="37.849765173123345" lon="112.0093743770527">
        <ele>1125.7</ele>
        <time>2016-11-26T08:34:40.800000Z</time>
      </trkpt>
      <trkpt lat="37.849757760735564" lon="112.00929915568042">
        <ele>1124.1</ele>
        <time>2016-11-26T08:34:44Z</time>
      </trkpt>
      <trkpt lat="37.84970503462199" lon="112.00917832444865">
        <ele>1124.6</ele>
        <time>2016-11-26T08:34:49.800000Z</time>
      </trkpt>
      <trkpt lat="37.849641591391695" lon="112.00911861105924">
        <ele>1125.2</ele>
        <time>2016-11-26T08:34:52.800000Z</time>
      </trkpt>
      <trkpt lat="37.84946170375034" lon="112.00878860044175">
        <ele>1126.7</ele>
        <time>2016-11-26T08:35:07.800000Z</time>
      </trkpt>
      <trkpt lat="37.84934790412119" lon="112.0084580805198">
        <ele>1129.3</ele>
        <time>2016-11-26T08:35:22.800000Z</time>
      </trkpt>
      <trkpt lat="37.84916039547939" lon="112.00819476821594">
        <ele>1123.8</ele>
        <time>2016-11-26T08:35:34.800000Z</time>
      </trkpt>
      <trkpt lat="37.84897071854062" lon="112.00794780784133">
        <ele>1115.4</ele>
        <time>2016-11-26T08:35:46.900000Z</time>
      </trkpt>
      <trkpt lat="37.848715002894814" lon="112.00765721902157">
        <ele>1113.3</ele>
        <time>2016-11-26T08:35:58.800000Z</time>
      </trkpt>
      <trkpt lat="37.84849018289021" lon="112.0073184071363">
        <ele>1108.0</ele>
        <time>2016-11-26T08:36:16.800000Z</time>
      </trkpt>
      <trkpt lat="37.84844434995162" lon="112.00725494044444">
        <ele>1106.1</ele>
        <time>2016-11-26T08:36:19.800000Z</time>
      </trkpt>
      <trkpt lat="37.84832026253584" lon="112.00717231037895">
        <ele>1102.9</ele>
        <time>2016-11-26T08:36:25.800000Z</time>
      </trkpt>
      <trkpt lat="37.84801916234449" lon="112.00711515005705">
        <ele>1102.9</ele>
        <time>2016-11-26T08:36:40.800000Z</time>
      </trkpt>
      <trkpt lat="37.84774589892852" lon="112.00705659032747">
        <ele>1108.1</ele>
        <time>2016-11-26T08:36:52.800000Z</time>
      </trkpt>
      <trkpt lat="37.847468764275426" lon="112.00703263353657">
        <ele>1111.4</ele>
        <time>2016-11-26T08:37:04.800000Z</time>
      </trkpt>
      <trkpt lat="37.84718081843582" lon="112.00699994092712">
        <ele>1112.2</ele>
        <time>2016-11-26T08:37:16.800000Z</time>
      </trkpt>
      <trkpt lat="37.846879374942716" lon="112.00697933701376">
        <ele>1112.4</ele>
        <time>2016-11-26T08:37:32.800000Z</time>
      </trkpt>
      <trkpt lat="37.84674937740234" lon="112.00696796531315">
        <ele>1112.6</ele>
        <time>2016-11-26T08:37:38.800000Z</time>
      </trkpt>
      <trkpt lat="37.84665371542774" lon="112.00689869217385">
        <ele>1111.9</ele>
        <time>2016-11-26T08:37:41.800000Z</time>
      </trkpt>
      <trkpt lat="37.84658366171373" lon="112.00687212433874">
        <ele>1110.8</ele>
        <time>2016-11-26T08:37:44.800000Z</time>
      </trkpt>
      <trkpt lat="37.846409506790906" lon="112.0067312811425">
        <ele>1122.2</ele>
        <time>2016-11-26T08:37:50.800000Z</time>
      </trkpt>
      <trkpt lat="37.84612307668202" lon="112.00667229211236">
        <ele>1130.0</ele>
        <time>2016-11-26T08:38:03Z</time>
      </trkpt>
      <trkpt lat="37.845826610944556" lon="112.00662116227906">
        <ele>1129.6</ele>
        <time>2016-11-26T08:38:17.800000Z</time>
      </trkpt>
      <trkpt lat="37.845762116465366" lon="112.00660164136156">
        <ele>1130.0</ele>
        <time>2016-11-26T08:38:20.800000Z</time>
      </trkpt>
      <trkpt lat="37.845688146716995" lon="112.00661029289353">
        <ele>1127.1</ele>
        <time>2016-11-26T08:38:23.800000Z</time>
      </trkpt>
      <trkpt lat="37.845410610661744" lon="112.00654702599452">
        <ele>1123.3</ele>
        <time>2016-11-26T08:38:35.800000Z</time>
      </trkpt>
      <trkpt lat="37.84511907426717" lon="112.00648482186978">
        <ele>1118.7</ele>
        <time>2016-11-26T08:38:47.800000Z</time>
      </trkpt>
      <trkpt lat="37.84498849845931" lon="112.00641082578521">
        <ele>1120.5</ele>
        <time>2016-11-26T08:38:53.800000Z</time>
      </trkpt>
      <trkpt lat="37.84470566865601" lon="112.0063675337405">
        <ele>1120.4</ele>
        <time>2016-11-26T08:39:05.800000Z</time>
      </trkpt>
      <trkpt lat="37.844454942482656" lon="112.00641209995564">
        <ele>1125.0</ele>
        <time>2016-11-26T08:39:17.800000Z</time>
      </trkpt>
      <trkpt lat="37.84414696906134" lon="112.00658124984179">
        <ele>1134.2</ele>
        <time>2016-11-26T08:39:32.800000Z</time>
      </trkpt>
      <trkpt lat="37.84388417574546" lon="112.00673279820853">
        <ele>1132.8</ele>
        <time>2016-11-26T08:39:44.800000Z</time>
      </trkpt>
      <trkpt lat="37.84357288162709" lon="112.00690764662004">
        <ele>1142.4</ele>
        <time>2016-11-26T08:39:56.800000Z</time>
      </trkpt>
      <trkpt lat="37.84342365490443" lon="112.00699990408171">
        <ele>1143.4</ele>
        <time>2016-11-26T08:40:02.800000Z</time>
      </trkpt>
      <trkpt lat="37.84332802849198" lon="112.00703336322847">
        <ele>1146.0</ele>
        <time>2016-11-26T08:40:05.800000Z</time>
      </trkpt>
      <trkpt lat="37.84307456557727" lon="112.00721280681009">
        <ele>1151.2</ele>
        <time>2016-11-26T08:40:17.800000Z</time>
      </trkpt>
      <trkpt lat="37.84282866930108" lon="112.00735689511235">
        <ele>1153.1</ele>
        <time>2016-11-26T08:40:29.800000Z</time>
      </trkpt>
      <trkpt lat="37.84264714223749" lon="112.00747601411022">
        <ele>1155.8</ele>
        <time>2016-11-26T08:40:38.800000Z</time>
      </trkpt>
      <trkpt lat="37.84253033791141" lon="112.00758552168585">
        <ele>1154.5</ele>
        <time>2016-11-26T08:40:44.800000Z</time>
      </trkpt>
      <trkpt lat="37.84246421569644" lon="112.0076200548807">
        <ele>1154.9</ele>
        <time>2016-11-26T08:40:47.800000Z</time>
      </trkpt>
      <trkpt lat="37.84223386013733" lon="112.00785866989337">
        <ele>1155.6</ele>
        <time>2016-11-26T08:40:59.800000Z</time>
      </trkpt>
      <trkpt lat="37.84197453115546" lon="112.00802556174388">
        <ele>1155.8</ele>
        <time>2016-11-26T08:41:11.800000Z</time>
      </trkpt>
      <trkpt lat="37.84166004388904" lon="112.00809630455603">
        <ele>1154.6</ele>
        <time>2016-11-26T08:41:23.800000Z</time>
      </trkpt>
      <trkpt lat="37.84150752686243" lon="112.00808698753626">
        <ele>1154.6</ele>
        <time>2016-11-26T08:41:29.800000Z</time>
      </trkpt>
      <trkpt lat="37.841293544782275" lon="112.00812005841102">
        <ele>1153.1</ele>
        <time>2016-11-26T08:41:38.800000Z</time>
      </trkpt>
      <trkpt lat="37.84119622654648" lon="112.00805995242159">
        <ele>1159.1</ele>
        <time>2016-11-26T08:41:41.800000Z</time>
      </trkpt>
      <trkpt lat="37.84088086993002" lon="112.00801231713221">
        <ele>1166.5</ele>
        <time>2016-11-26T08:41:53.800000Z</time>
      </trkpt>
      <trkpt lat="37.84054438036353" lon="112.00801503954197">
        <ele>1163.7</ele>
        <time>2016-11-26T08:42:08.800000Z</time>
      </trkpt>
      <trkpt lat="37.840286994552685" lon="112.00799676580183">
        <ele>1160.1</ele>
        <time>2016-11-26T08:42:20.800000Z</time>
      </trkpt>
      <trkpt lat="37.84008091207416" lon="112.00804346412048">
        <ele>1153.6</ele>
        <time>2016-11-26T08:42:29.800000Z</time>
      </trkpt>
      <trkpt lat="37.83984168142829" lon="112.00815390639461">
        <ele>1150.4</ele>
        <time>2016-11-26T08:42:41.800000Z</time>
      </trkpt>
      <trkpt lat="37.83971372000331" lon="112.00811882639937">
        <ele>1152.5</ele>
        <time>2016-11-26T08:42:47.800000Z</time>
      </trkpt>
      <trkpt lat="37.839484854419624" lon="112.00814566877366">
        <ele>1151.6</ele>
        <time>2016-11-26T08:42:56.800000Z</time>
      </trkpt>
      <trkpt lat="37.83952761719529" lon="112.00817115130111">
        <ele>1152.7</ele>
        <time>2016-11-26T08:43:08.800000Z</time>
      </trkpt>
      <trkpt lat="37.839824040947384" lon="112.00810477738956">
        <ele>1154.4</ele>
        <time>2016-11-26T08:43:26.800000Z</time>
      </trkpt>
      <trkpt lat="37.840173898363155" lon="112.00805797080565">
        <ele>1148.7</ele>
        <time>2016-11-26T08:43:41.800000Z</time>
      </trkpt>
      <trkpt lat="37.84025657198281" lon="112.0080561299315">
        <ele>1144.5</ele>
        <time>2016-11-26T08:43:44.800000Z</time>
      </trkpt>
      <trkpt lat="37.8404736853208" lon="112.00816240458467">
        <ele>1138.3</ele>
        <time>2016-11-26T08:43:53.800000Z</time>
      </trkpt>
      <trkpt lat="37.8405318387234" lon="112.00821921665256">
        <ele>1135.1</ele>
        <time>2016-11-26T08:43:59.800000Z</time>
      </trkpt>
      <trkpt lat="37.84065700075646" lon="112.00827176167182">
        <ele>1128.0</ele>
        <time>2016-11-26T08:44:11.800000Z</time>
      </trkpt>
      <trkpt lat="37.84093006843273" lon="112.0082990085028">
        <ele>1126.3</ele>
        <time>2016-11-26T08:44:26.800000Z</time>
      </trkpt>
      <trkpt lat="37.8411101132439" lon="112.00829870517485">
        <ele>1124.9</ele>
        <time>2016-11-26T08:44:35.800000Z</time>
      </trkpt>
      <trkpt lat="37.841412653918674" lon="112.00816866042838">
        <ele>1121.3</ele>
        <time>2016-11-26T08:44:47.800000Z</time>
      </trkpt>
      <trkpt lat="37.8416255295872" lon="112.00803212095566">
        <ele>1118.6</ele>
        <time>2016-11-26T08:44:53.800000Z</time>
      </trkpt>
      <trkpt lat="37.84172240899958" lon="112.00799869026689">
        <ele>1118.7</ele>
        <time>2016-11-26T08:44:56.800000Z</time>
      </trkpt>
      <trkpt lat="37.84198180358424" lon="112.00783060025586">
        <ele>1121.3</ele>
        <time>2016-11-26T08:45:05.800000Z</time>
      </trkpt>
      <trkpt lat="37.84218107190171" lon="112.0077067384757">
        <ele>1120.7</ele>
        <time>2016-11-26T08:45:14.800000Z</time>
      </trkpt>
      <trkpt lat="37.84225737398207" lon="112.00768101007102">
        <ele>1121.4</ele>
        <time>2016-11-26T08:45:17.800000Z</time>
      </trkpt>
      <trkpt lat="37.84257595761982" lon="112.00749851955442">
        <ele>1137.9</ele>
        <time>2016-11-26T08:45:26.800000Z</time>
      </trkpt>
      <trkpt lat="37.84284880655142" lon="112.00724855690027">
        <ele>1143.4</ele>
        <time>2016-11-26T08:45:38.800000Z</time>
      </trkpt>
      <trkpt lat="37.84301922414975" lon="112.00705810917486">
        <ele>1142.6</ele>
        <time>2016-11-26T08:45:47.800000Z</time>
      </trkpt>
      <trkpt lat="37.843250511696745" lon="112.00686574185605">
        <ele>1145.3</ele>
        <time>2016-11-26T08:45:59.800000Z</time>
      </trkpt>
      <trkpt lat="37.84350536794971" lon="112.00666638499526">
        <ele>1146.3</ele>
        <time>2016-11-26T08:46:11.900000Z</time>
      </trkpt>
      <trkpt lat="37.843617607541596" lon="112.00654199299913">
        <ele>1144.2</ele>
        <time>2016-11-26T08:46:17.800000Z</time>
      </trkpt>
      <trkpt lat="37.8436983762631" lon="112.00650107958359">
        <ele>1143.5</ele>
        <time>2016-11-26T08:46:20.800000Z</time>
      </trkpt>
      <trkpt lat="37.84393323073038" lon="112.00621128861319">
        <ele>1152.7</ele>
        <time>2016-11-26T08:46:35.800000Z</time>
      </trkpt>
      <trkpt lat="37.8442474605495" lon="112.00612464019329">
        <ele>1154.8</ele>
        <time>2016-11-26T08:46:47.800000Z</time>
      </trkpt>
      <trkpt lat="37.84444817294078" lon="112.00615502881881">
        <ele>1157.6</ele>
        <time>2016-11-26T08:46:53.800000Z</time>
      </trkpt>
      <trkpt lat="37.84455113544702" lon="112.00615392518262">
        <ele>1157.6</ele>
        <time>2016-11-26T08:46:56.900000Z</time>
      </trkpt>
      <trkpt lat="37.84481684563717" lon="112.00620846225354">
        <ele>1155.8</ele>
        <time>2016-11-26T08:47:05.800000Z</time>
      </trkpt>
      <trkpt lat="37.845142775221305" lon="112.00625629089515">
        <ele>1155.9</ele>
        <time>2016-11-26T08:47:17.800000Z</time>
      </trkpt>
      <trkpt lat="37.84544761866435" lon="112.00632605517691">
        <ele>1155.2</ele>
        <time>2016-11-26T08:47:29.800000Z</time>
      </trkpt>
      <trkpt lat="37.84573759508177" lon="112.00643387551048">
        <ele>1150.2</ele>
        <time>2016-11-26T08:47:41.800000Z</time>
      </trkpt>
      <trkpt lat="37.84579944888221" lon="112.00646887472995">
        <ele>1150.2</ele>
        <time>2016-11-26T08:47:44.800000Z</time>
      </trkpt>
      <trkpt lat="37.846061600530774" lon="112.00657270550725">
        <ele>1149.5</ele>
        <time>2016-11-26T08:47:53.800000Z</time>
      </trkpt>
      <trkpt lat="37.84625010146918" lon="112.00663144574631">
        <ele>1149.3</ele>
        <time>2016-11-26T08:47:59.800000Z</time>
      </trkpt>
      <trkpt lat="37.846603836718714" lon="112.00664117666538">
        <ele>1147.7</ele>
        <time>2016-11-26T08:48:11.800000Z</time>
      </trkpt>
      <trkpt lat="37.84685104699001" lon="112.00667638931436">
        <ele>1147.7</ele>
        <time>2016-11-26T08:48:20.800000Z</time>
      </trkpt>
      <trkpt lat="37.84716555869486" lon="112.00666553410379">
        <ele>1147.8</ele>
        <time>2016-11-26T08:48:32.800000Z</time>
      </trkpt>
      <trkpt lat="37.84744928219487" lon="112.00668427848083">
        <ele>1154.6</ele>
        <time>2016-11-26T08:48:44.800000Z</time>
      </trkpt>
      <trkpt lat="37.84759387748186" lon="112.00670956114901">
        <ele>1155.5</ele>
        <time>2016-11-26T08:48:50.900000Z</time>
      </trkpt>
      <trkpt lat="37.84733362221841" lon="112.00674685558987">
        <ele>1155.0</ele>
        <time>2016-11-26T08:49:08.800000Z</time>
      </trkpt>
      <trkpt lat="37.847020557314224" lon="112.00673477724573">
        <ele>1151.6</ele>
        <time>2016-11-26T08:49:23.800000Z</time>
      </trkpt>
      <trkpt lat="37.84673025554414" lon="112.0067213884487">
        <ele>1149.2</ele>
        <time>2016-11-26T08:49:38.800000Z</time>
      </trkpt>
      <trkpt lat="37.84643246517278" lon="112.00673099892109">
        <ele>1140.8</ele>
        <time>2016-11-26T08:49:53.800000Z</time>
      </trkpt>
      <trkpt lat="37.846231034666616" lon="112.00671690517206">
        <ele>1136.6</ele>
        <time>2016-11-26T08:50:02.800000Z</time>
      </trkpt>
      <trkpt lat="37.84593119373639" lon="112.00664383180926">
        <ele>1130.0</ele>
        <time>2016-11-26T08:50:14.800000Z</time>
      </trkpt>
      <trkpt lat="37.845646857967395" lon="112.00657813160451">
        <ele>1125.8</ele>
        <time>2016-11-26T08:50:26.800000Z</time>
      </trkpt>
      <trkpt lat="37.845329930699876" lon="112.0064715725182">
        <ele>1128.2</ele>
        <time>2016-11-26T08:50:41.800000Z</time>
      </trkpt>
      <trkpt lat="37.845036212884814" lon="112.0063831194403">
        <ele>1129.4</ele>
        <time>2016-11-26T08:50:53.800000Z</time>
      </trkpt>
      <trkpt lat="37.844962741931795" lon="112.0063612180824">
        <ele>1128.2</ele>
        <time>2016-11-26T08:50:56.800000Z</time>
      </trkpt>
      <trkpt lat="37.844705086521785" lon="112.00638130124727">
        <ele>1127.1</ele>
        <time>2016-11-26T08:51:08.800000Z</time>
      </trkpt>
      <trkpt lat="37.84444553830719" lon="112.00644057869718">
        <ele>1129.9</ele>
        <time>2016-11-26T08:51:20.800000Z</time>
      </trkpt>
      <trkpt lat="37.844227588573226" lon="112.00655005152446">
        <ele>1129.1</ele>
        <time>2016-11-26T08:51:29.800000Z</time>
      </trkpt>
      <trkpt lat="37.84396205225371" lon="112.0066963933619">
        <ele>1129.9</ele>
        <time>2016-11-26T08:51:41.800000Z</time>
      </trkpt>
      <trkpt lat="37.84389699047464" lon="112.00672478845483">
        <ele>1131.0</ele>
        <time>2016-11-26T08:51:44.800000Z</time>
      </trkpt>
      <trkpt lat="37.84377850662055" lon="112.00684679669213">
        <ele>1132.8</ele>
        <time>2016-11-26T08:51:50.800000Z</time>
      </trkpt>
      <trkpt lat="37.84352752544794" lon="112.00702028327755">
        <ele>1134.8</ele>
        <time>2016-11-26T08:52:02.800000Z</time>
      </trkpt>
      <trkpt lat="37.84326719616082" lon="112.00718180443053">
        <ele>1138.2</ele>
        <time>2016-11-26T08:52:14.800000Z</time>
      </trkpt>
      <trkpt lat="37.843005574328714" lon="112.0073380351748">
        <ele>1142.0</ele>
        <time>2016-11-26T08:52:26.800000Z</time>
      </trkpt>
      <trkpt lat="37.842763504444605" lon="112.00751111131206">
        <ele>1146.8</ele>
        <time>2016-11-26T08:52:38.800000Z</time>
      </trkpt>
      <trkpt lat="37.842600328065785" lon="112.00761858988687">
        <ele>1149.2</ele>
        <time>2016-11-26T08:52:47.800000Z</time>
      </trkpt>
      <trkpt lat="37.842331693241285" lon="112.0077729090095">
        <ele>1151.1</ele>
        <time>2016-11-26T08:52:59.800000Z</time>
      </trkpt>
      <trkpt lat="37.84226439237831" lon="112.00782246828852">
        <ele>1151.7</ele>
        <time>2016-11-26T08:53:02.800000Z</time>
      </trkpt>
      <trkpt lat="37.84201788346891" lon="112.0078971036722">
        <ele>1151.7</ele>
        <time>2016-11-26T08:53:11.800000Z</time>
      </trkpt>
      <trkpt lat="37.84167917911416" lon="112.00789147840739">
        <ele>1160.5</ele>
        <time>2016-11-26T08:53:23.800000Z</time>
      </trkpt>
      <trkpt lat="37.84137648463166" lon="112.0079833432354">
        <ele>1168.7</ele>
        <time>2016-11-26T08:53:35.900000Z</time>
      </trkpt>
      <trkpt lat="37.841254771166696" lon="112.00801529848593">
        <ele>1171.1</ele>
        <time>2016-11-26T08:53:41.900000Z</time>
      </trkpt>
      <trkpt lat="37.84113126632188" lon="112.00800657820588">
        <ele>1172.4</ele>
        <time>2016-11-26T08:53:47.900000Z</time>
      </trkpt>
      <trkpt lat="37.84120578915903" lon="112.00798684000833">
        <ele>1174.2</ele>
        <time>2016-11-26T08:54:02.800000Z</time>
      </trkpt>
      <trkpt lat="37.84140253832811" lon="112.00801559917511">
        <ele>1172.8</ele>
        <time>2016-11-26T08:54:11.800000Z</time>
      </trkpt>
      <trkpt lat="37.84171672320162" lon="112.00794288679528">
        <ele>1165.1</ele>
        <time>2016-11-26T08:54:23.900000Z</time>
      </trkpt>
      <trkpt lat="37.84182339369068" lon="112.00788648507567">
        <ele>1161.1</ele>
        <time>2016-11-26T08:54:29.800000Z</time>
      </trkpt>
      <trkpt lat="37.841906618212505" lon="112.00779990814752">
        <ele>1158.7</ele>
        <time>2016-11-26T08:54:35.800000Z</time>
      </trkpt>
      <trkpt lat="37.842130616578494" lon="112.00766363804016">
        <ele>1154.5</ele>
        <time>2016-11-26T08:54:44.800000Z</time>
      </trkpt>
      <trkpt lat="37.84225956753567" lon="112.00751391573756">
        <ele>1154.4</ele>
        <time>2016-11-26T08:54:53.800000Z</time>
      </trkpt>
      <trkpt lat="37.84231763169554" lon="112.00746660575578">
        <ele>1153.7</ele>
        <time>2016-11-26T08:54:56.800000Z</time>
      </trkpt>
      <trkpt lat="37.84253055123291" lon="112.00740424227789">
        <ele>1154.8</ele>
        <time>2016-11-26T08:55:05.800000Z</time>
      </trkpt>
      <trkpt lat="37.84272960366846" lon="112.00727947785515">
        <ele>1155.0</ele>
        <time>2016-11-26T08:55:14.800000Z</time>
      </trkpt>
      <trkpt lat="37.84289315948239" lon="112.00711800201823">
        <ele>1153.3</ele>
        <time>2016-11-26T08:55:23.800000Z</time>
      </trkpt>
      <trkpt lat="37.84318484811927" lon="112.00695282618965">
        <ele>1148.3</ele>
        <time>2016-11-26T08:55:35.800000Z</time>
      </trkpt>
      <trkpt lat="37.84326965170137" lon="112.00692178123418">
        <ele>1148.1</ele>
        <time>2016-11-26T08:55:38.800000Z</time>
      </trkpt>
      <trkpt lat="37.84346934736821" lon="112.00676368565242">
        <ele>1147.4</ele>
        <time>2016-11-26T08:55:47.800000Z</time>
      </trkpt>
      <trkpt lat="37.84369471388525" lon="112.0065284951147">
        <ele>1146.7</ele>
        <time>2016-11-26T08:55:59.800000Z</time>
      </trkpt>
      <trkpt lat="37.843758978197336" lon="112.00647160977414">
        <ele>1146.0</ele>
        <time>2016-11-26T08:56:02.800000Z</time>
      </trkpt>
      <trkpt lat="37.84408115766537" lon="112.00635481905324">
        <ele>1149.6</ele>
        <time>2016-11-26T08:56:14.800000Z</time>
      </trkpt>
      <trkpt lat="37.84416253613097" lon="112.00631991300433">
        <ele>1151.2</ele>
        <time>2016-11-26T08:56:17.800000Z</time>
      </trkpt>
      <trkpt lat="37.844320318298124" lon="112.00617051669965">
        <ele>1157.3</ele>
        <time>2016-11-26T08:56:26.800000Z</time>
      </trkpt>
      <trkpt lat="37.84446008653066" lon="112.00614307532427">
        <ele>1158.9</ele>
        <time>2016-11-26T08:56:32.800000Z</time>
      </trkpt>
      <trkpt lat="37.844795826094405" lon="112.00614226517523">
        <ele>1164.9</ele>
        <time>2016-11-26T08:56:47.800000Z</time>
      </trkpt>
      <trkpt lat="37.84509513012265" lon="112.00623190996099">
        <ele>1160.0</ele>
        <time>2016-11-26T08:56:59.800000Z</time>
      </trkpt>
      <trkpt lat="37.84541053921712" lon="112.00632972195328">
        <ele>1158.4</ele>
        <time>2016-11-26T08:57:11.900000Z</time>
      </trkpt>
      <trkpt lat="37.84562087225275" lon="112.00640643210096">
        <ele>1153.7</ele>
        <time>2016-11-26T08:57:20.800000Z</time>
      </trkpt>
      <trkpt lat="37.8459007200306" lon="112.0065178139601">
        <ele>1145.7</ele>
        <time>2016-11-26T08:57:32.800000Z</time>
      </trkpt>
      <trkpt lat="37.84615738333332" lon="112.00661989244693">
        <ele>1137.6</ele>
        <time>2016-11-26T08:57:44.800000Z</time>
      </trkpt>
      <trkpt lat="37.84623034428488" lon="112.00660813404066">
        <ele>1139.8</ele>
        <time>2016-11-26T08:57:47.800000Z</time>
      </trkpt>
      <trkpt lat="37.84655629011056" lon="112.0066307640476">
        <ele>1139.5</ele>
        <time>2016-11-26T08:57:59.800000Z</time>
      </trkpt>
      <trkpt lat="37.84684974278185" lon="112.0066364122853">
        <ele>1139.7</ele>
        <time>2016-11-26T08:58:08.800000Z</time>
      </trkpt>
      <trkpt lat="37.847160126393014" lon="112.00667607205922">
        <ele>1136.5</ele>
        <time>2016-11-26T08:58:20.800000Z</time>
      </trkpt>
      <trkpt lat="37.847498583265846" lon="112.00672297980317">
        <ele>1139.1</ele>
        <time>2016-11-26T08:58:32.800000Z</time>
      </trkpt>
      <trkpt lat="37.84777951138977" lon="112.00678124410692">
        <ele>1145.8</ele>
        <time>2016-11-26T08:58:44.800000Z</time>
      </trkpt>
      <trkpt lat="37.84807221729558" lon="112.00684960691899">
        <ele>1150.8</ele>
        <time>2016-11-26T08:58:56.800000Z</time>
      </trkpt>
      <trkpt lat="37.848303697651524" lon="112.00699359361035">
        <ele>1150.2</ele>
        <time>2016-11-26T08:59:05.800000Z</time>
      </trkpt>
      <trkpt lat="37.84855277237845" lon="112.00725720985476">
        <ele>1149.5</ele>
        <time>2016-11-26T08:59:17.800000Z</time>
      </trkpt>
      <trkpt lat="37.84876253291352" lon="112.00756414362642">
        <ele>1149.1</ele>
        <time>2016-11-26T08:59:29.800000Z</time>
      </trkpt>
      <trkpt lat="37.84896588619253" lon="112.00785659302763">
        <ele>1145.7</ele>
        <time>2016-11-26T08:59:41.800000Z</time>
      </trkpt>
      <trkpt lat="37.8490657242468" lon="112.00797425750953">
        <ele>1141.7</ele>
        <time>2016-11-26T08:59:47.800000Z</time>
      </trkpt>
      <trkpt lat="37.84925265439827" lon="112.00825407355082">
        <ele>1139.2</ele>
        <time>2016-11-26T08:59:59.800000Z</time>
      </trkpt>
      <trkpt lat="37.84945537889293" lon="112.00857273982172">
        <ele>1137.5</ele>
        <time>2016-11-26T09:00:11.800000Z</time>
      </trkpt>
      <trkpt lat="37.84956365341367" lon="112.00871474774797">
        <ele>1134.3</ele>
        <time>2016-11-26T09:00:17.800000Z</time>
      </trkpt>
      <trkpt lat="37.84973120452672" lon="112.00901506004597">
        <ele>1137.3</ele>
        <time>2016-11-26T09:00:29.800000Z</time>
      </trkpt>
      <trkpt lat="37.84986463536235" lon="112.00930339366921">
        <ele>1135.6</ele>
        <time>2016-11-26T09:00:41.800000Z</time>
      </trkpt>
      <trkpt lat="37.84988962021898" lon="112.00940095277996">
        <ele>1135.2</ele>
        <time>2016-11-26T09:00:44.800000Z</time>
      </trkpt>
      <trkpt lat="37.84988128526914" lon="112.00948884805753">
        <ele>1141.3</ele>
        <time>2016-11-26T09:00:47.800000Z</time>
      </trkpt>
      <trkpt lat="37.84993179318694" lon="112.00985067839584">
        <ele>1136.8</ele>
        <time>2016-11-26T09:00:59.800000Z</time>
      </trkpt>
      <trkpt lat="37.84995266796266" lon="112.01021338201845">
        <ele>1132.5</ele>
        <time>2016-11-26T09:01:11.800000Z</time>
      </trkpt>
      <trkpt lat="37.849957430708585" lon="112.01059487152246">
        <ele>1129.5</ele>
        <time>2016-11-26T09:01:23.800000Z</time>
      </trkpt>
      <trkpt lat="37.849949246392974" lon="112.0109635107646">
        <ele>1123.5</ele>
        <time>2016-11-26T09:01:35.800000Z</time>
      </trkpt>
      <trkpt lat="37.849962168183204" lon="112.01120254463758">
        <ele>1117.2</ele>
        <time>2016-11-26T09:01:44.800000Z</time>
      </trkpt>
      <trkpt lat="37.849936511338385" lon="112.01143082074574">
        <ele>1117.4</ele>
        <time>2016-11-26T09:01:50.800000Z</time>
      </trkpt>
      <trkpt lat="37.849945592938255" lon="112.01153762810031">
        <ele>1116.5</ele>
        <time>2016-11-26T09:01:53.800000Z</time>
      </trkpt>
      <trkpt lat="37.849919927707454" lon="112.01160038265382">
        <ele>1117.9</ele>
        <time>2016-11-26T09:01:59.800000Z</time>
      </trkpt>
      <trkpt lat="37.849871558364086" lon="112.01158928281428">
        <ele>1122.8</ele>
        <time>2016-11-26T09:02:05.800000Z</time>
      </trkpt>
      <trkpt lat="37.84986033782418" lon="112.01126858584996">
        <ele>1121.0</ele>
        <time>2016-11-26T09:02:17.800000Z</time>
      </trkpt>
      <trkpt lat="37.849892985940855" lon="112.01089938756414">
        <ele>1121.7</ele>
        <time>2016-11-26T09:02:29.800000Z</time>
      </trkpt>
      <trkpt lat="37.84990424483131" lon="112.01060516499123">
        <ele>1118.9</ele>
        <time>2016-11-26T09:02:38.800000Z</time>
      </trkpt>
      <trkpt lat="37.84996805523129" lon="112.01033141112428">
        <ele>1112.0</ele>
        <time>2016-11-26T09:02:47.800000Z</time>
      </trkpt>
      <trkpt lat="37.84997395065031" lon="112.0099846957965">
        <ele>1105.4</ele>
        <time>2016-11-26T09:02:59.800000Z</time>
      </trkpt>
      <trkpt lat="37.849979835854384" lon="112.0098181388466">
        <ele>1106.3</ele>
        <time>2016-11-26T09:03:05.800000Z</time>
      </trkpt>
      <trkpt lat="37.84990202413688" lon="112.0094210248074">
        <ele>1105.5</ele>
        <time>2016-11-26T09:03:20.800000Z</time>
      </trkpt>
      <trkpt lat="37.849771726103704" lon="112.00910796281565">
        <ele>1102.2</ele>
        <time>2016-11-26T09:03:32.800000Z</time>
      </trkpt>
      <trkpt lat="37.84959575100209" lon="112.00874925359278">
        <ele>1102.9</ele>
        <time>2016-11-26T09:03:47.800000Z</time>
      </trkpt>
      <trkpt lat="37.84940487567418" lon="112.00842530147838">
        <ele>1106.5</ele>
        <time>2016-11-26T09:03:59.800000Z</time>
      </trkpt>
      <trkpt lat="37.84921331052863" lon="112.0082225015123">
        <ele>1110.1</ele>
        <time>2016-11-26T09:04:08.800000Z</time>
      </trkpt>
      <trkpt lat="37.849013036223205" lon="112.00791368019375">
        <ele>1115.3</ele>
        <time>2016-11-26T09:04:20.800000Z</time>
      </trkpt>
      <trkpt lat="37.84879425926412" lon="112.00760813313028">
        <ele>1118.4</ele>
        <time>2016-11-26T09:04:32.800000Z</time>
      </trkpt>
      <trkpt lat="37.84857408242471" lon="112.00730656259665">
        <ele>1123.8</ele>
        <time>2016-11-26T09:04:44.800000Z</time>
      </trkpt>
      <trkpt lat="37.84840570054835" lon="112.00710430184422">
        <ele>1127.0</ele>
        <time>2016-11-26T09:04:53.800000Z</time>
      </trkpt>
      <trkpt lat="37.84820933403952" lon="112.00698431347296">
        <ele>1129.5</ele>
        <time>2016-11-26T09:05:02.800000Z</time>
      </trkpt>
      <trkpt lat="37.847932689929415" lon="112.0069082246377">
        <ele>1133.2</ele>
        <time>2016-11-26T09:05:14.800000Z</time>
      </trkpt>
      <trkpt lat="37.84761933499114" lon="112.00685256400274">
        <ele>1135.2</ele>
        <time>2016-11-26T09:05:26.800000Z</time>
      </trkpt>
      <trkpt lat="37.8476724615695" lon="112.00682266140943">
        <ele>1141.0</ele>
        <time>2016-11-26T09:05:35.800000Z</time>
      </trkpt>
      <trkpt lat="37.847964707048455" lon="112.0068322837951">
        <ele>1138.2</ele>
        <time>2016-11-26T09:05:50.800000Z</time>
      </trkpt>
      <trkpt lat="37.84824331530248" lon="112.00690851626635">
        <ele>1139.2</ele>
        <time>2016-11-26T09:06:02.800000Z</time>
      </trkpt>
      <trkpt lat="37.848416340470486" lon="112.0070035989864">
        <ele>1137.9</ele>
        <time>2016-11-26T09:06:08.800000Z</time>
      </trkpt>
      <trkpt lat="37.84865199579064" lon="112.00728043200569">
        <ele>1135.3</ele>
        <time>2016-11-26T09:06:21.100000Z</time>
      </trkpt>
      <trkpt lat="37.848837798957604" lon="112.00753553822626">
        <ele>1135.2</ele>
        <time>2016-11-26T09:06:30.800000Z</time>
      </trkpt>
      <trkpt lat="37.84902138319464" lon="112.00781032749485">
        <ele>1133.6</ele>
        <time>2016-11-26T09:06:42.800000Z</time>
      </trkpt>
      <trkpt lat="37.84919427030775" lon="112.00808122277475">
        <ele>1134.0</ele>
        <time>2016-11-26T09:06:54.800000Z</time>
      </trkpt>
      <trkpt lat="37.84924709462006" lon="112.00814804464157">
        <ele>1133.1</ele>
        <time>2016-11-26T09:06:57.800000Z</time>
      </trkpt>
      <trkpt lat="37.849427350822495" lon="112.00847084195269">
        <ele>1136.5</ele>
        <time>2016-11-26T09:07:09.800000Z</time>
      </trkpt>
      <trkpt lat="37.84960725533918" lon="112.00876528174489">
        <ele>1140.0</ele>
        <time>2016-11-26T09:07:21.800000Z</time>
      </trkpt>
      <trkpt lat="37.849782253380205" lon="112.00904011164052">
        <ele>1138.6</ele>
        <time>2016-11-26T09:07:33.800000Z</time>
      </trkpt>
      <trkpt lat="37.8498400344899" lon="112.00912112876196">
        <ele>1138.9</ele>
        <time>2016-11-26T09:07:36.800000Z</time>
      </trkpt>
      <trkpt lat="37.849941124987275" lon="112.00939212727535">
        <ele>1137.0</ele>
        <time>2016-11-26T09:07:45.800000Z</time>
      </trkpt>
      <trkpt lat="37.849950820738925" lon="112.00979249784426">
        <ele>1136.0</ele>
        <time>2016-11-26T09:07:57.800000Z</time>
      </trkpt>
      <trkpt lat="37.8499573865553" lon="112.0101935329777">
        <ele>1136.7</ele>
        <time>2016-11-26T09:08:09.800000Z</time>
      </trkpt>
      <trkpt lat="37.84995933502671" lon="112.01036416437073">
        <ele>1135.6</ele>
        <time>2016-11-26T09:08:15.800000Z</time>
      </trkpt>
      <trkpt lat="37.849990326906735" lon="112.01076677285481">
        <ele>1131.0</ele>
        <time>2016-11-26T09:08:30.800000Z</time>
      </trkpt>
      <trkpt lat="37.850027376075914" lon="112.01112959919391">
        <ele>1126.4</ele>
        <time>2016-11-26T09:08:42.800000Z</time>
      </trkpt>
      <trkpt lat="37.850036217289414" lon="112.01147026196594">
        <ele>1116.3</ele>
        <time>2016-11-26T09:08:54.900000Z</time>
      </trkpt>
      <trkpt lat="37.84998970159666" lon="112.01187779972317">
        <ele>1113.3</ele>
        <time>2016-11-26T09:09:06.800000Z</time>
      </trkpt>
      <trkpt lat="37.849949131305955" lon="112.01231813362409">
        <ele>1116.6</ele>
        <time>2016-11-26T09:09:18.800000Z</time>
      </trkpt>
      <trkpt lat="37.84991907922397" lon="112.01274042924878">
        <ele>1116.0</ele>
        <time>2016-11-26T09:09:30.900000Z</time>
      </trkpt>
      <trkpt lat="37.849902443085625" lon="112.01314378377651">
        <ele>1113.7</ele>
        <time>2016-11-26T09:09:42.800000Z</time>
      </trkpt>
      <trkpt lat="37.849839876831055" lon="112.0136094607334">
        <ele>1119.2</ele>
        <time>2016-11-26T09:09:54.900000Z</time>
      </trkpt>
      <trkpt lat="37.84979605485311" lon="112.01407857035692">
        <ele>1122.6</ele>
        <time>2016-11-26T09:10:06.800000Z</time>
      </trkpt>
      <trkpt lat="37.849711683957324" lon="112.01453421846307">
        <ele>1132.7</ele>
        <time>2016-11-26T09:10:15.800000Z</time>
      </trkpt>
      <trkpt lat="37.849633005950594" lon="112.01493843572142">
        <ele>1140.7</ele>
        <time>2016-11-26T09:10:24.800000Z</time>
      </trkpt>
      <trkpt lat="37.84956602459247" lon="112.01531785998722">
        <ele>1144.7</ele>
        <time>2016-11-26T09:10:33.800000Z</time>
      </trkpt>
      <trkpt lat="37.84951419869085" lon="112.01567266479982">
        <ele>1144.4</ele>
        <time>2016-11-26T09:10:42.800000Z</time>
      </trkpt>
      <trkpt lat="37.84945599130891" lon="112.01605651408344">
        <ele>1144.3</ele>
        <time>2016-11-26T09:10:54.900000Z</time>
      </trkpt>
      <trkpt lat="37.84942599589593" lon="112.01640933657788">
        <ele>1142.4</ele>
        <time>2016-11-26T09:11:06.800000Z</time>
      </trkpt>
      <trkpt lat="37.84940456510671" lon="112.01679203469857">
        <ele>1143.3</ele>
        <time>2016-11-26T09:11:18.800000Z</time>
      </trkpt>
      <trkpt lat="37.84938808702665" lon="112.01686444643788">
        <ele>1142.7</ele>
        <time>2016-11-26T09:11:21.800000Z</time>
      </trkpt>
      <trkpt lat="37.8493539074897" lon="112.0168193827204">
        <ele>1140.8</ele>
        <time>2016-11-26T09:11:27.800000Z</time>
      </trkpt>
      <trkpt lat="37.849367111761936" lon="112.0164526611373">
        <ele>1137.5</ele>
        <time>2016-11-26T09:11:39.800000Z</time>
      </trkpt>
      <trkpt lat="37.84940761060864" lon="112.01607884981883">
        <ele>1132.7</ele>
        <time>2016-11-26T09:11:51.800000Z</time>
      </trkpt>
      <trkpt lat="37.84942580689906" lon="112.01598436927941">
        <ele>1131.6</ele>
        <time>2016-11-26T09:11:54.800000Z</time>
      </trkpt>
      <trkpt lat="37.84943315724627" lon="112.01581008294181">
        <ele>1131.3</ele>
        <time>2016-11-26T09:12:00.800000Z</time>
      </trkpt>
      <trkpt lat="37.8495171206817" lon="112.01544898725528">
        <ele>1128.0</ele>
        <time>2016-11-26T09:12:12.800000Z</time>
      </trkpt>
      <trkpt lat="37.84955841075579" lon="112.01508560661786">
        <ele>1126.0</ele>
        <time>2016-11-26T09:12:24.800000Z</time>
      </trkpt>
      <trkpt lat="37.849591007687614" lon="112.01489083185727">
        <ele>1128.4</ele>
        <time>2016-11-26T09:12:30.800000Z</time>
      </trkpt>
      <trkpt lat="37.849603117123245" lon="112.0145090204366">
        <ele>1130.2</ele>
        <time>2016-11-26T09:12:42.800000Z</time>
      </trkpt>
      <trkpt lat="37.84964060826301" lon="112.01423349387493">
        <ele>1127.4</ele>
        <time>2016-11-26T09:12:51.800000Z</time>
      </trkpt>
      <trkpt lat="37.849650059384494" lon="112.01387692250104">
        <ele>1128.1</ele>
        <time>2016-11-26T09:13:03.800000Z</time>
      </trkpt>
      <trkpt lat="37.84966299420083" lon="112.01360182974383">
        <ele>1129.7</ele>
        <time>2016-11-26T09:13:12.800000Z</time>
      </trkpt>
      <trkpt lat="37.849700301399544" lon="112.01332013376474">
        <ele>1126.5</ele>
        <time>2016-11-26T09:13:21.800000Z</time>
      </trkpt>
      <trkpt lat="37.849696520975805" lon="112.0132381019193">
        <ele>1125.6</ele>
        <time>2016-11-26T09:13:24.800000Z</time>
      </trkpt>
      <trkpt lat="37.84974393230254" lon="112.01295357139125">
        <ele>1124.5</ele>
        <time>2016-11-26T09:13:33.900000Z</time>
      </trkpt>
      <trkpt lat="37.84976956656516" lon="112.01253732805351">
        <ele>1123.8</ele>
        <time>2016-11-26T09:13:45.800000Z</time>
      </trkpt>
      <trkpt lat="37.84979742267122" lon="112.0122184721935">
        <ele>1123.3</ele>
        <time>2016-11-26T09:13:54.800000Z</time>
      </trkpt>
      <trkpt lat="37.84979813946946" lon="112.01182944155704">
        <ele>1125.8</ele>
        <time>2016-11-26T09:14:06.800000Z</time>
      </trkpt>
      <trkpt lat="37.84980434977955" lon="112.01174872073969">
        <ele>1124.1</ele>
        <time>2016-11-26T09:14:09.800000Z</time>
      </trkpt>
      <trkpt lat="37.849849981291015" lon="112.01194218966776">
        <ele>1129.9</ele>
        <time>2016-11-26T09:14:21.800000Z</time>
      </trkpt>
      <trkpt lat="37.8498529028586" lon="112.01227266410254">
        <ele>1128.1</ele>
        <time>2016-11-26T09:14:33.800000Z</time>
      </trkpt>
      <trkpt lat="37.849806253622525" lon="112.01268923437243">
        <ele>1128.9</ele>
        <time>2016-11-26T09:14:45.800000Z</time>
      </trkpt>
      <trkpt lat="37.84978149542448" lon="112.01287673640671">
        <ele>1128.5</ele>
        <time>2016-11-26T09:14:51.800000Z</time>
      </trkpt>
      <trkpt lat="37.849790348665785" lon="112.01297240340843">
        <ele>1128.7</ele>
        <time>2016-11-26T09:14:54.800000Z</time>
      </trkpt>
      <trkpt lat="37.84975432134589" lon="112.01327693906111">
        <ele>1132.1</ele>
        <time>2016-11-26T09:15:03.800000Z</time>
      </trkpt>
      <trkpt lat="37.84974090442633" lon="112.01364409102707">
        <ele>1131.2</ele>
        <time>2016-11-26T09:15:15.800000Z</time>
      </trkpt>
      <trkpt lat="37.849708093419665" lon="112.014058274948">
        <ele>1135.1</ele>
        <time>2016-11-26T09:15:27.800000Z</time>
      </trkpt>
      <trkpt lat="37.849667663915746" lon="112.01447212172627">
        <ele>1137.8</ele>
        <time>2016-11-26T09:15:39.800000Z</time>
      </trkpt>
      <trkpt lat="37.849619310182476" lon="112.01487716743613">
        <ele>1138.6</ele>
        <time>2016-11-26T09:15:51.800000Z</time>
      </trkpt>
      <trkpt lat="37.849539802600965" lon="112.01527726353326">
        <ele>1138.4</ele>
        <time>2016-11-26T09:16:03.800000Z</time>
      </trkpt>
      <trkpt lat="37.84950909282107" lon="112.01564256331156">
        <ele>1137.2</ele>
        <time>2016-11-26T09:16:15.800000Z</time>
      </trkpt>
      <trkpt lat="37.84948122390419" lon="112.01591709145137">
        <ele>1136.0</ele>
        <time>2016-11-26T09:16:24.800000Z</time>
      </trkpt>
      <trkpt lat="37.8494098527881" lon="112.01631537709865">
        <ele>1136.3</ele>
        <time>2016-11-26T09:16:36.800000Z</time>
      </trkpt>
      <trkpt lat="37.849377394230395" lon="112.01661903257154">
        <ele>1137.1</ele>
        <time>2016-11-26T09:16:45.800000Z</time>
      </trkpt>
      <trkpt lat="37.84938247133157" lon="112.01695959156618">
        <ele>1137.4</ele>
        <time>2016-11-26T09:16:57.800000Z</time>
      </trkpt>
      <trkpt lat="37.84939548871244" lon="112.0170410060063">
        <ele>1136.4</ele>
        <time>2016-11-26T09:17:00.800000Z</time>
      </trkpt>
      <trkpt lat="37.84933564842311" lon="112.01740705818037">
        <ele>1133.5</ele>
        <time>2016-11-26T09:17:12.800000Z</time>
      </trkpt>
      <trkpt lat="37.849319056109444" lon="112.01749548256053">
        <ele>1133.6</ele>
        <time>2016-11-26T09:17:15.800000Z</time>
      </trkpt>
      <trkpt lat="37.84933561746273" lon="112.01778883667045">
        <ele>1132.9</ele>
        <time>2016-11-26T09:17:24.800000Z</time>
      </trkpt>
      <trkpt lat="37.84930518959537" lon="112.01808556100256">
        <ele>1132.2</ele>
        <time>2016-11-26T09:17:33.800000Z</time>
      </trkpt>
      <trkpt lat="37.84929664519942" lon="112.0183905344185">
        <ele>1131.5</ele>
        <time>2016-11-26T09:17:42.800000Z</time>
      </trkpt>
      <trkpt lat="37.84925508490753" lon="112.01879567996608">
        <ele>1128.6</ele>
        <time>2016-11-26T09:17:54.800000Z</time>
      </trkpt>
      <trkpt lat="37.84923123940354" lon="112.01917757905585">
        <ele>1123.4</ele>
        <time>2016-11-26T09:18:09.800000Z</time>
      </trkpt>
      <trkpt lat="37.84924746516169" lon="112.0193668474707">
        <ele>1125.7</ele>
        <time>2016-11-26T09:18:18.800000Z</time>
      </trkpt>
      <trkpt lat="37.84916983682284" lon="112.01974267202809">
        <ele>1127.3</ele>
        <time>2016-11-26T09:18:42.800000Z</time>
      </trkpt>
      <trkpt lat="37.84912149692041" lon="112.02015258296613">
        <ele>1124.1</ele>
        <time>2016-11-26T09:18:57.800000Z</time>
      </trkpt>
      <trkpt lat="37.84908171850128" lon="112.02051413075674">
        <ele>1122.9</ele>
        <time>2016-11-26T09:19:09.800000Z</time>
      </trkpt>
      <trkpt lat="37.84915313710962" lon="112.02072401024095">
        <ele>1124.7</ele>
        <time>2016-11-26T09:19:15.800000Z</time>
      </trkpt>
      <trkpt lat="37.84918456867476" lon="112.02103406542673">
        <ele>1125.2</ele>
        <time>2016-11-26T09:19:24.800000Z</time>
      </trkpt>
      <trkpt lat="37.84918282242139" lon="112.0214362789312">
        <ele>1123.7</ele>
        <time>2016-11-26T09:19:36.800000Z</time>
      </trkpt>
      <trkpt lat="37.84918611867104" lon="112.0215349964736">
        <ele>1122.3</ele>
        <time>2016-11-26T09:19:39.800000Z</time>
      </trkpt>
      <trkpt lat="37.84913959747799" lon="112.02178083275547">
        <ele>1118.8</ele>
        <time>2016-11-26T09:19:48.800000Z</time>
      </trkpt>
      <trkpt lat="37.84916249002832" lon="112.02216025551033">
        <ele>1113.2</ele>
        <time>2016-11-26T09:20:03.800000Z</time>
      </trkpt>
      <trkpt lat="37.849206141924114" lon="112.0222904947769">
        <ele>1108.8</ele>
        <time>2016-11-26T09:20:09.800000Z</time>
      </trkpt>
      <trkpt lat="37.84922364290788" lon="112.02257897003908">
        <ele>1106.2</ele>
        <time>2016-11-26T09:20:18.800000Z</time>
      </trkpt>
      <trkpt lat="37.849171656439346" lon="112.02295759954644">
        <ele>1102.8</ele>
        <time>2016-11-26T09:20:30.800000Z</time>
      </trkpt>
      <trkpt lat="37.84915735072224" lon="112.02313214997635">
        <ele>1099.1</ele>
        <time>2016-11-26T09:20:36.800000Z</time>
      </trkpt>
      <trkpt lat="37.84905982015084" lon="112.02348023977794">
        <ele>1091.5</ele>
        <time>2016-11-26T09:20:48.800000Z</time>
      </trkpt>
      <trkpt lat="37.84899760330074" lon="112.02366957079504">
        <ele>1088.8</ele>
        <time>2016-11-26T09:20:54.800000Z</time>
      </trkpt>
      <trkpt lat="37.848994838225096" lon="112.02376610420885">
        <ele>1087.2</ele>
        <time>2016-11-26T09:20:57.800000Z</time>
      </trkpt>
      <trkpt lat="37.84895485112914" lon="112.02391754116778">
        <ele>1083.8</ele>
        <time>2016-11-26T09:21:03.800000Z</time>
      </trkpt>
      <trkpt lat="37.848934367458114" lon="112.02406982755738">
        <ele>1081.0</ele>
        <time>2016-11-26T09:21:09.800000Z</time>
      </trkpt>
      <trkpt lat="37.848844648966306" lon="112.02430574408963">
        <ele>1073.7</ele>
        <time>2016-11-26T09:21:21.800000Z</time>
      </trkpt>
      <trkpt lat="37.848823460277586" lon="112.0244645838312">
        <ele>1070.0</ele>
        <time>2016-11-26T09:21:27.800000Z</time>
      </trkpt>
      <trkpt lat="37.84882075766804" lon="112.02465150181425">
        <ele>1067.2</ele>
        <time>2016-11-26T09:21:33.800000Z</time>
      </trkpt>
      <trkpt lat="37.84880320669988" lon="112.02475121170797">
        <ele>1065.8</ele>
        <time>2016-11-26T09:21:36.800000Z</time>
      </trkpt>
      <trkpt lat="37.848853417379814" lon="112.02486920674136">
        <ele>1065.1</ele>
        <time>2016-11-26T09:21:39.800000Z</time>
      </trkpt>
      <trkpt lat="37.84902391625864" lon="112.02499708744679">
        <ele>1071.5</ele>
        <time>2016-11-26T09:21:42.800000Z</time>
      </trkpt>
      <trkpt lat="37.84906781730414" lon="112.02510231739046">
        <ele>1072.6</ele>
        <time>2016-11-26T09:21:45.800000Z</time>
      </trkpt>
      <trkpt lat="37.849309778293836" lon="112.02539401234843">
        <ele>1072.0</ele>
        <time>2016-11-26T09:21:54.800000Z</time>
      </trkpt>
      <trkpt lat="37.84932548713159" lon="112.02546232042552">
        <ele>1072.8</ele>
        <time>2016-11-26T09:21:57.800000Z</time>
      </trkpt>
      <trkpt lat="37.84927093534234" lon="112.02554626460721">
        <ele>1073.9</ele>
        <time>2016-11-26T09:22:00.800000Z</time>
      </trkpt>
      <trkpt lat="37.849219887862766" lon="112.0257166838336">
        <ele>1073.9</ele>
        <time>2016-11-26T09:22:09.800000Z</time>
      </trkpt>
      <trkpt lat="37.84915249352527" lon="112.02576001484945">
        <ele>1077.6</ele>
        <time>2016-11-26T09:22:15.800000Z</time>
      </trkpt>
      <trkpt lat="37.84900501514041" lon="112.0259658118922">
        <ele>1085.4</ele>
        <time>2016-11-26T09:22:27.800000Z</time>
      </trkpt>
      <trkpt lat="37.84881253670204" lon="112.02604115726187">
        <ele>1089.9</ele>
        <time>2016-11-26T09:22:42.800000Z</time>
      </trkpt>
      <trkpt lat="37.848756889687394" lon="112.02602366214332">
        <ele>1091.7</ele>
        <time>2016-11-26T09:22:45.800000Z</time>
      </trkpt>
      <trkpt lat="37.848686087201806" lon="112.02603756259529">
        <ele>1092.9</ele>
        <time>2016-11-26T09:22:48.800000Z</time>
      </trkpt>
      <trkpt lat="37.84863546695121" lon="112.02607457272389">
        <ele>1094.3</ele>
        <time>2016-11-26T09:22:51.800000Z</time>
      </trkpt>
      <trkpt lat="37.84844991266949" lon="112.02646399036367">
        <ele>1111.7</ele>
        <time>2016-11-26T09:22:57.800000Z</time>
      </trkpt>
      <trkpt lat="37.84837650251036" lon="112.02652868721587">
        <ele>1116.1</ele>
        <time>2016-11-26T09:23:00.800000Z</time>
      </trkpt>
      <trkpt lat="37.84807222686572" lon="112.02646661744332">
        <ele>1122.6</ele>
        <time>2016-11-26T09:23:09.800000Z</time>
      </trkpt>
      <trkpt lat="37.84798007705861" lon="112.02651400482777">
        <ele>1123.4</ele>
        <time>2016-11-26T09:23:12.800000Z</time>
      </trkpt>
      <trkpt lat="37.84776129820058" lon="112.0266807566834">
        <ele>1125.3</ele>
        <time>2016-11-26T09:23:24.800000Z</time>
      </trkpt>
      <trkpt lat="37.84764657942587" lon="112.02672086911552">
        <ele>1125.6</ele>
        <time>2016-11-26T09:23:30.800000Z</time>
      </trkpt>
      <trkpt lat="37.847590793634645" lon="112.02706157101049">
        <ele>1128.5</ele>
        <time>2016-11-26T09:23:39.800000Z</time>
      </trkpt>
      <trkpt lat="37.847618901534204" lon="112.02737737496791">
        <ele>1129.2</ele>
        <time>2016-11-26T09:23:45.800000Z</time>
      </trkpt>
      <trkpt lat="37.84761548792211" lon="112.02749942684758">
        <ele>1130.1</ele>
        <time>2016-11-26T09:23:48.800000Z</time>
      </trkpt>
      <trkpt lat="37.84749143476948" lon="112.02775192742418">
        <ele>1133.8</ele>
        <time>2016-11-26T09:23:57.800000Z</time>
      </trkpt>
      <trkpt lat="37.84745514371506" lon="112.02794243071784">
        <ele>1133.9</ele>
        <time>2016-11-26T09:24:03.800000Z</time>
      </trkpt>
      <trkpt lat="37.84746076109422" lon="112.02818170338593">
        <ele>1132.7</ele>
        <time>2016-11-26T09:24:12.900000Z</time>
      </trkpt>
      <trkpt lat="37.84750176531521" lon="112.02853359238777">
        <ele>1126.6</ele>
        <time>2016-11-26T09:24:27.800000Z</time>
      </trkpt>
      <trkpt lat="37.847495371300695" lon="112.02890234540521">
        <ele>1123.5</ele>
        <time>2016-11-26T09:24:42.800000Z</time>
      </trkpt>
      <trkpt lat="37.847506076192474" lon="112.02907885767294">
        <ele>1127.5</ele>
        <time>2016-11-26T09:24:46.100000Z</time>
      </trkpt>
      <trkpt lat="37.84752876490606" lon="112.02917471108283">
        <ele>1127.9</ele>
        <time>2016-11-26T09:24:49.800000Z</time>
      </trkpt>
      <trkpt lat="37.84751816586946" lon="112.02928495916339">
        <ele>1126.2</ele>
        <time>2016-11-26T09:24:55.800000Z</time>
      </trkpt>
      <trkpt lat="37.847495130096746" lon="112.02935235689482">
        <ele>1124.2</ele>
        <time>2016-11-26T09:25:01.800000Z</time>
      </trkpt>
      <trkpt lat="37.84744739737271" lon="112.02940510226301">
        <ele>1123.3</ele>
        <time>2016-11-26T09:25:07.800000Z</time>
      </trkpt>
      <trkpt lat="37.84741639294705" lon="112.02934513972676">
        <ele>1122.4</ele>
        <time>2016-11-26T09:25:13.800000Z</time>
      </trkpt>
      <trkpt lat="37.84736622538274" lon="112.02931609455808">
        <ele>1121.0</ele>
        <time>2016-11-26T09:25:22.800000Z</time>
      </trkpt>
      <trkpt lat="37.84734832822822" lon="112.02936454283088">
        <ele>1122.2</ele>
        <time>2016-11-26T09:25:28.900000Z</time>
      </trkpt>
      <trkpt lat="37.84716965944418" lon="112.02938273578583">
        <ele>1121.7</ele>
        <time>2016-11-26T09:25:46.800000Z</time>
      </trkpt>
      <trkpt lat="37.847097308940526" lon="112.0295445603443">
        <ele>1121.5</ele>
        <time>2016-11-26T09:25:55.800000Z</time>
      </trkpt>
      <trkpt lat="37.847097308940526" lon="112.0295445603443">
        <ele>1121.5</ele>
        <time>2016-11-26T09:25:55.800000Z</time>
      </trkpt>
    </trkseg>
  </trk>
</gpx>