<?xml version="1.0" encoding="UTF-8"?>
<gpx xmlns="http://www.topografix.com/GPX/1/1" xmlns:gpxtpx="http://www.garmin.com/xmlschemas/TrackPointExtension/v1" xmlns:xsi="http://www.w3.org/2001/XMLSchema-instance" xsi:schemaLocation="http://www.topografix.com/GPX/1/1 http://www.topografix.com/GPX/1/1/gpx.xsd" version="1.1" creator="gpx.py -- https://github.com/tkrajina/gpxpy">
  <trk>
    <name>gpx from keep</name>
    <type>Run</type>
    <trkseg>
      <trkpt lat="37.84670763110562" lon="112.02962262461764">
        <ele>0.0</ele>
        <time>2016-06-09T08:28:04.800000Z</time>
      </trkpt>
      <trkpt lat="37.84683391549284" lon="112.02951791876394">
        <ele>0.0</ele>
        <time>2016-06-09T08:28:46.500000Z</time>
      </trkpt>
      <trkpt lat="37.84762386661668" lon="112.0292687803539">
        <ele>1133.205431932067</ele>
        <time>2016-06-09T08:30:06.100000Z</time>
      </trkpt>
      <trkpt lat="37.84736104622635" lon="112.02934427188781">
        <ele>1138.2933287083047</ele>
        <time>2016-06-09T08:30:10.900000Z</time>
      </trkpt>
      <trkpt lat="37.84726864109584" lon="112.02940730165336">
        <ele>1105.2652027579697</ele>
        <time>2016-06-09T08:30:25Z</time>
      </trkpt>
      <trkpt lat="37.847245216701886" lon="112.02933617184641">
        <ele>1102.7258526875617</ele>
        <time>2016-06-09T08:30:28Z</time>
      </trkpt>
      <trkpt lat="37.8473425384015" lon="112.02926015931696">
        <ele>1097.596222570979</ele>
        <time>2016-06-09T08:30:32Z</time>
      </trkpt>
      <trkpt lat="37.84731047893377" lon="112.02906353566996">
        <ele>1098.3675996722116</ele>
        <time>2016-06-09T08:30:48.800000Z</time>
      </trkpt>
      <trkpt lat="37.847269590204135" lon="112.02892533417847">
        <ele>1098.585858840062</ele>
        <time>2016-06-09T08:30:58.800000Z</time>
      </trkpt>
      <trkpt lat="37.84738234481712" lon="112.02875547099413">
        <ele>1099.0251960582657</ele>
        <time>2016-06-09T08:31:05.800000Z</time>
      </trkpt>
      <trkpt lat="37.847430992146144" lon="112.02861644884985">
        <ele>1097.8689130222263</ele>
        <time>2016-06-09T08:31:13.800000Z</time>
      </trkpt>
      <trkpt lat="37.84740509372389" lon="112.02855857378607">
        <ele>1097.1677685203892</ele>
        <time>2016-06-09T08:31:17.800000Z</time>
      </trkpt>
      <trkpt lat="37.8474107116895" lon="112.02848338574351">
        <ele>1096.8808998853729</ele>
        <time>2016-06-09T08:31:21.800000Z</time>
      </trkpt>
      <trkpt lat="37.84758342547524" lon="112.02831459979721">
        <ele>1096.4392661735033</ele>
        <time>2016-06-09T08:31:28.800000Z</time>
      </trkpt>
      <trkpt lat="37.84759175429254" lon="112.02824049388866">
        <ele>1096.355342999112</ele>
        <time>2016-06-09T08:31:32.800000Z</time>
      </trkpt>
      <trkpt lat="37.84755142504009" lon="112.02820290544706">
        <ele>1096.5478902383472</ele>
        <time>2016-06-09T08:31:36.900000Z</time>
      </trkpt>
      <trkpt lat="37.84746211692053" lon="112.02800927093725">
        <ele>1097.834765828566</ele>
        <time>2016-06-09T08:31:43.800000Z</time>
      </trkpt>
      <trkpt lat="37.84739379842093" lon="112.02798899515902">
        <ele>1098.4423277489573</ele>
        <time>2016-06-09T08:31:46.800000Z</time>
      </trkpt>
      <trkpt lat="37.847394582079254" lon="112.02768392548467">
        <ele>1103.0185676300384</ele>
        <time>2016-06-09T08:32:04.800000Z</time>
      </trkpt>
      <trkpt lat="37.847448704993276" lon="112.02752732864586">
        <ele>1103.747808082856</ele>
        <time>2016-06-09T08:32:08.800000Z</time>
      </trkpt>
      <trkpt lat="37.84751655866817" lon="112.02741210948128">
        <ele>1104.1877749305759</ele>
        <time>2016-06-09T08:32:11.800000Z</time>
      </trkpt>
      <trkpt lat="37.84759649443866" lon="112.02713624436105">
        <ele>1105.6787325706841</ele>
        <time>2016-06-09T08:32:22.800000Z</time>
      </trkpt>
      <trkpt lat="37.84776233869557" lon="112.02679411306217">
        <ele>1107.9204042607275</ele>
        <time>2016-06-09T08:32:36.800000Z</time>
      </trkpt>
      <trkpt lat="37.8477751612517" lon="112.02666240645247">
        <ele>1107.9016366556202</ele>
        <time>2016-06-09T08:32:42.800000Z</time>
      </trkpt>
      <trkpt lat="37.84789753150638" lon="112.0265547564068">
        <ele>1106.677468217847</ele>
        <time>2016-06-09T08:32:46.800000Z</time>
      </trkpt>
      <trkpt lat="37.84797060587021" lon="112.02651959043568">
        <ele>1106.1958144880393</ele>
        <time>2016-06-09T08:32:50.800000Z</time>
      </trkpt>
      <trkpt lat="37.84825810120898" lon="112.02655606526206">
        <ele>1106.0467173581242</ele>
        <time>2016-06-09T08:33:01.800000Z</time>
      </trkpt>
      <trkpt lat="37.8485782920031" lon="112.0265395299313">
        <ele>1107.3066153538603</ele>
        <time>2016-06-09T08:33:12.800000Z</time>
      </trkpt>
      <trkpt lat="37.848909257190996" lon="112.02655301214264">
        <ele>1107.7009045827822</ele>
        <time>2016-06-09T08:33:25.800000Z</time>
      </trkpt>
      <trkpt lat="37.84898239146687" lon="112.02649485880042">
        <ele>1107.44752830707</ele>
        <time>2016-06-09T08:33:29.800000Z</time>
      </trkpt>
      <trkpt lat="37.84900356931236" lon="112.02638478757544">
        <ele>1106.796773768641</ele>
        <time>2016-06-09T08:33:33.400000Z</time>
      </trkpt>
      <trkpt lat="37.84900792745097" lon="112.0261703300614">
        <ele>1105.272774421709</ele>
        <time>2016-06-09T08:33:39.800000Z</time>
      </trkpt>
      <trkpt lat="37.84904534292285" lon="112.02597263704192">
        <ele>1102.9108066266015</ele>
        <time>2016-06-09T08:33:47.800000Z</time>
      </trkpt>
      <trkpt lat="37.84911899887391" lon="112.02581929200778">
        <ele>1101.753366568428</ele>
        <time>2016-06-09T08:33:54.800000Z</time>
      </trkpt>
      <trkpt lat="37.84914446633075" lon="112.02562620002945">
        <ele>1101.3838766015872</ele>
        <time>2016-06-09T08:34:00.800000Z</time>
      </trkpt>
      <trkpt lat="37.84911426598887" lon="112.02545204606292">
        <ele>1101.0589153414764</ele>
        <time>2016-06-09T08:34:04.800000Z</time>
      </trkpt>
      <trkpt lat="37.8491048833072" lon="112.02530601517729">
        <ele>1100.600997514156</ele>
        <time>2016-06-09T08:34:08.800000Z</time>
      </trkpt>
      <trkpt lat="37.849141947810466" lon="112.02524300082575">
        <ele>1100.050537911813</ele>
        <time>2016-06-09T08:34:11.800000Z</time>
      </trkpt>
      <trkpt lat="37.849120846655126" lon="112.02511698394727">
        <ele>1099.3002097875456</ele>
        <time>2016-06-09T08:34:14.800000Z</time>
      </trkpt>
      <trkpt lat="37.84904826527363" lon="112.02496501284739">
        <ele>1099.1173994194003</ele>
        <time>2016-06-09T08:34:18.800000Z</time>
      </trkpt>
      <trkpt lat="37.849005471503986" lon="112.02483467289133">
        <ele>1099.388529502097</ele>
        <time>2016-06-09T08:34:22.700000Z</time>
      </trkpt>
      <trkpt lat="37.84901262868036" lon="112.02459102008574">
        <ele>1100.6448477416566</ele>
        <time>2016-06-09T08:34:28.800000Z</time>
      </trkpt>
      <trkpt lat="37.849042010100284" lon="112.02445878004576">
        <ele>1101.6794212305326</ele>
        <time>2016-06-09T08:34:32.900000Z</time>
      </trkpt>
      <trkpt lat="37.84905104644058" lon="112.02432546131583">
        <ele>1102.3817144108684</ele>
        <time>2016-06-09T08:34:36.800000Z</time>
      </trkpt>
      <trkpt lat="37.84903487354064" lon="112.02418376316594">
        <ele>1103.0037551937864</ele>
        <time>2016-06-09T08:34:40.800000Z</time>
      </trkpt>
      <trkpt lat="37.84897900728318" lon="112.02397122090747">
        <ele>1103.4109826677577</ele>
        <time>2016-06-09T08:34:47.800000Z</time>
      </trkpt>
      <trkpt lat="37.8489797198069" lon="112.02380599606228">
        <ele>1103.7104488063399</ele>
        <time>2016-06-09T08:34:51.800000Z</time>
      </trkpt>
      <trkpt lat="37.849017964458056" lon="112.0237083713436">
        <ele>1103.9861979712523</ele>
        <time>2016-06-09T08:34:54.800000Z</time>
      </trkpt>
      <trkpt lat="37.84903186512436" lon="112.023583167559">
        <ele>1104.0891844991959</ele>
        <time>2016-06-09T08:34:58.800000Z</time>
      </trkpt>
      <trkpt lat="37.84900802410159" lon="112.02346905573667">
        <ele>1104.1162760936566</ele>
        <time>2016-06-09T08:35:02.800000Z</time>
      </trkpt>
      <trkpt lat="37.84912058444496" lon="112.02327948292096">
        <ele>1103.8264438600847</ele>
        <time>2016-06-09T08:35:09.800000Z</time>
      </trkpt>
      <trkpt lat="37.8491499351829" lon="112.02316022795686">
        <ele>1103.3251269514828</ele>
        <time>2016-06-09T08:35:13.800000Z</time>
      </trkpt>
      <trkpt lat="37.84913559982169" lon="112.0227408249542">
        <ele>1101.8508216212965</ele>
        <time>2016-06-09T08:35:25.800000Z</time>
      </trkpt>
      <trkpt lat="37.84911106242595" lon="112.02238335103422">
        <ele>1101.6404045609902</ele>
        <time>2016-06-09T08:35:37.800000Z</time>
      </trkpt>
      <trkpt lat="37.84913262298747" lon="112.02213619947646">
        <ele>1101.5273265351552</ele>
        <time>2016-06-09T08:35:45.800000Z</time>
      </trkpt>
      <trkpt lat="37.84916577968401" lon="112.02201532570095">
        <ele>1101.5382516931988</ele>
        <time>2016-06-09T08:35:49.800000Z</time>
      </trkpt>
      <trkpt lat="37.84918035914657" lon="112.0216424419569">
        <ele>1101.4403764836331</ele>
        <time>2016-06-09T08:36:00.800000Z</time>
      </trkpt>
      <trkpt lat="37.84918025029578" lon="112.02128443576328">
        <ele>1101.098194796722</ele>
        <time>2016-06-09T08:36:11.800000Z</time>
      </trkpt>
      <trkpt lat="37.84918937336288" lon="112.02092480975463">
        <ele>1100.7217038181757</ele>
        <time>2016-06-09T08:36:22.800000Z</time>
      </trkpt>
      <trkpt lat="37.84917118520431" lon="112.02053301420118">
        <ele>1100.0314179048862</ele>
        <time>2016-06-09T08:36:33.800000Z</time>
      </trkpt>
      <trkpt lat="37.8491745816431" lon="112.02018610466355">
        <ele>1100.3200542636503</ele>
        <time>2016-06-09T08:36:43.800000Z</time>
      </trkpt>
      <trkpt lat="37.84917810198778" lon="112.02009011672023">
        <ele>1100.2658574718841</ele>
        <time>2016-06-09T08:36:46.800000Z</time>
      </trkpt>
      <trkpt lat="37.849157566822356" lon="112.01996114479842">
        <ele>1100.3968718793185</ele>
        <time>2016-06-09T08:36:50.800000Z</time>
      </trkpt>
      <trkpt lat="37.8491809650952" lon="112.01974104838682">
        <ele>1100.724774593042</ele>
        <time>2016-06-09T08:36:58.800000Z</time>
      </trkpt>
      <trkpt lat="37.84917724399369" lon="112.01961504989055">
        <ele>1100.520956042784</ele>
        <time>2016-06-09T08:37:02.800000Z</time>
      </trkpt>
      <trkpt lat="37.8492046600235" lon="112.01921866644584">
        <ele>1100.4847783241114</ele>
        <time>2016-06-09T08:37:16.800000Z</time>
      </trkpt>
      <trkpt lat="37.84922333110728" lon="112.018846081484">
        <ele>1100.454244439579</ele>
        <time>2016-06-09T08:37:29.800000Z</time>
      </trkpt>
      <trkpt lat="37.84923811536563" lon="112.01850621606518">
        <ele>1100.8330073114464</ele>
        <time>2016-06-09T08:37:39.800000Z</time>
      </trkpt>
      <trkpt lat="37.84921129142348" lon="112.01839617656297">
        <ele>1101.1185351300132</ele>
        <time>2016-06-09T08:37:43.800000Z</time>
      </trkpt>
      <trkpt lat="37.84923344130243" lon="112.01804306596603">
        <ele>1101.552298749975</ele>
        <time>2016-06-09T08:37:53.800000Z</time>
      </trkpt>
      <trkpt lat="37.849232508326516" lon="112.01779513537265">
        <ele>1101.3837220534388</ele>
        <time>2016-06-09T08:38:00.800000Z</time>
      </trkpt>
      <trkpt lat="37.84927179257716" lon="112.01733225872454">
        <ele>1101.2216640868896</ele>
        <time>2016-06-09T08:38:14.800000Z</time>
      </trkpt>
      <trkpt lat="37.84934488812943" lon="112.01690723438624">
        <ele>1101.356031104611</ele>
        <time>2016-06-09T08:38:28.800000Z</time>
      </trkpt>
      <trkpt lat="37.8493765189646" lon="112.01656305772644">
        <ele>1101.853444588107</ele>
        <time>2016-06-09T08:38:40.800000Z</time>
      </trkpt>
      <trkpt lat="37.84940768531448" lon="112.01619211831634">
        <ele>1102.4846741857548</ele>
        <time>2016-06-09T08:38:51.800000Z</time>
      </trkpt>
      <trkpt lat="37.849439322294515" lon="112.01584740681993">
        <ele>1103.497668453045</ele>
        <time>2016-06-09T08:39:02.800000Z</time>
      </trkpt>
      <trkpt lat="37.84947677911363" lon="112.01536535691122">
        <ele>1105.1113921683468</ele>
        <time>2016-06-09T08:39:16.800000Z</time>
      </trkpt>
      <trkpt lat="37.84951987657588" lon="112.01490466945808">
        <ele>1107.0776964246477</ele>
        <time>2016-06-09T08:39:30.800000Z</time>
      </trkpt>
      <trkpt lat="37.84951232540795" lon="112.01450968775717">
        <ele>1108.7526840677506</ele>
        <time>2016-06-09T08:39:41.800000Z</time>
      </trkpt>
      <trkpt lat="37.849536207049994" lon="112.01441289981922">
        <ele>1109.0838400224886</ele>
        <time>2016-06-09T08:39:44.800000Z</time>
      </trkpt>
      <trkpt lat="37.84954182063138" lon="112.01406415014195">
        <ele>1110.3216139516987</ele>
        <time>2016-06-09T08:39:54.800000Z</time>
      </trkpt>
      <trkpt lat="37.84958870449271" lon="112.01370539539397">
        <ele>1111.4356075948906</ele>
        <time>2016-06-09T08:40:06.800000Z</time>
      </trkpt>
      <trkpt lat="37.849642112907496" lon="112.01334285780555">
        <ele>1112.946741895735</ele>
        <time>2016-06-09T08:40:18.800000Z</time>
      </trkpt>
      <trkpt lat="37.84970987411735" lon="112.0128965156593">
        <ele>1113.7972226184957</ele>
        <time>2016-06-09T08:40:32.800000Z</time>
      </trkpt>
      <trkpt lat="37.849728672658514" lon="112.01268213395032">
        <ele>1114.0268377140605</ele>
        <time>2016-06-09T08:40:39.800000Z</time>
      </trkpt>
      <trkpt lat="37.84975853392443" lon="112.0125826456503">
        <ele>1113.6721010540305</ele>
        <time>2016-06-09T08:40:43.800000Z</time>
      </trkpt>
      <trkpt lat="37.849787193332375" lon="112.01233636430862">
        <ele>1113.3442686245032</ele>
        <time>2016-06-09T08:40:51.800000Z</time>
      </trkpt>
      <trkpt lat="37.84982566523453" lon="112.01216821017039">
        <ele>1113.1013183736957</ele>
        <time>2016-06-09T08:40:57.800000Z</time>
      </trkpt>
      <trkpt lat="37.849837714209905" lon="112.01175675834915">
        <ele>1112.5562044245598</ele>
        <time>2016-06-09T08:41:10.800000Z</time>
      </trkpt>
      <trkpt lat="37.849861237349735" lon="112.01131908622392">
        <ele>1112.2462813829188</ele>
        <time>2016-06-09T08:41:22.800000Z</time>
      </trkpt>
      <trkpt lat="37.849855496405574" lon="112.01086952671162">
        <ele>1112.7386607081046</ele>
        <time>2016-06-09T08:41:37.800000Z</time>
      </trkpt>
      <trkpt lat="37.8498680233185" lon="112.01076085277771">
        <ele>1112.6574321747391</ele>
        <time>2016-06-09T08:41:40.800000Z</time>
      </trkpt>
      <trkpt lat="37.84988617993761" lon="112.01039752940099">
        <ele>1112.7779042113068</ele>
        <time>2016-06-09T08:41:50.800000Z</time>
      </trkpt>
      <trkpt lat="37.849916165964785" lon="112.00997933090824">
        <ele>1112.796471044379</ele>
        <time>2016-06-09T08:42:04.800000Z</time>
      </trkpt>
      <trkpt lat="37.84989607152902" lon="112.0096160171509">
        <ele>1114.0488056918925</ele>
        <time>2016-06-09T08:42:15.800000Z</time>
      </trkpt>
      <trkpt lat="37.84986604658748" lon="112.00940084349114">
        <ele>1115.2106817611605</ele>
        <time>2016-06-09T08:42:21.900000Z</time>
      </trkpt>
      <trkpt lat="37.84972150354547" lon="112.00910215494763">
        <ele>1117.1993788704417</ele>
        <time>2016-06-09T08:42:32.800000Z</time>
      </trkpt>
      <trkpt lat="37.8495738631249" lon="112.00884212402867">
        <ele>1118.9404903763384</ele>
        <time>2016-06-09T08:42:44.800000Z</time>
      </trkpt>
      <trkpt lat="37.849400401021434" lon="112.00859831644235">
        <ele>1119.863548507652</ele>
        <time>2016-06-09T08:42:55.800000Z</time>
      </trkpt>
      <trkpt lat="37.84922632648355" lon="112.00828666009716">
        <ele>1119.7468107835455</ele>
        <time>2016-06-09T08:43:06.900000Z</time>
      </trkpt>
      <trkpt lat="37.84899754989024" lon="112.00794068164">
        <ele>1120.2534091658376</ele>
        <time>2016-06-09T08:43:19.900000Z</time>
      </trkpt>
      <trkpt lat="37.84880717592858" lon="112.00763686957701">
        <ele>1120.9581825538887</ele>
        <time>2016-06-09T08:43:31.800000Z</time>
      </trkpt>
      <trkpt lat="37.848648472689646" lon="112.00735792400421">
        <ele>1121.3616887611352</ele>
        <time>2016-06-09T08:43:41.800000Z</time>
      </trkpt>
      <trkpt lat="37.848448775772134" lon="112.00708790480044">
        <ele>1122.644095115678</ele>
        <time>2016-06-09T08:43:51.900000Z</time>
      </trkpt>
      <trkpt lat="37.848287223115925" lon="112.00694655062152">
        <ele>1123.9880765910611</ele>
        <time>2016-06-09T08:43:58.800000Z</time>
      </trkpt>
      <trkpt lat="37.84819726343304" lon="112.0069076364006">
        <ele>1124.475428315812</ele>
        <time>2016-06-09T08:44:01.800000Z</time>
      </trkpt>
      <trkpt lat="37.84787046719587" lon="112.0068625332822">
        <ele>1126.2105308057323</ele>
        <time>2016-06-09T08:44:12.800000Z</time>
      </trkpt>
      <trkpt lat="37.8475955076521" lon="112.006812017772">
        <ele>1128.6462833446385</ele>
        <time>2016-06-09T08:44:22.800000Z</time>
      </trkpt>
      <trkpt lat="37.847275187659946" lon="112.00677880764931">
        <ele>1132.8151437548481</ele>
        <time>2016-06-09T08:44:33.800000Z</time>
      </trkpt>
      <trkpt lat="37.84697303032472" lon="112.00675073129271">
        <ele>1140.3925026260965</ele>
        <time>2016-06-09T08:44:44.800000Z</time>
      </trkpt>
      <trkpt lat="37.84663649698838" lon="112.00669562791134">
        <ele>1150.8093423247321</ele>
        <time>2016-06-09T08:44:58.800000Z</time>
      </trkpt>
      <trkpt lat="37.84631026795437" lon="112.00664241551937">
        <ele>1153.3507987624096</ele>
        <time>2016-06-09T08:45:12.800000Z</time>
      </trkpt>
      <trkpt lat="37.84602648276163" lon="112.00654919210022">
        <ele>1152.4987796473276</ele>
        <time>2016-06-09T08:45:23.800000Z</time>
      </trkpt>
      <trkpt lat="37.84583436789892" lon="112.00646704059392">
        <ele>1151.87912463443</ele>
        <time>2016-06-09T08:45:30.800000Z</time>
      </trkpt>
      <trkpt lat="37.845567866311335" lon="112.00640084635212">
        <ele>1150.9893605341215</ele>
        <time>2016-06-09T08:45:42.800000Z</time>
      </trkpt>
      <trkpt lat="37.84529735156617" lon="112.00631573095393">
        <ele>1148.7997564466002</ele>
        <time>2016-06-09T08:45:53.800000Z</time>
      </trkpt>
      <trkpt lat="37.84502411577188" lon="112.00623331907362">
        <ele>1146.264357195979</ele>
        <time>2016-06-09T08:46:04.800000Z</time>
      </trkpt>
      <trkpt lat="37.844666475736" lon="112.00615983755624">
        <ele>1144.6131479167084</ele>
        <time>2016-06-09T08:46:19.800000Z</time>
      </trkpt>
      <trkpt lat="37.844553395471415" lon="112.00614092939222">
        <ele>1144.0208267953758</ele>
        <time>2016-06-09T08:46:23.800000Z</time>
      </trkpt>
      <trkpt lat="37.84422845918284" lon="112.00629126023529">
        <ele>1142.3769630503275</ele>
        <time>2016-06-09T08:46:36.900000Z</time>
      </trkpt>
      <trkpt lat="37.84396058471067" lon="112.00641266138554">
        <ele>1141.0604170715587</ele>
        <time>2016-06-09T08:46:47.800000Z</time>
      </trkpt>
      <trkpt lat="37.84365059682555" lon="112.00664543587209">
        <ele>1137.9412203279917</ele>
        <time>2016-06-09T08:47:02.800000Z</time>
      </trkpt>
      <trkpt lat="37.84341394477017" lon="112.00685090087364">
        <ele>1136.5899985762599</ele>
        <time>2016-06-09T08:47:13.800000Z</time>
      </trkpt>
      <trkpt lat="37.843169180422414" lon="112.00704744713427">
        <ele>1135.841121451855</ele>
        <time>2016-06-09T08:47:25.800000Z</time>
      </trkpt>
      <trkpt lat="37.84299162712496" lon="112.00717775916941">
        <ele>1135.0696082201357</ele>
        <time>2016-06-09T08:47:35.800000Z</time>
      </trkpt>
      <trkpt lat="37.84270323633418" lon="112.00735620054596">
        <ele>1134.8803167459664</ele>
        <time>2016-06-09T08:47:49.800000Z</time>
      </trkpt>
      <trkpt lat="37.84245630274926" lon="112.00755274854131">
        <ele>1132.8153942062258</ele>
        <time>2016-06-09T08:48:00.800000Z</time>
      </trkpt>
      <trkpt lat="37.84216479936277" lon="112.0077747121105">
        <ele>1132.4237115334818</ele>
        <time>2016-06-09T08:48:13.900000Z</time>
      </trkpt>
      <trkpt lat="37.84183751725502" lon="112.00798532741376">
        <ele>1131.8191792159053</ele>
        <time>2016-06-09T08:48:28.800000Z</time>
      </trkpt>
      <trkpt lat="37.84160113358092" lon="112.00810132152856">
        <ele>1132.8455043499443</ele>
        <time>2016-06-09T08:48:39.800000Z</time>
      </trkpt>
      <trkpt lat="37.84133292511338" lon="112.00815325442895">
        <ele>1133.741477246483</ele>
        <time>2016-06-09T08:48:50.800000Z</time>
      </trkpt>
      <trkpt lat="37.84115789143994" lon="112.00816625054661">
        <ele>1134.6522468009096</ele>
        <time>2016-06-09T08:48:57.800000Z</time>
      </trkpt>
      <trkpt lat="37.84088781830476" lon="112.00811492250288">
        <ele>1136.6255411135212</ele>
        <time>2016-06-09T08:49:08.800000Z</time>
      </trkpt>
      <trkpt lat="37.84061310255151" lon="112.00807386709577">
        <ele>1138.393017094305</ele>
        <time>2016-06-09T08:49:19.800000Z</time>
      </trkpt>
      <trkpt lat="37.84031293814781" lon="112.00801443321221">
        <ele>1139.6313497933209</ele>
        <time>2016-06-09T08:49:32.800000Z</time>
      </trkpt>
      <trkpt lat="37.84012740434507" lon="112.00800012856685">
        <ele>1139.909587490786</ele>
        <time>2016-06-09T08:49:39.800000Z</time>
      </trkpt>
      <trkpt lat="37.8398383420153" lon="112.00803962929925">
        <ele>1140.2560239100355</ele>
        <time>2016-06-09T08:49:53.800000Z</time>
      </trkpt>
      <trkpt lat="37.839555343854215" lon="112.00804696162072">
        <ele>1140.1937879706386</ele>
        <time>2016-06-09T08:50:05.800000Z</time>
      </trkpt>
      <trkpt lat="37.839296387474285" lon="112.00808970259483">
        <ele>1141.045558923723</ele>
        <time>2016-06-09T08:50:15.800000Z</time>
      </trkpt>
      <trkpt lat="37.839397782223564" lon="112.00811510030181">
        <ele>1141.7448633852853</ele>
        <time>2016-06-09T08:50:23.800000Z</time>
      </trkpt>
      <trkpt lat="37.83975845912072" lon="112.0080793754141">
        <ele>1142.2923310714564</ele>
        <time>2016-06-09T08:50:37.800000Z</time>
      </trkpt>
      <trkpt lat="37.84005838423579" lon="112.00803635924211">
        <ele>1142.8095999684995</ele>
        <time>2016-06-09T08:50:48.800000Z</time>
      </trkpt>
      <trkpt lat="37.840300463478684" lon="112.00801254248387">
        <ele>1142.8760450167283</ele>
        <time>2016-06-09T08:50:58.800000Z</time>
      </trkpt>
      <trkpt lat="37.840620414322096" lon="112.00807846161148">
        <ele>1143.236801986593</ele>
        <time>2016-06-09T08:51:09.800000Z</time>
      </trkpt>
      <trkpt lat="37.840915376715806" lon="112.00815384489047">
        <ele>1143.56134033171</ele>
        <time>2016-06-09T08:51:20.800000Z</time>
      </trkpt>
      <trkpt lat="37.841215927073186" lon="112.00817462345871">
        <ele>1143.6487421924412</ele>
        <time>2016-06-09T08:51:31.800000Z</time>
      </trkpt>
      <trkpt lat="37.84130708979643" lon="112.00817380162782">
        <ele>1143.4445795990532</ele>
        <time>2016-06-09T08:51:35.800000Z</time>
      </trkpt>
      <trkpt lat="37.84165032164203" lon="112.00807401364307">
        <ele>1142.706096878737</ele>
        <time>2016-06-09T08:51:45.800000Z</time>
      </trkpt>
      <trkpt lat="37.841838601696516" lon="112.00798559760092">
        <ele>1141.845682528896</ele>
        <time>2016-06-09T08:51:52.800000Z</time>
      </trkpt>
      <trkpt lat="37.84207136431246" lon="112.00780986430593">
        <ele>1141.2965880097531</ele>
        <time>2016-06-09T08:52:02.800000Z</time>
      </trkpt>
      <trkpt lat="37.842338285209834" lon="112.00764331812717">
        <ele>1140.1530613147727</ele>
        <time>2016-06-09T08:52:12.800000Z</time>
      </trkpt>
      <trkpt lat="37.84260709602601" lon="112.00748001592164">
        <ele>1138.7583144913222</ele>
        <time>2016-06-09T08:52:23.800000Z</time>
      </trkpt>
      <trkpt lat="37.84287139449323" lon="112.00728319575703">
        <ele>1137.4979824712593</ele>
        <time>2016-06-09T08:52:34.800000Z</time>
      </trkpt>
      <trkpt lat="37.843173843348254" lon="112.00703041687895">
        <ele>1136.0093447918164</ele>
        <time>2016-06-09T08:52:46.800000Z</time>
      </trkpt>
      <trkpt lat="37.84344161767409" lon="112.00685116788475">
        <ele>1134.7110363733223</ele>
        <time>2016-06-09T08:52:57.800000Z</time>
      </trkpt>
      <trkpt lat="37.84360344995554" lon="112.00671599274062">
        <ele>1134.0254949638565</ele>
        <time>2016-06-09T08:53:04.800000Z</time>
      </trkpt>
      <trkpt lat="37.84390414219839" lon="112.00650700646017">
        <ele>1131.891982253083</ele>
        <time>2016-06-09T08:53:15.800000Z</time>
      </trkpt>
      <trkpt lat="37.84416890183054" lon="112.0063383012588">
        <ele>1132.6719298661515</ele>
        <time>2016-06-09T08:53:25.800000Z</time>
      </trkpt>
      <trkpt lat="37.84449493940294" lon="112.00618256399798">
        <ele>1131.9270414901782</ele>
        <time>2016-06-09T08:53:37.800000Z</time>
      </trkpt>
      <trkpt lat="37.84461686371225" lon="112.00614713893624">
        <ele>1130.760254884752</ele>
        <time>2016-06-09T08:53:41.800000Z</time>
      </trkpt>
      <trkpt lat="37.84490701820976" lon="112.00619684125473">
        <ele>1130.2018992353867</ele>
        <time>2016-06-09T08:53:52.800000Z</time>
      </trkpt>
      <trkpt lat="37.84527031314138" lon="112.00628464854917">
        <ele>1130.961121229516</ele>
        <time>2016-06-09T08:54:04.800000Z</time>
      </trkpt>
      <trkpt lat="37.845539747443496" lon="112.00636814217965">
        <ele>1131.092645992866</ele>
        <time>2016-06-09T08:54:14.800000Z</time>
      </trkpt>
      <trkpt lat="37.84581645732641" lon="112.00646839428242">
        <ele>1131.8680931116783</ele>
        <time>2016-06-09T08:54:24.800000Z</time>
      </trkpt>
      <trkpt lat="37.84615609146631" lon="112.00657539678805">
        <ele>1135.6417281297547</ele>
        <time>2016-06-09T08:54:35.800000Z</time>
      </trkpt>
      <trkpt lat="37.846252291855556" lon="112.00661403977486">
        <ele>1135.2444381078096</ele>
        <time>2016-06-09T08:54:39.800000Z</time>
      </trkpt>
      <trkpt lat="37.846536225259825" lon="112.00665752598908">
        <ele>1133.4070167800314</ele>
        <time>2016-06-09T08:54:47.800000Z</time>
      </trkpt>
      <trkpt lat="37.84688752929845" lon="112.00667235119772">
        <ele>1131.2012403724293</ele>
        <time>2016-06-09T08:54:57.800000Z</time>
      </trkpt>
      <trkpt lat="37.84716465510865" lon="112.0067242179101">
        <ele>1131.8181898438197</ele>
        <time>2016-06-09T08:55:07.800000Z</time>
      </trkpt>
      <trkpt lat="37.84749929341742" lon="112.00677796997924">
        <ele>1132.1757572515432</ele>
        <time>2016-06-09T08:55:18.700000Z</time>
      </trkpt>
      <trkpt lat="37.84781412044907" lon="112.0068336166337">
        <ele>1132.1716757566483</ele>
        <time>2016-06-09T08:55:28.800000Z</time>
      </trkpt>
      <trkpt lat="37.84819510259041" lon="112.00690439291323">
        <ele>1130.9854759927357</ele>
        <time>2016-06-09T08:55:40.800000Z</time>
      </trkpt>
      <trkpt lat="37.84835892051996" lon="112.00701384985159">
        <ele>1130.6813113388043</ele>
        <time>2016-06-09T08:55:46.800000Z</time>
      </trkpt>
      <trkpt lat="37.848582637067345" lon="112.00732657545703">
        <ele>1130.3573174810401</ele>
        <time>2016-06-09T08:55:57.800000Z</time>
      </trkpt>
      <trkpt lat="37.84879601766098" lon="112.00764849445552">
        <ele>1129.4152553624983</ele>
        <time>2016-06-09T08:56:08.700000Z</time>
      </trkpt>
      <trkpt lat="37.84901372207598" lon="112.00797663178437">
        <ele>1129.3914358965585</ele>
        <time>2016-06-09T08:56:18.700000Z</time>
      </trkpt>
      <trkpt lat="37.84918003374314" lon="112.00825233527992">
        <ele>1129.5079023132116</ele>
        <time>2016-06-09T08:56:26.800000Z</time>
      </trkpt>
      <trkpt lat="37.8493851979696" lon="112.00860156208665">
        <ele>1129.4053420485589</ele>
        <time>2016-06-09T08:56:37.800000Z</time>
      </trkpt>
      <trkpt lat="37.849615807261955" lon="112.00897106187227">
        <ele>1129.4229460032705</ele>
        <time>2016-06-09T08:56:47.800000Z</time>
      </trkpt>
      <trkpt lat="37.84980224943646" lon="112.00932191694169">
        <ele>1129.2096873621945</ele>
        <time>2016-06-09T08:56:58.800000Z</time>
      </trkpt>
      <trkpt lat="37.84984388169147" lon="112.009464912648">
        <ele>1128.8097917633993</ele>
        <time>2016-06-09T08:57:02.800000Z</time>
      </trkpt>
      <trkpt lat="37.84986504951192" lon="112.00983200987322">
        <ele>1127.8834224246423</ele>
        <time>2016-06-09T08:57:12.800000Z</time>
      </trkpt>
      <trkpt lat="37.849878277562325" lon="112.00994689639833">
        <ele>1126.352942458228</ele>
        <time>2016-06-09T08:57:15.800000Z</time>
      </trkpt>
      <trkpt lat="37.84987833143353" lon="112.0102983202752">
        <ele>1123.843067880016</ele>
        <time>2016-06-09T08:57:25.800000Z</time>
      </trkpt>
      <trkpt lat="37.84987075198091" lon="112.01047754820942">
        <ele>1120.5808768263776</ele>
        <time>2016-06-09T08:57:29.800000Z</time>
      </trkpt>
      <trkpt lat="37.849813085052396" lon="112.01099199128039">
        <ele>1118.854682781809</ele>
        <time>2016-06-09T08:57:40.800000Z</time>
      </trkpt>
      <trkpt lat="37.849807144527546" lon="112.01135396552758">
        <ele>1120.8418525644324</ele>
        <time>2016-06-09T08:57:47.800000Z</time>
      </trkpt>
      <trkpt lat="37.84980202066353" lon="112.01171567182637">
        <ele>1124.1765919712661</ele>
        <time>2016-06-09T08:57:54.800000Z</time>
      </trkpt>
      <trkpt lat="37.84978997339503" lon="112.01193978067043">
        <ele>1125.44696682825</ele>
        <time>2016-06-09T08:57:58.800000Z</time>
      </trkpt>
      <trkpt lat="37.849773213647985" lon="112.0123855673985">
        <ele>1127.4328420628094</ele>
        <time>2016-06-09T08:58:06.700000Z</time>
      </trkpt>
      <trkpt lat="37.84973309209411" lon="112.01284244483415">
        <ele>1128.3939878494584</ele>
        <time>2016-06-09T08:58:14.800000Z</time>
      </trkpt>
      <trkpt lat="37.84969124875521" lon="112.0132390403707">
        <ele>1126.6191930429775</ele>
        <time>2016-06-09T08:58:21.800000Z</time>
      </trkpt>
      <trkpt lat="37.849656041771446" lon="112.01359319431361">
        <ele>1126.628362690614</ele>
        <time>2016-06-09T08:58:28.800000Z</time>
      </trkpt>
      <trkpt lat="37.84960256264826" lon="112.0140752271036">
        <ele>1124.2939547401927</ele>
        <time>2016-06-09T08:58:39.800000Z</time>
      </trkpt>
      <trkpt lat="37.8495615576459" lon="112.01446615558862">
        <ele>1123.7878980946862</ele>
        <time>2016-06-09T08:58:50.800000Z</time>
      </trkpt>
      <trkpt lat="37.84952550926881" lon="112.01483248484472">
        <ele>1121.6429195434243</ele>
        <time>2016-06-09T08:58:58.800000Z</time>
      </trkpt>
      <trkpt lat="37.849488324093265" lon="112.0150276835884">
        <ele>1120.8078085584816</ele>
        <time>2016-06-09T08:59:02.800000Z</time>
      </trkpt>
      <trkpt lat="37.84944365754246" lon="112.0154680958507">
        <ele>1120.41954638278</ele>
        <time>2016-06-09T08:59:12.800000Z</time>
      </trkpt>
      <trkpt lat="37.84939675562879" lon="112.015932574738">
        <ele>1117.3634725275422</ele>
        <time>2016-06-09T08:59:24.800000Z</time>
      </trkpt>
      <trkpt lat="37.84936521351451" lon="112.01633974026878">
        <ele>1117.5858722962662</ele>
        <time>2016-06-09T08:59:32.800000Z</time>
      </trkpt>
      <trkpt lat="37.8493299480994" lon="112.01681747518154">
        <ele>1121.7440325394507</ele>
        <time>2016-06-09T08:59:42.800000Z</time>
      </trkpt>
      <trkpt lat="37.84926828682885" lon="112.0173246888535">
        <ele>1124.3248458772794</ele>
        <time>2016-06-09T08:59:52.800000Z</time>
      </trkpt>
      <trkpt lat="37.84921444156539" lon="112.01765887094126">
        <ele>1123.4606358743604</ele>
        <time>2016-06-09T09:00:00.800000Z</time>
      </trkpt>
      <trkpt lat="37.84919845175276" lon="112.01794276212874">
        <ele>1122.7634150261367</ele>
        <time>2016-06-09T09:00:07.900000Z</time>
      </trkpt>
      <trkpt lat="37.84920554539584" lon="112.01802549510741">
        <ele>1122.42271678028</ele>
        <time>2016-06-09T09:00:11.800000Z</time>
      </trkpt>
      <trkpt lat="37.84920243806463" lon="112.01787570952514">
        <ele>1121.8682929707677</ele>
        <time>2016-06-09T09:00:18.800000Z</time>
      </trkpt>
      <trkpt lat="37.849224618300155" lon="112.01760966245456">
        <ele>1120.3300925173444</ele>
        <time>2016-06-09T09:00:25.800000Z</time>
      </trkpt>
      <trkpt lat="37.84926845827699" lon="112.01745662839527">
        <ele>1119.0565334501507</ele>
        <time>2016-06-09T09:00:29.800000Z</time>
      </trkpt>
      <trkpt lat="37.84930960282061" lon="112.0170086255149">
        <ele>1116.463966470927</ele>
        <time>2016-06-09T09:00:41.800000Z</time>
      </trkpt>
      <trkpt lat="37.84935787245829" lon="112.01663281353873">
        <ele>1113.9444314088248</ele>
        <time>2016-06-09T09:00:52.800000Z</time>
      </trkpt>
      <trkpt lat="37.84941000842452" lon="112.01613831641528">
        <ele>1110.9769136938417</ele>
        <time>2016-06-09T09:01:04.800000Z</time>
      </trkpt>
      <trkpt lat="37.84943949523915" lon="112.0157865763167">
        <ele>1109.8366545644283</ele>
        <time>2016-06-09T09:01:12.800000Z</time>
      </trkpt>
      <trkpt lat="37.849496464646165" lon="112.01540752993552">
        <ele>1109.7170259005773</ele>
        <time>2016-06-09T09:01:22.800000Z</time>
      </trkpt>
      <trkpt lat="37.849547926063615" lon="112.01496306218183">
        <ele>1108.8353950234389</ele>
        <time>2016-06-09T09:01:32.800000Z</time>
      </trkpt>
      <trkpt lat="37.84959820568562" lon="112.01445885176909">
        <ele>1107.592665966837</ele>
        <time>2016-06-09T09:01:43.800000Z</time>
      </trkpt>
      <trkpt lat="37.849643756891865" lon="112.0139965512338">
        <ele>1107.1662776253625</ele>
        <time>2016-06-09T09:01:54.800000Z</time>
      </trkpt>
      <trkpt lat="37.8496936622045" lon="112.01362509045265">
        <ele>1107.1013756161683</ele>
        <time>2016-06-09T09:02:04.800000Z</time>
      </trkpt>
      <trkpt lat="37.84974078799668" lon="112.01327742306715">
        <ele>1106.7649388049863</ele>
        <time>2016-06-09T09:02:12.800000Z</time>
      </trkpt>
      <trkpt lat="37.849777544911255" lon="112.01295084601422">
        <ele>1105.9553045152948</ele>
        <time>2016-06-09T09:02:19.800000Z</time>
      </trkpt>
      <trkpt lat="37.849789124013206" lon="112.01260616146146">
        <ele>1105.8262033971894</ele>
        <time>2016-06-09T09:02:27.800000Z</time>
      </trkpt>
      <trkpt lat="37.84980097473242" lon="112.01226201995004">
        <ele>1106.4275570549037</ele>
        <time>2016-06-09T09:02:34.800000Z</time>
      </trkpt>
      <trkpt lat="37.84983156279671" lon="112.01181947666903">
        <ele>1107.7339141710474</ele>
        <time>2016-06-09T09:02:45.800000Z</time>
      </trkpt>
      <trkpt lat="37.84983661738785" lon="112.0113882942009">
        <ele>1107.8536379335246</ele>
        <time>2016-06-09T09:02:55.800000Z</time>
      </trkpt>
      <trkpt lat="37.84985940672054" lon="112.0110168561403">
        <ele>1107.8015090686085</ele>
        <time>2016-06-09T09:03:03.700000Z</time>
      </trkpt>
      <trkpt lat="37.84987179972772" lon="112.01058297601894">
        <ele>1109.0069696356463</ele>
        <time>2016-06-09T09:03:13.800000Z</time>
      </trkpt>
      <trkpt lat="37.849873131903344" lon="112.01012855585496">
        <ele>1111.4213333158887</ele>
        <time>2016-06-09T09:03:24.800000Z</time>
      </trkpt>
      <trkpt lat="37.849891203211946" lon="112.00970306201992">
        <ele>1112.4195827981218</ele>
        <time>2016-06-09T09:03:34.800000Z</time>
      </trkpt>
      <trkpt lat="37.849850866649" lon="112.00939624981886">
        <ele>1114.0349734682393</ele>
        <time>2016-06-09T09:03:41.800000Z</time>
      </trkpt>
      <trkpt lat="37.84980701544104" lon="112.00926974418836">
        <ele>1116.8693018875003</ele>
        <time>2016-06-09T09:03:44.800000Z</time>
      </trkpt>
      <trkpt lat="37.84962398011675" lon="112.00895970742663">
        <ele>1128.1031213324786</ele>
        <time>2016-06-09T09:03:51.800000Z</time>
      </trkpt>
      <trkpt lat="37.84940452502068" lon="112.0085799342548">
        <ele>1130.6068544471184</ele>
        <time>2016-06-09T09:03:59.700000Z</time>
      </trkpt>
      <trkpt lat="37.84920170749416" lon="112.00826287507955">
        <ele>1128.7823677724311</ele>
        <time>2016-06-09T09:04:06.800000Z</time>
      </trkpt>
      <trkpt lat="37.84899099114934" lon="112.00795663108514">
        <ele>1130.222797777042</ele>
        <time>2016-06-09T09:04:13.800000Z</time>
      </trkpt>
      <trkpt lat="37.848705385677185" lon="112.0075617341927">
        <ele>1132.098107028999</ele>
        <time>2016-06-09T09:04:21.800000Z</time>
      </trkpt>
      <trkpt lat="37.848513084206736" lon="112.00726792569623">
        <ele>1137.0139792445427</ele>
        <time>2016-06-09T09:04:28.800000Z</time>
      </trkpt>
      <trkpt lat="37.848310229129" lon="112.00696519942483">
        <ele>1140.0517720791495</ele>
        <time>2016-06-09T09:04:36.800000Z</time>
      </trkpt>
      <trkpt lat="37.84820170334755" lon="112.00687438748999">
        <ele>1140.2593454372607</ele>
        <time>2016-06-09T09:04:40.800000Z</time>
      </trkpt>
      <trkpt lat="37.847910502048244" lon="112.0068114395694">
        <ele>1140.1424522624266</ele>
        <time>2016-06-09T09:04:50.800000Z</time>
      </trkpt>
      <trkpt lat="37.84757017172189" lon="112.00675579597518">
        <ele>1140.2004022773033</ele>
        <time>2016-06-09T09:05:02.800000Z</time>
      </trkpt>
      <trkpt lat="37.84726832991292" lon="112.00671285246425">
        <ele>1138.698713976115</ele>
        <time>2016-06-09T09:05:13.800000Z</time>
      </trkpt>
      <trkpt lat="37.846985181306586" lon="112.00667909732937">
        <ele>1137.0907858516837</ele>
        <time>2016-06-09T09:05:24.800000Z</time>
      </trkpt>
      <trkpt lat="37.846768778598516" lon="112.00664425300299">
        <ele>1136.1322926149512</ele>
        <time>2016-06-09T09:05:32.800000Z</time>
      </trkpt>
      <trkpt lat="37.84663934050293" lon="112.00665183715468">
        <ele>1136.1246416382323</ele>
        <time>2016-06-09T09:05:36.800000Z</time>
      </trkpt>
      <trkpt lat="37.846362741346425" lon="112.00660537664876">
        <ele>1135.7719154948827</ele>
        <time>2016-06-09T09:05:47.800000Z</time>
      </trkpt>
      <trkpt lat="37.84616586109034" lon="112.00657458469017">
        <ele>1135.3880600960742</ele>
        <time>2016-06-09T09:05:54.800000Z</time>
      </trkpt>
      <trkpt lat="37.84587013749047" lon="112.00648163309283">
        <ele>1135.3108020925786</ele>
        <time>2016-06-09T09:06:06.800000Z</time>
      </trkpt>
      <trkpt lat="37.84577751820548" lon="112.00642487895807">
        <ele>1135.1224620901173</ele>
        <time>2016-06-09T09:06:10.800000Z</time>
      </trkpt>
      <trkpt lat="37.84544219548088" lon="112.0063278776247">
        <ele>1131.2614090574225</ele>
        <time>2016-06-09T09:06:24.800000Z</time>
      </trkpt>
      <trkpt lat="37.84514562608381" lon="112.00624573882388">
        <ele>1130.5364402063071</ele>
        <time>2016-06-09T09:06:35.800000Z</time>
      </trkpt>
      <trkpt lat="37.84482437556834" lon="112.00616089996338">
        <ele>1132.053937802657</ele>
        <time>2016-06-09T09:06:46.700000Z</time>
      </trkpt>
      <trkpt lat="37.84466681156482" lon="112.00613821277479">
        <ele>1132.49312266438</ele>
        <time>2016-06-09T09:06:52.800000Z</time>
      </trkpt>
      <trkpt lat="37.84457108876023" lon="112.00612146501963">
        <ele>1132.4809921206574</ele>
        <time>2016-06-09T09:06:56.800000Z</time>
      </trkpt>
      <trkpt lat="37.844300167512586" lon="112.00626368008913">
        <ele>1133.0648288884183</ele>
        <time>2016-06-09T09:07:06.800000Z</time>
      </trkpt>
      <trkpt lat="37.84402928762116" lon="112.00639210961512">
        <ele>1133.925499593571</ele>
        <time>2016-06-09T09:07:16.800000Z</time>
      </trkpt>
      <trkpt lat="37.84372959906409" lon="112.00653730207303">
        <ele>1136.1931270434325</ele>
        <time>2016-06-09T09:07:29.800000Z</time>
      </trkpt>
      <trkpt lat="37.84353555295587" lon="112.0066481527051">
        <ele>1137.1880250358172</ele>
        <time>2016-06-09T09:07:37.800000Z</time>
      </trkpt>
      <trkpt lat="37.843279028470214" lon="112.00687605598205">
        <ele>1138.1130136889992</ele>
        <time>2016-06-09T09:07:48.800000Z</time>
      </trkpt>
      <trkpt lat="37.843057043054245" lon="112.00707638397799">
        <ele>1137.836511017118</ele>
        <time>2016-06-09T09:07:58.800000Z</time>
      </trkpt>
      <trkpt lat="37.8429058447146" lon="112.00719398819889">
        <ele>1137.2564243283475</ele>
        <time>2016-06-09T09:08:05.800000Z</time>
      </trkpt>
      <trkpt lat="37.84283628713757" lon="112.00722832629484">
        <ele>1136.9664360905488</ele>
        <time>2016-06-09T09:08:08.800000Z</time>
      </trkpt>
      <trkpt lat="37.84256868707368" lon="112.00744055460514">
        <ele>1136.190996298182</ele>
        <time>2016-06-09T09:08:22.700000Z</time>
      </trkpt>
      <trkpt lat="37.84231573755431" lon="112.00765305216271">
        <ele>1136.6609223382964</ele>
        <time>2016-06-09T09:08:35.800000Z</time>
      </trkpt>
      <trkpt lat="37.84205421003645" lon="112.00783068067412">
        <ele>1136.6036995664606</ele>
        <time>2016-06-09T09:08:46.800000Z</time>
      </trkpt>
      <trkpt lat="37.84179811075319" lon="112.008007768394">
        <ele>1136.5783307282325</ele>
        <time>2016-06-09T09:08:57.800000Z</time>
      </trkpt>
      <trkpt lat="37.84147729191594" lon="112.00814323546301">
        <ele>1137.489366061388</ele>
        <time>2016-06-09T09:09:11.900000Z</time>
      </trkpt>
      <trkpt lat="37.84123169028907" lon="112.00816543078798">
        <ele>1139.3291248150558</ele>
        <time>2016-06-09T09:09:22.700000Z</time>
      </trkpt>
      <trkpt lat="37.84094765705435" lon="112.00815573325937">
        <ele>1140.0221068222468</ele>
        <time>2016-06-09T09:09:33.700000Z</time>
      </trkpt>
      <trkpt lat="37.840622831298994" lon="112.00808684114944">
        <ele>1138.867944460236</ele>
        <time>2016-06-09T09:09:46.800000Z</time>
      </trkpt>
      <trkpt lat="37.84031773445659" lon="112.00804389716652">
        <ele>1138.1804463501262</ele>
        <time>2016-06-09T09:09:57.700000Z</time>
      </trkpt>
      <trkpt lat="37.84014804314607" lon="112.00799363850525">
        <ele>1138.6812204241953</ele>
        <time>2016-06-09T09:10:05.800000Z</time>
      </trkpt>
      <trkpt lat="37.84004332058288" lon="112.00799256973421">
        <ele>1138.8115267296773</ele>
        <time>2016-06-09T09:10:09.700000Z</time>
      </trkpt>
      <trkpt lat="37.83974873118056" lon="112.00806613104436">
        <ele>1139.5268480743487</ele>
        <time>2016-06-09T09:10:20.800000Z</time>
      </trkpt>
      <trkpt lat="37.83966156135094" lon="112.0080929028264">
        <ele>1139.919496871025</ele>
        <time>2016-06-09T09:10:23.800000Z</time>
      </trkpt>
      <trkpt lat="37.83933296231155" lon="112.00810726883981">
        <ele>1141.9633804691969</ele>
        <time>2016-06-09T09:10:37.700000Z</time>
      </trkpt>
      <trkpt lat="37.83926100749632" lon="112.00812674025975">
        <ele>1141.8671139746511</ele>
        <time>2016-06-09T09:10:40.800000Z</time>
      </trkpt>
      <trkpt lat="37.83950237428713" lon="112.00816023079861">
        <ele>1143.6166597402225</ele>
        <time>2016-06-09T09:10:51.800000Z</time>
      </trkpt>
      <trkpt lat="37.83987780600086" lon="112.00808936290228">
        <ele>1144.3641128724557</ele>
        <time>2016-06-09T09:11:06.800000Z</time>
      </trkpt>
      <trkpt lat="37.840167478191646" lon="112.00802715545467">
        <ele>1144.5136257920667</ele>
        <time>2016-06-09T09:11:17.700000Z</time>
      </trkpt>
      <trkpt lat="37.84044360403336" lon="112.0080500994345">
        <ele>1144.9028691116675</ele>
        <time>2016-06-09T09:11:27.700000Z</time>
      </trkpt>
      <trkpt lat="37.84071496476407" lon="112.00812467454615">
        <ele>1144.3138426190014</ele>
        <time>2016-06-09T09:11:38.800000Z</time>
      </trkpt>
      <trkpt lat="37.841018164956154" lon="112.00816680785519">
        <ele>1143.6884563519068</ele>
        <time>2016-06-09T09:11:50.700000Z</time>
      </trkpt>
      <trkpt lat="37.84132881784296" lon="112.00816595983206">
        <ele>1144.0960376257901</ele>
        <time>2016-06-09T09:12:01.800000Z</time>
      </trkpt>
      <trkpt lat="37.84150771070865" lon="112.00813241914493">
        <ele>1144.2019294782874</ele>
        <time>2016-06-09T09:12:07.800000Z</time>
      </trkpt>
      <trkpt lat="37.841766040053116" lon="112.0080266943892">
        <ele>1144.3041256092965</ele>
        <time>2016-06-09T09:12:17.800000Z</time>
      </trkpt>
      <trkpt lat="37.84195025371731" lon="112.00793719763278">
        <ele>1144.8174811604836</ele>
        <time>2016-06-09T09:12:25.700000Z</time>
      </trkpt>
      <trkpt lat="37.84220698397591" lon="112.00773037532215">
        <ele>1145.5332912978602</ele>
        <time>2016-06-09T09:12:35.800000Z</time>
      </trkpt>
      <trkpt lat="37.84231056661333" lon="112.00765845908323">
        <ele>1145.6844202651653</ele>
        <time>2016-06-09T09:12:39.800000Z</time>
      </trkpt>
      <trkpt lat="37.84257130869062" lon="112.00747137012928">
        <ele>1146.31817691803</ele>
        <time>2016-06-09T09:12:50.800000Z</time>
      </trkpt>
      <trkpt lat="37.842820152898604" lon="112.00727103775652">
        <ele>1146.4926805341995</ele>
        <time>2016-06-09T09:13:01.700000Z</time>
      </trkpt>
      <trkpt lat="37.84291283533169" lon="112.00721534211912">
        <ele>1146.326103151184</ele>
        <time>2016-06-09T09:13:05.700000Z</time>
      </trkpt>
      <trkpt lat="37.84314591601913" lon="112.0070244733323">
        <ele>1146.0712938866973</ele>
        <time>2016-06-09T09:13:15.800000Z</time>
      </trkpt>
      <trkpt lat="37.843393126234034" lon="112.00682657528611">
        <ele>1144.9658080628537</ele>
        <time>2016-06-09T09:13:25.800000Z</time>
      </trkpt>
      <trkpt lat="37.84361858213909" lon="112.00664543969053">
        <ele>1143.823420545554</ele>
        <time>2016-06-09T09:13:35.800000Z</time>
      </trkpt>
      <trkpt lat="37.84387736135096" lon="112.00648051921858">
        <ele>1141.78480841633</ele>
        <time>2016-06-09T09:13:45.800000Z</time>
      </trkpt>
      <trkpt lat="37.84416568720187" lon="112.0063245158346">
        <ele>1140.0437067923378</ele>
        <time>2016-06-09T09:13:56.700000Z</time>
      </trkpt>
      <trkpt lat="37.8444303601164" lon="112.00618500448384">
        <ele>1138.9470086987837</ele>
        <time>2016-06-09T09:14:07.800000Z</time>
      </trkpt>
      <trkpt lat="37.844509969572215" lon="112.0061463407558">
        <ele>1138.688993161927</ele>
        <time>2016-06-09T09:14:10.800000Z</time>
      </trkpt>
      <trkpt lat="37.84481071566497" lon="112.00619252778843">
        <ele>1137.5953924763437</ele>
        <time>2016-06-09T09:14:21.800000Z</time>
      </trkpt>
      <trkpt lat="37.84507691986727" lon="112.00626737179066">
        <ele>1136.270124434865</ele>
        <time>2016-06-09T09:14:31.800000Z</time>
      </trkpt>
      <trkpt lat="37.84537968832848" lon="112.0063632956883">
        <ele>1135.3024682235339</ele>
        <time>2016-06-09T09:14:43.700000Z</time>
      </trkpt>
      <trkpt lat="37.84571557625553" lon="112.00645272831062">
        <ele>1134.4308289557566</ele>
        <time>2016-06-09T09:14:54.700000Z</time>
      </trkpt>
      <trkpt lat="37.84596768390907" lon="112.00652378990762">
        <ele>1132.3302927825264</ele>
        <time>2016-06-09T09:15:02.700000Z</time>
      </trkpt>
      <trkpt lat="37.846074632844775" lon="112.00659730168672">
        <ele>1132.3731610557686</ele>
        <time>2016-06-09T09:15:08.800000Z</time>
      </trkpt>
      <trkpt lat="37.84644584877976" lon="112.00666753828342">
        <ele>1132.216290372168</ele>
        <time>2016-06-09T09:15:23.800000Z</time>
      </trkpt>
      <trkpt lat="37.84681121350687" lon="112.00669831018246">
        <ele>1131.3053067296817</ele>
        <time>2016-06-09T09:15:37.800000Z</time>
      </trkpt>
      <trkpt lat="37.8471493763607" lon="112.00675287274773">
        <ele>1129.4307157911403</ele>
        <time>2016-06-09T09:15:49.800000Z</time>
      </trkpt>
      <trkpt lat="37.84746285157642" lon="112.00680689767493">
        <ele>1128.716511838984</ele>
        <time>2016-06-09T09:16:01.700000Z</time>
      </trkpt>
      <trkpt lat="37.84775818601071" lon="112.0068484904586">
        <ele>1129.1327662046015</ele>
        <time>2016-06-09T09:16:13.800000Z</time>
      </trkpt>
      <trkpt lat="37.84810206520184" lon="112.00689683527507">
        <ele>1130.1855129636444</ele>
        <time>2016-06-09T09:16:28.700000Z</time>
      </trkpt>
      <trkpt lat="37.84819203774114" lon="112.00693142449337">
        <ele>1130.289991841893</ele>
        <time>2016-06-09T09:16:31.800000Z</time>
      </trkpt>
      <trkpt lat="37.848291922604844" lon="112.00700845159518">
        <ele>1130.1603373336352</ele>
        <time>2016-06-09T09:16:35.800000Z</time>
      </trkpt>
      <trkpt lat="37.84849769091934" lon="112.00724386963354">
        <ele>1128.993182336874</ele>
        <time>2016-06-09T09:16:45.800000Z</time>
      </trkpt>
      <trkpt lat="37.84872013679629" lon="112.00752794310196">
        <ele>1129.0398251976662</ele>
        <time>2016-06-09T09:16:57.800000Z</time>
      </trkpt>
      <trkpt lat="37.84893274029402" lon="112.00783769895631">
        <ele>1128.8119082425249</ele>
        <time>2016-06-09T09:17:10.700000Z</time>
      </trkpt>
      <trkpt lat="37.84911120209249" lon="112.00813313355005">
        <ele>1127.706270522391</ele>
        <time>2016-06-09T09:17:21.800000Z</time>
      </trkpt>
      <trkpt lat="37.84924234289271" lon="112.00837532246607">
        <ele>1127.1485880465211</ele>
        <time>2016-06-09T09:17:29.800000Z</time>
      </trkpt>
      <trkpt lat="37.84942849285699" lon="112.00864048288011">
        <ele>1127.4564415915943</ele>
        <time>2016-06-09T09:17:40.800000Z</time>
      </trkpt>
      <trkpt lat="37.84966295253818" lon="112.00899241158398">
        <ele>1126.4496675591852</ele>
        <time>2016-06-09T09:17:55.700000Z</time>
      </trkpt>
      <trkpt lat="37.84981671178975" lon="112.00929380170017">
        <ele>1125.259336841178</ele>
        <time>2016-06-09T09:18:06.800000Z</time>
      </trkpt>
      <trkpt lat="37.84988735455639" lon="112.00962791243488">
        <ele>1126.1360659146317</ele>
        <time>2016-06-09T09:18:17.700000Z</time>
      </trkpt>
      <trkpt lat="37.84990818122466" lon="112.01001906970673">
        <ele>1126.8679865201962</ele>
        <time>2016-06-09T09:18:28.700000Z</time>
      </trkpt>
      <trkpt lat="37.84992829113844" lon="112.0103777904734">
        <ele>1127.0456967648422</ele>
        <time>2016-06-09T09:18:39.800000Z</time>
      </trkpt>
      <trkpt lat="37.84989652214983" lon="112.01075706476368">
        <ele>1127.987824724084</ele>
        <time>2016-06-09T09:18:57.800000Z</time>
      </trkpt>
      <trkpt lat="37.84984642654832" lon="112.01118797714255">
        <ele>1128.6027256793986</ele>
        <time>2016-06-09T09:19:22.700000Z</time>
      </trkpt>
      <trkpt lat="37.84985678045035" lon="112.01126583138195">
        <ele>1128.1069411009755</ele>
        <time>2016-06-09T09:19:28.800000Z</time>
      </trkpt>
      <trkpt lat="37.849808985730505" lon="112.01155995882183">
        <ele>1126.900914422496</ele>
        <time>2016-06-09T09:19:46.700000Z</time>
      </trkpt>
      <trkpt lat="37.849799868861986" lon="112.0118024493824">
        <ele>1125.9295501540919</ele>
        <time>2016-06-09T09:20:00.800000Z</time>
      </trkpt>
      <trkpt lat="37.849760220373696" lon="112.01200169102927">
        <ele>1124.1811535730776</ele>
        <time>2016-06-09T09:20:11.800000Z</time>
      </trkpt>
      <trkpt lat="37.84974307370541" lon="112.01239395146881">
        <ele>1123.5891812939674</ele>
        <time>2016-06-09T09:20:33.700000Z</time>
      </trkpt>
      <trkpt lat="37.84972811793703" lon="112.01277999690774">
        <ele>1121.6286870341044</ele>
        <time>2016-06-09T09:20:54.800000Z</time>
      </trkpt>
      <trkpt lat="37.84968098855352" lon="112.01312793103953">
        <ele>1120.5509308902379</ele>
        <time>2016-06-09T09:21:17.800000Z</time>
      </trkpt>
      <trkpt lat="37.84963897863705" lon="112.01348884356464">
        <ele>1119.171514290306</ele>
        <time>2016-06-09T09:21:38.700000Z</time>
      </trkpt>
      <trkpt lat="37.84961929422795" lon="112.01372918209655">
        <ele>1119.432519557147</ele>
        <time>2016-06-09T09:21:52.700000Z</time>
      </trkpt>
      <trkpt lat="37.84961256072461" lon="112.0139005820067">
        <ele>1118.0982766576572</ele>
        <time>2016-06-09T09:22:03.700000Z</time>
      </trkpt>
      <trkpt lat="37.84955116381048" lon="112.01421175874448">
        <ele>1114.476135619251</ele>
        <time>2016-06-09T09:22:24.800000Z</time>
      </trkpt>
      <trkpt lat="37.84952421140961" lon="112.01462242228897">
        <ele>1110.20014972689</ele>
        <time>2016-06-09T09:22:45.800000Z</time>
      </trkpt>
      <trkpt lat="37.84948106819999" lon="112.0150033527116">
        <ele>1109.573742916605</ele>
        <time>2016-06-09T09:23:08.800000Z</time>
      </trkpt>
      <trkpt lat="37.849412893641926" lon="112.01540997313705">
        <ele>1108.2683601579968</ele>
        <time>2016-06-09T09:23:34.800000Z</time>
      </trkpt>
      <trkpt lat="37.84938232377571" lon="112.01576008813464">
        <ele>1107.480813150851</ele>
        <time>2016-06-09T09:23:53.800000Z</time>
      </trkpt>
      <trkpt lat="37.84934404435084" lon="112.01615076086479">
        <ele>1109.264602294515</ele>
        <time>2016-06-09T09:24:15.700000Z</time>
      </trkpt>
      <trkpt lat="37.84931670798244" lon="112.01660632290998">
        <ele>1112.2405848710525</ele>
        <time>2016-06-09T09:24:44.800000Z</time>
      </trkpt>
      <trkpt lat="37.849265842304256" lon="112.01703674876923">
        <ele>1112.2458856526046</ele>
        <time>2016-06-09T09:25:10.700000Z</time>
      </trkpt>
      <trkpt lat="37.849265395664226" lon="112.01709893295669">
        <ele>1111.9624267744693</ele>
        <time>2016-06-09T09:25:13.800000Z</time>
      </trkpt>
      <trkpt lat="37.84924270076297" lon="112.01716139027096">
        <ele>1111.7306372037488</ele>
        <time>2016-06-09T09:25:17.700000Z</time>
      </trkpt>
      <trkpt lat="37.84919985815213" lon="112.0175382879546">
        <ele>1111.6372611277175</ele>
        <time>2016-06-09T09:25:40.800000Z</time>
      </trkpt>
      <trkpt lat="37.84917007312577" lon="112.01790383202318">
        <ele>1111.9630621156214</ele>
        <time>2016-06-09T09:26:01.800000Z</time>
      </trkpt>
      <trkpt lat="37.84912877700071" lon="112.01831182959351">
        <ele>1112.4465401004425</ele>
        <time>2016-06-09T09:26:20.800000Z</time>
      </trkpt>
      <trkpt lat="37.84910923665365" lon="112.01870279508557">
        <ele>1113.7233746003508</ele>
        <time>2016-06-09T09:26:36.700000Z</time>
      </trkpt>
      <trkpt lat="37.84913642593943" lon="112.01907185820961">
        <ele>1119.2278933346763</ele>
        <time>2016-06-09T09:27:02.800000Z</time>
      </trkpt>
      <trkpt lat="37.84908328276745" lon="112.01945066833002">
        <ele>1116.6413807964846</ele>
        <time>2016-06-09T09:27:28.800000Z</time>
      </trkpt>
      <trkpt lat="37.84907145182827" lon="112.01960803260509">
        <ele>1115.39436009851</ele>
        <time>2016-06-09T09:27:38.800000Z</time>
      </trkpt>
      <trkpt lat="37.849052808086064" lon="112.01967833461406">
        <ele>1115.325908907846</ele>
        <time>2016-06-09T09:27:42.700000Z</time>
      </trkpt>
      <trkpt lat="37.84905321533034" lon="112.01982542375399">
        <ele>1115.0412261734873</ele>
        <time>2016-06-09T09:27:48.800000Z</time>
      </trkpt>
      <trkpt lat="37.84909101610093" lon="112.0200882344557">
        <ele>1114.918196896433</ele>
        <time>2016-06-09T09:28:03.800000Z</time>
      </trkpt>
      <trkpt lat="37.849090524891096" lon="112.02016799877113">
        <ele>1114.5979377768922</ele>
        <time>2016-06-09T09:28:10.800000Z</time>
      </trkpt>
      <trkpt lat="37.84911735778469" lon="112.02037484266022">
        <ele>1115.9834546551301</ele>
        <time>2016-06-09T09:28:24.800000Z</time>
      </trkpt>
      <trkpt lat="37.849086758179496" lon="112.02055087009505">
        <ele>1115.914137166816</ele>
        <time>2016-06-09T09:28:35.700000Z</time>
      </trkpt>
      <trkpt lat="37.84905731481731" lon="112.02080017450572">
        <ele>1115.3911072005624</ele>
        <time>2016-06-09T09:28:50.700000Z</time>
      </trkpt>
      <trkpt lat="37.84907393770433" lon="112.02097160167524">
        <ele>1115.0914888509922</ele>
        <time>2016-06-09T09:29:04.800000Z</time>
      </trkpt>
      <trkpt lat="37.84905409981045" lon="112.0210824656276">
        <ele>1114.5232229176856</ele>
        <time>2016-06-09T09:29:11.800000Z</time>
      </trkpt>
      <trkpt lat="37.84906745537459" lon="112.02115925614746">
        <ele>1113.3734700340326</ele>
        <time>2016-06-09T09:29:19.800000Z</time>
      </trkpt>
      <trkpt lat="37.84904897263257" lon="112.021370167169">
        <ele>1111.0780904214753</ele>
        <time>2016-06-09T09:29:34.800000Z</time>
      </trkpt>
      <trkpt lat="37.849080364384356" lon="112.02159864937418">
        <ele>1110.1482528459455</ele>
        <time>2016-06-09T09:29:48.800000Z</time>
      </trkpt>
      <trkpt lat="37.8490570702622" lon="112.02198343135646">
        <ele>1109.1393022006391</ele>
        <time>2016-06-09T09:30:10.800000Z</time>
      </trkpt>
      <trkpt lat="37.84903645911373" lon="112.02208023770407">
        <ele>1108.6677995254863</ele>
        <time>2016-06-09T09:30:14.700000Z</time>
      </trkpt>
      <trkpt lat="37.84904990185444" lon="112.02232576222974">
        <ele>1108.7495624293092</ele>
        <time>2016-06-09T09:30:31.700000Z</time>
      </trkpt>
      <trkpt lat="37.8490929799544" lon="112.02264916204079">
        <ele>1110.8142382179751</ele>
        <time>2016-06-09T09:30:53.700000Z</time>
      </trkpt>
      <trkpt lat="37.84906545608611" lon="112.02299609906505">
        <ele>1110.8326928318456</ele>
        <time>2016-06-09T09:31:16.800000Z</time>
      </trkpt>
      <trkpt lat="37.8490577538898" lon="112.02333816990367">
        <ele>1111.2904849442807</ele>
        <time>2016-06-09T09:31:38.700000Z</time>
      </trkpt>
      <trkpt lat="37.849054829667224" lon="112.02341686035685">
        <ele>1111.604804795317</ele>
        <time>2016-06-09T09:31:45.700000Z</time>
      </trkpt>
      <trkpt lat="37.849034838311574" lon="112.02348608857008">
        <ele>1112.1259620324665</ele>
        <time>2016-06-09T09:31:53.800000Z</time>
      </trkpt>
      <trkpt lat="37.849029651011335" lon="112.02390388090146">
        <ele>1113.7424594489846</ele>
        <time>2016-06-09T09:32:23.800000Z</time>
      </trkpt>
      <trkpt lat="37.8490323547125" lon="112.02400907299247">
        <ele>1114.1279856756128</ele>
        <time>2016-06-09T09:32:34.800000Z</time>
      </trkpt>
      <trkpt lat="37.849056099624555" lon="112.02405801582852">
        <ele>1114.4334516014915</ele>
        <time>2016-06-09T09:32:38.700000Z</time>
      </trkpt>
      <trkpt lat="37.849040866800415" lon="112.0242765164435">
        <ele>1114.8052753144598</ele>
        <time>2016-06-09T09:32:48.700000Z</time>
      </trkpt>
      <trkpt lat="37.84902497389342" lon="112.02433547001229">
        <ele>1114.6162376210389</ele>
        <time>2016-06-09T09:32:51.800000Z</time>
      </trkpt>
      <trkpt lat="37.849043621373525" lon="112.02456721915853">
        <ele>1113.8765238930473</ele>
        <time>2016-06-09T09:33:09.800000Z</time>
      </trkpt>
      <trkpt lat="37.849035461410125" lon="112.02467728235665">
        <ele>1114.3228834050822</ele>
        <time>2016-06-09T09:33:16.700000Z</time>
      </trkpt>
      <trkpt lat="37.84900697197979" lon="112.02478031734194">
        <ele>1115.2271863198666</ele>
        <time>2016-06-09T09:33:23.800000Z</time>
      </trkpt>
      <trkpt lat="37.84901759751388" lon="112.02486604074478">
        <ele>1116.9218539901751</ele>
        <time>2016-06-09T09:33:30.800000Z</time>
      </trkpt>
      <trkpt lat="37.848999668283746" lon="112.02497718786198">
        <ele>1117.1458987794329</ele>
        <time>2016-06-09T09:33:37.800000Z</time>
      </trkpt>
      <trkpt lat="37.84901761323092" lon="112.02506534476376">
        <ele>1117.003679966154</ele>
        <time>2016-06-09T09:33:44.800000Z</time>
      </trkpt>
      <trkpt lat="37.84896097266265" lon="112.02545287577514">
        <ele>1116.9857479279042</ele>
        <time>2016-06-09T09:34:10.800000Z</time>
      </trkpt>
      <trkpt lat="37.84902079432836" lon="112.02571194189562">
        <ele>1115.5398072651426</ele>
        <time>2016-06-09T09:34:24.700000Z</time>
      </trkpt>
      <trkpt lat="37.84898936127061" lon="112.02590395339305">
        <ele>1113.1834343128064</ele>
        <time>2016-06-09T09:34:35.700000Z</time>
      </trkpt>
      <trkpt lat="37.84894598898647" lon="112.02599320203984">
        <ele>1113.5992110918658</ele>
        <time>2016-06-09T09:34:43.800000Z</time>
      </trkpt>
      <trkpt lat="37.84887690311701" lon="112.02605919656527">
        <ele>1113.775739368339</ele>
        <time>2016-06-09T09:34:47.700000Z</time>
      </trkpt>
      <trkpt lat="37.848825853317855" lon="112.0262833946616">
        <ele>1113.2250871084868</ele>
        <time>2016-06-09T09:35:09.800000Z</time>
      </trkpt>
      <trkpt lat="37.84884460309957" lon="112.0264802716346">
        <ele>1115.0819947710315</ele>
        <time>2016-06-09T09:35:20.800000Z</time>
      </trkpt>
      <trkpt lat="37.848834862147235" lon="112.0265743858562">
        <ele>1115.7121933450776</ele>
        <time>2016-06-09T09:35:27.800000Z</time>
      </trkpt>
      <trkpt lat="37.84887831471428" lon="112.02666227383303">
        <ele>1115.5674930619316</ele>
        <time>2016-06-09T09:35:35.700000Z</time>
      </trkpt>
      <trkpt lat="37.84885100147344" lon="112.02673232142064">
        <ele>1115.1115555455208</ele>
        <time>2016-06-09T09:35:42.700000Z</time>
      </trkpt>
      <trkpt lat="37.84888843771859" lon="112.02704792398241">
        <ele>1114.4818348492283</ele>
        <time>2016-06-09T09:36:04.700000Z</time>
      </trkpt>
      <trkpt lat="37.84884383664063" lon="112.02719369928862">
        <ele>1113.9580124739853</ele>
        <time>2016-06-09T09:36:18.700000Z</time>
      </trkpt>
      <trkpt lat="37.848825263739975" lon="112.02713663750698">
        <ele>1112.8266659751262</ele>
        <time>2016-06-09T09:36:25.700000Z</time>
      </trkpt>
      <trkpt lat="37.84905381609016" lon="112.02709496147759">
        <ele>1110.7383503882893</ele>
        <time>2016-06-09T09:36:45.800000Z</time>
      </trkpt>
      <trkpt lat="37.84893780845321" lon="112.02726075863012">
        <ele>1110.2220111142149</ele>
        <time>2016-06-09T09:36:49.700000Z</time>
      </trkpt>
      <trkpt lat="37.84881850694841" lon="112.02733649807614">
        <ele>1109.6476823281996</ele>
        <time>2016-06-09T09:36:53.800000Z</time>
      </trkpt>
    </trkseg>
  </trk>
</gpx>