<?xml version="1.0" encoding="UTF-8"?>
<gpx xmlns="http://www.topografix.com/GPX/1/1" xmlns:gpxtpx="http://www.garmin.com/xmlschemas/TrackPointExtension/v1" xmlns:xsi="http://www.w3.org/2001/XMLSchema-instance" xsi:schemaLocation="http://www.topografix.com/GPX/1/1 http://www.topografix.com/GPX/1/1/gpx.xsd" version="1.1" creator="gpx.py -- https://github.com/tkrajina/gpxpy">
  <trk>
    <name>gpx from keep</name>
    <type>Run</type>
    <trkseg>
      <trkpt lat="37.847095340101575" lon="112.02954556207932">
        <ele>1156.16</ele>
        <time>2019-05-30T08:42:27.842000Z</time>
      </trkpt>
      <trkpt lat="37.847228078596736" lon="112.02940946170384">
        <ele>1124.33</ele>
        <time>2019-05-30T08:42:51.842000Z</time>
      </trkpt>
      <trkpt lat="37.847313646883244" lon="112.02939822849972">
        <ele>1116.78</ele>
        <time>2019-05-30T08:42:57.842000Z</time>
      </trkpt>
      <trkpt lat="37.84733054713294" lon="112.02933652517633">
        <ele>1113.52</ele>
        <time>2019-05-30T08:43:00.842000Z</time>
      </trkpt>
      <trkpt lat="37.84733862276351" lon="112.02899073174895">
        <ele>1105.99</ele>
        <time>2019-05-30T08:43:15.842000Z</time>
      </trkpt>
      <trkpt lat="37.84732886132054" lon="112.0287891294083">
        <ele>1106.39</ele>
        <time>2019-05-30T08:43:21.842000Z</time>
      </trkpt>
      <trkpt lat="37.847359451146026" lon="112.02872345535056">
        <ele>1105.16</ele>
        <time>2019-05-30T08:43:24.842000Z</time>
      </trkpt>
      <trkpt lat="37.84737529428509" lon="112.02835469836894">
        <ele>1100.88</ele>
        <time>2019-05-30T08:43:39.942000Z</time>
      </trkpt>
      <trkpt lat="37.84737257877715" lon="112.02800654822761">
        <ele>1106.08</ele>
        <time>2019-05-30T08:43:51.842000Z</time>
      </trkpt>
      <trkpt lat="37.84736097950228" lon="112.02790806733923">
        <ele>1106.31</ele>
        <time>2019-05-30T08:43:54.842000Z</time>
      </trkpt>
      <trkpt lat="37.8473709008876" lon="112.02763794129312">
        <ele>1103.18</ele>
        <time>2019-05-30T08:44:03.842000Z</time>
      </trkpt>
      <trkpt lat="37.847489619695274" lon="112.02732237268843">
        <ele>1105.76</ele>
        <time>2019-05-30T08:44:12.842000Z</time>
      </trkpt>
      <trkpt lat="37.84761628017852" lon="112.0270251577338">
        <ele>1108.43</ele>
        <time>2019-05-30T08:44:21.842000Z</time>
      </trkpt>
      <trkpt lat="37.84771474811226" lon="112.02679716271372">
        <ele>1110.64</ele>
        <time>2019-05-30T08:44:27.842000Z</time>
      </trkpt>
      <trkpt lat="37.847898315465955" lon="112.0265046026089">
        <ele>1111.47</ele>
        <time>2019-05-30T08:44:39.842000Z</time>
      </trkpt>
      <trkpt lat="37.84800611400155" lon="112.02644210092781">
        <ele>1108.09</ele>
        <time>2019-05-30T08:44:45.842000Z</time>
      </trkpt>
      <trkpt lat="37.84815400182173" lon="112.02639694478972">
        <ele>1108.19</ele>
        <time>2019-05-30T08:44:51.842000Z</time>
      </trkpt>
      <trkpt lat="37.84838875058856" lon="112.02644723196471">
        <ele>1103.31</ele>
        <time>2019-05-30T08:45:00.842000Z</time>
      </trkpt>
      <trkpt lat="37.84866539498453" lon="112.02648822669316">
        <ele>1103.12</ele>
        <time>2019-05-30T08:45:09.842000Z</time>
      </trkpt>
      <trkpt lat="37.84874785753127" lon="112.02649811409815">
        <ele>1102.64</ele>
        <time>2019-05-30T08:45:12.842000Z</time>
      </trkpt>
      <trkpt lat="37.84885224287807" lon="112.02649836196396">
        <ele>1104.07</ele>
        <time>2019-05-30T08:45:15.842000Z</time>
      </trkpt>
      <trkpt lat="37.84892011316282" lon="112.0264588625814">
        <ele>1103.44</ele>
        <time>2019-05-30T08:45:18.842000Z</time>
      </trkpt>
      <trkpt lat="37.84897153662286" lon="112.0261933642081">
        <ele>1097.97</ele>
        <time>2019-05-30T08:45:27.842000Z</time>
      </trkpt>
      <trkpt lat="37.848993419988574" lon="112.02608794783792">
        <ele>1099.77</ele>
        <time>2019-05-30T08:45:30.842000Z</time>
      </trkpt>
      <trkpt lat="37.84900699732568" lon="112.0259614196506">
        <ele>1105.31</ele>
        <time>2019-05-30T08:45:33.842000Z</time>
      </trkpt>
      <trkpt lat="37.84902233138324" lon="112.02585681932256">
        <ele>1102.32</ele>
        <time>2019-05-30T08:45:36.842000Z</time>
      </trkpt>
      <trkpt lat="37.849046485371794" lon="112.02564086867349">
        <ele>1105.79</ele>
        <time>2019-05-30T08:45:42.842000Z</time>
      </trkpt>
      <trkpt lat="37.84899740738649" lon="112.02538321767096">
        <ele>1110.44</ele>
        <time>2019-05-30T08:45:48.842000Z</time>
      </trkpt>
      <trkpt lat="37.848995427200805" lon="112.02509324460054">
        <ele>1109.91</ele>
        <time>2019-05-30T08:45:57.842000Z</time>
      </trkpt>
      <trkpt lat="37.84897257444605" lon="112.0249885811039">
        <ele>1107.41</ele>
        <time>2019-05-30T08:46:00.842000Z</time>
      </trkpt>
      <trkpt lat="37.84896255862912" lon="112.02489250179384">
        <ele>1108.03</ele>
        <time>2019-05-30T08:46:03.842000Z</time>
      </trkpt>
      <trkpt lat="37.84895946319456" lon="112.0244391358072">
        <ele>1102.64</ele>
        <time>2019-05-30T08:46:18.842000Z</time>
      </trkpt>
      <trkpt lat="37.84898200077926" lon="112.02433334717806">
        <ele>1104.34</ele>
        <time>2019-05-30T08:46:21.842000Z</time>
      </trkpt>
      <trkpt lat="37.848981664429495" lon="112.02423028132318">
        <ele>1103.93</ele>
        <time>2019-05-30T08:46:24.842000Z</time>
      </trkpt>
      <trkpt lat="37.84898695962815" lon="112.0239047117034">
        <ele>1103.9</ele>
        <time>2019-05-30T08:46:33.842000Z</time>
      </trkpt>
      <trkpt lat="37.84901112161666" lon="112.02367796770307">
        <ele>1102.99</ele>
        <time>2019-05-30T08:46:39.842000Z</time>
      </trkpt>
      <trkpt lat="37.84901613197601" lon="112.02333059521703">
        <ele>1106.24</ele>
        <time>2019-05-30T08:46:48.842000Z</time>
      </trkpt>
      <trkpt lat="37.8490429145175" lon="112.02297805824944">
        <ele>1102.11</ele>
        <time>2019-05-30T08:46:57.842000Z</time>
      </trkpt>
      <trkpt lat="37.84905781908338" lon="112.02254840938568">
        <ele>1101.52</ele>
        <time>2019-05-30T08:47:09.842000Z</time>
      </trkpt>
      <trkpt lat="37.849075042155334" lon="112.02225596862309">
        <ele>1103.83</ele>
        <time>2019-05-30T08:47:18.842000Z</time>
      </trkpt>
      <trkpt lat="37.84907718428759" lon="112.02190922827772">
        <ele>1104.97</ele>
        <time>2019-05-30T08:47:27.842000Z</time>
      </trkpt>
      <trkpt lat="37.8490752521424" lon="112.02148436791235">
        <ele>1104.2</ele>
        <time>2019-05-30T08:47:39.842000Z</time>
      </trkpt>
      <trkpt lat="37.84907105265985" lon="112.02124139152691">
        <ele>1102.13</ele>
        <time>2019-05-30T08:47:45.842000Z</time>
      </trkpt>
      <trkpt lat="37.84907944338862" lon="112.02092754446436">
        <ele>1102.44</ele>
        <time>2019-05-30T08:47:54.842000Z</time>
      </trkpt>
      <trkpt lat="37.849090641704976" lon="112.02083982594326">
        <ele>1102.8</ele>
        <time>2019-05-30T08:47:57.842000Z</time>
      </trkpt>
      <trkpt lat="37.849094113696935" lon="112.02072939222222">
        <ele>1101.55</ele>
        <time>2019-05-30T08:48:00.842000Z</time>
      </trkpt>
      <trkpt lat="37.8490790219106" lon="112.02051332055518">
        <ele>1102.52</ele>
        <time>2019-05-30T08:48:06.842000Z</time>
      </trkpt>
      <trkpt lat="37.8490848887194" lon="112.0201720317054">
        <ele>1105.98</ele>
        <time>2019-05-30T08:48:15.842000Z</time>
      </trkpt>
      <trkpt lat="37.84908885278409" lon="112.01998377761451">
        <ele>1109.03</ele>
        <time>2019-05-30T08:48:21.842000Z</time>
      </trkpt>
      <trkpt lat="37.84911383998415" lon="112.0197989982524">
        <ele>1107.7</ele>
        <time>2019-05-30T08:48:27.842000Z</time>
      </trkpt>
      <trkpt lat="37.84911892938651" lon="112.019389693959">
        <ele>1106.12</ele>
        <time>2019-05-30T08:48:39.842000Z</time>
      </trkpt>
      <trkpt lat="37.849116494063985" lon="112.01926553467376">
        <ele>1105.04</ele>
        <time>2019-05-30T08:48:42.842000Z</time>
      </trkpt>
      <trkpt lat="37.849144499355994" lon="112.01898214429642">
        <ele>1105.09</ele>
        <time>2019-05-30T08:48:51.842000Z</time>
      </trkpt>
      <trkpt lat="37.84916344298596" lon="112.01855314203301">
        <ele>1108.2</ele>
        <time>2019-05-30T08:49:03.842000Z</time>
      </trkpt>
      <trkpt lat="37.849155351641436" lon="112.01823662586959">
        <ele>1111.13</ele>
        <time>2019-05-30T08:49:12.842000Z</time>
      </trkpt>
      <trkpt lat="37.84918665182169" lon="112.0178217435229">
        <ele>1110.89</ele>
        <time>2019-05-30T08:49:24.842000Z</time>
      </trkpt>
      <trkpt lat="37.84925113452981" lon="112.01734408902664">
        <ele>1108.64</ele>
        <time>2019-05-30T08:49:36.842000Z</time>
      </trkpt>
      <trkpt lat="37.84932218012504" lon="112.01690812382243">
        <ele>1107.21</ele>
        <time>2019-05-30T08:49:51.842000Z</time>
      </trkpt>
      <trkpt lat="37.849365198605966" lon="112.01650310484087">
        <ele>1107.19</ele>
        <time>2019-05-30T08:50:03.842000Z</time>
      </trkpt>
      <trkpt lat="37.84940928888044" lon="112.016101715432">
        <ele>1107.94</ele>
        <time>2019-05-30T08:50:15.842000Z</time>
      </trkpt>
      <trkpt lat="37.84946138991137" lon="112.01565308186599">
        <ele>1110.67</ele>
        <time>2019-05-30T08:50:27.942000Z</time>
      </trkpt>
      <trkpt lat="37.84950450052885" lon="112.0152375477816">
        <ele>1112.09</ele>
        <time>2019-05-30T08:50:39.842000Z</time>
      </trkpt>
      <trkpt lat="37.849539045797925" lon="112.01482688521293">
        <ele>1110.06</ele>
        <time>2019-05-30T08:50:51.842000Z</time>
      </trkpt>
      <trkpt lat="37.849588735615185" lon="112.01441666238352">
        <ele>1113.07</ele>
        <time>2019-05-30T08:51:03.942000Z</time>
      </trkpt>
      <trkpt lat="37.849625701974745" lon="112.01401911877564">
        <ele>1114.86</ele>
        <time>2019-05-30T08:51:15.842000Z</time>
      </trkpt>
      <trkpt lat="37.84966629390486" lon="112.01362785685785">
        <ele>1114.45</ele>
        <time>2019-05-30T08:51:27.842000Z</time>
      </trkpt>
      <trkpt lat="37.84969571782843" lon="112.01322698417414">
        <ele>1114.07</ele>
        <time>2019-05-30T08:51:39.842000Z</time>
      </trkpt>
      <trkpt lat="37.84973092503309" lon="112.01280080531292">
        <ele>1112.86</ele>
        <time>2019-05-30T08:51:51.842000Z</time>
      </trkpt>
      <trkpt lat="37.849756792164875" lon="112.01234632550772">
        <ele>1111.58</ele>
        <time>2019-05-30T08:52:03.842000Z</time>
      </trkpt>
      <trkpt lat="37.84978769452714" lon="112.01191648682676">
        <ele>1115.02</ele>
        <time>2019-05-30T08:52:15.842000Z</time>
      </trkpt>
      <trkpt lat="37.84980846349715" lon="112.01161883861845">
        <ele>1113.12</ele>
        <time>2019-05-30T08:52:24.842000Z</time>
      </trkpt>
      <trkpt lat="37.84977646215854" lon="112.01141712541661">
        <ele>1113.24</ele>
        <time>2019-05-30T08:52:30.842000Z</time>
      </trkpt>
      <trkpt lat="37.84977637381162" lon="112.01131481444838">
        <ele>1112.83</ele>
        <time>2019-05-30T08:52:33.842000Z</time>
      </trkpt>
      <trkpt lat="37.84981508884076" lon="112.01092745086841">
        <ele>1115.05</ele>
        <time>2019-05-30T08:52:45.842000Z</time>
      </trkpt>
      <trkpt lat="37.84983029525265" lon="112.01081969217664">
        <ele>1114.66</ele>
        <time>2019-05-30T08:52:48.842000Z</time>
      </trkpt>
      <trkpt lat="37.84985853886859" lon="112.0104020026269">
        <ele>1116.61</ele>
        <time>2019-05-30T08:53:00.842000Z</time>
      </trkpt>
      <trkpt lat="37.8498888099475" lon="112.01010456613686">
        <ele>1116.98</ele>
        <time>2019-05-30T08:53:09.842000Z</time>
      </trkpt>
      <trkpt lat="37.849867599642735" lon="112.00967081821267">
        <ele>1117.96</ele>
        <time>2019-05-30T08:53:21.942000Z</time>
      </trkpt>
      <trkpt lat="37.84982121612688" lon="112.00933137594548">
        <ele>1118.13</ele>
        <time>2019-05-30T08:53:30.942000Z</time>
      </trkpt>
      <trkpt lat="37.84975888035508" lon="112.00912039046625">
        <ele>1117.62</ele>
        <time>2019-05-30T08:53:36.842000Z</time>
      </trkpt>
      <trkpt lat="37.84956085251148" lon="112.00881066622875">
        <ele>1119.03</ele>
        <time>2019-05-30T08:53:48.842000Z</time>
      </trkpt>
      <trkpt lat="37.849512670947426" lon="112.00873959733036">
        <ele>1118.35</ele>
        <time>2019-05-30T08:53:51.842000Z</time>
      </trkpt>
      <trkpt lat="37.849452714866715" lon="112.00866372973202">
        <ele>1120.44</ele>
        <time>2019-05-30T08:53:54.842000Z</time>
      </trkpt>
      <trkpt lat="37.84925374353374" lon="112.00834605375653">
        <ele>1124.81</ele>
        <time>2019-05-30T08:54:06.842000Z</time>
      </trkpt>
      <trkpt lat="37.849065810988556" lon="112.00805025885192">
        <ele>1120.98</ele>
        <time>2019-05-30T08:54:18.842000Z</time>
      </trkpt>
      <trkpt lat="37.84885677587252" lon="112.00772468541054">
        <ele>1122.95</ele>
        <time>2019-05-30T08:54:30.842000Z</time>
      </trkpt>
      <trkpt lat="37.84865026310534" lon="112.00740442496586">
        <ele>1125.82</ele>
        <time>2019-05-30T08:54:42.842000Z</time>
      </trkpt>
      <trkpt lat="37.84845472267486" lon="112.00711092165157">
        <ele>1124.38</ele>
        <time>2019-05-30T08:54:54.942000Z</time>
      </trkpt>
      <trkpt lat="37.848344578488785" lon="112.00696898804618">
        <ele>1125.79</ele>
        <time>2019-05-30T08:55:00.842000Z</time>
      </trkpt>
      <trkpt lat="37.84820835362893" lon="112.00686492857557">
        <ele>1125.46</ele>
        <time>2019-05-30T08:55:06.842000Z</time>
      </trkpt>
      <trkpt lat="37.84787659635303" lon="112.00676872324705">
        <ele>1124.4</ele>
        <time>2019-05-30T08:55:18.842000Z</time>
      </trkpt>
      <trkpt lat="37.84754176855217" lon="112.00674666970487">
        <ele>1126.34</ele>
        <time>2019-05-30T08:55:30.842000Z</time>
      </trkpt>
      <trkpt lat="37.847223129208906" lon="112.00672551835889">
        <ele>1128.5</ele>
        <time>2019-05-30T08:55:42.842000Z</time>
      </trkpt>
      <trkpt lat="37.84691659335662" lon="112.00669223805845">
        <ele>1132.88</ele>
        <time>2019-05-30T08:55:54.842000Z</time>
      </trkpt>
      <trkpt lat="37.84661001461198" lon="112.00665491681428">
        <ele>1132.34</ele>
        <time>2019-05-30T08:56:06.842000Z</time>
      </trkpt>
      <trkpt lat="37.84628839345933" lon="112.00661366565178">
        <ele>1130.98</ele>
        <time>2019-05-30T08:56:18.842000Z</time>
      </trkpt>
      <trkpt lat="37.84613178741512" lon="112.00659076879131">
        <ele>1129.27</ele>
        <time>2019-05-30T08:56:24.942000Z</time>
      </trkpt>
      <trkpt lat="37.845909123933446" lon="112.00650417736375">
        <ele>1131.45</ele>
        <time>2019-05-30T08:56:33.842000Z</time>
      </trkpt>
      <trkpt lat="37.84561574022425" lon="112.00639219430857">
        <ele>1132.22</ele>
        <time>2019-05-30T08:56:45.842000Z</time>
      </trkpt>
      <trkpt lat="37.845308651510635" lon="112.00628803147922">
        <ele>1129.93</ele>
        <time>2019-05-30T08:56:57.842000Z</time>
      </trkpt>
      <trkpt lat="37.84504640361766" lon="112.00621396361295">
        <ele>1133.34</ele>
        <time>2019-05-30T08:57:06.842000Z</time>
      </trkpt>
      <trkpt lat="37.84479581447114" lon="112.00617616157147">
        <ele>1134.44</ele>
        <time>2019-05-30T08:57:15.842000Z</time>
      </trkpt>
      <trkpt lat="37.84456849731051" lon="112.00612543853373">
        <ele>1135.4</ele>
        <time>2019-05-30T08:57:24.842000Z</time>
      </trkpt>
      <trkpt lat="37.8442542438372" lon="112.0062144166676">
        <ele>1134.99</ele>
        <time>2019-05-30T08:57:36.842000Z</time>
      </trkpt>
      <trkpt lat="37.84395625117004" lon="112.00638473580725">
        <ele>1133.94</ele>
        <time>2019-05-30T08:57:48.842000Z</time>
      </trkpt>
      <trkpt lat="37.84372839468076" lon="112.00653187403955">
        <ele>1136.33</ele>
        <time>2019-05-30T08:57:57.842000Z</time>
      </trkpt>
      <trkpt lat="37.84346633942793" lon="112.00674646192633">
        <ele>1132.96</ele>
        <time>2019-05-30T08:58:09.842000Z</time>
      </trkpt>
      <trkpt lat="37.84333646787843" lon="112.00688438233898">
        <ele>1132.67</ele>
        <time>2019-05-30T08:58:15.842000Z</time>
      </trkpt>
      <trkpt lat="37.84320339402024" lon="112.00700675203385">
        <ele>1134.42</ele>
        <time>2019-05-30T08:58:21.842000Z</time>
      </trkpt>
      <trkpt lat="37.842915631428454" lon="112.00720012670577">
        <ele>1132.09</ele>
        <time>2019-05-30T08:58:33.842000Z</time>
      </trkpt>
      <trkpt lat="37.84271148818938" lon="112.00732293900406">
        <ele>1132.15</ele>
        <time>2019-05-30T08:58:42.842000Z</time>
      </trkpt>
      <trkpt lat="37.84244052019998" lon="112.00753392199098">
        <ele>1130.57</ele>
        <time>2019-05-30T08:58:54.842000Z</time>
      </trkpt>
      <trkpt lat="37.84213374192367" lon="112.00772794220462">
        <ele>1134.58</ele>
        <time>2019-05-30T08:59:06.842000Z</time>
      </trkpt>
      <trkpt lat="37.84184388785615" lon="112.00790932839836">
        <ele>1131.45</ele>
        <time>2019-05-30T08:59:18.842000Z</time>
      </trkpt>
      <trkpt lat="37.84153585466359" lon="112.00805030965613">
        <ele>1134.28</ele>
        <time>2019-05-30T08:59:30.842000Z</time>
      </trkpt>
      <trkpt lat="37.841364425371744" lon="112.0081024695535">
        <ele>1140.42</ele>
        <time>2019-05-30T08:59:36.842000Z</time>
      </trkpt>
      <trkpt lat="37.84105219594081" lon="112.008119456817">
        <ele>1138.64</ele>
        <time>2019-05-30T08:59:48.942000Z</time>
      </trkpt>
      <trkpt lat="37.840723413027305" lon="112.00807553140405">
        <ele>1138.81</ele>
        <time>2019-05-30T09:00:00.842000Z</time>
      </trkpt>
      <trkpt lat="37.84039592050167" lon="112.00799123369542">
        <ele>1141.48</ele>
        <time>2019-05-30T09:00:12.842000Z</time>
      </trkpt>
      <trkpt lat="37.840233964161534" lon="112.00795872275732">
        <ele>1143.28</ele>
        <time>2019-05-30T09:00:18.842000Z</time>
      </trkpt>
      <trkpt lat="37.83991987927532" lon="112.00798827637044">
        <ele>1141.01</ele>
        <time>2019-05-30T09:00:30.842000Z</time>
      </trkpt>
      <trkpt lat="37.83976943913729" lon="112.00802789998487">
        <ele>1141.07</ele>
        <time>2019-05-30T09:00:36.942000Z</time>
      </trkpt>
      <trkpt lat="37.83962229630696" lon="112.00804981004168">
        <ele>1139.13</ele>
        <time>2019-05-30T09:00:42.842000Z</time>
      </trkpt>
      <trkpt lat="37.839310097315256" lon="112.00808300872534">
        <ele>1140.37</ele>
        <time>2019-05-30T09:00:54.842000Z</time>
      </trkpt>
      <trkpt lat="37.83914768584231" lon="112.00809760822962">
        <ele>1137.28</ele>
        <time>2019-05-30T09:01:00.942000Z</time>
      </trkpt>
      <trkpt lat="37.838827400343476" lon="112.00818223639885">
        <ele>1137.79</ele>
        <time>2019-05-30T09:01:12.942000Z</time>
      </trkpt>
      <trkpt lat="37.83849675131533" lon="112.00824987966972">
        <ele>1140.6</ele>
        <time>2019-05-30T09:01:24.842000Z</time>
      </trkpt>
      <trkpt lat="37.83840739526609" lon="112.00825276669923">
        <ele>1141.6</ele>
        <time>2019-05-30T09:01:27.842000Z</time>
      </trkpt>
      <trkpt lat="37.83816406700641" lon="112.0081907091387">
        <ele>1142.41</ele>
        <time>2019-05-30T09:01:36.842000Z</time>
      </trkpt>
      <trkpt lat="37.838087000474985" lon="112.00815556895901">
        <ele>1143.37</ele>
        <time>2019-05-30T09:01:39.842000Z</time>
      </trkpt>
      <trkpt lat="37.837930103330685" lon="112.00806422589046">
        <ele>1143.49</ele>
        <time>2019-05-30T09:01:45.842000Z</time>
      </trkpt>
      <trkpt lat="37.83762873471022" lon="112.00794984435097">
        <ele>1149.22</ele>
        <time>2019-05-30T09:01:57.842000Z</time>
      </trkpt>
      <trkpt lat="37.8373113511105" lon="112.0078369072262">
        <ele>1149.58</ele>
        <time>2019-05-30T09:02:09.842000Z</time>
      </trkpt>
      <trkpt lat="37.837005352054035" lon="112.00772960995123">
        <ele>1148.93</ele>
        <time>2019-05-30T09:02:21.842000Z</time>
      </trkpt>
      <trkpt lat="37.83670583232498" lon="112.00760618264266">
        <ele>1152.18</ele>
        <time>2019-05-30T09:02:33.842000Z</time>
      </trkpt>
      <trkpt lat="37.83638355356576" lon="112.00747673574118">
        <ele>1150.85</ele>
        <time>2019-05-30T09:02:45.842000Z</time>
      </trkpt>
      <trkpt lat="37.83607463156288" lon="112.0074095989879">
        <ele>1152.7</ele>
        <time>2019-05-30T09:02:57.842000Z</time>
      </trkpt>
      <trkpt lat="37.83575142558484" lon="112.00732869898941">
        <ele>1152.71</ele>
        <time>2019-05-30T09:03:09.842000Z</time>
      </trkpt>
      <trkpt lat="37.83553020212557" lon="112.00727251216784">
        <ele>1151.95</ele>
        <time>2019-05-30T09:03:18.842000Z</time>
      </trkpt>
      <trkpt lat="37.835454063518306" lon="112.00723379893047">
        <ele>1151.05</ele>
        <time>2019-05-30T09:03:21.842000Z</time>
      </trkpt>
      <trkpt lat="37.83539609908242" lon="112.00717093020987">
        <ele>1151.17</ele>
        <time>2019-05-30T09:03:24.842000Z</time>
      </trkpt>
      <trkpt lat="37.83532191249941" lon="112.00701355770478">
        <ele>1151.88</ele>
        <time>2019-05-30T09:03:30.842000Z</time>
      </trkpt>
      <trkpt lat="37.835271942314215" lon="112.00693951870635">
        <ele>1151.33</ele>
        <time>2019-05-30T09:03:33.942000Z</time>
      </trkpt>
      <trkpt lat="37.83520714653639" lon="112.00689369555661">
        <ele>1152.73</ele>
        <time>2019-05-30T09:03:36.842000Z</time>
      </trkpt>
      <trkpt lat="37.835037622027244" lon="112.00684331972825">
        <ele>1156.75</ele>
        <time>2019-05-30T09:03:42.842000Z</time>
      </trkpt>
      <trkpt lat="37.83487518850902" lon="112.00685422395028">
        <ele>1155.78</ele>
        <time>2019-05-30T09:03:48.842000Z</time>
      </trkpt>
      <trkpt lat="37.83480059186591" lon="112.00688427297933">
        <ele>1155.47</ele>
        <time>2019-05-30T09:03:51.842000Z</time>
      </trkpt>
      <trkpt lat="37.834709257144496" lon="112.0069155413379">
        <ele>1156.04</ele>
        <time>2019-05-30T09:03:54.842000Z</time>
      </trkpt>
      <trkpt lat="37.83462432168382" lon="112.0069133986834">
        <ele>1156.28</ele>
        <time>2019-05-30T09:03:57.842000Z</time>
      </trkpt>
      <trkpt lat="37.83439253693897" lon="112.00688462173754">
        <ele>1156.4</ele>
        <time>2019-05-30T09:04:06.842000Z</time>
      </trkpt>
      <trkpt lat="37.83408065740067" lon="112.00679275498845">
        <ele>1157.89</ele>
        <time>2019-05-30T09:04:18.842000Z</time>
      </trkpt>
      <trkpt lat="37.83378429220405" lon="112.0066698078811">
        <ele>1156.19</ele>
        <time>2019-05-30T09:04:30.842000Z</time>
      </trkpt>
      <trkpt lat="37.83351123930115" lon="112.00657566086424">
        <ele>1158.3</ele>
        <time>2019-05-30T09:04:42.842000Z</time>
      </trkpt>
      <trkpt lat="37.83320625691277" lon="112.00646489133422">
        <ele>1161.32</ele>
        <time>2019-05-30T09:04:54.842000Z</time>
      </trkpt>
      <trkpt lat="37.83291916684775" lon="112.00637858382711">
        <ele>1161.73</ele>
        <time>2019-05-30T09:05:06.842000Z</time>
      </trkpt>
      <trkpt lat="37.83262822090794" lon="112.0062686212462">
        <ele>1164.92</ele>
        <time>2019-05-30T09:05:18.842000Z</time>
      </trkpt>
      <trkpt lat="37.8323033397923" lon="112.00613859450806">
        <ele>1166.18</ele>
        <time>2019-05-30T09:05:30.842000Z</time>
      </trkpt>
      <trkpt lat="37.831982160558674" lon="112.00611128541613">
        <ele>1166.66</ele>
        <time>2019-05-30T09:05:42.842000Z</time>
      </trkpt>
      <trkpt lat="37.83165045508149" lon="112.00613356234147">
        <ele>1166.22</ele>
        <time>2019-05-30T09:05:54.842000Z</time>
      </trkpt>
      <trkpt lat="37.831335135922615" lon="112.00615237742855">
        <ele>1166.91</ele>
        <time>2019-05-30T09:06:06.842000Z</time>
      </trkpt>
      <trkpt lat="37.831039961154396" lon="112.00616345550687">
        <ele>1166.27</ele>
        <time>2019-05-30T09:06:18.842000Z</time>
      </trkpt>
      <trkpt lat="37.83072185604212" lon="112.00616952742705">
        <ele>1168.5</ele>
        <time>2019-05-30T09:06:30.842000Z</time>
      </trkpt>
      <trkpt lat="37.83039107520512" lon="112.00616317667001">
        <ele>1170.78</ele>
        <time>2019-05-30T09:06:42.842000Z</time>
      </trkpt>
      <trkpt lat="37.83006807902325" lon="112.00613448397088">
        <ele>1171.25</ele>
        <time>2019-05-30T09:06:54.842000Z</time>
      </trkpt>
      <trkpt lat="37.82975431243192" lon="112.00612626933496">
        <ele>1173.21</ele>
        <time>2019-05-30T09:07:06.842000Z</time>
      </trkpt>
      <trkpt lat="37.829479370676" lon="112.00614748003473">
        <ele>1173.03</ele>
        <time>2019-05-30T09:07:18.842000Z</time>
      </trkpt>
      <trkpt lat="37.82919229238619" lon="112.00615841935506">
        <ele>1174.28</ele>
        <time>2019-05-30T09:07:30.842000Z</time>
      </trkpt>
      <trkpt lat="37.82888223190567" lon="112.00615271697052">
        <ele>1175.94</ele>
        <time>2019-05-30T09:07:42.842000Z</time>
      </trkpt>
      <trkpt lat="37.82855124947635" lon="112.00617665757935">
        <ele>1175.51</ele>
        <time>2019-05-30T09:07:54.842000Z</time>
      </trkpt>
      <trkpt lat="37.828401033009825" lon="112.00619798590071">
        <ele>1176.48</ele>
        <time>2019-05-30T09:08:00.842000Z</time>
      </trkpt>
      <trkpt lat="37.82832718593327" lon="112.00619939695574">
        <ele>1176.13</ele>
        <time>2019-05-30T09:08:03.842000Z</time>
      </trkpt>
      <trkpt lat="37.82818832958463" lon="112.00624095714042">
        <ele>1176.44</ele>
        <time>2019-05-30T09:08:09.842000Z</time>
      </trkpt>
      <trkpt lat="37.827852018632086" lon="112.00629197974547">
        <ele>1178.45</ele>
        <time>2019-05-30T09:08:21.842000Z</time>
      </trkpt>
      <trkpt lat="37.8275569488215" lon="112.00633342475572">
        <ele>1178.65</ele>
        <time>2019-05-30T09:08:33.842000Z</time>
      </trkpt>
      <trkpt lat="37.827261950662546" lon="112.00634819253341">
        <ele>1179.95</ele>
        <time>2019-05-30T09:08:45.842000Z</time>
      </trkpt>
      <trkpt lat="37.82693996817682" lon="112.00638696168264">
        <ele>1185.11</ele>
        <time>2019-05-30T09:08:57.842000Z</time>
      </trkpt>
      <trkpt lat="37.82663581515419" lon="112.00641170190272">
        <ele>1184.71</ele>
        <time>2019-05-30T09:09:09.842000Z</time>
      </trkpt>
      <trkpt lat="37.826338010051785" lon="112.00646167099293">
        <ele>1183.64</ele>
        <time>2019-05-30T09:09:21.842000Z</time>
      </trkpt>
      <trkpt lat="37.82601679624939" lon="112.00649133694111">
        <ele>1185.11</ele>
        <time>2019-05-30T09:09:33.842000Z</time>
      </trkpt>
      <trkpt lat="37.82567563873924" lon="112.00645901123276">
        <ele>1186.03</ele>
        <time>2019-05-30T09:09:45.842000Z</time>
      </trkpt>
      <trkpt lat="37.82541862615751" lon="112.00645774374675">
        <ele>1187.88</ele>
        <time>2019-05-30T09:09:54.842000Z</time>
      </trkpt>
      <trkpt lat="37.82510017488617" lon="112.00638426354907">
        <ele>1188.62</ele>
        <time>2019-05-30T09:10:06.842000Z</time>
      </trkpt>
      <trkpt lat="37.82503069621179" lon="112.00636563061454">
        <ele>1189.26</ele>
        <time>2019-05-30T09:10:09.842000Z</time>
      </trkpt>
      <trkpt lat="37.824714977659326" lon="112.00631274539789">
        <ele>1192.62</ele>
        <time>2019-05-30T09:10:21.842000Z</time>
      </trkpt>
      <trkpt lat="37.82438941922754" lon="112.00623897831892">
        <ele>1190.88</ele>
        <time>2019-05-30T09:10:33.842000Z</time>
      </trkpt>
      <trkpt lat="37.82406422374506" lon="112.0061664064473">
        <ele>1189.62</ele>
        <time>2019-05-30T09:10:45.842000Z</time>
      </trkpt>
      <trkpt lat="37.823735427500864" lon="112.00605135464966">
        <ele>1189.32</ele>
        <time>2019-05-30T09:10:57.842000Z</time>
      </trkpt>
      <trkpt lat="37.8234002484925" lon="112.00603001024804">
        <ele>1189.54</ele>
        <time>2019-05-30T09:11:09.842000Z</time>
      </trkpt>
      <trkpt lat="37.82306518162599" lon="112.0060744896352">
        <ele>1189.99</ele>
        <time>2019-05-30T09:11:21.842000Z</time>
      </trkpt>
      <trkpt lat="37.822748200883076" lon="112.00610094051864">
        <ele>1192.03</ele>
        <time>2019-05-30T09:11:33.842000Z</time>
      </trkpt>
      <trkpt lat="37.82248930611409" lon="112.00603810994474">
        <ele>1193.69</ele>
        <time>2019-05-30T09:11:45.842000Z</time>
      </trkpt>
      <trkpt lat="37.82235976047254" lon="112.00596252802211">
        <ele>1193.78</ele>
        <time>2019-05-30T09:11:51.842000Z</time>
      </trkpt>
      <trkpt lat="37.82211378729745" lon="112.00580321143488">
        <ele>1196.42</ele>
        <time>2019-05-30T09:12:03.842000Z</time>
      </trkpt>
      <trkpt lat="37.82185966725587" lon="112.00561204519944">
        <ele>1195.03</ele>
        <time>2019-05-30T09:12:15.842000Z</time>
      </trkpt>
      <trkpt lat="37.82158697489826" lon="112.0053728067237">
        <ele>1198.31</ele>
        <time>2019-05-30T09:12:27.942000Z</time>
      </trkpt>
      <trkpt lat="37.82132512371542" lon="112.00515454611141">
        <ele>1200.75</ele>
        <time>2019-05-30T09:12:39.842000Z</time>
      </trkpt>
      <trkpt lat="37.82105055439473" lon="112.0049372669678">
        <ele>1201.83</ele>
        <time>2019-05-30T09:12:51.842000Z</time>
      </trkpt>
      <trkpt lat="37.82098306839328" lon="112.00490277633706">
        <ele>1202.68</ele>
        <time>2019-05-30T09:12:54.842000Z</time>
      </trkpt>
      <trkpt lat="37.82101299279328" lon="112.00492974356902">
        <ele>1202.79</ele>
        <time>2019-05-30T09:13:00.842000Z</time>
      </trkpt>
      <trkpt lat="37.821240034422246" lon="112.00508502920206">
        <ele>1203.99</ele>
        <time>2019-05-30T09:13:09.842000Z</time>
      </trkpt>
      <trkpt lat="37.821341945981615" lon="112.00515649318014">
        <ele>1204.87</ele>
        <time>2019-05-30T09:13:12.842000Z</time>
      </trkpt>
      <trkpt lat="37.82155272167332" lon="112.00535509565636">
        <ele>1207.13</ele>
        <time>2019-05-30T09:13:21.842000Z</time>
      </trkpt>
      <trkpt lat="37.821679822890786" lon="112.00547886093842">
        <ele>1202.43</ele>
        <time>2019-05-30T09:13:27.842000Z</time>
      </trkpt>
      <trkpt lat="37.821921873421196" lon="112.00566830001523">
        <ele>1202.82</ele>
        <time>2019-05-30T09:13:36.842000Z</time>
      </trkpt>
      <trkpt lat="37.8222048601279" lon="112.00585771383086">
        <ele>1199.85</ele>
        <time>2019-05-30T09:13:48.842000Z</time>
      </trkpt>
      <trkpt lat="37.822410336716935" lon="112.0060168498615">
        <ele>1202.79</ele>
        <time>2019-05-30T09:13:57.842000Z</time>
      </trkpt>
      <trkpt lat="37.822572144904846" lon="112.00610834442493">
        <ele>1200.56</ele>
        <time>2019-05-30T09:14:03.842000Z</time>
      </trkpt>
      <trkpt lat="37.822864951157335" lon="112.00616307477351">
        <ele>1195.14</ele>
        <time>2019-05-30T09:14:12.842000Z</time>
      </trkpt>
      <trkpt lat="37.823134820114866" lon="112.0061297802108">
        <ele>1193.48</ele>
        <time>2019-05-30T09:14:21.842000Z</time>
      </trkpt>
      <trkpt lat="37.82340384870256" lon="112.00608620503664">
        <ele>1189.89</ele>
        <time>2019-05-30T09:14:30.842000Z</time>
      </trkpt>
      <trkpt lat="37.82367094878604" lon="112.00608352237764">
        <ele>1189.44</ele>
        <time>2019-05-30T09:14:39.842000Z</time>
      </trkpt>
      <trkpt lat="37.82401472167498" lon="112.00615594359331">
        <ele>1189.54</ele>
        <time>2019-05-30T09:14:51.842000Z</time>
      </trkpt>
      <trkpt lat="37.82433257463108" lon="112.00622986517956">
        <ele>1188.87</ele>
        <time>2019-05-30T09:15:03.842000Z</time>
      </trkpt>
      <trkpt lat="37.82464346711603" lon="112.00629059604529">
        <ele>1186.92</ele>
        <time>2019-05-30T09:15:15.842000Z</time>
      </trkpt>
      <trkpt lat="37.824954089470566" lon="112.00634735668939">
        <ele>1183.14</ele>
        <time>2019-05-30T09:15:27.842000Z</time>
      </trkpt>
      <trkpt lat="37.825295942806505" lon="112.006428728618">
        <ele>1186.21</ele>
        <time>2019-05-30T09:15:39.842000Z</time>
      </trkpt>
      <trkpt lat="37.82547096445215" lon="112.00646840949697">
        <ele>1187.72</ele>
        <time>2019-05-30T09:15:45.842000Z</time>
      </trkpt>
      <trkpt lat="37.82580922453148" lon="112.00646448608403">
        <ele>1187.16</ele>
        <time>2019-05-30T09:15:57.842000Z</time>
      </trkpt>
      <trkpt lat="37.82608550561737" lon="112.0064877249773">
        <ele>1187.69</ele>
        <time>2019-05-30T09:16:06.842000Z</time>
      </trkpt>
      <trkpt lat="37.8264251532679" lon="112.00642067754634">
        <ele>1185.95</ele>
        <time>2019-05-30T09:16:18.842000Z</time>
      </trkpt>
      <trkpt lat="37.8267057515209" lon="112.00636990172019">
        <ele>1187.33</ele>
        <time>2019-05-30T09:16:27.842000Z</time>
      </trkpt>
      <trkpt lat="37.827064280467326" lon="112.00633568621815">
        <ele>1185.24</ele>
        <time>2019-05-30T09:16:39.842000Z</time>
      </trkpt>
      <trkpt lat="37.82740305066353" lon="112.00631590277112">
        <ele>1184.16</ele>
        <time>2019-05-30T09:16:51.842000Z</time>
      </trkpt>
      <trkpt lat="37.82775209802766" lon="112.00625904423802">
        <ele>1178.09</ele>
        <time>2019-05-30T09:17:03.842000Z</time>
      </trkpt>
      <trkpt lat="37.828021782325244" lon="112.00621709640664">
        <ele>1174.28</ele>
        <time>2019-05-30T09:17:12.942000Z</time>
      </trkpt>
      <trkpt lat="37.82829121570333" lon="112.00618463244027">
        <ele>1176.61</ele>
        <time>2019-05-30T09:17:21.842000Z</time>
      </trkpt>
      <trkpt lat="37.828589247575046" lon="112.00616306622712">
        <ele>1173.26</ele>
        <time>2019-05-30T09:17:30.842000Z</time>
      </trkpt>
      <trkpt lat="37.82894102059522" lon="112.00614312484866">
        <ele>1171.41</ele>
        <time>2019-05-30T09:17:42.842000Z</time>
      </trkpt>
      <trkpt lat="37.829285419877195" lon="112.00613309607925">
        <ele>1170.79</ele>
        <time>2019-05-30T09:17:55.842000Z</time>
      </trkpt>
      <trkpt lat="37.82961544610405" lon="112.006116377014">
        <ele>1168.02</ele>
        <time>2019-05-30T09:18:07.842000Z</time>
      </trkpt>
      <trkpt lat="37.82996746588348" lon="112.00611970385337">
        <ele>1167.42</ele>
        <time>2019-05-30T09:18:19.842000Z</time>
      </trkpt>
      <trkpt lat="37.83023758493974" lon="112.00612925371453">
        <ele>1164.92</ele>
        <time>2019-05-30T09:18:28.842000Z</time>
      </trkpt>
      <trkpt lat="37.830534116366294" lon="112.0061624729718">
        <ele>1165.9</ele>
        <time>2019-05-30T09:18:37.842000Z</time>
      </trkpt>
      <trkpt lat="37.83079336585681" lon="112.00614382939709">
        <ele>1166.26</ele>
        <time>2019-05-30T09:18:46.842000Z</time>
      </trkpt>
      <trkpt lat="37.8309794066834" lon="112.00616278881624">
        <ele>1166.35</ele>
        <time>2019-05-30T09:18:52.842000Z</time>
      </trkpt>
      <trkpt lat="37.83135305504076" lon="112.00611115214915">
        <ele>1159.68</ele>
        <time>2019-05-30T09:19:04.842000Z</time>
      </trkpt>
      <trkpt lat="37.83163738450197" lon="112.00609108825824">
        <ele>1159.67</ele>
        <time>2019-05-30T09:19:13.842000Z</time>
      </trkpt>
      <trkpt lat="37.831977474478" lon="112.00608403463835">
        <ele>1161.89</ele>
        <time>2019-05-30T09:19:25.842000Z</time>
      </trkpt>
      <trkpt lat="37.832315300605984" lon="112.0061127654438">
        <ele>1162.92</ele>
        <time>2019-05-30T09:19:37.842000Z</time>
      </trkpt>
      <trkpt lat="37.832628359071144" lon="112.00623495096119">
        <ele>1162.96</ele>
        <time>2019-05-30T09:19:49.842000Z</time>
      </trkpt>
      <trkpt lat="37.832715342643446" lon="112.00627616727307">
        <ele>1163.03</ele>
        <time>2019-05-30T09:19:52.842000Z</time>
      </trkpt>
      <trkpt lat="37.83304790960369" lon="112.00639954126395">
        <ele>1159.96</ele>
        <time>2019-05-30T09:20:04.842000Z</time>
      </trkpt>
      <trkpt lat="37.8333933215135" lon="112.00651055794822">
        <ele>1161.44</ele>
        <time>2019-05-30T09:20:16.842000Z</time>
      </trkpt>
      <trkpt lat="37.833693666180885" lon="112.00662453244688">
        <ele>1156.61</ele>
        <time>2019-05-30T09:20:28.842000Z</time>
      </trkpt>
      <trkpt lat="37.83398269092485" lon="112.00673883716209">
        <ele>1160.24</ele>
        <time>2019-05-30T09:20:37.842000Z</time>
      </trkpt>
      <trkpt lat="37.83430205503979" lon="112.00683539050807">
        <ele>1155.06</ele>
        <time>2019-05-30T09:20:49.842000Z</time>
      </trkpt>
      <trkpt lat="37.83458245818441" lon="112.00690772266965">
        <ele>1154.91</ele>
        <time>2019-05-30T09:20:58.842000Z</time>
      </trkpt>
      <trkpt lat="37.83468341912081" lon="112.00692883312757">
        <ele>1153.52</ele>
        <time>2019-05-30T09:21:01.842000Z</time>
      </trkpt>
      <trkpt lat="37.835031985910376" lon="112.00684440424689">
        <ele>1153.6</ele>
        <time>2019-05-30T09:21:13.842000Z</time>
      </trkpt>
      <trkpt lat="37.83519874575419" lon="112.00683772223847">
        <ele>1153.25</ele>
        <time>2019-05-30T09:21:19.842000Z</time>
      </trkpt>
      <trkpt lat="37.83526785728727" lon="112.00687420400376">
        <ele>1151.79</ele>
        <time>2019-05-30T09:21:22.842000Z</time>
      </trkpt>
      <trkpt lat="37.83532479106467" lon="112.00696523953413">
        <ele>1152.76</ele>
        <time>2019-05-30T09:21:25.842000Z</time>
      </trkpt>
      <trkpt lat="37.83539697928577" lon="112.00716052205838">
        <ele>1153.95</ele>
        <time>2019-05-30T09:21:31.842000Z</time>
      </trkpt>
      <trkpt lat="37.83545753272858" lon="112.00724036696278">
        <ele>1153.9</ele>
        <time>2019-05-30T09:21:34.842000Z</time>
      </trkpt>
      <trkpt lat="37.835525654856944" lon="112.00728882966605">
        <ele>1152.62</ele>
        <time>2019-05-30T09:21:37.842000Z</time>
      </trkpt>
      <trkpt lat="37.835793746939494" lon="112.00733274018971">
        <ele>1153.52</ele>
        <time>2019-05-30T09:21:46.842000Z</time>
      </trkpt>
      <trkpt lat="37.83611269032959" lon="112.0074232958438">
        <ele>1154.72</ele>
        <time>2019-05-30T09:21:58.842000Z</time>
      </trkpt>
      <trkpt lat="37.83637778578153" lon="112.00748710913993">
        <ele>1154.24</ele>
        <time>2019-05-30T09:22:07.842000Z</time>
      </trkpt>
      <trkpt lat="37.83644463018468" lon="112.00751058600717">
        <ele>1153.08</ele>
        <time>2019-05-30T09:22:10.842000Z</time>
      </trkpt>
      <trkpt lat="37.83664280869645" lon="112.00755096020951">
        <ele>1155.56</ele>
        <time>2019-05-30T09:22:19.842000Z</time>
      </trkpt>
      <trkpt lat="37.83696329118878" lon="112.00767466130674">
        <ele>1157.44</ele>
        <time>2019-05-30T09:22:31.842000Z</time>
      </trkpt>
      <trkpt lat="37.8371221891948" lon="112.00771333843097">
        <ele>1154.28</ele>
        <time>2019-05-30T09:22:37.842000Z</time>
      </trkpt>
      <trkpt lat="37.83727044321486" lon="112.00778951258606">
        <ele>1151.83</ele>
        <time>2019-05-30T09:22:43.842000Z</time>
      </trkpt>
      <trkpt lat="37.83753007720153" lon="112.00788140752296">
        <ele>1152.64</ele>
        <time>2019-05-30T09:22:52.842000Z</time>
      </trkpt>
      <trkpt lat="37.83779745525795" lon="112.0079937366571">
        <ele>1150.15</ele>
        <time>2019-05-30T09:23:01.842000Z</time>
      </trkpt>
      <trkpt lat="37.83805513841821" lon="112.00810637168145">
        <ele>1146.04</ele>
        <time>2019-05-30T09:23:10.842000Z</time>
      </trkpt>
      <trkpt lat="37.83838437830846" lon="112.00822645376107">
        <ele>1142.68</ele>
        <time>2019-05-30T09:23:22.842000Z</time>
      </trkpt>
      <trkpt lat="37.838576919286545" lon="112.00823153231484">
        <ele>1144.32</ele>
        <time>2019-05-30T09:23:28.842000Z</time>
      </trkpt>
      <trkpt lat="37.83876585336012" lon="112.00818921587828">
        <ele>1140.8</ele>
        <time>2019-05-30T09:23:34.842000Z</time>
      </trkpt>
      <trkpt lat="37.83911916923569" lon="112.00811732890513">
        <ele>1139.38</ele>
        <time>2019-05-30T09:23:46.842000Z</time>
      </trkpt>
      <trkpt lat="37.839401782962284" lon="112.00806751529012">
        <ele>1140.47</ele>
        <time>2019-05-30T09:23:55.842000Z</time>
      </trkpt>
      <trkpt lat="37.839654824693135" lon="112.00805701687783">
        <ele>1137.64</ele>
        <time>2019-05-30T09:24:04.842000Z</time>
      </trkpt>
      <trkpt lat="37.83999664202043" lon="112.00799359517707">
        <ele>1138.06</ele>
        <time>2019-05-30T09:24:16.842000Z</time>
      </trkpt>
      <trkpt lat="37.84025854710789" lon="112.00796680462396">
        <ele>1139.76</ele>
        <time>2019-05-30T09:24:25.942000Z</time>
      </trkpt>
      <trkpt lat="37.840574137717795" lon="112.00802086618073">
        <ele>1137.87</ele>
        <time>2019-05-30T09:24:37.842000Z</time>
      </trkpt>
      <trkpt lat="37.84082277146055" lon="112.00809019715187">
        <ele>1137.87</ele>
        <time>2019-05-30T09:24:46.842000Z</time>
      </trkpt>
      <trkpt lat="37.841128702012455" lon="112.0081300219145">
        <ele>1136.75</ele>
        <time>2019-05-30T09:24:55.842000Z</time>
      </trkpt>
      <trkpt lat="37.84140036597406" lon="112.00812540279172">
        <ele>1133.94</ele>
        <time>2019-05-30T09:25:04.842000Z</time>
      </trkpt>
      <trkpt lat="37.84168976097984" lon="112.00806373621622">
        <ele>1132.07</ele>
        <time>2019-05-30T09:25:13.842000Z</time>
      </trkpt>
      <trkpt lat="37.84193071432448" lon="112.007849389222">
        <ele>1138.41</ele>
        <time>2019-05-30T09:25:34.842000Z</time>
      </trkpt>
      <trkpt lat="37.84214391067453" lon="112.00776666119685">
        <ele>1138.26</ele>
        <time>2019-05-30T09:25:49.842000Z</time>
      </trkpt>
      <trkpt lat="37.84228173533865" lon="112.00764693127469">
        <ele>1138.13</ele>
        <time>2019-05-30T09:26:01.842000Z</time>
      </trkpt>
      <trkpt lat="37.84235733341645" lon="112.00760296742038">
        <ele>1137.84</ele>
        <time>2019-05-30T09:26:07.842000Z</time>
      </trkpt>
      <trkpt lat="37.842471628506686" lon="112.00749083839018">
        <ele>1136.99</ele>
        <time>2019-05-30T09:26:19.942000Z</time>
      </trkpt>
      <trkpt lat="37.84259654548989" lon="112.00742029225313">
        <ele>1137.2</ele>
        <time>2019-05-30T09:26:28.842000Z</time>
      </trkpt>
      <trkpt lat="37.84282166398903" lon="112.00719021356308">
        <ele>1144.58</ele>
        <time>2019-05-30T09:26:37.842000Z</time>
      </trkpt>
      <trkpt lat="37.84297649936488" lon="112.00703701232283">
        <ele>1139.28</ele>
        <time>2019-05-30T09:26:43.842000Z</time>
      </trkpt>
      <trkpt lat="37.843287461495606" lon="112.00684065628235">
        <ele>1138.68</ele>
        <time>2019-05-30T09:26:55.842000Z</time>
      </trkpt>
      <trkpt lat="37.84352539464821" lon="112.00666606260528">
        <ele>1137.93</ele>
        <time>2019-05-30T09:27:04.842000Z</time>
      </trkpt>
      <trkpt lat="37.843682951014344" lon="112.00657112499005">
        <ele>1137.58</ele>
        <time>2019-05-30T09:27:10.842000Z</time>
      </trkpt>
      <trkpt lat="37.84382887161618" lon="112.00643735287744">
        <ele>1134.21</ele>
        <time>2019-05-30T09:27:16.842000Z</time>
      </trkpt>
      <trkpt lat="37.84407956049192" lon="112.00629292621093">
        <ele>1135.97</ele>
        <time>2019-05-30T09:27:25.842000Z</time>
      </trkpt>
      <trkpt lat="37.84440150331464" lon="112.00613325605346">
        <ele>1130.99</ele>
        <time>2019-05-30T09:27:37.842000Z</time>
      </trkpt>
      <trkpt lat="37.84457323114082" lon="112.00608645066484">
        <ele>1128.9</ele>
        <time>2019-05-30T09:27:43.842000Z</time>
      </trkpt>
      <trkpt lat="37.844729919946" lon="112.00611894713053">
        <ele>1126.42</ele>
        <time>2019-05-30T09:27:49.842000Z</time>
      </trkpt>
      <trkpt lat="37.84507323215969" lon="112.00622528968859">
        <ele>1128.09</ele>
        <time>2019-05-30T09:28:01.842000Z</time>
      </trkpt>
      <trkpt lat="37.845354583467426" lon="112.00630374695531">
        <ele>1129.72</ele>
        <time>2019-05-30T09:28:10.842000Z</time>
      </trkpt>
      <trkpt lat="37.845652612200695" lon="112.0064181270397">
        <ele>1126.75</ele>
        <time>2019-05-30T09:28:22.842000Z</time>
      </trkpt>
      <trkpt lat="37.84593046134506" lon="112.00653191964439">
        <ele>1126.27</ele>
        <time>2019-05-30T09:28:31.842000Z</time>
      </trkpt>
      <trkpt lat="37.84619184476382" lon="112.00660876556236">
        <ele>1124.68</ele>
        <time>2019-05-30T09:28:40.842000Z</time>
      </trkpt>
      <trkpt lat="37.846477641992394" lon="112.00663763005367">
        <ele>1126.92</ele>
        <time>2019-05-30T09:28:49.942000Z</time>
      </trkpt>
      <trkpt lat="37.84658777498181" lon="112.00663675030512">
        <ele>1126.48</ele>
        <time>2019-05-30T09:28:52.842000Z</time>
      </trkpt>
      <trkpt lat="37.846886617254434" lon="112.00667741131889">
        <ele>1126.21</ele>
        <time>2019-05-30T09:29:01.842000Z</time>
      </trkpt>
      <trkpt lat="37.847179559345136" lon="112.00671163710808">
        <ele>1123.82</ele>
        <time>2019-05-30T09:29:10.842000Z</time>
      </trkpt>
      <trkpt lat="37.8475373631801" lon="112.00676783601126">
        <ele>1123.12</ele>
        <time>2019-05-30T09:29:22.842000Z</time>
      </trkpt>
      <trkpt lat="37.847815102683946" lon="112.00679172030345">
        <ele>1122.54</ele>
        <time>2019-05-30T09:29:31.842000Z</time>
      </trkpt>
      <trkpt lat="37.84817104554239" lon="112.00685602117993">
        <ele>1120.83</ele>
        <time>2019-05-30T09:29:43.842000Z</time>
      </trkpt>
      <trkpt lat="37.84838849466616" lon="112.00707305364944">
        <ele>1121.72</ele>
        <time>2019-05-30T09:29:52.842000Z</time>
      </trkpt>
      <trkpt lat="37.848564436664795" lon="112.00735124107658">
        <ele>1119.78</ele>
        <time>2019-05-30T09:30:01.842000Z</time>
      </trkpt>
      <trkpt lat="37.84878374106375" lon="112.00767262171811">
        <ele>1116.12</ele>
        <time>2019-05-30T09:30:13.842000Z</time>
      </trkpt>
      <trkpt lat="37.84898419544913" lon="112.0079819823566">
        <ele>1117.8</ele>
        <time>2019-05-30T09:30:22.842000Z</time>
      </trkpt>
      <trkpt lat="37.849209130370014" lon="112.00829126341266">
        <ele>1120.91</ele>
        <time>2019-05-30T09:30:31.842000Z</time>
      </trkpt>
      <trkpt lat="37.84940276420881" lon="112.00856902295972">
        <ele>1119.37</ele>
        <time>2019-05-30T09:30:40.842000Z</time>
      </trkpt>
      <trkpt lat="37.84952404450666" lon="112.00877069766572">
        <ele>1120.27</ele>
        <time>2019-05-30T09:30:46.842000Z</time>
      </trkpt>
      <trkpt lat="37.84966790989352" lon="112.0089539513042">
        <ele>1120.63</ele>
        <time>2019-05-30T09:30:52.842000Z</time>
      </trkpt>
      <trkpt lat="37.84985961503979" lon="112.00934503116162">
        <ele>1119.23</ele>
        <time>2019-05-30T09:31:04.942000Z</time>
      </trkpt>
      <trkpt lat="37.84989100460082" lon="112.00969853071048">
        <ele>1117.28</ele>
        <time>2019-05-30T09:31:13.842000Z</time>
      </trkpt>
      <trkpt lat="37.84992363669293" lon="112.01008381390211">
        <ele>1117.97</ele>
        <time>2019-05-30T09:31:22.842000Z</time>
      </trkpt>
      <trkpt lat="37.84992426369681" lon="112.0102032244844">
        <ele>1117.79</ele>
        <time>2019-05-30T09:31:25.842000Z</time>
      </trkpt>
      <trkpt lat="37.849876478809044" lon="112.01045708776962">
        <ele>1118.68</ele>
        <time>2019-05-30T09:31:31.842000Z</time>
      </trkpt>
      <trkpt lat="37.84985130325222" lon="112.01085527470555">
        <ele>1117.69</ele>
        <time>2019-05-30T09:31:40.842000Z</time>
      </trkpt>
      <trkpt lat="37.84983001663574" lon="112.01122370982331">
        <ele>1118.64</ele>
        <time>2019-05-30T09:31:49.842000Z</time>
      </trkpt>
      <trkpt lat="37.84981518888544" lon="112.01156394302642">
        <ele>1118.72</ele>
        <time>2019-05-30T09:31:58.842000Z</time>
      </trkpt>
      <trkpt lat="37.84981426566991" lon="112.01181437787366">
        <ele>1116.49</ele>
        <time>2019-05-30T09:32:04.942000Z</time>
      </trkpt>
      <trkpt lat="37.849764579294195" lon="112.0121591132308">
        <ele>1117.33</ele>
        <time>2019-05-30T09:32:13.842000Z</time>
      </trkpt>
      <trkpt lat="37.84973559612852" lon="112.01239917827499">
        <ele>1116.14</ele>
        <time>2019-05-30T09:32:19.842000Z</time>
      </trkpt>
      <trkpt lat="37.84974957365601" lon="112.01264411381727">
        <ele>1114.69</ele>
        <time>2019-05-30T09:32:25.842000Z</time>
      </trkpt>
      <trkpt lat="37.849709212194874" lon="112.01303422592876">
        <ele>1115.79</ele>
        <time>2019-05-30T09:32:34.942000Z</time>
      </trkpt>
      <trkpt lat="37.849687418118314" lon="112.01337912388405">
        <ele>1110.94</ele>
        <time>2019-05-30T09:32:43.842000Z</time>
      </trkpt>
      <trkpt lat="37.84964996630215" lon="112.013744935153">
        <ele>1111.04</ele>
        <time>2019-05-30T09:32:52.842000Z</time>
      </trkpt>
      <trkpt lat="37.84963113410058" lon="112.01409678553453">
        <ele>1111.83</ele>
        <time>2019-05-30T09:33:01.842000Z</time>
      </trkpt>
      <trkpt lat="37.84958964652662" lon="112.01449717268882">
        <ele>1111.24</ele>
        <time>2019-05-30T09:33:10.842000Z</time>
      </trkpt>
      <trkpt lat="37.84954512626664" lon="112.01485547586915">
        <ele>1111.93</ele>
        <time>2019-05-30T09:33:19.842000Z</time>
      </trkpt>
      <trkpt lat="37.84950550713326" lon="112.01521886048829">
        <ele>1111.85</ele>
        <time>2019-05-30T09:33:28.842000Z</time>
      </trkpt>
      <trkpt lat="37.8494655407337" lon="112.01560530888827">
        <ele>1110.42</ele>
        <time>2019-05-30T09:33:37.842000Z</time>
      </trkpt>
      <trkpt lat="37.84942064150863" lon="112.01595156318737">
        <ele>1109.57</ele>
        <time>2019-05-30T09:33:46.842000Z</time>
      </trkpt>
      <trkpt lat="37.84936830557514" lon="112.01632678212938">
        <ele>1111.79</ele>
        <time>2019-05-30T09:33:55.842000Z</time>
      </trkpt>
      <trkpt lat="37.84934411957619" lon="112.01669312056258">
        <ele>1112.31</ele>
        <time>2019-05-30T09:34:04.842000Z</time>
      </trkpt>
      <trkpt lat="37.84929343531564" lon="112.01707038161521">
        <ele>1110.16</ele>
        <time>2019-05-30T09:34:13.842000Z</time>
      </trkpt>
      <trkpt lat="37.8492411602725" lon="112.01743195146487">
        <ele>1109.42</ele>
        <time>2019-05-30T09:34:22.842000Z</time>
      </trkpt>
      <trkpt lat="37.84919530212511" lon="112.01775535677712">
        <ele>1108.83</ele>
        <time>2019-05-30T09:34:31.842000Z</time>
      </trkpt>
      <trkpt lat="37.849190959526936" lon="112.0180289453233">
        <ele>1108.99</ele>
        <time>2019-05-30T09:34:37.842000Z</time>
      </trkpt>
      <trkpt lat="37.84916438938769" lon="112.01842024150342">
        <ele>1109.93</ele>
        <time>2019-05-30T09:34:46.842000Z</time>
      </trkpt>
      <trkpt lat="37.84911992576018" lon="112.01867507888997">
        <ele>1107.16</ele>
        <time>2019-05-30T09:34:52.842000Z</time>
      </trkpt>
      <trkpt lat="37.84913706133609" lon="112.01901322843807">
        <ele>1110.02</ele>
        <time>2019-05-30T09:35:01.942000Z</time>
      </trkpt>
      <trkpt lat="37.84910438996009" lon="112.0193744226724">
        <ele>1110.03</ele>
        <time>2019-05-30T09:35:10.842000Z</time>
      </trkpt>
      <trkpt lat="37.84910302860109" lon="112.01972935650748">
        <ele>1109.25</ele>
        <time>2019-05-30T09:35:19.842000Z</time>
      </trkpt>
      <trkpt lat="37.849082847956396" lon="112.02008493144189">
        <ele>1108.69</ele>
        <time>2019-05-30T09:35:28.842000Z</time>
      </trkpt>
      <trkpt lat="37.849066627914304" lon="112.02043999708184">
        <ele>1107.29</ele>
        <time>2019-05-30T09:35:37.842000Z</time>
      </trkpt>
      <trkpt lat="37.849068743239066" lon="112.02083576987494">
        <ele>1108.73</ele>
        <time>2019-05-30T09:35:46.842000Z</time>
      </trkpt>
      <trkpt lat="37.84906692238176" lon="112.02125712788087">
        <ele>1107.36</ele>
        <time>2019-05-30T09:35:55.842000Z</time>
      </trkpt>
      <trkpt lat="37.84908134828065" lon="112.02164366112267">
        <ele>1107.23</ele>
        <time>2019-05-30T09:36:04.842000Z</time>
      </trkpt>
      <trkpt lat="37.84908160722129" lon="112.02204894860662">
        <ele>1106.95</ele>
        <time>2019-05-30T09:36:13.842000Z</time>
      </trkpt>
      <trkpt lat="37.849085320987456" lon="112.02240558882995">
        <ele>1106.98</ele>
        <time>2019-05-30T09:36:22.842000Z</time>
      </trkpt>
      <trkpt lat="37.849088196706944" lon="112.02285216540521">
        <ele>1106.49</ele>
        <time>2019-05-30T09:36:31.842000Z</time>
      </trkpt>
      <trkpt lat="37.849083923058174" lon="112.02321762908153">
        <ele>1107.53</ele>
        <time>2019-05-30T09:36:49.842000Z</time>
      </trkpt>
      <trkpt lat="37.84910005690535" lon="112.02348106532706">
        <ele>1112.19</ele>
        <time>2019-05-30T09:37:07.842000Z</time>
      </trkpt>
      <trkpt lat="37.84907768433797" lon="112.02384597053498">
        <ele>1110.01</ele>
        <time>2019-05-30T09:37:28.842000Z</time>
      </trkpt>
      <trkpt lat="37.849092724172536" lon="112.02407271120478">
        <ele>1107.42</ele>
        <time>2019-05-30T09:37:40.842000Z</time>
      </trkpt>
      <trkpt lat="37.849049197731944" lon="112.02440064121502">
        <ele>1107.15</ele>
        <time>2019-05-30T09:37:58.842000Z</time>
      </trkpt>
      <trkpt lat="37.84908211142334" lon="112.02465115689103">
        <ele>1111.25</ele>
        <time>2019-05-30T09:38:13.842000Z</time>
      </trkpt>
      <trkpt lat="37.849045966794165" lon="112.02472310950046">
        <ele>1107.82</ele>
        <time>2019-05-30T09:38:19.842000Z</time>
      </trkpt>
      <trkpt lat="37.84909935954865" lon="112.02485856510033">
        <ele>1104.45</ele>
        <time>2019-05-30T09:38:25.842000Z</time>
      </trkpt>
      <trkpt lat="37.84907066174992" lon="112.02502140568693">
        <ele>1104.33</ele>
        <time>2019-05-30T09:38:34.842000Z</time>
      </trkpt>
      <trkpt lat="37.84907066174992" lon="112.02502140568693">
        <ele>1104.33</ele>
        <time>2019-05-30T09:38:37.042000Z</time>
      </trkpt>
    </trkseg>
  </trk>
</gpx>