<?xml version="1.0" encoding="UTF-8"?>
<gpx xmlns="http://www.topografix.com/GPX/1/1" xmlns:gpxtpx="http://www.garmin.com/xmlschemas/TrackPointExtension/v1" xmlns:xsi="http://www.w3.org/2001/XMLSchema-instance" xsi:schemaLocation="http://www.topografix.com/GPX/1/1 http://www.topografix.com/GPX/1/1/gpx.xsd" version="1.1" creator="gpx.py -- https://github.com/tkrajina/gpxpy">
  <trk>
    <name>gpx from keep</name>
    <type>Run</type>
    <trkseg>
      <trkpt lat="37.84682595694872" lon="112.02950096984245">
        <ele>0.0</ele>
        <time>2016-08-13T22:34:39.200000Z</time>
      </trkpt>
      <trkpt lat="37.84682595694872" lon="112.02950096984245">
        <ele>0.0</ele>
        <time>2016-08-13T22:35:39.600000Z</time>
      </trkpt>
      <trkpt lat="37.84682595694872" lon="112.02950096984245">
        <ele>0.0</ele>
        <time>2016-08-13T22:36:40.100000Z</time>
      </trkpt>
      <trkpt lat="37.84682595694872" lon="112.02950096984245">
        <ele>0.0</ele>
        <time>2016-08-13T22:37:40.100000Z</time>
      </trkpt>
      <trkpt lat="37.84682595694872" lon="112.02950096984245">
        <ele>0.0</ele>
        <time>2016-08-13T22:38:40.600000Z</time>
      </trkpt>
      <trkpt lat="37.84682595694872" lon="112.02950096984245">
        <ele>0.0</ele>
        <time>2016-08-13T22:39:41.100000Z</time>
      </trkpt>
      <trkpt lat="37.84682595694872" lon="112.02950096984245">
        <ele>0.0</ele>
        <time>2016-08-13T22:40:41.600000Z</time>
      </trkpt>
      <trkpt lat="37.84682595694872" lon="112.02950096984245">
        <ele>0.0</ele>
        <time>2016-08-13T22:41:42.100000Z</time>
      </trkpt>
      <trkpt lat="37.84682595694872" lon="112.02950096984245">
        <ele>0.0</ele>
        <time>2016-08-13T22:42:42.600000Z</time>
      </trkpt>
      <trkpt lat="37.84682595694872" lon="112.02950096984245">
        <ele>0.0</ele>
        <time>2016-08-13T22:43:43.100000Z</time>
      </trkpt>
      <trkpt lat="37.84682595694872" lon="112.02950096984245">
        <ele>0.0</ele>
        <time>2016-08-13T22:44:43.600000Z</time>
      </trkpt>
      <trkpt lat="37.84682595694872" lon="112.02950096984245">
        <ele>0.0</ele>
        <time>2016-08-13T22:45:44.100000Z</time>
      </trkpt>
      <trkpt lat="37.84682595694872" lon="112.02950096984245">
        <ele>0.0</ele>
        <time>2016-08-13T22:46:44.100000Z</time>
      </trkpt>
      <trkpt lat="37.84682595694872" lon="112.02950096984245">
        <ele>0.0</ele>
        <time>2016-08-13T22:47:44.600000Z</time>
      </trkpt>
      <trkpt lat="37.84682595694872" lon="112.02950096984245">
        <ele>0.0</ele>
        <time>2016-08-13T22:48:45.100000Z</time>
      </trkpt>
      <trkpt lat="37.84781814970782" lon="112.02968933360692">
        <ele>1081.277342798467</ele>
        <time>2016-08-13T22:48:50.200000Z</time>
      </trkpt>
      <trkpt lat="37.847883446634455" lon="112.02972475725188">
        <ele>1089.3361065215029</ele>
        <time>2016-08-13T22:48:54.200000Z</time>
      </trkpt>
      <trkpt lat="37.8485754644305" lon="112.02965597476343">
        <ele>1105.884715259427</ele>
        <time>2016-08-13T22:49:14.200000Z</time>
      </trkpt>
      <trkpt lat="37.848785254519996" lon="112.02962971403704">
        <ele>1106.1947405099193</ele>
        <time>2016-08-13T22:49:21.400000Z</time>
      </trkpt>
      <trkpt lat="37.84883991102055" lon="112.0296886697047">
        <ele>1106.7585693911342</ele>
        <time>2016-08-13T22:49:24.400000Z</time>
      </trkpt>
      <trkpt lat="37.84888745119603" lon="112.02966459222603">
        <ele>1107.7115759560925</ele>
        <time>2016-08-13T22:49:31.400000Z</time>
      </trkpt>
      <trkpt lat="37.8489105126219" lon="112.02955694296942">
        <ele>1108.248794320316</ele>
        <time>2016-08-13T22:49:37.500000Z</time>
      </trkpt>
      <trkpt lat="37.84887421673212" lon="112.02921102086353">
        <ele>1107.8761751538705</ele>
        <time>2016-08-13T22:49:48.400000Z</time>
      </trkpt>
      <trkpt lat="37.8488497556041" lon="112.02901385572973">
        <ele>1107.7138397636206</ele>
        <time>2016-08-13T22:49:52.400000Z</time>
      </trkpt>
      <trkpt lat="37.84886568356711" lon="112.0287247305371">
        <ele>1106.7033895158029</ele>
        <time>2016-08-13T22:50:00.500000Z</time>
      </trkpt>
      <trkpt lat="37.848892475443414" lon="112.02853838093687">
        <ele>1106.3275973549755</ele>
        <time>2016-08-13T22:50:04.500000Z</time>
      </trkpt>
      <trkpt lat="37.84889752118461" lon="112.028368533018">
        <ele>1106.0019274063602</ele>
        <time>2016-08-13T22:50:08.400000Z</time>
      </trkpt>
      <trkpt lat="37.84875965708575" lon="112.02827713538048">
        <ele>1105.5337680835896</ele>
        <time>2016-08-13T22:50:19.400000Z</time>
      </trkpt>
      <trkpt lat="37.84862658548977" lon="112.02822143753616">
        <ele>1105.2123680920688</ele>
        <time>2016-08-13T22:50:23.400000Z</time>
      </trkpt>
      <trkpt lat="37.848293063777625" lon="112.02814656162391">
        <ele>1104.9500142664083</ele>
        <time>2016-08-13T22:50:33.400000Z</time>
      </trkpt>
      <trkpt lat="37.84799503768897" lon="112.02808980205292">
        <ele>1104.5174218673708</ele>
        <time>2016-08-13T22:50:41.400000Z</time>
      </trkpt>
      <trkpt lat="37.847753157997346" lon="112.02803898581772">
        <ele>1104.4022998876426</ele>
        <time>2016-08-13T22:50:48.500000Z</time>
      </trkpt>
      <trkpt lat="37.8476063160308" lon="112.02806334431618">
        <ele>1104.1586576182458</ele>
        <time>2016-08-13T22:50:52.500000Z</time>
      </trkpt>
      <trkpt lat="37.84744952496544" lon="112.0280528154752">
        <ele>1104.0230872717905</ele>
        <time>2016-08-13T22:50:59.500000Z</time>
      </trkpt>
      <trkpt lat="37.84736229438423" lon="112.02789569275345">
        <ele>1103.6358750712902</ele>
        <time>2016-08-13T22:51:03.500000Z</time>
      </trkpt>
      <trkpt lat="37.847331849421906" lon="112.0278126676756">
        <ele>1103.5625462566834</ele>
        <time>2016-08-13T22:51:06.500000Z</time>
      </trkpt>
      <trkpt lat="37.84738526480244" lon="112.02740401183466">
        <ele>1102.7683839682877</ele>
        <time>2016-08-13T22:51:19.500000Z</time>
      </trkpt>
      <trkpt lat="37.84757122499063" lon="112.02704591880055">
        <ele>1101.8527557658535</ele>
        <time>2016-08-13T22:51:30.500000Z</time>
      </trkpt>
      <trkpt lat="37.84777260149126" lon="112.02681223146207">
        <ele>1100.9600989137584</ele>
        <time>2016-08-13T22:51:41.400000Z</time>
      </trkpt>
      <trkpt lat="37.84788055043866" lon="112.0266161484035">
        <ele>1100.5700169252875</ele>
        <time>2016-08-13T22:51:49.400000Z</time>
      </trkpt>
      <trkpt lat="37.84798616736617" lon="112.02658665769515">
        <ele>1100.0206776858322</ele>
        <time>2016-08-13T22:51:52.400000Z</time>
      </trkpt>
      <trkpt lat="37.84810685250937" lon="112.02660530357639">
        <ele>1099.461165600743</ele>
        <time>2016-08-13T22:51:56.500000Z</time>
      </trkpt>
      <trkpt lat="37.84822827916054" lon="112.02665180478216">
        <ele>1096.6485294448455</ele>
        <time>2016-08-13T22:52:00.400000Z</time>
      </trkpt>
      <trkpt lat="37.8484839440406" lon="112.02672181832706">
        <ele>1096.2635423809954</ele>
        <time>2016-08-13T22:52:08.400000Z</time>
      </trkpt>
      <trkpt lat="37.848832157252616" lon="112.0266755309947">
        <ele>1099.0486632940535</ele>
        <time>2016-08-13T22:52:19.500000Z</time>
      </trkpt>
      <trkpt lat="37.848940526644434" lon="112.02673528551573">
        <ele>1105.1644065278917</ele>
        <time>2016-08-13T22:52:23.500000Z</time>
      </trkpt>
      <trkpt lat="37.84895938289435" lon="112.02678747853635">
        <ele>1107.685027232874</ele>
        <time>2016-08-13T22:52:27.500000Z</time>
      </trkpt>
      <trkpt lat="37.848890690177136" lon="112.02701628172187">
        <ele>1107.7119812937458</ele>
        <time>2016-08-13T22:52:34.400000Z</time>
      </trkpt>
      <trkpt lat="37.84885825288956" lon="112.02749470529389">
        <ele>1106.9935827128852</ele>
        <time>2016-08-13T22:52:49.500000Z</time>
      </trkpt>
      <trkpt lat="37.848826381697776" lon="112.0279663752544">
        <ele>1104.5038487648237</ele>
        <time>2016-08-13T22:53:01.400000Z</time>
      </trkpt>
      <trkpt lat="37.84879649670996" lon="112.02808808292974">
        <ele>1103.9773675589947</ele>
        <time>2016-08-13T22:53:04.400000Z</time>
      </trkpt>
      <trkpt lat="37.84871627479967" lon="112.02816030390854">
        <ele>1103.969062917074</ele>
        <time>2016-08-13T22:53:08.500000Z</time>
      </trkpt>
      <trkpt lat="37.84846382265171" lon="112.02821199117913">
        <ele>1103.908039092573</ele>
        <time>2016-08-13T22:53:15.500000Z</time>
      </trkpt>
      <trkpt lat="37.848125108947634" lon="112.02804570242303">
        <ele>1103.3951724969893</ele>
        <time>2016-08-13T22:53:26.500000Z</time>
      </trkpt>
      <trkpt lat="37.8479386719121" lon="112.02795782752924">
        <ele>1103.2383479996774</ele>
        <time>2016-08-13T22:53:34.400000Z</time>
      </trkpt>
      <trkpt lat="37.84765573204434" lon="112.02794298665397">
        <ele>1102.8335716832519</ele>
        <time>2016-08-13T22:53:45.500000Z</time>
      </trkpt>
      <trkpt lat="37.8475377094175" lon="112.02794381220662">
        <ele>1102.8397803818957</ele>
        <time>2016-08-13T22:53:49.500000Z</time>
      </trkpt>
      <trkpt lat="37.84739185762425" lon="112.0278994755305">
        <ele>1102.8279820990292</ele>
        <time>2016-08-13T22:53:55.500000Z</time>
      </trkpt>
      <trkpt lat="37.84733050927787" lon="112.0279119237189">
        <ele>1102.7346164189469</ele>
        <time>2016-08-13T22:53:59.400000Z</time>
      </trkpt>
      <trkpt lat="37.84730384771748" lon="112.02815208969838">
        <ele>1101.5050242394243</ele>
        <time>2016-08-13T22:54:07.500000Z</time>
      </trkpt>
      <trkpt lat="37.84736845494333" lon="112.02856317598848">
        <ele>1100.2128868376412</ele>
        <time>2016-08-13T22:54:14.500000Z</time>
      </trkpt>
      <trkpt lat="37.847362845472674" lon="112.02874167986435">
        <ele>1099.195995389576</ele>
        <time>2016-08-13T22:54:18.400000Z</time>
      </trkpt>
      <trkpt lat="37.847284092474936" lon="112.02909085565138">
        <ele>1097.9767771156276</ele>
        <time>2016-08-13T22:54:29.400000Z</time>
      </trkpt>
      <trkpt lat="37.84725689957777" lon="112.02943705440782">
        <ele>1097.9825150063396</ele>
        <time>2016-08-13T22:54:41.400000Z</time>
      </trkpt>
      <trkpt lat="37.84728967601721" lon="112.02978081598481">
        <ele>1097.0957350000576</ele>
        <time>2016-08-13T22:54:52.400000Z</time>
      </trkpt>
      <trkpt lat="37.84729218821116" lon="112.02996879311338">
        <ele>1095.6726018672373</ele>
        <time>2016-08-13T22:55:00.400000Z</time>
      </trkpt>
      <trkpt lat="37.84743506273822" lon="112.0302278893426">
        <ele>1095.243006745797</ele>
        <time>2016-08-13T22:55:07.400000Z</time>
      </trkpt>
      <trkpt lat="37.84776914341967" lon="112.03029790213371">
        <ele>1094.6595729708731</ele>
        <time>2016-08-13T22:55:14.400000Z</time>
      </trkpt>
      <trkpt lat="37.84817875662313" lon="112.03010797985719">
        <ele>1094.7661509046293</ele>
        <time>2016-08-13T22:55:21.500000Z</time>
      </trkpt>
      <trkpt lat="37.848498263399634" lon="112.03003897077329">
        <ele>1095.5329847204052</ele>
        <time>2016-08-13T22:55:28.500000Z</time>
      </trkpt>
      <trkpt lat="37.848594992177816" lon="112.02998243039214">
        <ele>1095.9299487016576</ele>
        <time>2016-08-13T22:55:32.400000Z</time>
      </trkpt>
      <trkpt lat="37.848815571274415" lon="112.02965756868164">
        <ele>1094.7665767299272</ele>
        <time>2016-08-13T22:55:43.500000Z</time>
      </trkpt>
      <trkpt lat="37.84888533313497" lon="112.02953611996934">
        <ele>1094.7192989766506</ele>
        <time>2016-08-13T22:55:47.500000Z</time>
      </trkpt>
      <trkpt lat="37.848943030535835" lon="112.02935760483011">
        <ele>1094.673310173116</ele>
        <time>2016-08-13T22:55:54.500000Z</time>
      </trkpt>
      <trkpt lat="37.84897178007688" lon="112.02903980548955">
        <ele>1094.1346212183091</ele>
        <time>2016-08-13T22:56:01.400000Z</time>
      </trkpt>
      <trkpt lat="37.848951824335536" lon="112.02867171005043">
        <ele>1093.2061621019816</ele>
        <time>2016-08-13T22:56:08.500000Z</time>
      </trkpt>
      <trkpt lat="37.848940675609846" lon="112.02846859698123">
        <ele>1092.9237917811681</ele>
        <time>2016-08-13T22:56:12.500000Z</time>
      </trkpt>
      <trkpt lat="37.848920303778755" lon="112.02837150530131">
        <ele>1092.6789049649037</ele>
        <time>2016-08-13T22:56:16.400000Z</time>
      </trkpt>
      <trkpt lat="37.848827640896126" lon="112.02832229336467">
        <ele>1092.6384485024646</ele>
        <time>2016-08-13T22:56:19.400000Z</time>
      </trkpt>
      <trkpt lat="37.848611199757336" lon="112.02829662606592">
        <ele>1092.9495095045033</ele>
        <time>2016-08-13T22:56:23.400000Z</time>
      </trkpt>
      <trkpt lat="37.84849231038531" lon="112.0282119877525">
        <ele>1093.3028486430683</ele>
        <time>2016-08-13T22:56:26.500000Z</time>
      </trkpt>
      <trkpt lat="37.84823306857647" lon="112.02816036202968">
        <ele>1095.7688572072632</ele>
        <time>2016-08-13T22:56:34.400000Z</time>
      </trkpt>
      <trkpt lat="37.84788393753326" lon="112.02814201310504">
        <ele>1096.8724079324825</ele>
        <time>2016-08-13T22:56:44.400000Z</time>
      </trkpt>
      <trkpt lat="37.84761201543157" lon="112.02816855037376">
        <ele>1099.4472147429615</ele>
        <time>2016-08-13T22:56:55.400000Z</time>
      </trkpt>
      <trkpt lat="37.84735423425145" lon="112.0282883931243">
        <ele>1101.8940815236833</ele>
        <time>2016-08-13T22:57:05.400000Z</time>
      </trkpt>
      <trkpt lat="37.84730056780907" lon="112.02826757447733">
        <ele>1102.2196819631579</ele>
        <time>2016-08-13T22:57:09.400000Z</time>
      </trkpt>
      <trkpt lat="37.847457929385946" lon="112.02805524854838">
        <ele>1102.1658612246433</ele>
        <time>2016-08-13T22:57:16.500000Z</time>
      </trkpt>
      <trkpt lat="37.84757274264731" lon="112.02771933307571">
        <ele>1102.1865364034243</ele>
        <time>2016-08-13T22:57:24.400000Z</time>
      </trkpt>
      <trkpt lat="37.84770167832717" lon="112.02737909260354">
        <ele>1102.1204894128077</ele>
        <time>2016-08-13T22:57:35.500000Z</time>
      </trkpt>
      <trkpt lat="37.84772776198146" lon="112.02704968620306">
        <ele>1103.0292547908452</ele>
        <time>2016-08-13T22:57:43.400000Z</time>
      </trkpt>
      <trkpt lat="37.84771780118985" lon="112.02691500632999">
        <ele>1103.2034456395606</ele>
        <time>2016-08-13T22:57:47.400000Z</time>
      </trkpt>
      <trkpt lat="37.847734740061256" lon="112.02676517907732">
        <ele>1103.467849120765</ele>
        <time>2016-08-13T22:57:50.500000Z</time>
      </trkpt>
      <trkpt lat="37.84778110291476" lon="112.02656856284895">
        <ele>1103.8817611222555</ele>
        <time>2016-08-13T22:57:54.400000Z</time>
      </trkpt>
      <trkpt lat="37.848083502819186" lon="112.02661179695627">
        <ele>1106.086995657016</ele>
        <time>2016-08-13T22:58:07.500000Z</time>
      </trkpt>
      <trkpt lat="37.848360174633434" lon="112.02663718511965">
        <ele>1106.8415646700087</ele>
        <time>2016-08-13T22:58:18.400000Z</time>
      </trkpt>
      <trkpt lat="37.848455383249615" lon="112.02664555733956">
        <ele>1106.4086324583561</ele>
        <time>2016-08-13T22:58:22.400000Z</time>
      </trkpt>
      <trkpt lat="37.84867334635899" lon="112.0267115187795">
        <ele>1105.2473359473029</ele>
        <time>2016-08-13T22:58:29.500000Z</time>
      </trkpt>
      <trkpt lat="37.84883670823489" lon="112.02701277243789">
        <ele>1103.5829974458843</ele>
        <time>2016-08-13T22:58:40.500000Z</time>
      </trkpt>
      <trkpt lat="37.848851936832276" lon="112.02720884328485">
        <ele>1102.3968210252694</ele>
        <time>2016-08-13T22:58:47.500000Z</time>
      </trkpt>
      <trkpt lat="37.84884346603688" lon="112.02744224009341">
        <ele>1102.209806425436</ele>
        <time>2016-08-13T22:58:54.400000Z</time>
      </trkpt>
      <trkpt lat="37.8488526215977" lon="112.0277851691883">
        <ele>1102.2892896419876</ele>
        <time>2016-08-13T22:59:02.500000Z</time>
      </trkpt>
      <trkpt lat="37.84887323628129" lon="112.02821031920125">
        <ele>1102.2184643757234</ele>
        <time>2016-08-13T22:59:13.400000Z</time>
      </trkpt>
      <trkpt lat="37.84880042924074" lon="112.0282476508037">
        <ele>1101.9050799704985</ele>
        <time>2016-08-13T22:59:17.400000Z</time>
      </trkpt>
      <trkpt lat="37.848514710961865" lon="112.02825823294121">
        <ele>1100.8383374618136</ele>
        <time>2016-08-13T22:59:24.400000Z</time>
      </trkpt>
      <trkpt lat="37.848065650651" lon="112.0282737029344">
        <ele>1100.041440803161</ele>
        <time>2016-08-13T22:59:39.400000Z</time>
      </trkpt>
      <trkpt lat="37.847874640325976" lon="112.02827643046835">
        <ele>1100.0632432708767</ele>
        <time>2016-08-13T22:59:46.500000Z</time>
      </trkpt>
      <trkpt lat="37.847601942982195" lon="112.02818180387563">
        <ele>1100.2404767801495</ele>
        <time>2016-08-13T22:59:54.500000Z</time>
      </trkpt>
      <trkpt lat="37.84732518803578" lon="112.02808258035904">
        <ele>1100.1954698834397</ele>
        <time>2016-08-13T23:00:05.400000Z</time>
      </trkpt>
      <trkpt lat="37.84736093115795" lon="112.02842821839337">
        <ele>1100.0041079924517</ele>
        <time>2016-08-13T23:00:15.400000Z</time>
      </trkpt>
      <trkpt lat="37.847422411575934" lon="112.02878981466174">
        <ele>1099.4300029616668</ele>
        <time>2016-08-13T23:00:22.400000Z</time>
      </trkpt>
      <trkpt lat="37.84742223563129" lon="112.02896588514048">
        <ele>1099.3973683401903</ele>
        <time>2016-08-13T23:00:25.500000Z</time>
      </trkpt>
      <trkpt lat="37.8473950595859" lon="112.02909057183679">
        <ele>1099.5053791598305</ele>
        <time>2016-08-13T23:00:29.500000Z</time>
      </trkpt>
      <trkpt lat="37.84727446366858" lon="112.02935780560875">
        <ele>1100.0998212621234</ele>
        <time>2016-08-13T23:00:36.500000Z</time>
      </trkpt>
      <trkpt lat="37.84722388659729" lon="112.02951008453444">
        <ele>1100.776343507363</ele>
        <time>2016-08-13T23:00:40.400000Z</time>
      </trkpt>
      <trkpt lat="37.84717843216582" lon="112.02978326360422">
        <ele>1101.5819241121778</ele>
        <time>2016-08-13T23:00:47.400000Z</time>
      </trkpt>
      <trkpt lat="37.847204915508954" lon="112.02993310133043">
        <ele>1101.9042597060934</ele>
        <time>2016-08-13T23:00:51.400000Z</time>
      </trkpt>
      <trkpt lat="37.8472501904961" lon="112.03005480840977">
        <ele>1102.0434391103918</ele>
        <time>2016-08-13T23:00:54.400000Z</time>
      </trkpt>
      <trkpt lat="37.847298340242716" lon="112.03011214292435">
        <ele>1102.1601578747564</ele>
        <time>2016-08-13T23:00:57.400000Z</time>
      </trkpt>
      <trkpt lat="37.847387862213715" lon="112.0301164597251">
        <ele>1102.1357579445755</ele>
        <time>2016-08-13T23:01:00.500000Z</time>
      </trkpt>
      <trkpt lat="37.84751144074691" lon="112.0301721624443">
        <ele>1101.9816319347265</ele>
        <time>2016-08-13T23:01:04.400000Z</time>
      </trkpt>
      <trkpt lat="37.84765465602767" lon="112.03018702128209">
        <ele>1101.420883405988</ele>
        <time>2016-08-13T23:01:08.400000Z</time>
      </trkpt>
      <trkpt lat="37.84781708529537" lon="112.03011316238296">
        <ele>1101.2704494433513</ele>
        <time>2016-08-13T23:01:11.400000Z</time>
      </trkpt>
      <trkpt lat="37.84806213258391" lon="112.0300920359687">
        <ele>1101.1148808059336</ele>
        <time>2016-08-13T23:01:18.500000Z</time>
      </trkpt>
      <trkpt lat="37.848383091592545" lon="112.02998489014554">
        <ele>1099.843034438021</ele>
        <time>2016-08-13T23:01:26.400000Z</time>
      </trkpt>
      <trkpt lat="37.84852324323368" lon="112.02992320568795">
        <ele>1099.8960076885473</ele>
        <time>2016-08-13T23:01:30.500000Z</time>
      </trkpt>
      <trkpt lat="37.84870507373875" lon="112.0299026279711">
        <ele>1099.5363006909997</ele>
        <time>2016-08-13T23:01:38.500000Z</time>
      </trkpt>
      <trkpt lat="37.8487738474376" lon="112.02985014829574">
        <ele>1099.3022328146353</ele>
        <time>2016-08-13T23:01:42.400000Z</time>
      </trkpt>
      <trkpt lat="37.848883791371186" lon="112.02971733418434">
        <ele>1099.3555870992009</ele>
        <time>2016-08-13T23:01:45.400000Z</time>
      </trkpt>
      <trkpt lat="37.84895245824051" lon="112.02959967190215">
        <ele>1099.3316003192454</ele>
        <time>2016-08-13T23:01:48.400000Z</time>
      </trkpt>
      <trkpt lat="37.848943157010005" lon="112.0294149436874">
        <ele>1098.9879530496617</ele>
        <time>2016-08-13T23:01:52.400000Z</time>
      </trkpt>
      <trkpt lat="37.848919266518806" lon="112.02931352174927">
        <ele>1098.3559341546347</ele>
        <time>2016-08-13T23:01:56.400000Z</time>
      </trkpt>
      <trkpt lat="37.84890358513113" lon="112.028970575236">
        <ele>1097.0688525146581</ele>
        <time>2016-08-13T23:02:07.500000Z</time>
      </trkpt>
      <trkpt lat="37.848884859208525" lon="112.02865251548425">
        <ele>1094.5846764466762</ele>
        <time>2016-08-13T23:02:17.500000Z</time>
      </trkpt>
      <trkpt lat="37.848632004878816" lon="112.02864930039128">
        <ele>1091.9073521130704</ele>
        <time>2016-08-13T23:02:29.400000Z</time>
      </trkpt>
      <trkpt lat="37.84854283217108" lon="112.02861442188366">
        <ele>1091.7097447966648</ele>
        <time>2016-08-13T23:02:32.400000Z</time>
      </trkpt>
      <trkpt lat="37.848322814196564" lon="112.0286082277951">
        <ele>1091.7534059844215</ele>
        <time>2016-08-13T23:02:39.400000Z</time>
      </trkpt>
      <trkpt lat="37.84802251317933" lon="112.02848574626906">
        <ele>1092.1996809592158</ele>
        <time>2016-08-13T23:02:46.500000Z</time>
      </trkpt>
      <trkpt lat="37.84786561630461" lon="112.02841030751071">
        <ele>1092.2630003435827</ele>
        <time>2016-08-13T23:02:50.500000Z</time>
      </trkpt>
      <trkpt lat="37.84769319610553" lon="112.02835785961963">
        <ele>1092.6489534558607</ele>
        <time>2016-08-13T23:02:54.400000Z</time>
      </trkpt>
      <trkpt lat="37.847340967550885" lon="112.02817155797817">
        <ele>1093.6438390498065</ele>
        <time>2016-08-13T23:03:02.400000Z</time>
      </trkpt>
      <trkpt lat="37.84722615655103" lon="112.02808367408603">
        <ele>1094.1795436090238</ele>
        <time>2016-08-13T23:03:06.400000Z</time>
      </trkpt>
      <trkpt lat="37.84723164915883" lon="112.02795196259946">
        <ele>1094.522447181233</ele>
        <time>2016-08-13T23:03:09.400000Z</time>
      </trkpt>
      <trkpt lat="37.84733844981396" lon="112.02767257332272">
        <ele>1095.9647537704775</ele>
        <time>2016-08-13T23:03:16.400000Z</time>
      </trkpt>
      <trkpt lat="37.847350825311494" lon="112.02729232125924">
        <ele>1097.967691297997</ele>
        <time>2016-08-13T23:03:29.400000Z</time>
      </trkpt>
      <trkpt lat="37.84737012262942" lon="112.02717413394763">
        <ele>1098.94104880867</ele>
        <time>2016-08-13T23:03:33.500000Z</time>
      </trkpt>
      <trkpt lat="37.847430226335696" lon="112.02701375287509">
        <ele>1099.455952285803</ele>
        <time>2016-08-13T23:03:37.400000Z</time>
      </trkpt>
      <trkpt lat="37.847659597269654" lon="112.02665674108403">
        <ele>1099.0919639513188</ele>
        <time>2016-08-13T23:03:48.400000Z</time>
      </trkpt>
      <trkpt lat="37.847794931867725" lon="112.0264674167284">
        <ele>1100.1664124023969</ele>
        <time>2016-08-13T23:03:52.400000Z</time>
      </trkpt>
      <trkpt lat="37.84792651245667" lon="112.02636544547742">
        <ele>1100.6157554837027</ele>
        <time>2016-08-13T23:03:55.500000Z</time>
      </trkpt>
      <trkpt lat="37.84805867650374" lon="112.02635190767579">
        <ele>1101.4452562658219</ele>
        <time>2016-08-13T23:03:59.400000Z</time>
      </trkpt>
      <trkpt lat="37.84821246643237" lon="112.02647277532304">
        <ele>1102.6212282786669</ele>
        <time>2016-08-13T23:04:06.400000Z</time>
      </trkpt>
      <trkpt lat="37.848520143999" lon="112.02657307148944">
        <ele>1105.8466901792824</ele>
        <time>2016-08-13T23:04:16.500000Z</time>
      </trkpt>
      <trkpt lat="37.84887580208033" lon="112.02658519854533">
        <ele>1109.082647054349</ele>
        <time>2016-08-13T23:04:26.500000Z</time>
      </trkpt>
      <trkpt lat="37.84894819378428" lon="112.02660385023029">
        <ele>1110.0498214016523</ele>
        <time>2016-08-13T23:04:30.500000Z</time>
      </trkpt>
      <trkpt lat="37.84897076113681" lon="112.02679396778043">
        <ele>1110.963876434281</ele>
        <time>2016-08-13T23:04:34.400000Z</time>
      </trkpt>
      <trkpt lat="37.848946386886105" lon="112.02698625573265">
        <ele>1111.295074200254</ele>
        <time>2016-08-13T23:04:38.400000Z</time>
      </trkpt>
      <trkpt lat="37.84886147200397" lon="112.02729863033524">
        <ele>1111.2565846389589</ele>
        <time>2016-08-13T23:04:46.500000Z</time>
      </trkpt>
      <trkpt lat="37.848860342784114" lon="112.02773675752348">
        <ele>1110.497187442254</ele>
        <time>2016-08-13T23:04:57.500000Z</time>
      </trkpt>
      <trkpt lat="37.84879075730533" lon="112.02799856345761">
        <ele>1110.1975229843345</ele>
        <time>2016-08-13T23:05:01.400000Z</time>
      </trkpt>
      <trkpt lat="37.84864127715073" lon="112.02841778700503">
        <ele>1109.5970222597068</ele>
        <time>2016-08-13T23:05:09.400000Z</time>
      </trkpt>
      <trkpt lat="37.84860224009956" lon="112.02851164049221">
        <ele>1109.0583760712352</ele>
        <time>2016-08-13T23:05:13.500000Z</time>
      </trkpt>
      <trkpt lat="37.84839530856831" lon="112.02848056272587">
        <ele>1107.856589903515</ele>
        <time>2016-08-13T23:05:21.400000Z</time>
      </trkpt>
      <trkpt lat="37.848252265828854" lon="112.02839836089036">
        <ele>1107.5336970929898</ele>
        <time>2016-08-13T23:05:24.500000Z</time>
      </trkpt>
      <trkpt lat="37.848132335244394" lon="112.02829641321127">
        <ele>1107.1270737287653</ele>
        <time>2016-08-13T23:05:28.400000Z</time>
      </trkpt>
      <trkpt lat="37.84801502050244" lon="112.02823259976853">
        <ele>1106.887824516556</ele>
        <time>2016-08-13T23:05:33.400000Z</time>
      </trkpt>
      <trkpt lat="37.84774192800617" lon="112.02818638477316">
        <ele>1106.0045457322074</ele>
        <time>2016-08-13T23:05:41.400000Z</time>
      </trkpt>
      <trkpt lat="37.84755532400588" lon="112.02805767091863">
        <ele>1105.3553506538824</ele>
        <time>2016-08-13T23:05:47.400000Z</time>
      </trkpt>
      <trkpt lat="37.847257052543895" lon="112.02799090477761">
        <ele>1104.970840461525</ele>
        <time>2016-08-13T23:05:58.500000Z</time>
      </trkpt>
      <trkpt lat="37.84713755065463" lon="112.02803960076524">
        <ele>1104.4711123989305</ele>
        <time>2016-08-13T23:06:08.500000Z</time>
      </trkpt>
      <trkpt lat="37.84721075507992" lon="112.02837712007668">
        <ele>1103.9558450368168</ele>
        <time>2016-08-13T23:06:19.500000Z</time>
      </trkpt>
      <trkpt lat="37.84730828570613" lon="112.02875196391891">
        <ele>1101.904814434858</ele>
        <time>2016-08-13T23:06:26.400000Z</time>
      </trkpt>
      <trkpt lat="37.84744426570297" lon="112.0290516191908">
        <ele>1100.7131892680454</ele>
        <time>2016-08-13T23:06:33.400000Z</time>
      </trkpt>
      <trkpt lat="37.84745937484558" lon="112.02919198811522">
        <ele>1100.3407109177817</ele>
        <time>2016-08-13T23:06:40.400000Z</time>
      </trkpt>
      <trkpt lat="37.84745760109784" lon="112.0296796401019">
        <ele>1100.1736042590503</ele>
        <time>2016-08-13T23:06:47.400000Z</time>
      </trkpt>
      <trkpt lat="37.84748141780294" lon="112.02981081511915">
        <ele>1100.0568913115296</ele>
        <time>2016-08-13T23:06:50.500000Z</time>
      </trkpt>
      <trkpt lat="37.847527660503424" lon="112.02987112454062">
        <ele>1100.0321153050222</ele>
        <time>2016-08-13T23:06:54.400000Z</time>
      </trkpt>
      <trkpt lat="37.84767610495569" lon="112.02996441935609">
        <ele>1100.3693392360688</ele>
        <time>2016-08-13T23:07:01.400000Z</time>
      </trkpt>
      <trkpt lat="37.847959509573876" lon="112.03001063599612">
        <ele>1100.6921924470812</ele>
        <time>2016-08-13T23:07:11.400000Z</time>
      </trkpt>
      <trkpt lat="37.84831562456924" lon="112.02994919596013">
        <ele>1100.0413942044381</ele>
        <time>2016-08-13T23:07:23.400000Z</time>
      </trkpt>
      <trkpt lat="37.84846923250196" lon="112.02993105586545">
        <ele>1099.657668803937</ele>
        <time>2016-08-13T23:07:27.500000Z</time>
      </trkpt>
      <trkpt lat="37.848635930672934" lon="112.0298861375435">
        <ele>1101.1092038637003</ele>
        <time>2016-08-13T23:07:31.400000Z</time>
      </trkpt>
      <trkpt lat="37.84871364952507" lon="112.02983690247133">
        <ele>1101.0977091631407</ele>
        <time>2016-08-13T23:07:35.400000Z</time>
      </trkpt>
      <trkpt lat="37.848768682343845" lon="112.02974628829755">
        <ele>1101.0667846744716</ele>
        <time>2016-08-13T23:07:39.400000Z</time>
      </trkpt>
      <trkpt lat="37.848783932712294" lon="112.02961592029426">
        <ele>1100.6660935116997</ele>
        <time>2016-08-13T23:07:43.400000Z</time>
      </trkpt>
      <trkpt lat="37.84876773800783" lon="112.02947500845886">
        <ele>1100.3264987028504</ele>
        <time>2016-08-13T23:07:47.400000Z</time>
      </trkpt>
      <trkpt lat="37.84871951676549" lon="112.02933896957121">
        <ele>1099.7687356307463</ele>
        <time>2016-08-13T23:07:50.400000Z</time>
      </trkpt>
      <trkpt lat="37.848683241291916" lon="112.0291999547926">
        <ele>1098.5530162590273</ele>
        <time>2016-08-13T23:07:54.400000Z</time>
      </trkpt>
      <trkpt lat="37.84873115654962" lon="112.028814269144">
        <ele>1096.7088968820317</ele>
        <time>2016-08-13T23:08:04.400000Z</time>
      </trkpt>
      <trkpt lat="37.84875191317275" lon="112.02854732297193">
        <ele>1095.3184207796037</ele>
        <time>2016-08-13T23:08:12.400000Z</time>
      </trkpt>
      <trkpt lat="37.84878372688735" lon="112.02841344255476">
        <ele>1094.5023919965126</ele>
        <time>2016-08-13T23:08:16.400000Z</time>
      </trkpt>
      <trkpt lat="37.84877035236993" lon="112.02823250891353">
        <ele>1094.0672566298183</ele>
        <time>2016-08-13T23:08:20.400000Z</time>
      </trkpt>
      <trkpt lat="37.848509615144614" lon="112.02791746141082">
        <ele>1092.273954839058</ele>
        <time>2016-08-13T23:08:31.400000Z</time>
      </trkpt>
      <trkpt lat="37.84835275482084" lon="112.02782823108954">
        <ele>1091.8261551408737</ele>
        <time>2016-08-13T23:08:35.400000Z</time>
      </trkpt>
      <trkpt lat="37.84819877938245" lon="112.02788342180065">
        <ele>1091.7759633038384</ele>
        <time>2016-08-13T23:08:38.500000Z</time>
      </trkpt>
      <trkpt lat="37.848113362632354" lon="112.02797105871277">
        <ele>1091.3765139800062</ele>
        <time>2016-08-13T23:08:42.400000Z</time>
      </trkpt>
      <trkpt lat="37.84779659489614" lon="112.02802843290365">
        <ele>1091.6056225991656</ele>
        <time>2016-08-13T23:08:52.500000Z</time>
      </trkpt>
      <trkpt lat="37.84768422127684" lon="112.02804818953396">
        <ele>1092.0626678910755</ele>
        <time>2016-08-13T23:08:56.400000Z</time>
      </trkpt>
      <trkpt lat="37.84736093435026" lon="112.02800279222659">
        <ele>1093.448732779908</ele>
        <time>2016-08-13T23:09:07.400000Z</time>
      </trkpt>
      <trkpt lat="37.84723042309412" lon="112.02800686472294">
        <ele>1093.263128887305</ele>
        <time>2016-08-13T23:09:11.400000Z</time>
      </trkpt>
      <trkpt lat="37.8471385276382" lon="112.02787029715897">
        <ele>1093.0866664663456</ele>
        <time>2016-08-13T23:09:20.400000Z</time>
      </trkpt>
      <trkpt lat="37.84709918507101" lon="112.02776563712655">
        <ele>1093.4203319237615</ele>
        <time>2016-08-13T23:09:23.400000Z</time>
      </trkpt>
      <trkpt lat="37.847155982823274" lon="112.02741323463012">
        <ele>1093.2012868118131</ele>
        <time>2016-08-13T23:09:36.400000Z</time>
      </trkpt>
      <trkpt lat="37.84715841513064" lon="112.02731181656671">
        <ele>1092.9181144991353</ele>
        <time>2016-08-13T23:09:39.400000Z</time>
      </trkpt>
      <trkpt lat="37.84726908268746" lon="112.02700782247716">
        <ele>1091.7870473434352</ele>
        <time>2016-08-13T23:09:48.500000Z</time>
      </trkpt>
      <trkpt lat="37.84741662593203" lon="112.02681795354835">
        <ele>1091.0558727801285</ele>
        <time>2016-08-13T23:09:52.400000Z</time>
      </trkpt>
      <trkpt lat="37.847804531125284" lon="112.02663617015381">
        <ele>1090.5819032976879</ele>
        <time>2016-08-13T23:10:00.500000Z</time>
      </trkpt>
      <trkpt lat="37.848024650699784" lon="112.02660314993426">
        <ele>1090.6252462679615</ele>
        <time>2016-08-13T23:10:08.400000Z</time>
      </trkpt>
      <trkpt lat="37.848129292589896" lon="112.02663559023088">
        <ele>1090.7663249419943</ele>
        <time>2016-08-13T23:10:14.400000Z</time>
      </trkpt>
      <trkpt lat="37.848460283740756" lon="112.02663906617035">
        <ele>1089.0987631228518</ele>
        <time>2016-08-13T23:10:25.400000Z</time>
      </trkpt>
      <trkpt lat="37.84884898913135" lon="112.02667147235442">
        <ele>1087.8939878891915</ele>
        <time>2016-08-13T23:10:35.500000Z</time>
      </trkpt>
      <trkpt lat="37.84894527459512" lon="112.02668308974812">
        <ele>1087.988677035291</ele>
        <time>2016-08-13T23:10:39.400000Z</time>
      </trkpt>
      <trkpt lat="37.84904357062539" lon="112.02686075832413">
        <ele>1088.6918477241782</ele>
        <time>2016-08-13T23:10:51.400000Z</time>
      </trkpt>
      <trkpt lat="37.84906300919058" lon="112.02710713039637">
        <ele>1089.0512312436072</ele>
        <time>2016-08-13T23:10:54.400000Z</time>
      </trkpt>
      <trkpt lat="37.84891945086191" lon="112.02754067422963">
        <ele>1089.8812397881159</ele>
        <time>2016-08-13T23:11:02.400000Z</time>
      </trkpt>
      <trkpt lat="37.84877394942371" lon="112.02809917426117">
        <ele>1091.3951377382311</ele>
        <time>2016-08-13T23:11:17.400000Z</time>
      </trkpt>
      <trkpt lat="37.84868785492268" lon="112.02813380277306">
        <ele>1092.8690731097854</ele>
        <time>2016-08-13T23:11:21.400000Z</time>
      </trkpt>
      <trkpt lat="37.8484814607827" lon="112.02810488898035">
        <ele>1094.7474206042116</ele>
        <time>2016-08-13T23:11:27.400000Z</time>
      </trkpt>
      <trkpt lat="37.84811181578951" lon="112.0281511811536">
        <ele>1095.6259233562146</ele>
        <time>2016-08-13T23:11:38.400000Z</time>
      </trkpt>
      <trkpt lat="37.84777850109273" lon="112.02820747587253">
        <ele>1094.4875958676412</ele>
        <time>2016-08-13T23:11:50.400000Z</time>
      </trkpt>
      <trkpt lat="37.84744422244991" lon="112.02811042282214">
        <ele>1093.164460119029</ele>
        <time>2016-08-13T23:12:03.500000Z</time>
      </trkpt>
      <trkpt lat="37.847313753456866" lon="112.02809799761891">
        <ele>1095.098817682582</ele>
        <time>2016-08-13T23:12:14.400000Z</time>
      </trkpt>
      <trkpt lat="37.84729449921374" lon="112.02820050225333">
        <ele>1095.4304641314222</ele>
        <time>2016-08-13T23:12:22.400000Z</time>
      </trkpt>
      <trkpt lat="37.84736406680088" lon="112.02847527762157">
        <ele>1096.138617057759</ele>
        <time>2016-08-13T23:12:28.500000Z</time>
      </trkpt>
      <trkpt lat="37.847365108350495" lon="112.0289188316">
        <ele>1100.1418856766772</ele>
        <time>2016-08-13T23:12:40.400000Z</time>
      </trkpt>
      <trkpt lat="37.84733716622486" lon="112.02923879322191">
        <ele>1102.0685363682735</ele>
        <time>2016-08-13T23:12:48.400000Z</time>
      </trkpt>
      <trkpt lat="37.847345465982684" lon="112.02938998255226">
        <ele>1102.7062723115544</ele>
        <time>2016-08-13T23:12:52.400000Z</time>
      </trkpt>
      <trkpt lat="37.847419930102646" lon="112.02987898116834">
        <ele>1103.750925702179</ele>
        <time>2016-08-13T23:13:04.400000Z</time>
      </trkpt>
      <trkpt lat="37.84750149704453" lon="112.03013429730366">
        <ele>1104.7151444504464</ele>
        <time>2016-08-13T23:13:11.400000Z</time>
      </trkpt>
      <trkpt lat="37.84772057223086" lon="112.03008369240942">
        <ele>1106.5521572926368</ele>
        <time>2016-08-13T23:13:18.500000Z</time>
      </trkpt>
      <trkpt lat="37.84794439416508" lon="112.0300877225682">
        <ele>1108.3590681762523</ele>
        <time>2016-08-13T23:13:26.400000Z</time>
      </trkpt>
      <trkpt lat="37.84823481089313" lon="112.03004251862775">
        <ele>1109.2465521221134</ele>
        <time>2016-08-13T23:13:33.400000Z</time>
      </trkpt>
      <trkpt lat="37.848432523946656" lon="112.02996351690165">
        <ele>1108.842931818506</ele>
        <time>2016-08-13T23:13:40.400000Z</time>
      </trkpt>
      <trkpt lat="37.84855899120197" lon="112.0299491666695">
        <ele>1108.610396388669</ele>
        <time>2016-08-13T23:13:43.400000Z</time>
      </trkpt>
      <trkpt lat="37.8486707829427" lon="112.02983663715969">
        <ele>1107.9591385757049</ele>
        <time>2016-08-13T23:13:48.500000Z</time>
      </trkpt>
      <trkpt lat="37.848705193694755" lon="112.02963919007912">
        <ele>1107.656275297361</ele>
        <time>2016-08-13T23:13:52.500000Z</time>
      </trkpt>
      <trkpt lat="37.848701834503665" lon="112.02925025901453">
        <ele>1105.8436156853013</ele>
        <time>2016-08-13T23:14:00.400000Z</time>
      </trkpt>
      <trkpt lat="37.848707636122334" lon="112.02888810789933">
        <ele>1103.169374423242</ele>
        <time>2016-08-13T23:14:07.400000Z</time>
      </trkpt>
      <trkpt lat="37.84868043266868" lon="112.02870311602702">
        <ele>1101.5035356599433</ele>
        <time>2016-08-13T23:14:11.400000Z</time>
      </trkpt>
      <trkpt lat="37.84871824500053" lon="112.02855733398432">
        <ele>1100.3407356333064</ele>
        <time>2016-08-13T23:14:14.400000Z</time>
      </trkpt>
      <trkpt lat="37.84872762749763" lon="112.02838910817198">
        <ele>1099.0168400104653</ele>
        <time>2016-08-13T23:14:18.400000Z</time>
      </trkpt>
      <trkpt lat="37.84852079556466" lon="112.02831908480002">
        <ele>1097.0501448030257</ele>
        <time>2016-08-13T23:14:25.500000Z</time>
      </trkpt>
      <trkpt lat="37.84826476231877" lon="112.02828584949869">
        <ele>1096.5526220303343</ele>
        <time>2016-08-13T23:14:33.400000Z</time>
      </trkpt>
      <trkpt lat="37.847908095646616" lon="112.02834972007273">
        <ele>1092.4645885149657</ele>
        <time>2016-08-13T23:14:44.400000Z</time>
      </trkpt>
      <trkpt lat="37.847771355962244" lon="112.02834919560763">
        <ele>1090.3350405437086</ele>
        <time>2016-08-13T23:14:48.400000Z</time>
      </trkpt>
      <trkpt lat="37.847468798958566" lon="112.02826052239311">
        <ele>1085.5539557139248</ele>
        <time>2016-08-13T23:15:02.400000Z</time>
      </trkpt>
      <trkpt lat="37.847320692576915" lon="112.02814289221426">
        <ele>1085.3377491853507</ele>
        <time>2016-08-13T23:15:14.400000Z</time>
      </trkpt>
      <trkpt lat="37.8473544825978" lon="112.02819129956518">
        <ele>1086.0409404967913</ele>
        <time>2016-08-13T23:15:29.400000Z</time>
      </trkpt>
      <trkpt lat="37.84731645746591" lon="112.02841983956851">
        <ele>1089.079686103888</ele>
        <time>2016-08-13T23:15:37.400000Z</time>
      </trkpt>
      <trkpt lat="37.84732515445776" lon="112.0286267390276">
        <ele>1093.014424109002</ele>
        <time>2016-08-13T23:15:48.400000Z</time>
      </trkpt>
      <trkpt lat="37.84738789724846" lon="112.02881253752147">
        <ele>1096.6345004982759</ele>
        <time>2016-08-13T23:15:59.400000Z</time>
      </trkpt>
      <trkpt lat="37.84738690384888" lon="112.02920416774138">
        <ele>1099.5550893898726</ele>
        <time>2016-08-13T23:16:14.400000Z</time>
      </trkpt>
      <trkpt lat="37.84738847448332" lon="112.02954901208896">
        <ele>1099.8049462512688</ele>
        <time>2016-08-13T23:16:26.400000Z</time>
      </trkpt>
      <trkpt lat="37.847372085360355" lon="112.02980839404236">
        <ele>1099.4820118328817</ele>
        <time>2016-08-13T23:16:33.400000Z</time>
      </trkpt>
      <trkpt lat="37.84738951467268" lon="112.02989034461994">
        <ele>1100.0297036126294</ele>
        <time>2016-08-13T23:16:37.400000Z</time>
      </trkpt>
      <trkpt lat="37.84767366080087" lon="112.02985731294788">
        <ele>1101.5147552856122</ele>
        <time>2016-08-13T23:16:48.400000Z</time>
      </trkpt>
      <trkpt lat="37.84789709996824" lon="112.02990570039888">
        <ele>1103.1351670030797</ele>
        <time>2016-08-13T23:16:55.400000Z</time>
      </trkpt>
      <trkpt lat="37.84799232356794" lon="112.02990839365287">
        <ele>1103.2592326747995</ele>
        <time>2016-08-13T23:16:58.400000Z</time>
      </trkpt>
      <trkpt lat="37.84811833175981" lon="112.0298607755545">
        <ele>1103.0220029185232</ele>
        <time>2016-08-13T23:17:02.400000Z</time>
      </trkpt>
      <trkpt lat="37.8484140078466" lon="112.0298821071847">
        <ele>1103.0629862352812</ele>
        <time>2016-08-13T23:17:09.400000Z</time>
      </trkpt>
      <trkpt lat="37.84861148476026" lon="112.02989722980793">
        <ele>1105.522718801976</ele>
        <time>2016-08-13T23:17:19.500000Z</time>
      </trkpt>
      <trkpt lat="37.84866214923415" lon="112.02981743478297">
        <ele>1107.4980815352567</ele>
        <time>2016-08-13T23:17:27.400000Z</time>
      </trkpt>
      <trkpt lat="37.848674021068256" lon="112.02973575136735">
        <ele>1107.6159570995676</ele>
        <time>2016-08-13T23:17:31.400000Z</time>
      </trkpt>
      <trkpt lat="37.8487736205948" lon="112.02940171122567">
        <ele>1106.9872931438595</ele>
        <time>2016-08-13T23:17:42.400000Z</time>
      </trkpt>
      <trkpt lat="37.84879947322538" lon="112.02926350005755">
        <ele>1105.3508113577468</ele>
        <time>2016-08-13T23:17:46.400000Z</time>
      </trkpt>
      <trkpt lat="37.84877407469422" lon="112.02879424987984">
        <ele>1101.1048199208115</ele>
        <time>2016-08-13T23:17:58.400000Z</time>
      </trkpt>
      <trkpt lat="37.84877353263461" lon="112.02858085723086">
        <ele>1099.4344253238025</ele>
        <time>2016-08-13T23:18:02.400000Z</time>
      </trkpt>
      <trkpt lat="37.84874934627288" lon="112.02848998615964">
        <ele>1098.2553750002712</ele>
        <time>2016-08-13T23:18:05.400000Z</time>
      </trkpt>
      <trkpt lat="37.848462776324745" lon="112.02830286440897">
        <ele>1095.9823868179333</ele>
        <time>2016-08-13T23:18:16.500000Z</time>
      </trkpt>
      <trkpt lat="37.84818386649171" lon="112.02830343887051">
        <ele>1094.4970231021387</ele>
        <time>2016-08-13T23:18:27.400000Z</time>
      </trkpt>
      <trkpt lat="37.84793733752111" lon="112.02826695697368">
        <ele>1094.9357310880619</ele>
        <time>2016-08-13T23:18:34.400000Z</time>
      </trkpt>
      <trkpt lat="37.84770193170966" lon="112.02823074423947">
        <ele>1095.7019519104765</ele>
        <time>2016-08-13T23:18:41.400000Z</time>
      </trkpt>
      <trkpt lat="37.84763369889948" lon="112.02817693186708">
        <ele>1095.7862162608105</ele>
        <time>2016-08-13T23:18:44.400000Z</time>
      </trkpt>
      <trkpt lat="37.84751116922447" lon="112.02813664884926">
        <ele>1095.8481658353337</ele>
        <time>2016-08-13T23:18:48.400000Z</time>
      </trkpt>
      <trkpt lat="37.847415673090445" lon="112.02813449669884">
        <ele>1095.9058287009714</ele>
        <time>2016-08-13T23:18:51.400000Z</time>
      </trkpt>
      <trkpt lat="37.84732661458964" lon="112.0280552643419">
        <ele>1096.2812196981781</ele>
        <time>2016-08-13T23:18:55.400000Z</time>
      </trkpt>
      <trkpt lat="37.847323862586684" lon="112.02785891588522">
        <ele>1097.4153856694893</ele>
        <time>2016-08-13T23:18:59.400000Z</time>
      </trkpt>
      <trkpt lat="37.847442754260896" lon="112.0275202976909">
        <ele>1098.1748914007771</ele>
        <time>2016-08-13T23:19:06.500000Z</time>
      </trkpt>
      <trkpt lat="37.84755539136241" lon="112.02718844529531">
        <ele>1100.766728908217</ele>
        <time>2016-08-13T23:19:15.400000Z</time>
      </trkpt>
      <trkpt lat="37.84768747845917" lon="112.02678573835449">
        <ele>1104.6289969558072</ele>
        <time>2016-08-13T23:19:26.400000Z</time>
      </trkpt>
      <trkpt lat="37.847757216715415" lon="112.0266770124286">
        <ele>1106.5564931412557</ele>
        <time>2016-08-13T23:19:30.400000Z</time>
      </trkpt>
      <trkpt lat="37.84783570189733" lon="112.02643928615613">
        <ele>1109.6866272832458</ele>
        <time>2016-08-13T23:19:37.400000Z</time>
      </trkpt>
      <trkpt lat="37.84793634950792" lon="112.02633867090906">
        <ele>1110.5525943217756</ele>
        <time>2016-08-13T23:19:40.500000Z</time>
      </trkpt>
      <trkpt lat="37.848133190189536" lon="112.02628510054772">
        <ele>1111.8965513839746</ele>
        <time>2016-08-13T23:19:44.500000Z</time>
      </trkpt>
      <trkpt lat="37.84826385586875" lon="112.02632592095271">
        <ele>1112.6571705821716</ele>
        <time>2016-08-13T23:19:48.400000Z</time>
      </trkpt>
      <trkpt lat="37.848444755064726" lon="112.02645516884913">
        <ele>1120.291322979347</ele>
        <time>2016-08-13T23:19:55.400000Z</time>
      </trkpt>
      <trkpt lat="37.84869717021541" lon="112.02652274837054">
        <ele>1121.0981573493773</ele>
        <time>2016-08-13T23:20:03.500000Z</time>
      </trkpt>
      <trkpt lat="37.84886994724912" lon="112.0265413879493">
        <ele>1121.9837806581147</ele>
        <time>2016-08-13T23:20:10.400000Z</time>
      </trkpt>
      <trkpt lat="37.8489828168844" lon="112.0266441417273">
        <ele>1122.1218885854262</ele>
        <time>2016-08-13T23:20:14.400000Z</time>
      </trkpt>
      <trkpt lat="37.84901929492402" lon="112.0267014708563">
        <ele>1121.854546730691</ele>
        <time>2016-08-13T23:20:17.400000Z</time>
      </trkpt>
      <trkpt lat="37.84900590460046" lon="112.02684291363313">
        <ele>1121.1783021974068</ele>
        <time>2016-08-13T23:20:21.400000Z</time>
      </trkpt>
      <trkpt lat="37.84893433452194" lon="112.02724020512558">
        <ele>1118.2129563980734</ele>
        <time>2016-08-13T23:20:32.400000Z</time>
      </trkpt>
      <trkpt lat="37.848914190033526" lon="112.02758178314009">
        <ele>1115.1635101868685</ele>
        <time>2016-08-13T23:20:40.500000Z</time>
      </trkpt>
      <trkpt lat="37.848843903211815" lon="112.02801072746398">
        <ele>1113.6155851171063</ele>
        <time>2016-08-13T23:20:48.400000Z</time>
      </trkpt>
      <trkpt lat="37.848800999534504" lon="112.02823683251427">
        <ele>1113.5197850197426</ele>
        <time>2016-08-13T23:20:52.500000Z</time>
      </trkpt>
      <trkpt lat="37.848702348762416" lon="112.0283012128546">
        <ele>1113.445548046781</ele>
        <time>2016-08-13T23:20:56.400000Z</time>
      </trkpt>
      <trkpt lat="37.84856457769252" lon="112.02827959294898">
        <ele>1113.5983296891552</ele>
        <time>2016-08-13T23:20:59.500000Z</time>
      </trkpt>
      <trkpt lat="37.8484337707185" lon="112.0281871129224">
        <ele>1113.7561130854986</ele>
        <time>2016-08-13T23:21:03.400000Z</time>
      </trkpt>
      <trkpt lat="37.84825200432162" lon="112.02818226659598">
        <ele>1113.079197711222</ele>
        <time>2016-08-13T23:21:07.500000Z</time>
      </trkpt>
      <trkpt lat="37.848018881138195" lon="112.02820825832492">
        <ele>1110.9535080994353</ele>
        <time>2016-08-13T23:21:14.500000Z</time>
      </trkpt>
      <trkpt lat="37.847787360284975" lon="112.02813823835712">
        <ele>1108.9194342365845</ele>
        <time>2016-08-13T23:21:21.400000Z</time>
      </trkpt>
      <trkpt lat="37.84746130884456" lon="112.02811285485589">
        <ele>1105.8102419971292</ele>
        <time>2016-08-13T23:21:31.400000Z</time>
      </trkpt>
      <trkpt lat="37.8472795273293" lon="112.0281139585369">
        <ele>1103.1986277666717</ele>
        <time>2016-08-13T23:21:37.400000Z</time>
      </trkpt>
      <trkpt lat="37.847197535143195" lon="112.0281358752081">
        <ele>1101.392408755047</ele>
        <time>2016-08-13T23:21:41.400000Z</time>
      </trkpt>
      <trkpt lat="37.84719276915268" lon="112.02819591675204">
        <ele>1099.4441139755138</ele>
        <time>2016-08-13T23:21:45.400000Z</time>
      </trkpt>
      <trkpt lat="37.84722115048812" lon="112.02844987179795">
        <ele>1097.334829840186</ele>
        <time>2016-08-13T23:21:49.400000Z</time>
      </trkpt>
      <trkpt lat="37.847308272729364" lon="112.02854398067717">
        <ele>1096.3659467916564</ele>
        <time>2016-08-13T23:21:52.400000Z</time>
      </trkpt>
      <trkpt lat="37.847353567092185" lon="112.0286562156725">
        <ele>1095.284071315993</ele>
        <time>2016-08-13T23:21:56.400000Z</time>
      </trkpt>
      <trkpt lat="37.84731509534396" lon="112.02906191233477">
        <ele>1096.0285535174014</ele>
        <time>2016-08-13T23:22:08.400000Z</time>
      </trkpt>
      <trkpt lat="37.84729252952149" lon="112.02929478489901">
        <ele>1096.6684592559052</ele>
        <time>2016-08-13T23:22:12.400000Z</time>
      </trkpt>
      <trkpt lat="37.8472962882364" lon="112.02941784652596">
        <ele>1097.087644577246</ele>
        <time>2016-08-13T23:22:15.400000Z</time>
      </trkpt>
      <trkpt lat="37.84733676533027" lon="112.02972022505692">
        <ele>1098.0253444715233</ele>
        <time>2016-08-13T23:22:23.400000Z</time>
      </trkpt>
      <trkpt lat="37.84744155480112" lon="112.0301272722041">
        <ele>1096.823200792029</ele>
        <time>2016-08-13T23:22:34.500000Z</time>
      </trkpt>
      <trkpt lat="37.84750598810667" lon="112.03018271158955">
        <ele>1096.370286715419</ele>
        <time>2016-08-13T23:22:38.400000Z</time>
      </trkpt>
      <trkpt lat="37.84762178941083" lon="112.03020217179558">
        <ele>1096.2226466033612</ele>
        <time>2016-08-13T23:22:41.400000Z</time>
      </trkpt>
      <trkpt lat="37.84772439530012" lon="112.03018214435355">
        <ele>1095.627815432552</ele>
        <time>2016-08-13T23:22:44.400000Z</time>
      </trkpt>
      <trkpt lat="37.84807674064031" lon="112.03000088488054">
        <ele>1095.7191932249966</ele>
        <time>2016-08-13T23:22:55.400000Z</time>
      </trkpt>
      <trkpt lat="37.84837583812182" lon="112.02995622098175">
        <ele>1095.0921101166718</ele>
        <time>2016-08-13T23:23:05.400000Z</time>
      </trkpt>
      <trkpt lat="37.84845317350792" lon="112.02995161365196">
        <ele>1094.9120122136314</ele>
        <time>2016-08-13T23:23:08.400000Z</time>
      </trkpt>
      <trkpt lat="37.848605145433964" lon="112.02993671941293">
        <ele>1095.234372534407</ele>
        <time>2016-08-13T23:23:12.400000Z</time>
      </trkpt>
      <trkpt lat="37.84868579973407" lon="112.02990695783325">
        <ele>1095.672690510645</ele>
        <time>2016-08-13T23:23:16.400000Z</time>
      </trkpt>
      <trkpt lat="37.848720331693464" lon="112.02976901359405">
        <ele>1095.7496029434049</ele>
        <time>2016-08-13T23:23:20.400000Z</time>
      </trkpt>
      <trkpt lat="37.84872994964212" lon="112.02939765948317">
        <ele>1096.3018128478634</ele>
        <time>2016-08-13T23:23:30.400000Z</time>
      </trkpt>
      <trkpt lat="37.84875795909934" lon="112.02926485737896">
        <ele>1097.6062262420628</ele>
        <time>2016-08-13T23:23:34.400000Z</time>
      </trkpt>
      <trkpt lat="37.848763676791314" lon="112.02893570244115">
        <ele>1099.8927392219584</ele>
        <time>2016-08-13T23:23:42.400000Z</time>
      </trkpt>
      <trkpt lat="37.84879420747412" lon="112.02877234014741">
        <ele>1100.9257635400625</ele>
        <time>2016-08-13T23:23:46.400000Z</time>
      </trkpt>
      <trkpt lat="37.848801483677526" lon="112.02847212967524">
        <ele>1101.495281052017</ele>
        <time>2016-08-13T23:23:53.400000Z</time>
      </trkpt>
      <trkpt lat="37.84882509474708" lon="112.0283631325968">
        <ele>1101.5433831022333</ele>
        <time>2016-08-13T23:23:57.400000Z</time>
      </trkpt>
      <trkpt lat="37.8486694707409" lon="112.02821440054002">
        <ele>1100.984385241773</ele>
        <time>2016-08-13T23:24:04.400000Z</time>
      </trkpt>
      <trkpt lat="37.84859894697893" lon="112.02820764764222">
        <ele>1100.5643912041924</ele>
        <time>2016-08-13T23:24:07.400000Z</time>
      </trkpt>
      <trkpt lat="37.84838963140638" lon="112.02826014117635">
        <ele>1100.3297608292314</ele>
        <time>2016-08-13T23:24:15.400000Z</time>
      </trkpt>
      <trkpt lat="37.848172809777864" lon="112.02827720597065">
        <ele>1098.8262893038363</ele>
        <time>2016-08-13T23:24:22.400000Z</time>
      </trkpt>
      <trkpt lat="37.848096872932445" lon="112.02826531504955">
        <ele>1098.0169827224015</ele>
        <time>2016-08-13T23:24:25.400000Z</time>
      </trkpt>
      <trkpt lat="37.84785240306621" lon="112.02816635782159">
        <ele>1096.6000481533538</ele>
        <time>2016-08-13T23:24:32.400000Z</time>
      </trkpt>
      <trkpt lat="37.84761108046068" lon="112.02810986184464">
        <ele>1096.0161857200999</ele>
        <time>2016-08-13T23:24:40.400000Z</time>
      </trkpt>
      <trkpt lat="37.8473699389573" lon="112.02798277760631">
        <ele>1097.1090713192639</ele>
        <time>2016-08-13T23:24:48.400000Z</time>
      </trkpt>
      <trkpt lat="37.84735478515819" lon="112.02786161668611">
        <ele>1097.1191634348045</ele>
        <time>2016-08-13T23:24:52.400000Z</time>
      </trkpt>
      <trkpt lat="37.84736090743902" lon="112.02769637025271">
        <ele>1097.3639842002444</ele>
        <time>2016-08-13T23:24:56.500000Z</time>
      </trkpt>
      <trkpt lat="37.84753443871721" lon="112.02742238435097">
        <ele>1097.8367793307023</ele>
        <time>2016-08-13T23:25:03.400000Z</time>
      </trkpt>
      <trkpt lat="37.84767542792129" lon="112.02714326644954">
        <ele>1098.681655281046</ele>
        <time>2016-08-13T23:25:11.400000Z</time>
      </trkpt>
      <trkpt lat="37.847752452825084" lon="112.02683981901949">
        <ele>1098.6355007909883</ele>
        <time>2016-08-13T23:25:19.400000Z</time>
      </trkpt>
      <trkpt lat="37.84776146139789" lon="112.02671406237964">
        <ele>1098.5680027704532</ele>
        <time>2016-08-13T23:25:22.400000Z</time>
      </trkpt>
      <trkpt lat="37.84783318841384" lon="112.02657099054936">
        <ele>1098.7111397425967</ele>
        <time>2016-08-13T23:25:26.400000Z</time>
      </trkpt>
      <trkpt lat="37.847913717052215" lon="112.02648633320453">
        <ele>1099.027516709473</ele>
        <time>2016-08-13T23:25:30.400000Z</time>
      </trkpt>
      <trkpt lat="37.847984926124404" lon="112.02643818646227">
        <ele>1099.225007284544</ele>
        <time>2016-08-13T23:25:33.400000Z</time>
      </trkpt>
      <trkpt lat="37.848084004222954" lon="112.0264192438276">
        <ele>1099.7900632858018</ele>
        <time>2016-08-13T23:25:37.500000Z</time>
      </trkpt>
      <trkpt lat="37.84815287228178" lon="112.02643654363986">
        <ele>1100.1354551302086</ele>
        <time>2016-08-13T23:25:41.400000Z</time>
      </trkpt>
      <trkpt lat="37.8482499879045" lon="112.02654605995666">
        <ele>1101.7359462506784</ele>
        <time>2016-08-13T23:25:47.500000Z</time>
      </trkpt>
      <trkpt lat="37.84843177279843" lon="112.02664799414588">
        <ele>1102.7458047602636</ele>
        <time>2016-08-13T23:25:54.400000Z</time>
      </trkpt>
      <trkpt lat="37.84849331766801" lon="112.02666448364573">
        <ele>1103.097172894859</ele>
        <time>2016-08-13T23:25:57.400000Z</time>
      </trkpt>
      <trkpt lat="37.84863851728093" lon="112.02664607620513">
        <ele>1103.6506770131548</ele>
        <time>2016-08-13T23:26:01.500000Z</time>
      </trkpt>
      <trkpt lat="37.8487261291856" lon="112.02665444934053">
        <ele>1103.341407136985</ele>
        <time>2016-08-13T23:26:05.400000Z</time>
      </trkpt>
      <trkpt lat="37.848847185590074" lon="112.02663469260476">
        <ele>1102.3611759697353</ele>
        <time>2016-08-13T23:26:09.500000Z</time>
      </trkpt>
      <trkpt lat="37.84891408849934" lon="112.02667741423272">
        <ele>1100.9653953762045</ele>
        <time>2016-08-13T23:26:16.400000Z</time>
      </trkpt>
      <trkpt lat="37.84893801458135" lon="112.02676232999688">
        <ele>1100.3307340651606</ele>
        <time>2016-08-13T23:26:20.400000Z</time>
      </trkpt>
      <trkpt lat="37.84895254926133" lon="112.02691161255781">
        <ele>1099.8301262673117</ele>
        <time>2016-08-13T23:26:24.400000Z</time>
      </trkpt>
      <trkpt lat="37.848900187867045" lon="112.02733026797064">
        <ele>1096.8751860067168</ele>
        <time>2016-08-13T23:26:36.400000Z</time>
      </trkpt>
      <trkpt lat="37.84887945495512" lon="112.02768996727114">
        <ele>1094.9670427772696</ele>
        <time>2016-08-13T23:26:45.500000Z</time>
      </trkpt>
      <trkpt lat="37.848786112389966" lon="112.02790552824845">
        <ele>1094.3531102280308</ele>
        <time>2016-08-13T23:26:49.400000Z</time>
      </trkpt>
      <trkpt lat="37.84844587807425" lon="112.02812085006482">
        <ele>1094.4655956359425</ele>
        <time>2016-08-13T23:27:03.400000Z</time>
      </trkpt>
      <trkpt lat="37.84822714888648" lon="112.02824717885024">
        <ele>1095.5374421810143</ele>
        <time>2016-08-13T23:27:10.400000Z</time>
      </trkpt>
      <trkpt lat="37.84805202422092" lon="112.02829750469573">
        <ele>1094.8259074136529</ele>
        <time>2016-08-13T23:27:17.500000Z</time>
      </trkpt>
      <trkpt lat="37.8478411228769" lon="112.02822748203243">
        <ele>1094.0238968606163</ele>
        <time>2016-08-13T23:27:24.400000Z</time>
      </trkpt>
      <trkpt lat="37.84753031118423" lon="112.02818397613123">
        <ele>1093.8542331580193</ele>
        <time>2016-08-13T23:27:35.400000Z</time>
      </trkpt>
      <trkpt lat="37.84741620671061" lon="112.02813801254372">
        <ele>1093.1348998453989</ele>
        <time>2016-08-13T23:27:39.400000Z</time>
      </trkpt>
      <trkpt lat="37.847299330993984" lon="112.02811476751806">
        <ele>1093.269591429473</ele>
        <time>2016-08-13T23:27:43.400000Z</time>
      </trkpt>
      <trkpt lat="37.847267723125114" lon="112.02816778041976">
        <ele>1093.1265782212067</ele>
        <time>2016-08-13T23:27:47.400000Z</time>
      </trkpt>
      <trkpt lat="37.847222530640636" lon="112.02833438651726">
        <ele>1093.0909230590905</ele>
        <time>2016-08-13T23:27:50.400000Z</time>
      </trkpt>
      <trkpt lat="37.84730602215452" lon="112.02868191504956">
        <ele>1093.236603617059</ele>
        <time>2016-08-13T23:27:58.400000Z</time>
      </trkpt>
      <trkpt lat="37.847366250529326" lon="112.02911031914975">
        <ele>1094.7143807705625</ele>
        <time>2016-08-13T23:28:10.400000Z</time>
      </trkpt>
      <trkpt lat="37.84737394145314" lon="112.02928747253527">
        <ele>1095.5436208608007</ele>
        <time>2016-08-13T23:28:14.400000Z</time>
      </trkpt>
      <trkpt lat="37.84737021153634" lon="112.02969046938954">
        <ele>1097.0367641953628</ele>
        <time>2016-08-13T23:28:25.400000Z</time>
      </trkpt>
      <trkpt lat="37.8474081950924" lon="112.02990630018148">
        <ele>1098.0985856088073</ele>
        <time>2016-08-13T23:28:32.400000Z</time>
      </trkpt>
      <trkpt lat="37.84762713925649" lon="112.03001608544801">
        <ele>1098.4871706436866</ele>
        <time>2016-08-13T23:28:50.400000Z</time>
      </trkpt>
      <trkpt lat="37.84779767767892" lon="112.0299543972626">
        <ele>1099.7409439065998</ele>
        <time>2016-08-13T23:29:06.500000Z</time>
      </trkpt>
      <trkpt lat="37.848115637294754" lon="112.02996139126502">
        <ele>1102.3916474018815</ele>
        <time>2016-08-13T23:29:24.400000Z</time>
      </trkpt>
      <trkpt lat="37.848414538920316" lon="112.0298867051313">
        <ele>1103.2615717176316</ele>
        <time>2016-08-13T23:29:41.500000Z</time>
      </trkpt>
      <trkpt lat="37.84856440901544" lon="112.02984449361459">
        <ele>1102.791104454057</ele>
        <time>2016-08-13T23:29:48.400000Z</time>
      </trkpt>
      <trkpt lat="37.84868346663049" lon="112.02986368272015">
        <ele>1100.6291083740834</ele>
        <time>2016-08-13T23:29:59.400000Z</time>
      </trkpt>
      <trkpt lat="37.848809979488635" lon="112.02983121099277">
        <ele>1100.6066731550925</ele>
        <time>2016-08-13T23:30:03.400000Z</time>
      </trkpt>
      <trkpt lat="37.848905813919394" lon="112.02969893960872">
        <ele>1101.9651250622694</ele>
        <time>2016-08-13T23:30:14.400000Z</time>
      </trkpt>
      <trkpt lat="37.84890875113816" lon="112.0296099549646">
        <ele>1103.0237693269794</ele>
        <time>2016-08-13T23:30:17.400000Z</time>
      </trkpt>
      <trkpt lat="37.848826110180276" lon="112.029137189886">
        <ele>1105.8284572688756</ele>
        <time>2016-08-13T23:30:31.400000Z</time>
      </trkpt>
      <trkpt lat="37.84880051203805" lon="112.02896058053048">
        <ele>1106.0655487388635</ele>
        <time>2016-08-13T23:30:35.400000Z</time>
      </trkpt>
      <trkpt lat="37.848812545711866" lon="112.02860275970097">
        <ele>1108.1087872522835</ele>
        <time>2016-08-13T23:30:45.500000Z</time>
      </trkpt>
      <trkpt lat="37.848824304233496" lon="112.02846022679456">
        <ele>1109.091056000204</ele>
        <time>2016-08-13T23:30:49.500000Z</time>
      </trkpt>
      <trkpt lat="37.84885858426623" lon="112.02831688051755">
        <ele>1109.7754782869924</ele>
        <time>2016-08-13T23:30:53.400000Z</time>
      </trkpt>
      <trkpt lat="37.84882731332074" lon="112.02823818162643">
        <ele>1110.2724036613336</ele>
        <time>2016-08-13T23:30:57.400000Z</time>
      </trkpt>
      <trkpt lat="37.848723779463825" lon="112.02819627351066">
        <ele>1110.456244248702</ele>
        <time>2016-08-13T23:31:01.400000Z</time>
      </trkpt>
      <trkpt lat="37.84851510057256" lon="112.0282119850112">
        <ele>1109.662498416151</ele>
        <time>2016-08-13T23:31:09.400000Z</time>
      </trkpt>
      <trkpt lat="37.84833041409994" lon="112.0281819867097">
        <ele>1108.6983395951002</ele>
        <time>2016-08-13T23:31:16.500000Z</time>
      </trkpt>
      <trkpt lat="37.84822068172444" lon="112.02812385214988">
        <ele>1107.9030673962925</ele>
        <time>2016-08-13T23:31:20.400000Z</time>
      </trkpt>
      <trkpt lat="37.84806711445872" lon="112.02812576380182">
        <ele>1106.896412183707</ele>
        <time>2016-08-13T23:31:26.400000Z</time>
      </trkpt>
      <trkpt lat="37.847951166737744" lon="112.02816391184906">
        <ele>1105.864322473492</ele>
        <time>2016-08-13T23:31:33.400000Z</time>
      </trkpt>
      <trkpt lat="37.8478684333006" lon="112.02815743088578">
        <ele>1105.9141638096778</ele>
        <time>2016-08-13T23:31:37.400000Z</time>
      </trkpt>
      <trkpt lat="37.84770827029154" lon="112.028086320641">
        <ele>1107.078978479165</ele>
        <time>2016-08-13T23:31:45.500000Z</time>
      </trkpt>
      <trkpt lat="37.84758422269069" lon="112.0281090537121">
        <ele>1107.5081796336183</ele>
        <time>2016-08-13T23:31:49.400000Z</time>
      </trkpt>
      <trkpt lat="37.84748809696136" lon="112.02803496089308">
        <ele>1108.6645478718212</ele>
        <time>2016-08-13T23:31:56.400000Z</time>
      </trkpt>
      <trkpt lat="37.84741185979604" lon="112.02803442915506">
        <ele>1108.5804885333314</ele>
        <time>2016-08-13T23:32:08.400000Z</time>
      </trkpt>
      <trkpt lat="37.84740031639301" lon="112.02809230767029">
        <ele>1108.5951272538796</ele>
        <time>2016-08-13T23:32:12.400000Z</time>
      </trkpt>
      <trkpt lat="37.84740680489677" lon="112.02820725012481">
        <ele>1108.2631797008685</ele>
        <time>2016-08-13T23:32:16.400000Z</time>
      </trkpt>
      <trkpt lat="37.84738463783278" lon="112.02860076780516">
        <ele>1108.622200788937</ele>
        <time>2016-08-13T23:32:31.400000Z</time>
      </trkpt>
      <trkpt lat="37.84734818748053" lon="112.02895805064156">
        <ele>1108.6792845944558</ele>
        <time>2016-08-13T23:32:56.400000Z</time>
      </trkpt>
      <trkpt lat="37.84731997712911" lon="112.029276930878">
        <ele>1111.1982429751226</ele>
        <time>2016-08-13T23:33:17.400000Z</time>
      </trkpt>
      <trkpt lat="37.84727213632402" lon="112.02920526340877">
        <ele>1111.9833777824574</ele>
        <time>2016-08-13T23:33:28.500000Z</time>
      </trkpt>
      <trkpt lat="37.84731934766916" lon="112.02941865515137">
        <ele>1112.199976695772</ele>
        <time>2016-08-13T23:33:51.400000Z</time>
      </trkpt>
      <trkpt lat="37.84738483826989" lon="112.02937726589529">
        <ele>1110.579974634938</ele>
        <time>2016-08-13T23:34:13.400000Z</time>
      </trkpt>
      <trkpt lat="37.847383804370786" lon="112.02903539867849">
        <ele>1107.9736985912466</ele>
        <time>2016-08-13T23:35:03.400000Z</time>
      </trkpt>
      <trkpt lat="37.84738421906883" lon="112.02897887191101">
        <ele>1107.6067173799186</ele>
        <time>2016-08-13T23:35:07.500000Z</time>
      </trkpt>
      <trkpt lat="37.84742815222935" lon="112.02887960706369">
        <ele>1107.4633249316014</ele>
        <time>2016-08-13T23:35:11.400000Z</time>
      </trkpt>
      <trkpt lat="37.84744074453985" lon="112.02894235269726">
        <ele>1108.901749913961</ele>
        <time>2016-08-13T23:35:25.400000Z</time>
      </trkpt>
      <trkpt lat="37.84727165600502" lon="112.02918065119337">
        <ele>1111.3592535623945</ele>
        <time>2016-08-13T23:36:00.400000Z</time>
      </trkpt>
      <trkpt lat="37.847332838242345" lon="112.02923365490851">
        <ele>1112.9146113989373</ele>
        <time>2016-08-13T23:36:30.400000Z</time>
      </trkpt>
      <trkpt lat="37.84742277174806" lon="112.02918252626233">
        <ele>1112.8618065371986</ele>
        <time>2016-08-13T23:36:43.400000Z</time>
      </trkpt>
      <trkpt lat="37.8473504488241" lon="112.02902918204249">
        <ele>1113.458944529266</ele>
        <time>2016-08-13T23:37:24.500000Z</time>
      </trkpt>
      <trkpt lat="37.84732872925471" lon="112.02892803168355">
        <ele>1113.5817184931602</ele>
        <time>2016-08-13T23:37:31.400000Z</time>
      </trkpt>
      <trkpt lat="37.84733361310441" lon="112.02903486379108">
        <ele>1115.0970777264909</ele>
        <time>2016-08-13T23:37:59.400000Z</time>
      </trkpt>
      <trkpt lat="37.84733361310441" lon="112.02903486379108">
        <ele>1115.0970777264909</ele>
        <time>2016-08-13T23:38:59.600000Z</time>
      </trkpt>
      <trkpt lat="37.84739150374923" lon="112.02910193173642">
        <ele>1121.9324009529498</ele>
        <time>2016-08-13T23:39:28.400000Z</time>
      </trkpt>
    </trkseg>
  </trk>
</gpx>