<?xml version="1.0" encoding="UTF-8"?>
<gpx xmlns="http://www.topografix.com/GPX/1/1" xmlns:gpxtpx="http://www.garmin.com/xmlschemas/TrackPointExtension/v1" xmlns:xsi="http://www.w3.org/2001/XMLSchema-instance" xsi:schemaLocation="http://www.topografix.com/GPX/1/1 http://www.topografix.com/GPX/1/1/gpx.xsd" version="1.1" creator="gpx.py -- https://github.com/tkrajina/gpxpy">
  <trk>
    <name>gpx from keep</name>
    <type>Run</type>
    <trkseg>
      <trkpt lat="37.84712213301594" lon="112.02950086224887">
        <ele>1128.69</ele>
        <time>2019-03-09T09:13:32.790000Z</time>
      </trkpt>
      <trkpt lat="37.847230964835134" lon="112.02944880008404">
        <ele>1114.96</ele>
        <time>2019-03-09T09:13:50.790000Z</time>
      </trkpt>
      <trkpt lat="37.84733055745883" lon="112.02931816980886">
        <ele>1109.92</ele>
        <time>2019-03-09T09:13:56.790000Z</time>
      </trkpt>
      <trkpt lat="37.8473477156829" lon="112.02921842777813">
        <ele>1104.63</ele>
        <time>2019-03-09T09:13:59.790000Z</time>
      </trkpt>
      <trkpt lat="37.84734444636088" lon="112.02880261532525">
        <ele>1105.1</ele>
        <time>2019-03-09T09:14:08.790000Z</time>
      </trkpt>
      <trkpt lat="37.84734385023087" lon="112.02868026878222">
        <ele>1103.56</ele>
        <time>2019-03-09T09:14:11.790000Z</time>
      </trkpt>
      <trkpt lat="37.84740341778987" lon="112.02831216929604">
        <ele>1102.9</ele>
        <time>2019-03-09T09:14:20.790000Z</time>
      </trkpt>
      <trkpt lat="37.8473890126411" lon="112.02808953683204">
        <ele>1102.76</ele>
        <time>2019-03-09T09:14:26.790000Z</time>
      </trkpt>
      <trkpt lat="37.84744356461816" lon="112.02772902701876">
        <ele>1096.42</ele>
        <time>2019-03-09T09:14:38.790000Z</time>
      </trkpt>
      <trkpt lat="37.84739061044945" lon="112.02756073556598">
        <ele>1094.8</ele>
        <time>2019-03-09T09:14:44.790000Z</time>
      </trkpt>
      <trkpt lat="37.8473899040741" lon="112.02745809762587">
        <ele>1093.96</ele>
        <time>2019-03-09T09:14:47.790000Z</time>
      </trkpt>
      <trkpt lat="37.847409994370544" lon="112.02735955438871">
        <ele>1094.93</ele>
        <time>2019-03-09T09:14:50.790000Z</time>
      </trkpt>
      <trkpt lat="37.8474555635062" lon="112.02724498199265">
        <ele>1097.33</ele>
        <time>2019-03-09T09:14:53.790000Z</time>
      </trkpt>
      <trkpt lat="37.84749689216726" lon="112.02717507330397">
        <ele>1099.84</ele>
        <time>2019-03-09T09:14:56.790000Z</time>
      </trkpt>
      <trkpt lat="37.84767540025439" lon="112.02690462222225">
        <ele>1102.28</ele>
        <time>2019-03-09T09:15:05.790000Z</time>
      </trkpt>
      <trkpt lat="37.847745744055196" lon="112.02680098716405">
        <ele>1098.92</ele>
        <time>2019-03-09T09:15:08.790000Z</time>
      </trkpt>
      <trkpt lat="37.84782356685514" lon="112.02669877788419">
        <ele>1097.78</ele>
        <time>2019-03-09T09:15:11.790000Z</time>
      </trkpt>
      <trkpt lat="37.84786948652503" lon="112.02660529382653">
        <ele>1098.73</ele>
        <time>2019-03-09T09:15:14.790000Z</time>
      </trkpt>
      <trkpt lat="37.84792663607553" lon="112.02653652752714">
        <ele>1097.85</ele>
        <time>2019-03-09T09:15:17.790000Z</time>
      </trkpt>
      <trkpt lat="37.848250615987304" lon="112.02645514530231">
        <ele>1100.26</ele>
        <time>2019-03-09T09:15:29.790000Z</time>
      </trkpt>
      <trkpt lat="37.848494536233865" lon="112.02651383282686">
        <ele>1102.35</ele>
        <time>2019-03-09T09:15:38.790000Z</time>
      </trkpt>
      <trkpt lat="37.84858251838025" lon="112.0265109119934">
        <ele>1102.04</ele>
        <time>2019-03-09T09:15:41.790000Z</time>
      </trkpt>
      <trkpt lat="37.84868993869657" lon="112.02652159834336">
        <ele>1100.49</ele>
        <time>2019-03-09T09:15:44.790000Z</time>
      </trkpt>
      <trkpt lat="37.848787063073246" lon="112.02653229570247">
        <ele>1100.74</ele>
        <time>2019-03-09T09:15:47.790000Z</time>
      </trkpt>
      <trkpt lat="37.848852441348164" lon="112.02652114468285">
        <ele>1101.32</ele>
        <time>2019-03-09T09:15:50.790000Z</time>
      </trkpt>
      <trkpt lat="37.848921350085135" lon="112.02645106907322">
        <ele>1100.79</ele>
        <time>2019-03-09T09:15:56.790000Z</time>
      </trkpt>
      <trkpt lat="37.848953675550675" lon="112.02637450493866">
        <ele>1101.2</ele>
        <time>2019-03-09T09:15:59.790000Z</time>
      </trkpt>
      <trkpt lat="37.84898572632653" lon="112.02630818206624">
        <ele>1098.65</ele>
        <time>2019-03-09T09:16:02.790000Z</time>
      </trkpt>
      <trkpt lat="37.849011176051214" lon="112.02623018206255">
        <ele>1102.49</ele>
        <time>2019-03-09T09:16:05.790000Z</time>
      </trkpt>
      <trkpt lat="37.849020328010795" lon="112.02582588407915">
        <ele>1090.68</ele>
        <time>2019-03-09T09:16:14.790000Z</time>
      </trkpt>
      <trkpt lat="37.84905065679061" lon="112.02543444598895">
        <ele>1088.69</ele>
        <time>2019-03-09T09:16:23.790000Z</time>
      </trkpt>
      <trkpt lat="37.84906534585681" lon="112.0251167530766">
        <ele>1097.36</ele>
        <time>2019-03-09T09:16:29.790000Z</time>
      </trkpt>
      <trkpt lat="37.849004815029694" lon="112.02484250893322">
        <ele>1096.29</ele>
        <time>2019-03-09T09:16:35.790000Z</time>
      </trkpt>
      <trkpt lat="37.84899356064976" lon="112.0247344345687">
        <ele>1098.06</ele>
        <time>2019-03-09T09:16:38.790000Z</time>
      </trkpt>
      <trkpt lat="37.849017194456344" lon="112.0246328150445">
        <ele>1097.26</ele>
        <time>2019-03-09T09:16:41.790000Z</time>
      </trkpt>
      <trkpt lat="37.849020461250916" lon="112.02452172142891">
        <ele>1095.74</ele>
        <time>2019-03-09T09:16:44.790000Z</time>
      </trkpt>
      <trkpt lat="37.84899221018655" lon="112.02416229068655">
        <ele>1096.59</ele>
        <time>2019-03-09T09:16:53.790000Z</time>
      </trkpt>
      <trkpt lat="37.84897894632887" lon="112.02378738651133">
        <ele>1093.86</ele>
        <time>2019-03-09T09:17:02.790000Z</time>
      </trkpt>
      <trkpt lat="37.84897518953684" lon="112.02342602015186">
        <ele>1094.45</ele>
        <time>2019-03-09T09:17:11.790000Z</time>
      </trkpt>
      <trkpt lat="37.84904749291352" lon="112.02304901766298">
        <ele>1093.26</ele>
        <time>2019-03-09T09:17:20.790000Z</time>
      </trkpt>
      <trkpt lat="37.849062187156875" lon="112.02293661131839">
        <ele>1093.64</ele>
        <time>2019-03-09T09:17:23.790000Z</time>
      </trkpt>
      <trkpt lat="37.84909760489534" lon="112.02250543558547">
        <ele>1090.64</ele>
        <time>2019-03-09T09:17:35.790000Z</time>
      </trkpt>
      <trkpt lat="37.84910128805745" lon="112.02205870633492">
        <ele>1097.29</ele>
        <time>2019-03-09T09:17:47.790000Z</time>
      </trkpt>
      <trkpt lat="37.84909026860655" lon="112.0218361786476">
        <ele>1093.41</ele>
        <time>2019-03-09T09:17:53.790000Z</time>
      </trkpt>
      <trkpt lat="37.84910739099765" lon="112.02139768197146">
        <ele>1092.45</ele>
        <time>2019-03-09T09:18:05.790000Z</time>
      </trkpt>
      <trkpt lat="37.849119802247515" lon="112.02115904896564">
        <ele>1097.57</ele>
        <time>2019-03-09T09:18:11.790000Z</time>
      </trkpt>
      <trkpt lat="37.84911203442989" lon="112.020760570241">
        <ele>1098.81</ele>
        <time>2019-03-09T09:18:20.790000Z</time>
      </trkpt>
      <trkpt lat="37.84909886919274" lon="112.02038058920124">
        <ele>1099.14</ele>
        <time>2019-03-09T09:18:29.790000Z</time>
      </trkpt>
      <trkpt lat="37.84910874130962" lon="112.01998897138519">
        <ele>1100.44</ele>
        <time>2019-03-09T09:18:41.790000Z</time>
      </trkpt>
      <trkpt lat="37.84912988792254" lon="112.01953967643747">
        <ele>1094.64</ele>
        <time>2019-03-09T09:18:53.790000Z</time>
      </trkpt>
      <trkpt lat="37.84915763555048" lon="112.01920817985935">
        <ele>1097.83</ele>
        <time>2019-03-09T09:19:02.790000Z</time>
      </trkpt>
      <trkpt lat="37.84917536840757" lon="112.01876953868734">
        <ele>1097.07</ele>
        <time>2019-03-09T09:19:14.790000Z</time>
      </trkpt>
      <trkpt lat="37.84917617635599" lon="112.01842180337475">
        <ele>1102.07</ele>
        <time>2019-03-09T09:19:23.790000Z</time>
      </trkpt>
      <trkpt lat="37.84918363064237" lon="112.01804223918819">
        <ele>1101.76</ele>
        <time>2019-03-09T09:19:32.790000Z</time>
      </trkpt>
      <trkpt lat="37.84921699242215" lon="112.01770260786479">
        <ele>1101.99</ele>
        <time>2019-03-09T09:19:41.790000Z</time>
      </trkpt>
      <trkpt lat="37.84925852742537" lon="112.01735118310467">
        <ele>1103.73</ele>
        <time>2019-03-09T09:19:50.790000Z</time>
      </trkpt>
      <trkpt lat="37.849265500771736" lon="112.01724149979148">
        <ele>1103.22</ele>
        <time>2019-03-09T09:19:53.790000Z</time>
      </trkpt>
      <trkpt lat="37.84934155151403" lon="112.01682441734529">
        <ele>1103.65</ele>
        <time>2019-03-09T09:20:05.790000Z</time>
      </trkpt>
      <trkpt lat="37.84937456025769" lon="112.01646925681437">
        <ele>1105.45</ele>
        <time>2019-03-09T09:20:14.790000Z</time>
      </trkpt>
      <trkpt lat="37.84940546773914" lon="112.01611725790227">
        <ele>1104.89</ele>
        <time>2019-03-09T09:20:23.790000Z</time>
      </trkpt>
      <trkpt lat="37.84945108214104" lon="112.01567268122999">
        <ele>1104.64</ele>
        <time>2019-03-09T09:20:35.790000Z</time>
      </trkpt>
      <trkpt lat="37.8494904895511" lon="112.01533514549739">
        <ele>1103.57</ele>
        <time>2019-03-09T09:20:44.790000Z</time>
      </trkpt>
      <trkpt lat="37.8495221863672" lon="112.01496834618497">
        <ele>1105.91</ele>
        <time>2019-03-09T09:20:53.790000Z</time>
      </trkpt>
      <trkpt lat="37.84956054701009" lon="112.01458816746896">
        <ele>1106.8</ele>
        <time>2019-03-09T09:21:02.790000Z</time>
      </trkpt>
      <trkpt lat="37.84961081231454" lon="112.01414934427154">
        <ele>1107.39</ele>
        <time>2019-03-09T09:21:14.790000Z</time>
      </trkpt>
      <trkpt lat="37.8496402388537" lon="112.0138061688">
        <ele>1112.54</ele>
        <time>2019-03-09T09:21:23.790000Z</time>
      </trkpt>
      <trkpt lat="37.84967289350623" lon="112.01344985186178">
        <ele>1113.25</ele>
        <time>2019-03-09T09:21:32.790000Z</time>
      </trkpt>
      <trkpt lat="37.849704490792845" lon="112.0130153839343">
        <ele>1109.89</ele>
        <time>2019-03-09T09:21:44.790000Z</time>
      </trkpt>
      <trkpt lat="37.84974506458949" lon="112.01265708523093">
        <ele>1110.89</ele>
        <time>2019-03-09T09:21:53.790000Z</time>
      </trkpt>
      <trkpt lat="37.84981031714562" lon="112.01227102429651">
        <ele>1104.71</ele>
        <time>2019-03-09T09:22:05.790000Z</time>
      </trkpt>
      <trkpt lat="37.84981242276057" lon="112.01191869836327">
        <ele>1103.47</ele>
        <time>2019-03-09T09:22:14.790000Z</time>
      </trkpt>
      <trkpt lat="37.84982592769963" lon="112.01154594115573">
        <ele>1105.73</ele>
        <time>2019-03-09T09:22:23.790000Z</time>
      </trkpt>
      <trkpt lat="37.84985808942411" lon="112.01111106878486">
        <ele>1104.72</ele>
        <time>2019-03-09T09:22:35.790000Z</time>
      </trkpt>
      <trkpt lat="37.84988106696709" lon="112.01075394498281">
        <ele>1107.02</ele>
        <time>2019-03-09T09:22:44.790000Z</time>
      </trkpt>
      <trkpt lat="37.84989791514841" lon="112.01039601203337">
        <ele>1109.64</ele>
        <time>2019-03-09T09:22:53.790000Z</time>
      </trkpt>
      <trkpt lat="37.84990754403362" lon="112.010038320046">
        <ele>1111.41</ele>
        <time>2019-03-09T09:23:02.790000Z</time>
      </trkpt>
      <trkpt lat="37.84991510458138" lon="112.00969788042674">
        <ele>1110.09</ele>
        <time>2019-03-09T09:23:11.790000Z</time>
      </trkpt>
      <trkpt lat="37.849875385556885" lon="112.00935434178753">
        <ele>1111.6</ele>
        <time>2019-03-09T09:23:20.790000Z</time>
      </trkpt>
      <trkpt lat="37.849736309021615" lon="112.0090472678504">
        <ele>1113.8</ele>
        <time>2019-03-09T09:23:29.790000Z</time>
      </trkpt>
      <trkpt lat="37.849556814897525" lon="112.00877787792525">
        <ele>1114.16</ele>
        <time>2019-03-09T09:23:38.790000Z</time>
      </trkpt>
      <trkpt lat="37.84932425771919" lon="112.00843965367932">
        <ele>1115.63</ele>
        <time>2019-03-09T09:23:50.790000Z</time>
      </trkpt>
      <trkpt lat="37.849118242792755" lon="112.0081352224937">
        <ele>1113.85</ele>
        <time>2019-03-09T09:24:02.790000Z</time>
      </trkpt>
      <trkpt lat="37.84894788982762" lon="112.00786179386738">
        <ele>1113.27</ele>
        <time>2019-03-09T09:24:11.790000Z</time>
      </trkpt>
      <trkpt lat="37.84875895646042" lon="112.00757053466019">
        <ele>1116.93</ele>
        <time>2019-03-09T09:24:20.790000Z</time>
      </trkpt>
      <trkpt lat="37.848529291322194" lon="112.00722788287788">
        <ele>1117.67</ele>
        <time>2019-03-09T09:24:32.790000Z</time>
      </trkpt>
      <trkpt lat="37.848347250776634" lon="112.00698041779998">
        <ele>1118.02</ele>
        <time>2019-03-09T09:24:41.790000Z</time>
      </trkpt>
      <trkpt lat="37.84827161806423" lon="112.00691594420726">
        <ele>1117.48</ele>
        <time>2019-03-09T09:24:44.790000Z</time>
      </trkpt>
      <trkpt lat="37.84802098452815" lon="112.00683368112182">
        <ele>1118.23</ele>
        <time>2019-03-09T09:24:53.790000Z</time>
      </trkpt>
      <trkpt lat="37.8476947929018" lon="112.00679920193276">
        <ele>1121.99</ele>
        <time>2019-03-09T09:25:05.790000Z</time>
      </trkpt>
      <trkpt lat="37.84735072093971" lon="112.00675652238299">
        <ele>1120.52</ele>
        <time>2019-03-09T09:25:17.790000Z</time>
      </trkpt>
      <trkpt lat="37.84708252895542" lon="112.00671170198856">
        <ele>1125.03</ele>
        <time>2019-03-09T09:25:26.790000Z</time>
      </trkpt>
      <trkpt lat="37.84678079737275" lon="112.00667730260105">
        <ele>1121.96</ele>
        <time>2019-03-09T09:25:38.790000Z</time>
      </trkpt>
      <trkpt lat="37.84650200642407" lon="112.00665833400402">
        <ele>1121.43</ele>
        <time>2019-03-09T09:25:47.790000Z</time>
      </trkpt>
      <trkpt lat="37.846328034879946" lon="112.00662238332129">
        <ele>1123.23</ele>
        <time>2019-03-09T09:25:53.790000Z</time>
      </trkpt>
      <trkpt lat="37.846148751629975" lon="112.00654276989495">
        <ele>1127.25</ele>
        <time>2019-03-09T09:25:59.790000Z</time>
      </trkpt>
      <trkpt lat="37.84581151736571" lon="112.00643879645912">
        <ele>1125.62</ele>
        <time>2019-03-09T09:26:11.790000Z</time>
      </trkpt>
      <trkpt lat="37.8454756432318" lon="112.00633667319995">
        <ele>1125.54</ele>
        <time>2019-03-09T09:26:23.790000Z</time>
      </trkpt>
      <trkpt lat="37.84513013976492" lon="112.0062510411248">
        <ele>1125.64</ele>
        <time>2019-03-09T09:26:35.790000Z</time>
      </trkpt>
      <trkpt lat="37.84488201812251" lon="112.00621168103075">
        <ele>1123.67</ele>
        <time>2019-03-09T09:26:44.790000Z</time>
      </trkpt>
      <trkpt lat="37.844566624544456" lon="112.00612084842588">
        <ele>1123.08</ele>
        <time>2019-03-09T09:26:56.790000Z</time>
      </trkpt>
      <trkpt lat="37.84447159535328" lon="112.00614464077934">
        <ele>1126.32</ele>
        <time>2019-03-09T09:26:59.790000Z</time>
      </trkpt>
      <trkpt lat="37.84438465751906" lon="112.00620479529988">
        <ele>1125.97</ele>
        <time>2019-03-09T09:27:02.790000Z</time>
      </trkpt>
      <trkpt lat="37.844078802158904" lon="112.00633411622468">
        <ele>1125.91</ele>
        <time>2019-03-09T09:27:14.790000Z</time>
      </trkpt>
      <trkpt lat="37.84383398546364" lon="112.00644581369113">
        <ele>1129.87</ele>
        <time>2019-03-09T09:27:23.790000Z</time>
      </trkpt>
      <trkpt lat="37.84353987955717" lon="112.00664794585374">
        <ele>1131.41</ele>
        <time>2019-03-09T09:27:35.790000Z</time>
      </trkpt>
      <trkpt lat="37.843315431920445" lon="112.00684279375038">
        <ele>1135.33</ele>
        <time>2019-03-09T09:27:44.790000Z</time>
      </trkpt>
      <trkpt lat="37.84302717117626" lon="112.00707946471354">
        <ele>1136.16</ele>
        <time>2019-03-09T09:27:56.790000Z</time>
      </trkpt>
      <trkpt lat="37.842753729716236" lon="112.00728485134543">
        <ele>1138.45</ele>
        <time>2019-03-09T09:28:08.790000Z</time>
      </trkpt>
      <trkpt lat="37.842472339107" lon="112.00750439934069">
        <ele>1138.57</ele>
        <time>2019-03-09T09:28:20.790000Z</time>
      </trkpt>
      <trkpt lat="37.84230040449048" lon="112.00762778972924">
        <ele>1136.95</ele>
        <time>2019-03-09T09:28:26.790000Z</time>
      </trkpt>
      <trkpt lat="37.84202407410557" lon="112.00784322789228">
        <ele>1136.39</ele>
        <time>2019-03-09T09:28:38.790000Z</time>
      </trkpt>
      <trkpt lat="37.841811300433896" lon="112.00798254012773">
        <ele>1137.93</ele>
        <time>2019-03-09T09:28:47.790000Z</time>
      </trkpt>
      <trkpt lat="37.841557423712466" lon="112.00809390242547">
        <ele>1143.25</ele>
        <time>2019-03-09T09:28:56.790000Z</time>
      </trkpt>
      <trkpt lat="37.84130845229099" lon="112.0081566369345">
        <ele>1140.31</ele>
        <time>2019-03-09T09:29:05.790000Z</time>
      </trkpt>
      <trkpt lat="37.840978345116476" lon="112.00813879952749">
        <ele>1138.96</ele>
        <time>2019-03-09T09:29:17.790000Z</time>
      </trkpt>
      <trkpt lat="37.8406353299619" lon="112.00808524675045">
        <ele>1137.23</ele>
        <time>2019-03-09T09:29:29.790000Z</time>
      </trkpt>
      <trkpt lat="37.84029939054671" lon="112.00800746621863">
        <ele>1139.21</ele>
        <time>2019-03-09T09:29:41.790000Z</time>
      </trkpt>
      <trkpt lat="37.84012975988663" lon="112.0079959369628">
        <ele>1138.14</ele>
        <time>2019-03-09T09:29:47.790000Z</time>
      </trkpt>
      <trkpt lat="37.83981324327067" lon="112.00807239562161">
        <ele>1136.58</ele>
        <time>2019-03-09T09:29:59.790000Z</time>
      </trkpt>
      <trkpt lat="37.839484694956894" lon="112.00811275172842">
        <ele>1137.0</ele>
        <time>2019-03-09T09:30:11.790000Z</time>
      </trkpt>
      <trkpt lat="37.839160366597135" lon="112.00815189771534">
        <ele>1138.35</ele>
        <time>2019-03-09T09:30:23.790000Z</time>
      </trkpt>
      <trkpt lat="37.83882479925977" lon="112.00821230542131">
        <ele>1140.08</ele>
        <time>2019-03-09T09:30:35.790000Z</time>
      </trkpt>
      <trkpt lat="37.83850362109463" lon="112.0082549916725">
        <ele>1141.49</ele>
        <time>2019-03-09T09:30:47.790000Z</time>
      </trkpt>
      <trkpt lat="37.83834544498152" lon="112.008258498476">
        <ele>1142.67</ele>
        <time>2019-03-09T09:30:53.790000Z</time>
      </trkpt>
      <trkpt lat="37.83803387858176" lon="112.00814927969449">
        <ele>1141.03</ele>
        <time>2019-03-09T09:31:05.790000Z</time>
      </trkpt>
      <trkpt lat="37.837719208268986" lon="112.00800958857518">
        <ele>1144.27</ele>
        <time>2019-03-09T09:31:17.790000Z</time>
      </trkpt>
      <trkpt lat="37.837406961370036" lon="112.00788071182393">
        <ele>1147.68</ele>
        <time>2019-03-09T09:31:29.790000Z</time>
      </trkpt>
      <trkpt lat="37.83708298825069" lon="112.00776237208365">
        <ele>1149.04</ele>
        <time>2019-03-09T09:31:41.790000Z</time>
      </trkpt>
      <trkpt lat="37.83674979569838" lon="112.00765162608444">
        <ele>1152.83</ele>
        <time>2019-03-09T09:31:53.790000Z</time>
      </trkpt>
      <trkpt lat="37.83642428557902" lon="112.00753431870997">
        <ele>1151.53</ele>
        <time>2019-03-09T09:32:05.790000Z</time>
      </trkpt>
      <trkpt lat="37.83608932036324" lon="112.00745217125561">
        <ele>1150.03</ele>
        <time>2019-03-09T09:32:17.790000Z</time>
      </trkpt>
      <trkpt lat="37.835762448484374" lon="112.00738707663527">
        <ele>1150.63</ele>
        <time>2019-03-09T09:32:29.790000Z</time>
      </trkpt>
      <trkpt lat="37.83559240194248" lon="112.00736325914629">
        <ele>1152.1</ele>
        <time>2019-03-09T09:32:35.790000Z</time>
      </trkpt>
      <trkpt lat="37.83550166469752" lon="112.00733955173739">
        <ele>1152.49</ele>
        <time>2019-03-09T09:32:38.790000Z</time>
      </trkpt>
      <trkpt lat="37.83542709864789" lon="112.0072869165339">
        <ele>1151.75</ele>
        <time>2019-03-09T09:32:41.790000Z</time>
      </trkpt>
      <trkpt lat="37.83531113186392" lon="112.00698479097254">
        <ele>1148.63</ele>
        <time>2019-03-09T09:32:50.790000Z</time>
      </trkpt>
      <trkpt lat="37.835242549985765" lon="112.00694045865023">
        <ele>1147.72</ele>
        <time>2019-03-09T09:32:53.790000Z</time>
      </trkpt>
      <trkpt lat="37.83515825902045" lon="112.00691839797096">
        <ele>1148.6</ele>
        <time>2019-03-09T09:32:56.790000Z</time>
      </trkpt>
      <trkpt lat="37.834885020451374" lon="112.00695775316517">
        <ele>1149.4</ele>
        <time>2019-03-09T09:33:05.790000Z</time>
      </trkpt>
      <trkpt lat="37.834707771991525" lon="112.00699793752366">
        <ele>1152.57</ele>
        <time>2019-03-09T09:33:11.790000Z</time>
      </trkpt>
      <trkpt lat="37.834471009725284" lon="112.00694708634126">
        <ele>1156.82</ele>
        <time>2019-03-09T09:33:20.790000Z</time>
      </trkpt>
      <trkpt lat="37.834254385765455" lon="112.00685405218952">
        <ele>1158.8</ele>
        <time>2019-03-09T09:33:29.790000Z</time>
      </trkpt>
      <trkpt lat="37.833948352658375" lon="112.00678256035">
        <ele>1158.49</ele>
        <time>2019-03-09T09:33:41.790000Z</time>
      </trkpt>
      <trkpt lat="37.83365835528724" lon="112.00667834780948">
        <ele>1156.94</ele>
        <time>2019-03-09T09:33:53.790000Z</time>
      </trkpt>
      <trkpt lat="37.833348971282426" lon="112.0065477854534">
        <ele>1158.56</ele>
        <time>2019-03-09T09:34:05.790000Z</time>
      </trkpt>
      <trkpt lat="37.83303162617728" lon="112.00644102161347">
        <ele>1162.05</ele>
        <time>2019-03-09T09:34:17.790000Z</time>
      </trkpt>
      <trkpt lat="37.832719963640194" lon="112.0063067399321">
        <ele>1163.52</ele>
        <time>2019-03-09T09:34:29.790000Z</time>
      </trkpt>
      <trkpt lat="37.83240769687683" lon="112.00616141510814">
        <ele>1163.42</ele>
        <time>2019-03-09T09:34:41.790000Z</time>
      </trkpt>
      <trkpt lat="37.832232703992254" lon="112.00611561491847">
        <ele>1165.36</ele>
        <time>2019-03-09T09:34:47.790000Z</time>
      </trkpt>
      <trkpt lat="37.83188639374854" lon="112.00611662284271">
        <ele>1165.86</ele>
        <time>2019-03-09T09:34:59.790000Z</time>
      </trkpt>
      <trkpt lat="37.83156435850646" lon="112.00614577650545">
        <ele>1163.83</ele>
        <time>2019-03-09T09:35:11.790000Z</time>
      </trkpt>
      <trkpt lat="37.83123315709738" lon="112.00617256728648">
        <ele>1164.85</ele>
        <time>2019-03-09T09:35:23.790000Z</time>
      </trkpt>
      <trkpt lat="37.83089446138316" lon="112.00616862645047">
        <ele>1164.56</ele>
        <time>2019-03-09T09:35:35.790000Z</time>
      </trkpt>
      <trkpt lat="37.83071740920754" lon="112.00616886397086">
        <ele>1162.4</ele>
        <time>2019-03-09T09:35:41.790000Z</time>
      </trkpt>
      <trkpt lat="37.83038780763234" lon="112.0062073793536">
        <ele>1163.9</ele>
        <time>2019-03-09T09:35:53.790000Z</time>
      </trkpt>
      <trkpt lat="37.83006981869059" lon="112.00619000346853">
        <ele>1163.22</ele>
        <time>2019-03-09T09:36:05.790000Z</time>
      </trkpt>
      <trkpt lat="37.829907883654" lon="112.00617715919381">
        <ele>1169.64</ele>
        <time>2019-03-09T09:36:11.790000Z</time>
      </trkpt>
      <trkpt lat="37.829578403352784" lon="112.00617534283236">
        <ele>1170.78</ele>
        <time>2019-03-09T09:36:23.790000Z</time>
      </trkpt>
      <trkpt lat="37.82935204052537" lon="112.00617797596003">
        <ele>1170.53</ele>
        <time>2019-03-09T09:36:32.790000Z</time>
      </trkpt>
      <trkpt lat="37.829023456256216" lon="112.00620033842885">
        <ele>1169.46</ele>
        <time>2019-03-09T09:36:44.790000Z</time>
      </trkpt>
      <trkpt lat="37.828955397728095" lon="112.00619635744069">
        <ele>1167.59</ele>
        <time>2019-03-09T09:36:47.790000Z</time>
      </trkpt>
      <trkpt lat="37.828781406983296" lon="112.00622734858085">
        <ele>1168.28</ele>
        <time>2019-03-09T09:36:53.890000Z</time>
      </trkpt>
      <trkpt lat="37.8284571866362" lon="112.00623521688598">
        <ele>1174.14</ele>
        <time>2019-03-09T09:37:05.790000Z</time>
      </trkpt>
      <trkpt lat="37.82813678046356" lon="112.00623255341021">
        <ele>1178.98</ele>
        <time>2019-03-09T09:37:17.790000Z</time>
      </trkpt>
      <trkpt lat="37.82804760942845" lon="112.00624164724717">
        <ele>1181.36</ele>
        <time>2019-03-09T09:37:20.790000Z</time>
      </trkpt>
      <trkpt lat="37.82787918805728" lon="112.00628178672898">
        <ele>1177.48</ele>
        <time>2019-03-09T09:37:26.790000Z</time>
      </trkpt>
      <trkpt lat="37.82754025996575" lon="112.00633529232358">
        <ele>1177.44</ele>
        <time>2019-03-09T09:37:38.790000Z</time>
      </trkpt>
      <trkpt lat="37.82720535225232" lon="112.00637907689654">
        <ele>1179.29</ele>
        <time>2019-03-09T09:37:50.790000Z</time>
      </trkpt>
      <trkpt lat="37.82688061849688" lon="112.00640646385257">
        <ele>1182.57</ele>
        <time>2019-03-09T09:38:02.790000Z</time>
      </trkpt>
      <trkpt lat="37.82656603232371" lon="112.00642508860894">
        <ele>1185.23</ele>
        <time>2019-03-09T09:38:14.790000Z</time>
      </trkpt>
      <trkpt lat="37.82624179826939" lon="112.00650432813228">
        <ele>1184.82</ele>
        <time>2019-03-09T09:38:26.790000Z</time>
      </trkpt>
      <trkpt lat="37.82606081721087" lon="112.00654228728504">
        <ele>1187.42</ele>
        <time>2019-03-09T09:38:32.790000Z</time>
      </trkpt>
      <trkpt lat="37.82590361488097" lon="112.00653085127166">
        <ele>1186.93</ele>
        <time>2019-03-09T09:38:38.790000Z</time>
      </trkpt>
      <trkpt lat="37.82557511920832" lon="112.00650964484224">
        <ele>1190.66</ele>
        <time>2019-03-09T09:38:50.790000Z</time>
      </trkpt>
      <trkpt lat="37.82524853770025" lon="112.00647124590337">
        <ele>1187.21</ele>
        <time>2019-03-09T09:39:02.790000Z</time>
      </trkpt>
      <trkpt lat="37.82494759738111" lon="112.0063938992081">
        <ele>1187.12</ele>
        <time>2019-03-09T09:39:14.790000Z</time>
      </trkpt>
      <trkpt lat="37.82487449964622" lon="112.0063738180247">
        <ele>1187.39</ele>
        <time>2019-03-09T09:39:17.790000Z</time>
      </trkpt>
      <trkpt lat="37.82453444006138" lon="112.00631662331678">
        <ele>1188.03</ele>
        <time>2019-03-09T09:39:29.790000Z</time>
      </trkpt>
      <trkpt lat="37.82426406046429" lon="112.0062700953206">
        <ele>1185.07</ele>
        <time>2019-03-09T09:39:38.790000Z</time>
      </trkpt>
      <trkpt lat="37.82399999154283" lon="112.00620281951655">
        <ele>1182.57</ele>
        <time>2019-03-09T09:39:47.790000Z</time>
      </trkpt>
      <trkpt lat="37.823825800907045" lon="112.00613545567812">
        <ele>1183.76</ele>
        <time>2019-03-09T09:39:53.790000Z</time>
      </trkpt>
      <trkpt lat="37.82364806873286" lon="112.00611122876172">
        <ele>1183.16</ele>
        <time>2019-03-09T09:39:59.790000Z</time>
      </trkpt>
      <trkpt lat="37.82357065399165" lon="112.00608224797246">
        <ele>1182.77</ele>
        <time>2019-03-09T09:40:02.790000Z</time>
      </trkpt>
      <trkpt lat="37.82321548823491" lon="112.00608296422189">
        <ele>1188.21</ele>
        <time>2019-03-09T09:40:14.790000Z</time>
      </trkpt>
      <trkpt lat="37.823130395152155" lon="112.0060863791763">
        <ele>1188.94</ele>
        <time>2019-03-09T09:40:17.790000Z</time>
      </trkpt>
      <trkpt lat="37.82314893810481" lon="112.00609915593768">
        <ele>1189.15</ele>
        <time>2019-03-09T09:40:23.790000Z</time>
      </trkpt>
      <trkpt lat="37.82336736938027" lon="112.00608175099195">
        <ele>1182.09</ele>
        <time>2019-03-09T09:40:29.790000Z</time>
      </trkpt>
      <trkpt lat="37.82365692266459" lon="112.00607562172613">
        <ele>1185.48</ele>
        <time>2019-03-09T09:40:38.790000Z</time>
      </trkpt>
      <trkpt lat="37.82393347203466" lon="112.00611456548286">
        <ele>1178.07</ele>
        <time>2019-03-09T09:40:47.790000Z</time>
      </trkpt>
      <trkpt lat="37.824249181033785" lon="112.00621785317784">
        <ele>1183.3</ele>
        <time>2019-03-09T09:40:59.790000Z</time>
      </trkpt>
      <trkpt lat="37.82440486097373" lon="112.00627851277478">
        <ele>1184.26</ele>
        <time>2019-03-09T09:41:05.790000Z</time>
      </trkpt>
      <trkpt lat="37.82467841091958" lon="112.00632756521777">
        <ele>1186.65</ele>
        <time>2019-03-09T09:41:14.790000Z</time>
      </trkpt>
      <trkpt lat="37.824948409785925" lon="112.00637316059479">
        <ele>1184.18</ele>
        <time>2019-03-09T09:41:23.790000Z</time>
      </trkpt>
      <trkpt lat="37.82523486894537" lon="112.00641642151128">
        <ele>1184.45</ele>
        <time>2019-03-09T09:41:32.790000Z</time>
      </trkpt>
      <trkpt lat="37.82550137035082" lon="112.00648280700247">
        <ele>1183.75</ele>
        <time>2019-03-09T09:41:41.790000Z</time>
      </trkpt>
      <trkpt lat="37.825786416304915" lon="112.00650212378075">
        <ele>1183.21</ele>
        <time>2019-03-09T09:41:50.790000Z</time>
      </trkpt>
      <trkpt lat="37.826058154386665" lon="112.00652258937046">
        <ele>1183.16</ele>
        <time>2019-03-09T09:41:59.790000Z</time>
      </trkpt>
      <trkpt lat="37.826332677267025" lon="112.00647800339428">
        <ele>1184.2</ele>
        <time>2019-03-09T09:42:08.790000Z</time>
      </trkpt>
      <trkpt lat="37.8264363920851" lon="112.006450545304">
        <ele>1185.7</ele>
        <time>2019-03-09T09:42:11.790000Z</time>
      </trkpt>
      <trkpt lat="37.82679696971548" lon="112.00640626129645">
        <ele>1180.21</ele>
        <time>2019-03-09T09:42:23.790000Z</time>
      </trkpt>
      <trkpt lat="37.82714921087931" lon="112.00636849037666">
        <ele>1174.05</ele>
        <time>2019-03-09T09:42:35.790000Z</time>
      </trkpt>
      <trkpt lat="37.82744301988983" lon="112.00632463343396">
        <ele>1168.17</ele>
        <time>2019-03-09T09:42:44.790000Z</time>
      </trkpt>
      <trkpt lat="37.82773090692467" lon="112.00628228500189">
        <ele>1169.75</ele>
        <time>2019-03-09T09:42:53.790000Z</time>
      </trkpt>
      <trkpt lat="37.82801581453336" lon="112.006242109369">
        <ele>1166.73</ele>
        <time>2019-03-09T09:43:02.790000Z</time>
      </trkpt>
      <trkpt lat="37.828366433584534" lon="112.00619773780258">
        <ele>1169.12</ele>
        <time>2019-03-09T09:43:14.790000Z</time>
      </trkpt>
      <trkpt lat="37.82868237576863" lon="112.0061767910106">
        <ele>1166.82</ele>
        <time>2019-03-09T09:43:23.790000Z</time>
      </trkpt>
      <trkpt lat="37.82902188329933" lon="112.00617166174632">
        <ele>1173.68</ele>
        <time>2019-03-09T09:43:32.790000Z</time>
      </trkpt>
      <trkpt lat="37.829368537636846" lon="112.00617496694593">
        <ele>1169.88</ele>
        <time>2019-03-09T09:43:44.790000Z</time>
      </trkpt>
      <trkpt lat="37.82967624811185" lon="112.00616532799037">
        <ele>1171.47</ele>
        <time>2019-03-09T09:43:53.790000Z</time>
      </trkpt>
      <trkpt lat="37.82998220967759" lon="112.00615095336212">
        <ele>1167.66</ele>
        <time>2019-03-09T09:44:02.890000Z</time>
      </trkpt>
      <trkpt lat="37.83026690681964" lon="112.00617260495774">
        <ele>1164.07</ele>
        <time>2019-03-09T09:44:11.790000Z</time>
      </trkpt>
      <trkpt lat="37.83055254113644" lon="112.00619234199156">
        <ele>1163.34</ele>
        <time>2019-03-09T09:44:20.790000Z</time>
      </trkpt>
      <trkpt lat="37.83085087747013" lon="112.00617084296192">
        <ele>1161.18</ele>
        <time>2019-03-09T09:44:29.790000Z</time>
      </trkpt>
      <trkpt lat="37.83120402710981" lon="112.00617263095423">
        <ele>1160.95</ele>
        <time>2019-03-09T09:44:41.790000Z</time>
      </trkpt>
      <trkpt lat="37.83151763506617" lon="112.00614913510826">
        <ele>1159.52</ele>
        <time>2019-03-09T09:44:50.790000Z</time>
      </trkpt>
      <trkpt lat="37.83179431870989" lon="112.00614087078408">
        <ele>1161.71</ele>
        <time>2019-03-09T09:44:59.790000Z</time>
      </trkpt>
      <trkpt lat="37.832113276111144" lon="112.00612807462355">
        <ele>1158.27</ele>
        <time>2019-03-09T09:45:11.790000Z</time>
      </trkpt>
      <trkpt lat="37.832400912281784" lon="112.00617741453343">
        <ele>1161.01</ele>
        <time>2019-03-09T09:45:20.790000Z</time>
      </trkpt>
      <trkpt lat="37.8326548590893" lon="112.00629604527319">
        <ele>1161.55</ele>
        <time>2019-03-09T09:45:29.790000Z</time>
      </trkpt>
      <trkpt lat="37.83293442955597" lon="112.00638905515926">
        <ele>1161.44</ele>
        <time>2019-03-09T09:45:38.790000Z</time>
      </trkpt>
      <trkpt lat="37.83322199526363" lon="112.00648299684647">
        <ele>1161.2</ele>
        <time>2019-03-09T09:45:47.790000Z</time>
      </trkpt>
      <trkpt lat="37.83341988448392" lon="112.00656669783771">
        <ele>1161.32</ele>
        <time>2019-03-09T09:45:53.790000Z</time>
      </trkpt>
      <trkpt lat="37.8337171237496" lon="112.00665255966706">
        <ele>1161.97</ele>
        <time>2019-03-09T09:46:02.790000Z</time>
      </trkpt>
      <trkpt lat="37.83397052210191" lon="112.00673952560724">
        <ele>1158.72</ele>
        <time>2019-03-09T09:46:11.790000Z</time>
      </trkpt>
      <trkpt lat="37.83404565052537" lon="112.006776330871">
        <ele>1157.53</ele>
        <time>2019-03-09T09:46:14.790000Z</time>
      </trkpt>
      <trkpt lat="37.83432534105931" lon="112.00687697051906">
        <ele>1156.76</ele>
        <time>2019-03-09T09:46:23.790000Z</time>
      </trkpt>
      <trkpt lat="37.8346264181909" lon="112.00696127291879">
        <ele>1156.63</ele>
        <time>2019-03-09T09:46:32.790000Z</time>
      </trkpt>
      <trkpt lat="37.83472067210653" lon="112.00697478917346">
        <ele>1155.97</ele>
        <time>2019-03-09T09:46:35.790000Z</time>
      </trkpt>
      <trkpt lat="37.83500865552518" lon="112.00691021985627">
        <ele>1155.67</ele>
        <time>2019-03-09T09:46:44.790000Z</time>
      </trkpt>
      <trkpt lat="37.83509573282562" lon="112.00690469891425">
        <ele>1154.09</ele>
        <time>2019-03-09T09:46:47.790000Z</time>
      </trkpt>
      <trkpt lat="37.83517258627792" lon="112.00691157335477">
        <ele>1153.92</ele>
        <time>2019-03-09T09:46:50.790000Z</time>
      </trkpt>
      <trkpt lat="37.835254207849374" lon="112.00692350391073">
        <ele>1153.9</ele>
        <time>2019-03-09T09:46:53.790000Z</time>
      </trkpt>
      <trkpt lat="37.83532300813507" lon="112.00698234474525">
        <ele>1154.0</ele>
        <time>2019-03-09T09:46:56.790000Z</time>
      </trkpt>
      <trkpt lat="37.83535623166477" lon="112.00708054217472">
        <ele>1152.01</ele>
        <time>2019-03-09T09:46:59.790000Z</time>
      </trkpt>
      <trkpt lat="37.83539510164862" lon="112.00717165405716">
        <ele>1152.27</ele>
        <time>2019-03-09T09:47:02.790000Z</time>
      </trkpt>
      <trkpt lat="37.83544672433484" lon="112.00726657047862">
        <ele>1151.73</ele>
        <time>2019-03-09T09:47:05.790000Z</time>
      </trkpt>
      <trkpt lat="37.83551911394337" lon="112.0073416799263">
        <ele>1153.44</ele>
        <time>2019-03-09T09:47:08.790000Z</time>
      </trkpt>
      <trkpt lat="37.835599931415565" lon="112.00737119036751">
        <ele>1154.67</ele>
        <time>2019-03-09T09:47:11.790000Z</time>
      </trkpt>
      <trkpt lat="37.835882046176394" lon="112.00742211799881">
        <ele>1159.11</ele>
        <time>2019-03-09T09:47:20.790000Z</time>
      </trkpt>
      <trkpt lat="37.83596175849701" lon="112.00744713075262">
        <ele>1157.95</ele>
        <time>2019-03-09T09:47:23.790000Z</time>
      </trkpt>
      <trkpt lat="37.83605907713014" lon="112.00746267977974">
        <ele>1157.82</ele>
        <time>2019-03-09T09:47:26.790000Z</time>
      </trkpt>
      <trkpt lat="37.83638209239435" lon="112.00749621457885">
        <ele>1153.83</ele>
        <time>2019-03-09T09:47:35.790000Z</time>
      </trkpt>
      <trkpt lat="37.8366987622769" lon="112.0076017819323">
        <ele>1150.95</ele>
        <time>2019-03-09T09:47:47.790000Z</time>
      </trkpt>
      <trkpt lat="37.83686086603748" lon="112.00768064544371">
        <ele>1150.35</ele>
        <time>2019-03-09T09:47:53.790000Z</time>
      </trkpt>
      <trkpt lat="37.83714739167155" lon="112.00777733360165">
        <ele>1150.62</ele>
        <time>2019-03-09T09:48:02.790000Z</time>
      </trkpt>
      <trkpt lat="37.837366496226096" lon="112.00784560547285">
        <ele>1150.72</ele>
        <time>2019-03-09T09:48:08.790000Z</time>
      </trkpt>
      <trkpt lat="37.83762361560261" lon="112.00796447262525">
        <ele>1148.06</ele>
        <time>2019-03-09T09:48:17.790000Z</time>
      </trkpt>
      <trkpt lat="37.83790110087725" lon="112.00808214387023">
        <ele>1151.05</ele>
        <time>2019-03-09T09:48:26.790000Z</time>
      </trkpt>
      <trkpt lat="37.838186343091515" lon="112.00819005983442">
        <ele>1147.74</ele>
        <time>2019-03-09T09:48:35.790000Z</time>
      </trkpt>
      <trkpt lat="37.83841333292119" lon="112.00824716018309">
        <ele>1149.41</ele>
        <time>2019-03-09T09:48:41.790000Z</time>
      </trkpt>
      <trkpt lat="37.83878085036488" lon="112.00822294314918">
        <ele>1147.93</ele>
        <time>2019-03-09T09:48:53.790000Z</time>
      </trkpt>
      <trkpt lat="37.838891736532865" lon="112.00819640846366">
        <ele>1147.5</ele>
        <time>2019-03-09T09:48:56.790000Z</time>
      </trkpt>
      <trkpt lat="37.839213554491444" lon="112.00815474074267">
        <ele>1149.82</ele>
        <time>2019-03-09T09:49:05.790000Z</time>
      </trkpt>
      <trkpt lat="37.83943276517531" lon="112.0081216734923">
        <ele>1147.79</ele>
        <time>2019-03-09T09:49:11.790000Z</time>
      </trkpt>
      <trkpt lat="37.83974177537139" lon="112.00812700306665">
        <ele>1147.71</ele>
        <time>2019-03-09T09:49:20.790000Z</time>
      </trkpt>
      <trkpt lat="37.840021869804396" lon="112.00806761465043">
        <ele>1148.68</ele>
        <time>2019-03-09T09:49:29.790000Z</time>
      </trkpt>
      <trkpt lat="37.84021720430005" lon="112.00803152591686">
        <ele>1148.05</ele>
        <time>2019-03-09T09:49:35.790000Z</time>
      </trkpt>
      <trkpt lat="37.84055631815831" lon="112.00806227365727">
        <ele>1141.43</ele>
        <time>2019-03-09T09:49:47.790000Z</time>
      </trkpt>
      <trkpt lat="37.84084154135231" lon="112.00811868226012">
        <ele>1141.86</ele>
        <time>2019-03-09T09:49:56.790000Z</time>
      </trkpt>
      <trkpt lat="37.84120915389484" lon="112.0081639843326">
        <ele>1138.24</ele>
        <time>2019-03-09T09:50:08.790000Z</time>
      </trkpt>
      <trkpt lat="37.84140258077288" lon="112.00815701735503">
        <ele>1137.62</ele>
        <time>2019-03-09T09:50:14.790000Z</time>
      </trkpt>
      <trkpt lat="37.84152217540758" lon="112.00810014214706">
        <ele>1139.11</ele>
        <time>2019-03-09T09:50:17.790000Z</time>
      </trkpt>
      <trkpt lat="37.841814859014704" lon="112.00797058762763">
        <ele>1139.59</ele>
        <time>2019-03-09T09:50:26.790000Z</time>
      </trkpt>
      <trkpt lat="37.841917472290554" lon="112.00791270570312">
        <ele>1139.46</ele>
        <time>2019-03-09T09:50:29.790000Z</time>
      </trkpt>
      <trkpt lat="37.84217971989511" lon="112.00775227042992">
        <ele>1134.68</ele>
        <time>2019-03-09T09:50:38.790000Z</time>
      </trkpt>
      <trkpt lat="37.84242188257228" lon="112.00759590708539">
        <ele>1134.86</ele>
        <time>2019-03-09T09:50:47.790000Z</time>
      </trkpt>
      <trkpt lat="37.84267427811092" lon="112.00746333782375">
        <ele>1130.97</ele>
        <time>2019-03-09T09:50:56.790000Z</time>
      </trkpt>
      <trkpt lat="37.84291184590913" lon="112.00726259738988">
        <ele>1132.08</ele>
        <time>2019-03-09T09:51:05.790000Z</time>
      </trkpt>
      <trkpt lat="37.8431430898681" lon="112.00706278940174">
        <ele>1131.63</ele>
        <time>2019-03-09T09:51:14.790000Z</time>
      </trkpt>
      <trkpt lat="37.84339592293612" lon="112.0068421303142">
        <ele>1129.19</ele>
        <time>2019-03-09T09:51:23.790000Z</time>
      </trkpt>
      <trkpt lat="37.843659599589564" lon="112.00663979582384">
        <ele>1133.48</ele>
        <time>2019-03-09T09:51:32.790000Z</time>
      </trkpt>
      <trkpt lat="37.843837343146696" lon="112.00648320529724">
        <ele>1132.0</ele>
        <time>2019-03-09T09:51:38.790000Z</time>
      </trkpt>
      <trkpt lat="37.84393422670879" lon="112.00641631358897">
        <ele>1131.71</ele>
        <time>2019-03-09T09:51:41.790000Z</time>
      </trkpt>
      <trkpt lat="37.844205577222155" lon="112.00629452254265">
        <ele>1133.18</ele>
        <time>2019-03-09T09:51:50.790000Z</time>
      </trkpt>
      <trkpt lat="37.84428377976388" lon="112.00625266574325">
        <ele>1133.08</ele>
        <time>2019-03-09T09:51:53.790000Z</time>
      </trkpt>
      <trkpt lat="37.84453779202288" lon="112.00612855517764">
        <ele>1131.75</ele>
        <time>2019-03-09T09:52:02.790000Z</time>
      </trkpt>
      <trkpt lat="37.844851348741884" lon="112.00619044023767">
        <ele>1133.25</ele>
        <time>2019-03-09T09:52:11.790000Z</time>
      </trkpt>
      <trkpt lat="37.844951278992" lon="112.00621835687451">
        <ele>1131.91</ele>
        <time>2019-03-09T09:52:14.790000Z</time>
      </trkpt>
      <trkpt lat="37.84525060537545" lon="112.00630996387089">
        <ele>1134.16</ele>
        <time>2019-03-09T09:52:23.790000Z</time>
      </trkpt>
      <trkpt lat="37.8455245424995" lon="112.00639676205563">
        <ele>1130.05</ele>
        <time>2019-03-09T09:52:32.790000Z</time>
      </trkpt>
      <trkpt lat="37.84585055774516" lon="112.006520290051">
        <ele>1132.52</ele>
        <time>2019-03-09T09:52:41.790000Z</time>
      </trkpt>
      <trkpt lat="37.84613796826271" lon="112.00661021960656">
        <ele>1131.31</ele>
        <time>2019-03-09T09:52:50.790000Z</time>
      </trkpt>
      <trkpt lat="37.846437291841845" lon="112.00666246256907">
        <ele>1127.71</ele>
        <time>2019-03-09T09:52:59.790000Z</time>
      </trkpt>
      <trkpt lat="37.8467628672446" lon="112.0067061401891">
        <ele>1130.37</ele>
        <time>2019-03-09T09:53:08.790000Z</time>
      </trkpt>
      <trkpt lat="37.847047914586994" lon="112.00673194718222">
        <ele>1129.08</ele>
        <time>2019-03-09T09:53:17.790000Z</time>
      </trkpt>
      <trkpt lat="37.847359884024826" lon="112.00675271085942">
        <ele>1124.45</ele>
        <time>2019-03-09T09:53:26.790000Z</time>
      </trkpt>
      <trkpt lat="37.84764443795741" lon="112.00678127344901">
        <ele>1120.91</ele>
        <time>2019-03-09T09:53:35.790000Z</time>
      </trkpt>
      <trkpt lat="37.8479569574621" lon="112.00681848850107">
        <ele>1122.36</ele>
        <time>2019-03-09T09:53:44.790000Z</time>
      </trkpt>
      <trkpt lat="37.848160222026195" lon="112.00684798282701">
        <ele>1123.18</ele>
        <time>2019-03-09T09:53:50.790000Z</time>
      </trkpt>
      <trkpt lat="37.84832988153912" lon="112.00696273539525">
        <ele>1122.24</ele>
        <time>2019-03-09T09:53:56.790000Z</time>
      </trkpt>
      <trkpt lat="37.84852538463219" lon="112.00722151881742">
        <ele>1118.53</ele>
        <time>2019-03-09T09:54:05.790000Z</time>
      </trkpt>
      <trkpt lat="37.848587391199196" lon="112.00732361633614">
        <ele>1117.9</ele>
        <time>2019-03-09T09:54:08.790000Z</time>
      </trkpt>
      <trkpt lat="37.84865415483702" lon="112.00743904893953">
        <ele>1119.37</ele>
        <time>2019-03-09T09:54:11.790000Z</time>
      </trkpt>
      <trkpt lat="37.84871775387771" lon="112.00754000836301">
        <ele>1119.02</ele>
        <time>2019-03-09T09:54:14.790000Z</time>
      </trkpt>
      <trkpt lat="37.84892362985271" lon="112.00785584627317">
        <ele>1119.9</ele>
        <time>2019-03-09T09:54:23.790000Z</time>
      </trkpt>
      <trkpt lat="37.84911467070307" lon="112.00814832350677">
        <ele>1121.35</ele>
        <time>2019-03-09T09:54:32.790000Z</time>
      </trkpt>
      <trkpt lat="37.84929585383422" lon="112.0084399424925">
        <ele>1117.81</ele>
        <time>2019-03-09T09:54:41.790000Z</time>
      </trkpt>
      <trkpt lat="37.84947155631722" lon="112.00872380690107">
        <ele>1116.4</ele>
        <time>2019-03-09T09:54:50.790000Z</time>
      </trkpt>
      <trkpt lat="37.84966017347351" lon="112.00902912957993">
        <ele>1114.46</ele>
        <time>2019-03-09T09:54:59.790000Z</time>
      </trkpt>
      <trkpt lat="37.84981805202649" lon="112.00934504524507">
        <ele>1116.64</ele>
        <time>2019-03-09T09:55:08.790000Z</time>
      </trkpt>
      <trkpt lat="37.8498547956408" lon="112.00945448538228">
        <ele>1115.95</ele>
        <time>2019-03-09T09:55:11.790000Z</time>
      </trkpt>
      <trkpt lat="37.849889028710095" lon="112.00984078603886">
        <ele>1116.44</ele>
        <time>2019-03-09T09:55:20.790000Z</time>
      </trkpt>
      <trkpt lat="37.84988261025095" lon="112.01008498710125">
        <ele>1115.16</ele>
        <time>2019-03-09T09:55:26.790000Z</time>
      </trkpt>
      <trkpt lat="37.84986391055696" lon="112.01048420735314">
        <ele>1111.63</ele>
        <time>2019-03-09T09:55:35.790000Z</time>
      </trkpt>
      <trkpt lat="37.849836239369914" lon="112.01085974304469">
        <ele>1109.6</ele>
        <time>2019-03-09T09:55:44.790000Z</time>
      </trkpt>
      <trkpt lat="37.84981635228978" lon="112.01124392947244">
        <ele>1109.69</ele>
        <time>2019-03-09T09:55:53.790000Z</time>
      </trkpt>
      <trkpt lat="37.849785879894014" lon="112.01161572813935">
        <ele>1108.53</ele>
        <time>2019-03-09T09:56:02.790000Z</time>
      </trkpt>
      <trkpt lat="37.84973454700749" lon="112.01198749052857">
        <ele>1106.88</ele>
        <time>2019-03-09T09:56:11.790000Z</time>
      </trkpt>
      <trkpt lat="37.849713468341896" lon="112.01237382087241">
        <ele>1109.05</ele>
        <time>2019-03-09T09:56:20.790000Z</time>
      </trkpt>
      <trkpt lat="37.849671871720446" lon="112.01274525372864">
        <ele>1109.89</ele>
        <time>2019-03-09T09:56:29.790000Z</time>
      </trkpt>
      <trkpt lat="37.84963638286856" lon="112.01311970188047">
        <ele>1109.58</ele>
        <time>2019-03-09T09:56:38.790000Z</time>
      </trkpt>
      <trkpt lat="37.84961545677116" lon="112.01350968690295">
        <ele>1107.65</ele>
        <time>2019-03-09T09:56:47.790000Z</time>
      </trkpt>
      <trkpt lat="37.84960289937764" lon="112.01390820290851">
        <ele>1110.04</ele>
        <time>2019-03-09T09:56:56.790000Z</time>
      </trkpt>
      <trkpt lat="37.84960390166317" lon="112.01405353758211">
        <ele>1110.83</ele>
        <time>2019-03-09T09:56:59.790000Z</time>
      </trkpt>
      <trkpt lat="37.849568982611885" lon="112.01443408953264">
        <ele>1109.37</ele>
        <time>2019-03-09T09:57:08.790000Z</time>
      </trkpt>
      <trkpt lat="37.84952060554407" lon="112.01483805653662">
        <ele>1108.34</ele>
        <time>2019-03-09T09:57:17.790000Z</time>
      </trkpt>
      <trkpt lat="37.849457223403704" lon="112.01521081431001">
        <ele>1107.6</ele>
        <time>2019-03-09T09:57:26.790000Z</time>
      </trkpt>
      <trkpt lat="37.84940565295171" lon="112.01557781025532">
        <ele>1104.58</ele>
        <time>2019-03-09T09:57:35.790000Z</time>
      </trkpt>
      <trkpt lat="37.84936141418049" lon="112.01596071714235">
        <ele>1105.12</ele>
        <time>2019-03-09T09:57:44.790000Z</time>
      </trkpt>
      <trkpt lat="37.84934135331669" lon="112.01634885511133">
        <ele>1105.87</ele>
        <time>2019-03-09T09:57:53.790000Z</time>
      </trkpt>
      <trkpt lat="37.849291164420045" lon="112.01674626545886">
        <ele>1107.95</ele>
        <time>2019-03-09T09:58:02.790000Z</time>
      </trkpt>
      <trkpt lat="37.84924598400366" lon="112.01712545155169">
        <ele>1104.74</ele>
        <time>2019-03-09T09:58:11.790000Z</time>
      </trkpt>
      <trkpt lat="37.849196627351866" lon="112.01751700808319">
        <ele>1107.01</ele>
        <time>2019-03-09T09:58:20.790000Z</time>
      </trkpt>
      <trkpt lat="37.84916549217109" lon="112.01787451683393">
        <ele>1109.07</ele>
        <time>2019-03-09T09:58:29.790000Z</time>
      </trkpt>
      <trkpt lat="37.84915362520592" lon="112.01798022850569">
        <ele>1109.06</ele>
        <time>2019-03-09T09:58:32.790000Z</time>
      </trkpt>
      <trkpt lat="37.84919668901635" lon="112.01794768596925">
        <ele>1106.72</ele>
        <time>2019-03-09T09:58:38.790000Z</time>
      </trkpt>
      <trkpt lat="37.849236954226114" lon="112.01761551819146">
        <ele>1106.04</ele>
        <time>2019-03-09T09:58:47.790000Z</time>
      </trkpt>
      <trkpt lat="37.84926910940507" lon="112.0172271429062">
        <ele>1103.38</ele>
        <time>2019-03-09T09:58:56.790000Z</time>
      </trkpt>
      <trkpt lat="37.84927528270231" lon="112.0170953592542">
        <ele>1105.94</ele>
        <time>2019-03-09T09:58:59.790000Z</time>
      </trkpt>
      <trkpt lat="37.84932504269938" lon="112.01671982683163">
        <ele>1109.03</ele>
        <time>2019-03-09T09:59:08.790000Z</time>
      </trkpt>
      <trkpt lat="37.84936852961585" lon="112.01637365539698">
        <ele>1112.17</ele>
        <time>2019-03-09T09:59:17.790000Z</time>
      </trkpt>
      <trkpt lat="37.84940881394574" lon="112.01592295035427">
        <ele>1107.06</ele>
        <time>2019-03-09T09:59:29.790000Z</time>
      </trkpt>
      <trkpt lat="37.84945866066607" lon="112.01555241000405">
        <ele>1108.38</ele>
        <time>2019-03-09T09:59:38.790000Z</time>
      </trkpt>
      <trkpt lat="37.84949193339568" lon="112.01532514936062">
        <ele>1107.9</ele>
        <time>2019-03-09T09:59:44.790000Z</time>
      </trkpt>
      <trkpt lat="37.84949760535317" lon="112.01518773723083">
        <ele>1110.21</ele>
        <time>2019-03-09T09:59:47.790000Z</time>
      </trkpt>
      <trkpt lat="37.84956562500591" lon="112.01475456588184">
        <ele>1107.1</ele>
        <time>2019-03-09T09:59:59.790000Z</time>
      </trkpt>
      <trkpt lat="37.8496062158868" lon="112.01440855926174">
        <ele>1107.38</ele>
        <time>2019-03-09T10:00:08.790000Z</time>
      </trkpt>
      <trkpt lat="37.84963909616175" lon="112.01407179841426">
        <ele>1106.29</ele>
        <time>2019-03-09T10:00:17.790000Z</time>
      </trkpt>
      <trkpt lat="37.84963684959015" lon="112.0139421623382">
        <ele>1107.02</ele>
        <time>2019-03-09T10:00:20.790000Z</time>
      </trkpt>
      <trkpt lat="37.84964744249448" lon="112.01369744453974">
        <ele>1107.69</ele>
        <time>2019-03-09T10:00:26.790000Z</time>
      </trkpt>
      <trkpt lat="37.84970904309626" lon="112.01333623997105">
        <ele>1109.28</ele>
        <time>2019-03-09T10:00:35.790000Z</time>
      </trkpt>
      <trkpt lat="37.849729702814734" lon="112.01298122125367">
        <ele>1105.98</ele>
        <time>2019-03-09T10:00:44.790000Z</time>
      </trkpt>
      <trkpt lat="37.849746626152694" lon="112.01261705881848">
        <ele>1106.88</ele>
        <time>2019-03-09T10:00:53.790000Z</time>
      </trkpt>
      <trkpt lat="37.84977426540756" lon="112.01225964863347">
        <ele>1107.94</ele>
        <time>2019-03-09T10:01:02.790000Z</time>
      </trkpt>
      <trkpt lat="37.84979446123481" lon="112.0118965163003">
        <ele>1107.94</ele>
        <time>2019-03-09T10:01:11.790000Z</time>
      </trkpt>
      <trkpt lat="37.84979466503271" lon="112.01150595753019">
        <ele>1107.96</ele>
        <time>2019-03-09T10:01:20.790000Z</time>
      </trkpt>
      <trkpt lat="37.84981922161065" lon="112.0111456724529">
        <ele>1106.12</ele>
        <time>2019-03-09T10:01:29.790000Z</time>
      </trkpt>
      <trkpt lat="37.84985601880822" lon="112.01078390800429">
        <ele>1104.49</ele>
        <time>2019-03-09T10:01:38.790000Z</time>
      </trkpt>
      <trkpt lat="37.849882946265396" lon="112.01041478387302">
        <ele>1106.8</ele>
        <time>2019-03-09T10:01:47.790000Z</time>
      </trkpt>
      <trkpt lat="37.849881681046746" lon="112.01015871092895">
        <ele>1105.53</ele>
        <time>2019-03-09T10:01:53.790000Z</time>
      </trkpt>
      <trkpt lat="37.84989829022914" lon="112.00979804919771">
        <ele>1108.03</ele>
        <time>2019-03-09T10:02:02.790000Z</time>
      </trkpt>
      <trkpt lat="37.84989942736087" lon="112.00956038793932">
        <ele>1112.0</ele>
        <time>2019-03-09T10:02:08.790000Z</time>
      </trkpt>
      <trkpt lat="37.849864929262594" lon="112.00931590896245">
        <ele>1111.75</ele>
        <time>2019-03-09T10:02:14.790000Z</time>
      </trkpt>
      <trkpt lat="37.84970928260664" lon="112.0089967266792">
        <ele>1111.84</ele>
        <time>2019-03-09T10:02:23.790000Z</time>
      </trkpt>
      <trkpt lat="37.849495066359566" lon="112.00868079444508">
        <ele>1114.9</ele>
        <time>2019-03-09T10:02:32.790000Z</time>
      </trkpt>
      <trkpt lat="37.84928467899334" lon="112.00840507648746">
        <ele>1114.93</ele>
        <time>2019-03-09T10:02:41.790000Z</time>
      </trkpt>
      <trkpt lat="37.84905420591261" lon="112.0080526300016">
        <ele>1113.13</ele>
        <time>2019-03-09T10:02:53.790000Z</time>
      </trkpt>
      <trkpt lat="37.848887661949576" lon="112.00778086268441">
        <ele>1114.17</ele>
        <time>2019-03-09T10:03:02.790000Z</time>
      </trkpt>
      <trkpt lat="37.84868941818484" lon="112.00748329814134">
        <ele>1114.31</ele>
        <time>2019-03-09T10:03:11.790000Z</time>
      </trkpt>
      <trkpt lat="37.84863493260102" lon="112.00740345839141">
        <ele>1114.74</ele>
        <time>2019-03-09T10:03:14.790000Z</time>
      </trkpt>
      <trkpt lat="37.848592330629586" lon="112.00741613128352">
        <ele>1117.61</ele>
        <time>2019-03-09T10:03:20.790000Z</time>
      </trkpt>
      <trkpt lat="37.84863566411212" lon="112.00749260734376">
        <ele>1117.24</ele>
        <time>2019-03-09T10:03:23.790000Z</time>
      </trkpt>
      <trkpt lat="37.84879710839271" lon="112.0077199314989">
        <ele>1120.66</ele>
        <time>2019-03-09T10:03:32.790000Z</time>
      </trkpt>
      <trkpt lat="37.8489734957119" lon="112.00799372330378">
        <ele>1119.22</ele>
        <time>2019-03-09T10:03:41.790000Z</time>
      </trkpt>
      <trkpt lat="37.849165913870706" lon="112.0082728459672">
        <ele>1117.54</ele>
        <time>2019-03-09T10:03:50.790000Z</time>
      </trkpt>
      <trkpt lat="37.84937595464326" lon="112.00859962640855">
        <ele>1117.23</ele>
        <time>2019-03-09T10:04:02.790000Z</time>
      </trkpt>
      <trkpt lat="37.84947903387067" lon="112.00878490770656">
        <ele>1118.92</ele>
        <time>2019-03-09T10:04:08.790000Z</time>
      </trkpt>
      <trkpt lat="37.84965365510341" lon="112.00905112296002">
        <ele>1120.16</ele>
        <time>2019-03-09T10:04:17.790000Z</time>
      </trkpt>
      <trkpt lat="37.8498192785704" lon="112.00934817479998">
        <ele>1121.6</ele>
        <time>2019-03-09T10:04:26.790000Z</time>
      </trkpt>
      <trkpt lat="37.84990127616174" lon="112.00967754018272">
        <ele>1116.71</ele>
        <time>2019-03-09T10:04:35.790000Z</time>
      </trkpt>
      <trkpt lat="37.84992494343699" lon="112.00992272765552">
        <ele>1114.78</ele>
        <time>2019-03-09T10:04:41.790000Z</time>
      </trkpt>
      <trkpt lat="37.849896537605154" lon="112.01018046655282">
        <ele>1115.62</ele>
        <time>2019-03-09T10:04:47.790000Z</time>
      </trkpt>
      <trkpt lat="37.849856603976846" lon="112.01052531405584">
        <ele>1113.03</ele>
        <time>2019-03-09T10:04:56.790000Z</time>
      </trkpt>
      <trkpt lat="37.849842688659955" lon="112.01089147809932">
        <ele>1112.62</ele>
        <time>2019-03-09T10:05:05.790000Z</time>
      </trkpt>
      <trkpt lat="37.84980815544201" lon="112.01127641617846">
        <ele>1111.29</ele>
        <time>2019-03-09T10:05:14.790000Z</time>
      </trkpt>
      <trkpt lat="37.84977238309732" lon="112.01154873853403">
        <ele>1111.16</ele>
        <time>2019-03-09T10:05:20.790000Z</time>
      </trkpt>
      <trkpt lat="37.84976430198465" lon="112.01178803817172">
        <ele>1108.72</ele>
        <time>2019-03-09T10:05:26.790000Z</time>
      </trkpt>
      <trkpt lat="37.849734604411125" lon="112.01192084631052">
        <ele>1107.92</ele>
        <time>2019-03-09T10:05:29.790000Z</time>
      </trkpt>
      <trkpt lat="37.84972165269534" lon="112.01204839920823">
        <ele>1109.04</ele>
        <time>2019-03-09T10:05:32.790000Z</time>
      </trkpt>
      <trkpt lat="37.84970830216795" lon="112.01245498983275">
        <ele>1109.09</ele>
        <time>2019-03-09T10:05:41.790000Z</time>
      </trkpt>
      <trkpt lat="37.849700532371564" lon="112.01284181658104">
        <ele>1113.22</ele>
        <time>2019-03-09T10:05:50.790000Z</time>
      </trkpt>
      <trkpt lat="37.84964708670125" lon="112.01327303053266">
        <ele>1109.21</ele>
        <time>2019-03-09T10:06:02.790000Z</time>
      </trkpt>
      <trkpt lat="37.849609596778095" lon="112.01363183282311">
        <ele>1109.65</ele>
        <time>2019-03-09T10:06:11.790000Z</time>
      </trkpt>
      <trkpt lat="37.849594712645825" lon="112.01401450466048">
        <ele>1110.44</ele>
        <time>2019-03-09T10:06:20.790000Z</time>
      </trkpt>
      <trkpt lat="37.84957099278527" lon="112.01438838296257">
        <ele>1109.4</ele>
        <time>2019-03-09T10:06:29.790000Z</time>
      </trkpt>
      <trkpt lat="37.849515632788986" lon="112.01478918730162">
        <ele>1110.57</ele>
        <time>2019-03-09T10:06:38.790000Z</time>
      </trkpt>
      <trkpt lat="37.84946006713233" lon="112.01516311129258">
        <ele>1105.76</ele>
        <time>2019-03-09T10:06:47.790000Z</time>
      </trkpt>
      <trkpt lat="37.849411442420646" lon="112.01552364779788">
        <ele>1102.83</ele>
        <time>2019-03-09T10:06:56.790000Z</time>
      </trkpt>
      <trkpt lat="37.8493848623385" lon="112.01591781083278">
        <ele>1108.89</ele>
        <time>2019-03-09T10:07:05.790000Z</time>
      </trkpt>
      <trkpt lat="37.84935626141787" lon="112.01630289144819">
        <ele>1104.44</ele>
        <time>2019-03-09T10:07:14.790000Z</time>
      </trkpt>
      <trkpt lat="37.849318929784125" lon="112.01670110463306">
        <ele>1104.74</ele>
        <time>2019-03-09T10:07:23.790000Z</time>
      </trkpt>
      <trkpt lat="37.84928278245669" lon="112.01707153854468">
        <ele>1106.21</ele>
        <time>2019-03-09T10:07:32.790000Z</time>
      </trkpt>
      <trkpt lat="37.84922869033594" lon="112.01743803314874">
        <ele>1104.28</ele>
        <time>2019-03-09T10:07:41.790000Z</time>
      </trkpt>
      <trkpt lat="37.849190313000506" lon="112.01782520579627">
        <ele>1107.14</ele>
        <time>2019-03-09T10:07:50.790000Z</time>
      </trkpt>
      <trkpt lat="37.84914179630964" lon="112.01822523995921">
        <ele>1104.52</ele>
        <time>2019-03-09T10:07:59.790000Z</time>
      </trkpt>
      <trkpt lat="37.84913093721764" lon="112.01859600743242">
        <ele>1106.26</ele>
        <time>2019-03-09T10:08:08.790000Z</time>
      </trkpt>
      <trkpt lat="37.849091013840145" lon="112.01897144713784">
        <ele>1106.82</ele>
        <time>2019-03-09T10:08:17.790000Z</time>
      </trkpt>
      <trkpt lat="37.84909452812858" lon="112.01936637846154">
        <ele>1107.29</ele>
        <time>2019-03-09T10:08:26.790000Z</time>
      </trkpt>
      <trkpt lat="37.84910048769294" lon="112.01974117327303">
        <ele>1109.22</ele>
        <time>2019-03-09T10:08:35.790000Z</time>
      </trkpt>
      <trkpt lat="37.84910701172005" lon="112.02012570333004">
        <ele>1110.56</ele>
        <time>2019-03-09T10:08:44.790000Z</time>
      </trkpt>
      <trkpt lat="37.84911839739848" lon="112.0205073585847">
        <ele>1109.68</ele>
        <time>2019-03-09T10:08:53.790000Z</time>
      </trkpt>
      <trkpt lat="37.84913375178984" lon="112.02090406863188">
        <ele>1105.99</ele>
        <time>2019-03-09T10:09:02.790000Z</time>
      </trkpt>
      <trkpt lat="37.84911447138423" lon="112.0213068486176">
        <ele>1103.0</ele>
        <time>2019-03-09T10:09:11.790000Z</time>
      </trkpt>
      <trkpt lat="37.84910675857689" lon="112.02169974498754">
        <ele>1104.72</ele>
        <time>2019-03-09T10:09:20.790000Z</time>
      </trkpt>
      <trkpt lat="37.84911397721702" lon="112.0220760013208">
        <ele>1103.28</ele>
        <time>2019-03-09T10:09:29.790000Z</time>
      </trkpt>
      <trkpt lat="37.849093319629645" lon="112.02243559831277">
        <ele>1103.5</ele>
        <time>2019-03-09T10:09:38.790000Z</time>
      </trkpt>
      <trkpt lat="37.84908148638402" lon="112.02281344383711">
        <ele>1102.46</ele>
        <time>2019-03-09T10:09:47.890000Z</time>
      </trkpt>
      <trkpt lat="37.84907851147636" lon="112.0231853809291">
        <ele>1103.56</ele>
        <time>2019-03-09T10:09:56.790000Z</time>
      </trkpt>
      <trkpt lat="37.849076952482996" lon="112.0235862772042">
        <ele>1106.79</ele>
        <time>2019-03-09T10:10:05.790000Z</time>
      </trkpt>
      <trkpt lat="37.84908956369429" lon="112.02400282334982">
        <ele>1109.12</ele>
        <time>2019-03-09T10:10:14.790000Z</time>
      </trkpt>
      <trkpt lat="37.8490665630578" lon="112.0243960785739">
        <ele>1108.23</ele>
        <time>2019-03-09T10:10:23.790000Z</time>
      </trkpt>
      <trkpt lat="37.84902897848332" lon="112.02474889870737">
        <ele>1108.03</ele>
        <time>2019-03-09T10:10:32.790000Z</time>
      </trkpt>
      <trkpt lat="37.8489931099821" lon="112.02501299377563">
        <ele>1111.32</ele>
        <time>2019-03-09T10:10:38.790000Z</time>
      </trkpt>
      <trkpt lat="37.848970602741865" lon="112.02541717995753">
        <ele>1106.41</ele>
        <time>2019-03-09T10:10:47.790000Z</time>
      </trkpt>
      <trkpt lat="37.84895274424485" lon="112.02580056685136">
        <ele>1106.29</ele>
        <time>2019-03-09T10:10:56.790000Z</time>
      </trkpt>
      <trkpt lat="37.84894283444372" lon="112.02600087823343">
        <ele>1103.45</ele>
        <time>2019-03-09T10:11:02.790000Z</time>
      </trkpt>
      <trkpt lat="37.84888003099919" lon="112.02645432853882">
        <ele>1104.69</ele>
        <time>2019-03-09T10:11:14.790000Z</time>
      </trkpt>
      <trkpt lat="37.8488418706973" lon="112.02655553707064">
        <ele>1101.45</ele>
        <time>2019-03-09T10:11:17.790000Z</time>
      </trkpt>
      <trkpt lat="37.84868118540558" lon="112.0265480165564">
        <ele>1104.61</ele>
        <time>2019-03-09T10:11:23.790000Z</time>
      </trkpt>
      <trkpt lat="37.848496159778485" lon="112.02652473113577">
        <ele>1103.25</ele>
        <time>2019-03-09T10:11:29.790000Z</time>
      </trkpt>
      <trkpt lat="37.84837468545951" lon="112.02647366539617">
        <ele>1102.75</ele>
        <time>2019-03-09T10:11:32.790000Z</time>
      </trkpt>
      <trkpt lat="37.848057575006685" lon="112.02646231371634">
        <ele>1105.86</ele>
        <time>2019-03-09T10:11:41.790000Z</time>
      </trkpt>
      <trkpt lat="37.84796706980904" lon="112.02646118628124">
        <ele>1107.59</ele>
        <time>2019-03-09T10:11:44.790000Z</time>
      </trkpt>
      <trkpt lat="37.847882048729105" lon="112.02648891366839">
        <ele>1109.39</ele>
        <time>2019-03-09T10:11:47.790000Z</time>
      </trkpt>
      <trkpt lat="37.847775774157405" lon="112.02667942104705">
        <ele>1106.37</ele>
        <time>2019-03-09T10:11:53.790000Z</time>
      </trkpt>
      <trkpt lat="37.84770351544327" lon="112.02677907867034">
        <ele>1109.28</ele>
        <time>2019-03-09T10:11:56.790000Z</time>
      </trkpt>
      <trkpt lat="37.84763236521802" lon="112.02699637040052">
        <ele>1107.13</ele>
        <time>2019-03-09T10:12:02.790000Z</time>
      </trkpt>
      <trkpt lat="37.847595696492256" lon="112.02712811355842">
        <ele>1107.92</ele>
        <time>2019-03-09T10:12:05.790000Z</time>
      </trkpt>
      <trkpt lat="37.847499469984875" lon="112.02750586078261">
        <ele>1113.11</ele>
        <time>2019-03-09T10:12:14.790000Z</time>
      </trkpt>
      <trkpt lat="37.84746058059226" lon="112.02762688584217">
        <ele>1115.42</ele>
        <time>2019-03-09T10:12:17.790000Z</time>
      </trkpt>
      <trkpt lat="37.84742972828525" lon="112.0277185988525">
        <ele>1115.47</ele>
        <time>2019-03-09T10:12:20.790000Z</time>
      </trkpt>
      <trkpt lat="37.847394737022775" lon="112.02778634826038">
        <ele>1114.22</ele>
        <time>2019-03-09T10:12:23.790000Z</time>
      </trkpt>
      <trkpt lat="37.84733861168857" lon="112.02801050884496">
        <ele>1112.15</ele>
        <time>2019-03-09T10:12:35.790000Z</time>
      </trkpt>
      <trkpt lat="37.847342267003384" lon="112.02808880475638">
        <ele>1111.07</ele>
        <time>2019-03-09T10:12:41.790000Z</time>
      </trkpt>
      <trkpt lat="37.84735729670381" lon="112.02815404746053">
        <ele>1110.57</ele>
        <time>2019-03-09T10:12:47.790000Z</time>
      </trkpt>
      <trkpt lat="37.84738282354864" lon="112.0282099917238">
        <ele>1108.38</ele>
        <time>2019-03-09T10:12:53.790000Z</time>
      </trkpt>
      <trkpt lat="37.847370312928774" lon="112.02834587658785">
        <ele>1108.99</ele>
        <time>2019-03-09T10:13:02.790000Z</time>
      </trkpt>
      <trkpt lat="37.8473754921669" lon="112.02847110253154">
        <ele>1109.83</ele>
        <time>2019-03-09T10:13:11.790000Z</time>
      </trkpt>
    </trkseg>
  </trk>
</gpx>