<?xml version="1.0" encoding="UTF-8"?>
<gpx xmlns="http://www.topografix.com/GPX/1/1" xmlns:gpxtpx="http://www.garmin.com/xmlschemas/TrackPointExtension/v1" xmlns:xsi="http://www.w3.org/2001/XMLSchema-instance" xsi:schemaLocation="http://www.topografix.com/GPX/1/1 http://www.topografix.com/GPX/1/1/gpx.xsd" version="1.1" creator="gpx.py -- https://github.com/tkrajina/gpxpy">
  <trk>
    <name>gpx from keep</name>
    <type>Run</type>
    <trkseg>
      <trkpt lat="37.84710940461704" lon="112.02864921309995">
        <ele>1126.2</ele>
        <time>2016-11-10T00:49:33Z</time>
      </trkpt>
      <trkpt lat="37.847120986422645" lon="112.02857591731203">
        <ele>1125.6</ele>
        <time>2016-11-10T00:49:36Z</time>
      </trkpt>
      <trkpt lat="37.84717043202938" lon="112.02844402469562">
        <ele>1123.0</ele>
        <time>2016-11-10T00:49:42Z</time>
      </trkpt>
      <trkpt lat="37.84721168261586" lon="112.02826794386051">
        <ele>1122.0</ele>
        <time>2016-11-10T00:49:51Z</time>
      </trkpt>
      <trkpt lat="37.847245751455404" lon="112.02819929223116">
        <ele>1121.8</ele>
        <time>2016-11-10T00:49:54Z</time>
      </trkpt>
      <trkpt lat="37.84723118713217" lon="112.02803187393103">
        <ele>1119.8</ele>
        <time>2016-11-10T00:50:03Z</time>
      </trkpt>
      <trkpt lat="37.84725005653071" lon="112.02795033675568">
        <ele>1117.1</ele>
        <time>2016-11-10T00:50:09Z</time>
      </trkpt>
      <trkpt lat="37.84721615974409" lon="112.0278878485482">
        <ele>1114.2</ele>
        <time>2016-11-10T00:50:15Z</time>
      </trkpt>
      <trkpt lat="37.847207873851744" lon="112.0278332691532">
        <ele>1112.5</ele>
        <time>2016-11-10T00:50:18Z</time>
      </trkpt>
      <trkpt lat="37.84723003305644" lon="112.02776291754037">
        <ele>1112.3</ele>
        <time>2016-11-10T00:50:21Z</time>
      </trkpt>
      <trkpt lat="37.847212771031124" lon="112.02770209765158">
        <ele>1109.9</ele>
        <time>2016-11-10T00:50:27Z</time>
      </trkpt>
      <trkpt lat="37.84721399486084" lon="112.02764299558378">
        <ele>1108.5</ele>
        <time>2016-11-10T00:50:30Z</time>
      </trkpt>
      <trkpt lat="37.84725747700159" lon="112.02752495217428">
        <ele>1105.1</ele>
        <time>2016-11-10T00:50:36Z</time>
      </trkpt>
      <trkpt lat="37.847278167993196" lon="112.02742107003874">
        <ele>1101.7</ele>
        <time>2016-11-10T00:50:42Z</time>
      </trkpt>
      <trkpt lat="37.847386092093295" lon="112.02720194100397">
        <ele>1095.1</ele>
        <time>2016-11-10T00:50:54Z</time>
      </trkpt>
      <trkpt lat="37.84751808804279" lon="112.02707430357148">
        <ele>1091.5</ele>
        <time>2016-11-10T00:51:00Z</time>
      </trkpt>
      <trkpt lat="37.847655745003095" lon="112.02684412636336">
        <ele>1089.8</ele>
        <time>2016-11-10T00:51:12Z</time>
      </trkpt>
      <trkpt lat="37.847728670001295" lon="112.02680063432075">
        <ele>1090.1</ele>
        <time>2016-11-10T00:51:18Z</time>
      </trkpt>
      <trkpt lat="37.84777311441023" lon="112.02676782533851">
        <ele>1092.6</ele>
        <time>2016-11-10T00:51:21Z</time>
      </trkpt>
      <trkpt lat="37.84798555030382" lon="112.02676427671074">
        <ele>1093.0</ele>
        <time>2016-11-10T00:51:30Z</time>
      </trkpt>
      <trkpt lat="37.848132716570916" lon="112.02683886326403">
        <ele>1095.9</ele>
        <time>2016-11-10T00:51:39Z</time>
      </trkpt>
      <trkpt lat="37.848450795521785" lon="112.0267404827852">
        <ele>1107.3</ele>
        <time>2016-11-10T00:52:00Z</time>
      </trkpt>
      <trkpt lat="37.84854730714048" lon="112.02672536562858">
        <ele>1108.4</ele>
        <time>2016-11-10T00:52:03Z</time>
      </trkpt>
      <trkpt lat="37.848604606728145" lon="112.02673559065512">
        <ele>1108.9</ele>
        <time>2016-11-10T00:52:06Z</time>
      </trkpt>
      <trkpt lat="37.84863342765875" lon="112.02678883809719">
        <ele>1108.2</ele>
        <time>2016-11-10T00:52:12Z</time>
      </trkpt>
      <trkpt lat="37.848878693319584" lon="112.02675294073138">
        <ele>1117.5</ele>
        <time>2016-11-10T00:52:18Z</time>
      </trkpt>
      <trkpt lat="37.84893344839627" lon="112.02683870302822">
        <ele>1119.2</ele>
        <time>2016-11-10T00:52:24Z</time>
      </trkpt>
      <trkpt lat="37.848909089446835" lon="112.02709557544094">
        <ele>1118.7</ele>
        <time>2016-11-10T00:52:36Z</time>
      </trkpt>
      <trkpt lat="37.8488627649419" lon="112.02720022114966">
        <ele>1117.0</ele>
        <time>2016-11-10T00:52:39Z</time>
      </trkpt>
      <trkpt lat="37.84882348005354" lon="112.02757774533102">
        <ele>1114.9</ele>
        <time>2016-11-10T00:52:54Z</time>
      </trkpt>
      <trkpt lat="37.84880870654131" lon="112.02784360451344">
        <ele>1116.5</ele>
        <time>2016-11-10T00:53:06Z</time>
      </trkpt>
      <trkpt lat="37.848826592068264" lon="112.02790098663323">
        <ele>1118.7</ele>
        <time>2016-11-10T00:53:12Z</time>
      </trkpt>
      <trkpt lat="37.84879181025942" lon="112.028062771355">
        <ele>1121.3</ele>
        <time>2016-11-10T00:53:24Z</time>
      </trkpt>
      <trkpt lat="37.848759222335545" lon="112.02812759759722">
        <ele>1121.7</ele>
        <time>2016-11-10T00:53:27Z</time>
      </trkpt>
      <trkpt lat="37.84872280248842" lon="112.02855654417988">
        <ele>1124.8</ele>
        <time>2016-11-10T00:53:39Z</time>
      </trkpt>
      <trkpt lat="37.848705654743775" lon="112.02866085319204">
        <ele>1125.3</ele>
        <time>2016-11-10T00:53:45Z</time>
      </trkpt>
      <trkpt lat="37.84869899867193" lon="112.02897993614441">
        <ele>1125.4</ele>
        <time>2016-11-10T00:54:00Z</time>
      </trkpt>
      <trkpt lat="37.84869613742869" lon="112.02934055487923">
        <ele>1122.2</ele>
        <time>2016-11-10T00:54:15Z</time>
      </trkpt>
      <trkpt lat="37.84870099189046" lon="112.02945598678679">
        <ele>1118.9</ele>
        <time>2016-11-10T00:54:18Z</time>
      </trkpt>
      <trkpt lat="37.84867732772369" lon="112.02953546939631">
        <ele>1114.6</ele>
        <time>2016-11-10T00:54:21Z</time>
      </trkpt>
      <trkpt lat="37.848807545144545" lon="112.02968291611997">
        <ele>1117.3</ele>
        <time>2016-11-10T00:54:27Z</time>
      </trkpt>
      <trkpt lat="37.84885598731711" lon="112.02980572082636">
        <ele>1116.6</ele>
        <time>2016-11-10T00:54:33Z</time>
      </trkpt>
      <trkpt lat="37.848837710266814" lon="112.02998807086647">
        <ele>1113.5</ele>
        <time>2016-11-10T00:54:45Z</time>
      </trkpt>
      <trkpt lat="37.84888415699343" lon="112.03015412512768">
        <ele>1111.4</ele>
        <time>2016-11-10T00:54:54Z</time>
      </trkpt>
      <trkpt lat="37.84888934727123" lon="112.03026896924305">
        <ele>1109.2</ele>
        <time>2016-11-10T00:55:00Z</time>
      </trkpt>
      <trkpt lat="37.84895911063497" lon="112.03045572971558">
        <ele>1106.8</ele>
        <time>2016-11-10T00:55:09Z</time>
      </trkpt>
      <trkpt lat="37.848967182701905" lon="112.03053757390622">
        <ele>1104.3</ele>
        <time>2016-11-10T00:55:15Z</time>
      </trkpt>
      <trkpt lat="37.8489957967101" lon="112.0305872582544">
        <ele>1102.6</ele>
        <time>2016-11-10T00:55:18Z</time>
      </trkpt>
      <trkpt lat="37.849010778263015" lon="112.03073500920969">
        <ele>1100.9</ele>
        <time>2016-11-10T00:55:27Z</time>
      </trkpt>
      <trkpt lat="37.84913183948226" lon="112.03096742266675">
        <ele>1100.5</ele>
        <time>2016-11-10T00:55:39Z</time>
      </trkpt>
      <trkpt lat="37.84915654304426" lon="112.03106160355917">
        <ele>1100.9</ele>
        <time>2016-11-10T00:55:45Z</time>
      </trkpt>
      <trkpt lat="37.8491758820444" lon="112.03112048815026">
        <ele>1100.9</ele>
        <time>2016-11-10T00:55:48Z</time>
      </trkpt>
      <trkpt lat="37.84927215636798" lon="112.03121373233512">
        <ele>1105.3</ele>
        <time>2016-11-10T00:55:54Z</time>
      </trkpt>
      <trkpt lat="37.849300988053685" lon="112.03126328348256">
        <ele>1106.4</ele>
        <time>2016-11-10T00:55:57Z</time>
      </trkpt>
      <trkpt lat="37.84923379569655" lon="112.03151391186037">
        <ele>1111.8</ele>
        <time>2016-11-10T00:56:09Z</time>
      </trkpt>
      <trkpt lat="37.84920146991026" lon="112.03158468263693">
        <ele>1113.9</ele>
        <time>2016-11-10T00:56:15Z</time>
      </trkpt>
      <trkpt lat="37.84901109567649" lon="112.03172252886343">
        <ele>1114.8</ele>
        <time>2016-11-10T00:56:33Z</time>
      </trkpt>
      <trkpt lat="37.848849009008" lon="112.03182972693504">
        <ele>1111.4</ele>
        <time>2016-11-10T00:56:45Z</time>
      </trkpt>
      <trkpt lat="37.848746127771854" lon="112.03184069922328">
        <ele>1111.2</ele>
        <time>2016-11-10T00:56:54Z</time>
      </trkpt>
      <trkpt lat="37.84862517690732" lon="112.03196050842782">
        <ele>1111.8</ele>
        <time>2016-11-10T00:57:03Z</time>
      </trkpt>
      <trkpt lat="37.848506231914065" lon="112.03193765578524">
        <ele>1115.5</ele>
        <time>2016-11-10T00:57:09Z</time>
      </trkpt>
      <trkpt lat="37.84839028250883" lon="112.03195201757457">
        <ele>1116.6</ele>
        <time>2016-11-10T00:57:21Z</time>
      </trkpt>
      <trkpt lat="37.84831801421813" lon="112.0320146166435">
        <ele>1118.4</ele>
        <time>2016-11-10T00:57:27Z</time>
      </trkpt>
      <trkpt lat="37.84836761305801" lon="112.03205289300097">
        <ele>1117.7</ele>
        <time>2016-11-10T00:57:45Z</time>
      </trkpt>
      <trkpt lat="37.848428415643085" lon="112.0320117005508">
        <ele>1117.4</ele>
        <time>2016-11-10T00:57:51Z</time>
      </trkpt>
      <trkpt lat="37.84861320876292" lon="112.0319177718284">
        <ele>1116.6</ele>
        <time>2016-11-10T00:58:09Z</time>
      </trkpt>
      <trkpt lat="37.848788324402705" lon="112.03188659742608">
        <ele>1116.0</ele>
        <time>2016-11-10T00:58:24Z</time>
      </trkpt>
      <trkpt lat="37.848933995227945" lon="112.03178123308781">
        <ele>1113.4</ele>
        <time>2016-11-10T00:58:39Z</time>
      </trkpt>
      <trkpt lat="37.849114883718826" lon="112.03170641161553">
        <ele>1110.4</ele>
        <time>2016-11-10T00:58:57Z</time>
      </trkpt>
      <trkpt lat="37.849239128790096" lon="112.0316372815525">
        <ele>1109.5</ele>
        <time>2016-11-10T00:59:06Z</time>
      </trkpt>
      <trkpt lat="37.8492976484377" lon="112.0316440857003">
        <ele>1109.5</ele>
        <time>2016-11-10T00:59:09Z</time>
      </trkpt>
      <trkpt lat="37.849547567411484" lon="112.03183038228309">
        <ele>1105.0</ele>
        <time>2016-11-10T00:59:21Z</time>
      </trkpt>
      <trkpt lat="37.84966528488627" lon="112.0319117186764">
        <ele>1101.7</ele>
        <time>2016-11-10T00:59:27Z</time>
      </trkpt>
      <trkpt lat="37.849776613543185" lon="112.03213945277233">
        <ele>1098.3</ele>
        <time>2016-11-10T00:59:42Z</time>
      </trkpt>
      <trkpt lat="37.8498086816753" lon="112.0321833744344">
        <ele>1098.6</ele>
        <time>2016-11-10T00:59:45Z</time>
      </trkpt>
      <trkpt lat="37.849870362972894" lon="112.032231527607">
        <ele>1099.6</ele>
        <time>2016-11-10T00:59:51Z</time>
      </trkpt>
      <trkpt lat="37.84993580342689" lon="112.03237506133921">
        <ele>1101.3</ele>
        <time>2016-11-10T01:00:06Z</time>
      </trkpt>
      <trkpt lat="37.849991440378865" lon="112.03241933260597">
        <ele>1101.8</ele>
        <time>2016-11-10T01:00:12Z</time>
      </trkpt>
      <trkpt lat="37.85007081579349" lon="112.03252612678935">
        <ele>1101.0</ele>
        <time>2016-11-10T01:00:24Z</time>
      </trkpt>
      <trkpt lat="37.85017428347036" lon="112.03262941007229">
        <ele>1100.6</ele>
        <time>2016-11-10T01:00:33Z</time>
      </trkpt>
      <trkpt lat="37.85028322244611" lon="112.03272502356326">
        <ele>1104.8</ele>
        <time>2016-11-10T01:00:42Z</time>
      </trkpt>
      <trkpt lat="37.850323024781495" lon="112.0327822595942">
        <ele>1104.9</ele>
        <time>2016-11-10T01:00:48Z</time>
      </trkpt>
      <trkpt lat="37.85032999730488" lon="112.03285532868487">
        <ele>1106.7</ele>
        <time>2016-11-10T01:01:33Z</time>
      </trkpt>
      <trkpt lat="37.850370342807516" lon="112.03288832497518">
        <ele>1107.0</ele>
        <time>2016-11-10T01:01:36Z</time>
      </trkpt>
      <trkpt lat="37.850461802242144" lon="112.03289048824931">
        <ele>1107.8</ele>
        <time>2016-11-10T01:01:42Z</time>
      </trkpt>
      <trkpt lat="37.8505306287533" lon="112.03300302935054">
        <ele>1108.6</ele>
        <time>2016-11-10T01:01:51Z</time>
      </trkpt>
      <trkpt lat="37.850579961128666" lon="112.03304155805382">
        <ele>1109.0</ele>
        <time>2016-11-10T01:01:57Z</time>
      </trkpt>
      <trkpt lat="37.85068165032649" lon="112.03319618349579">
        <ele>1110.0</ele>
        <time>2016-11-10T01:02:09Z</time>
      </trkpt>
      <trkpt lat="37.850705453569006" lon="112.03331874602814">
        <ele>1112.3</ele>
        <time>2016-11-10T01:02:12Z</time>
      </trkpt>
      <trkpt lat="37.850927832726505" lon="112.03359651798624">
        <ele>1116.2</ele>
        <time>2016-11-10T01:02:30Z</time>
      </trkpt>
      <trkpt lat="37.85100688330709" lon="112.03371669439588">
        <ele>1115.5</ele>
        <time>2016-11-10T01:02:36Z</time>
      </trkpt>
      <trkpt lat="37.851105826811754" lon="112.03381907996668">
        <ele>1114.2</ele>
        <time>2016-11-10T01:02:45Z</time>
      </trkpt>
      <trkpt lat="37.85116403106083" lon="112.03385795351474">
        <ele>1113.6</ele>
        <time>2016-11-10T01:02:51Z</time>
      </trkpt>
      <trkpt lat="37.85131890281657" lon="112.03404158421195">
        <ele>1113.0</ele>
        <time>2016-11-10T01:03:06Z</time>
      </trkpt>
      <trkpt lat="37.85150396452096" lon="112.03432377925674">
        <ele>1113.3</ele>
        <time>2016-11-10T01:03:24Z</time>
      </trkpt>
      <trkpt lat="37.851657235634015" lon="112.03456073436517">
        <ele>1113.7</ele>
        <time>2016-11-10T01:03:39Z</time>
      </trkpt>
      <trkpt lat="37.8517822222968" lon="112.03470809979257">
        <ele>1114.3</ele>
        <time>2016-11-10T01:03:51Z</time>
      </trkpt>
      <trkpt lat="37.85193068040305" lon="112.03492076484375">
        <ele>1114.6</ele>
        <time>2016-11-10T01:04:09Z</time>
      </trkpt>
      <trkpt lat="37.852137361894044" lon="112.0351758443528">
        <ele>1112.6</ele>
        <time>2016-11-10T01:04:24Z</time>
      </trkpt>
      <trkpt lat="37.85226572955376" lon="112.03535206592572">
        <ele>1112.7</ele>
        <time>2016-11-10T01:04:33Z</time>
      </trkpt>
      <trkpt lat="37.8525743901675" lon="112.0358891478691">
        <ele>0.0</ele>
        <time>2016-11-10T01:04:57.200000Z</time>
      </trkpt>
      <trkpt lat="37.85262436383832" lon="112.03599604891322">
        <ele>1112.5</ele>
        <time>2016-11-10T01:05:00Z</time>
      </trkpt>
      <trkpt lat="37.85267582244155" lon="112.03602157183006">
        <ele>1111.6</ele>
        <time>2016-11-10T01:05:03Z</time>
      </trkpt>
      <trkpt lat="37.85290316886237" lon="112.03630606057379">
        <ele>1112.6</ele>
        <time>2016-11-10T01:05:24Z</time>
      </trkpt>
      <trkpt lat="37.853059309041015" lon="112.03656113408711">
        <ele>1113.5</ele>
        <time>2016-11-10T01:05:42Z</time>
      </trkpt>
      <trkpt lat="37.85309508540794" lon="112.03659476893213">
        <ele>1113.5</ele>
        <time>2016-11-10T01:05:45Z</time>
      </trkpt>
      <trkpt lat="37.85319016712715" lon="112.03682566774842">
        <ele>1114.7</ele>
        <time>2016-11-10T01:06:03Z</time>
      </trkpt>
      <trkpt lat="37.85322946474312" lon="112.03691062450467">
        <ele>1114.6</ele>
        <time>2016-11-10T01:06:09Z</time>
      </trkpt>
      <trkpt lat="37.85338454134016" lon="112.03711219928837">
        <ele>1113.6</ele>
        <time>2016-11-10T01:06:21Z</time>
      </trkpt>
      <trkpt lat="37.85343637527589" lon="112.03720958175188">
        <ele>1112.6</ele>
        <time>2016-11-10T01:06:27Z</time>
      </trkpt>
      <trkpt lat="37.85348718018391" lon="112.03726596319522">
        <ele>1111.6</ele>
        <time>2016-11-10T01:06:30Z</time>
      </trkpt>
      <trkpt lat="37.853520983892274" lon="112.03734551278806">
        <ele>1109.6</ele>
        <time>2016-11-10T01:06:36Z</time>
      </trkpt>
      <trkpt lat="37.85368075093672" lon="112.03752878464043">
        <ele>1105.9</ele>
        <time>2016-11-10T01:06:51Z</time>
      </trkpt>
      <trkpt lat="37.85383385139524" lon="112.03768096898291">
        <ele>1104.7</ele>
        <time>2016-11-10T01:07:03Z</time>
      </trkpt>
      <trkpt lat="37.85399913606211" lon="112.03790373508289">
        <ele>1102.5</ele>
        <time>2016-11-10T01:07:15Z</time>
      </trkpt>
      <trkpt lat="37.85407404012702" lon="112.03807646847538">
        <ele>1103.0</ele>
        <time>2016-11-10T01:07:24Z</time>
      </trkpt>
      <trkpt lat="37.85401638513336" lon="112.03817387185083">
        <ele>1102.9</ele>
        <time>2016-11-10T01:07:30Z</time>
      </trkpt>
      <trkpt lat="37.85395251583213" lon="112.03821401449487">
        <ele>1102.9</ele>
        <time>2016-11-10T01:07:33Z</time>
      </trkpt>
      <trkpt lat="37.853900298637164" lon="112.03826540317351">
        <ele>1102.9</ele>
        <time>2016-11-10T01:07:36Z</time>
      </trkpt>
      <trkpt lat="37.85385971787463" lon="112.03832946376703">
        <ele>1103.1</ele>
        <time>2016-11-10T01:07:39Z</time>
      </trkpt>
      <trkpt lat="37.85384525853132" lon="112.038395299523">
        <ele>1103.6</ele>
        <time>2016-11-10T01:07:42Z</time>
      </trkpt>
      <trkpt lat="37.85375589163358" lon="112.03850893224852">
        <ele>1104.7</ele>
        <time>2016-11-10T01:07:48Z</time>
      </trkpt>
      <trkpt lat="37.853682203468836" lon="112.03867143233884">
        <ele>1106.2</ele>
        <time>2016-11-10T01:08:00Z</time>
      </trkpt>
      <trkpt lat="37.853680967949956" lon="112.03873522289669">
        <ele>1106.8</ele>
        <time>2016-11-10T01:08:03Z</time>
      </trkpt>
      <trkpt lat="37.853542213902536" lon="112.03896648621576">
        <ele>1109.4</ele>
        <time>2016-11-10T01:08:18Z</time>
      </trkpt>
      <trkpt lat="37.853489684799904" lon="112.03898017220459">
        <ele>1122.7</ele>
        <time>2016-11-10T01:08:24Z</time>
      </trkpt>
      <trkpt lat="37.85345234224048" lon="112.03904985721285">
        <ele>1125.2</ele>
        <time>2016-11-10T01:08:30Z</time>
      </trkpt>
      <trkpt lat="37.85338878605278" lon="112.03910226491864">
        <ele>1127.3</ele>
        <time>2016-11-10T01:08:54Z</time>
      </trkpt>
      <trkpt lat="37.853338155954084" lon="112.03910323798449">
        <ele>1128.2</ele>
        <time>2016-11-10T01:09:00.300000Z</time>
      </trkpt>
      <trkpt lat="37.8532483593249" lon="112.03904219689495">
        <ele>1129.3</ele>
        <time>2016-11-10T01:09:10Z</time>
      </trkpt>
      <trkpt lat="37.85315016135672" lon="112.0389369202017">
        <ele>1130.6</ele>
        <time>2016-11-10T01:09:19Z</time>
      </trkpt>
      <trkpt lat="37.85305090051917" lon="112.03888510323863">
        <ele>1129.5</ele>
        <time>2016-11-10T01:09:25Z</time>
      </trkpt>
      <trkpt lat="37.85294293769586" lon="112.03878685921259">
        <ele>1127.0</ele>
        <time>2016-11-10T01:09:34Z</time>
      </trkpt>
      <trkpt lat="37.85290189934027" lon="112.0386915019089">
        <ele>1125.4</ele>
        <time>2016-11-10T01:09:40Z</time>
      </trkpt>
      <trkpt lat="37.85267916265134" lon="112.0384786362552">
        <ele>1116.8</ele>
        <time>2016-11-10T01:09:58Z</time>
      </trkpt>
      <trkpt lat="37.85250286786169" lon="112.0383381797442">
        <ele>1112.5</ele>
        <time>2016-11-10T01:10:13Z</time>
      </trkpt>
      <trkpt lat="37.852409977330694" lon="112.0382101472058">
        <ele>1106.0</ele>
        <time>2016-11-10T01:10:25Z</time>
      </trkpt>
      <trkpt lat="37.85229818976325" lon="112.03808293330576">
        <ele>1099.0</ele>
        <time>2016-11-10T01:10:37Z</time>
      </trkpt>
      <trkpt lat="37.85224471176715" lon="112.03791228128428">
        <ele>1097.5</ele>
        <time>2016-11-10T01:10:49Z</time>
      </trkpt>
      <trkpt lat="37.852144027029695" lon="112.03776063388044">
        <ele>1095.9</ele>
        <time>2016-11-10T01:11:01Z</time>
      </trkpt>
      <trkpt lat="37.85208500294043" lon="112.03758844821772">
        <ele>1090.3</ele>
        <time>2016-11-10T01:11:13Z</time>
      </trkpt>
      <trkpt lat="37.85203752565814" lon="112.03761110254669">
        <ele>1089.4</ele>
        <time>2016-11-10T01:11:16Z</time>
      </trkpt>
      <trkpt lat="37.85190179494754" lon="112.03748239107921">
        <ele>1087.1</ele>
        <time>2016-11-10T01:11:31Z</time>
      </trkpt>
      <trkpt lat="37.85186637737442" lon="112.03741292716364">
        <ele>1084.2</ele>
        <time>2016-11-10T01:11:37Z</time>
      </trkpt>
      <trkpt lat="37.85186463080776" lon="112.03731621623959">
        <ele>1084.2</ele>
        <time>2016-11-10T01:11:43Z</time>
      </trkpt>
      <trkpt lat="37.85171231468439" lon="112.03700434383776">
        <ele>1080.4</ele>
        <time>2016-11-10T01:11:58Z</time>
      </trkpt>
      <trkpt lat="37.85146764782014" lon="112.03674096594897">
        <ele>1077.6</ele>
        <time>2016-11-10T01:12:16Z</time>
      </trkpt>
      <trkpt lat="37.85141005361377" lon="112.03668667902792">
        <ele>1076.4</ele>
        <time>2016-11-10T01:12:22Z</time>
      </trkpt>
      <trkpt lat="37.85136056953972" lon="112.0366761771221">
        <ele>1077.4</ele>
        <time>2016-11-10T01:12:28Z</time>
      </trkpt>
      <trkpt lat="37.851353356659494" lon="112.0366121971973">
        <ele>1078.3</ele>
        <time>2016-11-10T01:12:34Z</time>
      </trkpt>
      <trkpt lat="37.851268035078384" lon="112.03645844663639">
        <ele>0.0</ele>
        <time>2016-11-10T01:12:51.400000Z</time>
      </trkpt>
      <trkpt lat="37.8514055390831" lon="112.03660435959353">
        <ele>0.0</ele>
        <time>2016-11-10T01:14:15Z</time>
      </trkpt>
      <trkpt lat="37.85130085328502" lon="112.03646075800349">
        <ele>0.0</ele>
        <time>2016-11-10T01:15:54Z</time>
      </trkpt>
      <trkpt lat="37.851147571985024" lon="112.0364742506789">
        <ele>1115.1</ele>
        <time>2016-11-10T01:16:07Z</time>
      </trkpt>
      <trkpt lat="37.851133320213386" lon="112.03638798603772">
        <ele>1124.0</ele>
        <time>2016-11-10T01:16:10Z</time>
      </trkpt>
      <trkpt lat="37.85108948826174" lon="112.03633183366959">
        <ele>1119.2</ele>
        <time>2016-11-10T01:16:16Z</time>
      </trkpt>
      <trkpt lat="37.85109559603577" lon="112.0362720479904">
        <ele>1120.6</ele>
        <time>2016-11-10T01:16:22Z</time>
      </trkpt>
      <trkpt lat="37.851072417717106" lon="112.03620798717256">
        <ele>1121.0</ele>
        <time>2016-11-10T01:16:28Z</time>
      </trkpt>
      <trkpt lat="37.85107034498108" lon="112.03608976490901">
        <ele>1125.4</ele>
        <time>2016-11-10T01:16:49Z</time>
      </trkpt>
      <trkpt lat="37.85112752640043" lon="112.03610929739821">
        <ele>1125.3</ele>
        <time>2016-11-10T01:17:25Z</time>
      </trkpt>
      <trkpt lat="37.85114073924679" lon="112.03602759408922">
        <ele>1125.7</ele>
        <time>2016-11-10T01:17:46Z</time>
      </trkpt>
      <trkpt lat="37.85110091863948" lon="112.03600081593852">
        <ele>1125.5</ele>
        <time>2016-11-10T01:17:58Z</time>
      </trkpt>
      <trkpt lat="37.85107420549589" lon="112.03605438509649">
        <ele>1124.6</ele>
        <time>2016-11-10T01:18:49Z</time>
      </trkpt>
      <trkpt lat="37.85105726443729" lon="112.03598918821265">
        <ele>1124.3</ele>
        <time>2016-11-10T01:18:58Z</time>
      </trkpt>
      <trkpt lat="37.85104411373912" lon="112.03604410838558">
        <ele>1124.0</ele>
        <time>2016-11-10T01:19:28Z</time>
      </trkpt>
      <trkpt lat="37.85099910296137" lon="112.03603248080283">
        <ele>1123.8</ele>
        <time>2016-11-10T01:19:40Z</time>
      </trkpt>
      <trkpt lat="37.85096746765818" lon="112.03598595262768">
        <ele>1123.7</ele>
        <time>2016-11-10T01:20:07Z</time>
      </trkpt>
      <trkpt lat="37.85092059234511" lon="112.03595944590728">
        <ele>1123.3</ele>
        <time>2016-11-10T01:20:13Z</time>
      </trkpt>
      <trkpt lat="37.850800808921036" lon="112.03578442529636">
        <ele>1121.7</ele>
        <time>2016-11-10T01:20:37Z</time>
      </trkpt>
      <trkpt lat="37.85075941928391" lon="112.03566151988916">
        <ele>1122.1</ele>
        <time>2016-11-10T01:20:43Z</time>
      </trkpt>
      <trkpt lat="37.85078227427502" lon="112.03559284228976">
        <ele>1123.1</ele>
        <time>2016-11-10T01:20:46Z</time>
      </trkpt>
      <trkpt lat="37.850753754894725" lon="112.03551189635047">
        <ele>1124.4</ele>
        <time>2016-11-10T01:21:07Z</time>
      </trkpt>
      <trkpt lat="37.85052223423502" lon="112.03529398859226">
        <ele>1120.1</ele>
        <time>2016-11-10T01:21:28Z</time>
      </trkpt>
      <trkpt lat="37.850437529077475" lon="112.03520229032263">
        <ele>1116.9</ele>
        <time>2016-11-10T01:21:37Z</time>
      </trkpt>
      <trkpt lat="37.85034455544467" lon="112.03501485216482">
        <ele>1111.4</ele>
        <time>2016-11-10T01:21:52Z</time>
      </trkpt>
      <trkpt lat="37.85019635263326" lon="112.0349057911625">
        <ele>1108.1</ele>
        <time>2016-11-10T01:22:01Z</time>
      </trkpt>
      <trkpt lat="37.850134820572876" lon="112.03479343008092">
        <ele>1105.9</ele>
        <time>2016-11-10T01:22:07Z</time>
      </trkpt>
      <trkpt lat="37.850153590655616" lon="112.03473779753642">
        <ele>1105.1</ele>
        <time>2016-11-10T01:22:13Z</time>
      </trkpt>
      <trkpt lat="37.85007955567421" lon="112.03471678925023">
        <ele>1103.7</ele>
        <time>2016-11-10T01:22:19Z</time>
      </trkpt>
      <trkpt lat="37.849972328839975" lon="112.03464541565069">
        <ele>1099.9</ele>
        <time>2016-11-10T01:22:31Z</time>
      </trkpt>
      <trkpt lat="37.849929404509" lon="112.03459617320658">
        <ele>1097.4</ele>
        <time>2016-11-10T01:22:37Z</time>
      </trkpt>
      <trkpt lat="37.84989972800155" lon="112.03441217619915">
        <ele>1094.8</ele>
        <time>2016-11-10T01:22:43Z</time>
      </trkpt>
      <trkpt lat="37.84975085652313" lon="112.03418373879002">
        <ele>1089.2</ele>
        <time>2016-11-10T01:23:01Z</time>
      </trkpt>
      <trkpt lat="37.84967051816596" lon="112.03401143785693">
        <ele>1087.7</ele>
        <time>2016-11-10T01:23:10Z</time>
      </trkpt>
      <trkpt lat="37.84965539666594" lon="112.03394172998831">
        <ele>1087.4</ele>
        <time>2016-11-10T01:23:16Z</time>
      </trkpt>
      <trkpt lat="37.8496111639035" lon="112.03390926121115">
        <ele>1087.3</ele>
        <time>2016-11-10T01:23:19Z</time>
      </trkpt>
      <trkpt lat="37.84945476272367" lon="112.03371209044595">
        <ele>1084.8</ele>
        <time>2016-11-10T01:23:37Z</time>
      </trkpt>
      <trkpt lat="37.849438694007134" lon="112.03362932925707">
        <ele>1084.6</ele>
        <time>2016-11-10T01:23:43Z</time>
      </trkpt>
      <trkpt lat="37.8493393666794" lon="112.03340346382649">
        <ele>1083.3</ele>
        <time>2016-11-10T01:24:01Z</time>
      </trkpt>
      <trkpt lat="37.84929910229665" lon="112.03335445820287">
        <ele>1082.8</ele>
        <time>2016-11-10T01:24:07Z</time>
      </trkpt>
      <trkpt lat="37.84920617412177" lon="112.0333517806123">
        <ele>1083.1</ele>
        <time>2016-11-10T01:24:16Z</time>
      </trkpt>
      <trkpt lat="37.849126838210054" lon="112.03341760137826">
        <ele>1083.0</ele>
        <time>2016-11-10T01:24:25.200000Z</time>
      </trkpt>
      <trkpt lat="37.84908029948348" lon="112.03344042480515">
        <ele>1083.1</ele>
        <time>2016-11-10T01:24:28Z</time>
      </trkpt>
      <trkpt lat="37.84903557183501" lon="112.03343986510376">
        <ele>1083.2</ele>
        <time>2016-11-10T01:24:31Z</time>
      </trkpt>
      <trkpt lat="37.84906243280442" lon="112.03332573948266">
        <ele>1083.4</ele>
        <time>2016-11-10T01:24:41Z</time>
      </trkpt>
      <trkpt lat="37.84895582137687" lon="112.0331770768214">
        <ele>1087.5</ele>
        <time>2016-11-10T01:24:47Z</time>
      </trkpt>
      <trkpt lat="37.84892981333286" lon="112.03309154727296">
        <ele>1091.6</ele>
        <time>2016-11-10T01:24:50Z</time>
      </trkpt>
      <trkpt lat="37.84893496103579" lon="112.0330338574262">
        <ele>1094.4</ele>
        <time>2016-11-10T01:24:53Z</time>
      </trkpt>
      <trkpt lat="37.84898597605275" lon="112.03297319648911">
        <ele>1096.5</ele>
        <time>2016-11-10T01:24:56Z</time>
      </trkpt>
      <trkpt lat="37.84898482896761" lon="112.03290285900988">
        <ele>1099.4</ele>
        <time>2016-11-10T01:25:05Z</time>
      </trkpt>
      <trkpt lat="37.84893522025956" lon="112.0327541361013">
        <ele>1106.8</ele>
        <time>2016-11-10T01:25:17Z</time>
      </trkpt>
      <trkpt lat="37.848945881307614" lon="112.03281116485546">
        <ele>1112.3</ele>
        <time>2016-11-10T01:25:26Z</time>
      </trkpt>
      <trkpt lat="37.84900076034154" lon="112.03282854261852">
        <ele>1114.4</ele>
        <time>2016-11-10T01:25:35Z</time>
      </trkpt>
      <trkpt lat="37.84904868868084" lon="112.03281517842572">
        <ele>1115.9</ele>
        <time>2016-11-10T01:25:59Z</time>
      </trkpt>
      <trkpt lat="37.84901351527778" lon="112.03277514859555">
        <ele>1116.1</ele>
        <time>2016-11-10T01:26:26Z</time>
      </trkpt>
      <trkpt lat="37.848976993246744" lon="112.03273187299129">
        <ele>1116.0</ele>
        <time>2016-11-10T01:26:35Z</time>
      </trkpt>
      <trkpt lat="37.848917809212104" lon="112.03275520208132">
        <ele>1115.7</ele>
        <time>2016-11-10T01:26:44Z</time>
      </trkpt>
      <trkpt lat="37.84888893957793" lon="112.03268062380826">
        <ele>1115.7</ele>
        <time>2016-11-10T01:26:50Z</time>
      </trkpt>
      <trkpt lat="37.84889179458955" lon="112.03259679550253">
        <ele>1115.4</ele>
        <time>2016-11-10T01:26:56Z</time>
      </trkpt>
      <trkpt lat="37.848850172759725" lon="112.03243748631664">
        <ele>1114.0</ele>
        <time>2016-11-10T01:27:11Z</time>
      </trkpt>
      <trkpt lat="37.848911473871155" lon="112.03245899169794">
        <ele>1113.9</ele>
        <time>2016-11-10T01:27:17Z</time>
      </trkpt>
      <trkpt lat="37.8487919717846" lon="112.03250332394467">
        <ele>1115.9</ele>
        <time>2016-11-10T01:27:44Z</time>
      </trkpt>
      <trkpt lat="37.84881328434791" lon="112.03244164803273">
        <ele>1115.9</ele>
        <time>2016-11-10T01:27:59Z</time>
      </trkpt>
      <trkpt lat="37.84876018042031" lon="112.03241162930091">
        <ele>1115.8</ele>
        <time>2016-11-10T01:28:35Z</time>
      </trkpt>
      <trkpt lat="37.84876493917332" lon="112.03235157857326">
        <ele>1116.7</ele>
        <time>2016-11-10T01:28:47Z</time>
      </trkpt>
      <trkpt lat="37.84870521283078" lon="112.03245023531768">
        <ele>1117.4</ele>
        <time>2016-11-10T01:28:59Z</time>
      </trkpt>
      <trkpt lat="37.84863726298757" lon="112.03246544987866">
        <ele>1118.3</ele>
        <time>2016-11-10T01:29:11Z</time>
      </trkpt>
      <trkpt lat="37.84851518645421" lon="112.03230021448884">
        <ele>1117.3</ele>
        <time>2016-11-10T01:29:32Z</time>
      </trkpt>
      <trkpt lat="37.848441609677735" lon="112.03221014855062">
        <ele>1115.5</ele>
        <time>2016-11-10T01:29:44Z</time>
      </trkpt>
      <trkpt lat="37.84839078100325" lon="112.03209973267946">
        <ele>1114.4</ele>
        <time>2016-11-10T01:29:59Z</time>
      </trkpt>
      <trkpt lat="37.84825349527376" lon="112.03191668637105">
        <ele>1111.0</ele>
        <time>2016-11-10T01:30:17Z</time>
      </trkpt>
      <trkpt lat="37.848143390779434" lon="112.03178659356581">
        <ele>1108.7</ele>
        <time>2016-11-10T01:30:29Z</time>
      </trkpt>
      <trkpt lat="37.84801811266887" lon="112.03164145484912">
        <ele>1107.1</ele>
        <time>2016-11-10T01:30:44Z</time>
      </trkpt>
      <trkpt lat="37.84792477442062" lon="112.03155924405141">
        <ele>1105.0</ele>
        <time>2016-11-10T01:30:56Z</time>
      </trkpt>
      <trkpt lat="37.84781967165913" lon="112.03145007966454">
        <ele>1101.5</ele>
        <time>2016-11-10T01:31:11Z</time>
      </trkpt>
      <trkpt lat="37.847782140953605" lon="112.03139262257338">
        <ele>1099.8</ele>
        <time>2016-11-10T01:31:20Z</time>
      </trkpt>
      <trkpt lat="37.84777904005806" lon="112.03132765628769">
        <ele>1098.9</ele>
        <time>2016-11-10T01:31:26Z</time>
      </trkpt>
      <trkpt lat="37.84771738749208" lon="112.03120255610374">
        <ele>1100.0</ele>
        <time>2016-11-10T01:31:38Z</time>
      </trkpt>
      <trkpt lat="37.8475822669039" lon="112.03102642104004">
        <ele>1096.3</ele>
        <time>2016-11-10T01:31:56Z</time>
      </trkpt>
      <trkpt lat="37.84751834784835" lon="112.03077478434538">
        <ele>1094.0</ele>
        <time>2016-11-10T01:32:14Z</time>
      </trkpt>
      <trkpt lat="37.84745070227343" lon="112.03058951111129">
        <ele>1093.8</ele>
        <time>2016-11-10T01:32:23Z</time>
      </trkpt>
      <trkpt lat="37.84745070227343" lon="112.03058951111129">
        <ele>1093.8</ele>
        <time>2016-11-10T01:32:23Z</time>
      </trkpt>
    </trkseg>
  </trk>
</gpx>