<?xml version="1.0" encoding="UTF-8"?>
<gpx xmlns="http://www.topografix.com/GPX/1/1" xmlns:gpxtpx="http://www.garmin.com/xmlschemas/TrackPointExtension/v1" xmlns:xsi="http://www.w3.org/2001/XMLSchema-instance" xsi:schemaLocation="http://www.topografix.com/GPX/1/1 http://www.topografix.com/GPX/1/1/gpx.xsd" version="1.1" creator="gpx.py -- https://github.com/tkrajina/gpxpy">
  <trk>
    <name>gpx from keep</name>
    <type>Run</type>
    <trkseg>
      <trkpt lat="37.84746607027404" lon="112.02954873228356">
        <ele>1146.0</ele>
        <time>2018-06-21T10:58:08.720000Z</time>
      </trkpt>
      <trkpt lat="37.84743951917837" lon="112.03007344825798">
        <ele>1123.0</ele>
        <time>2018-06-21T10:58:12.020000Z</time>
      </trkpt>
      <trkpt lat="37.847402646589934" lon="112.03026284188738">
        <ele>1122.0</ele>
        <time>2018-06-21T10:58:18.020000Z</time>
      </trkpt>
      <trkpt lat="37.84744306600463" lon="112.03032685592574">
        <ele>1120.0</ele>
        <time>2018-06-21T10:58:21.020000Z</time>
      </trkpt>
      <trkpt lat="37.84747771204434" lon="112.03042141498499">
        <ele>1118.0</ele>
        <time>2018-06-21T10:58:24.020000Z</time>
      </trkpt>
      <trkpt lat="37.84757275001171" lon="112.03075506759863">
        <ele>1117.0</ele>
        <time>2018-06-21T10:58:33.120000Z</time>
      </trkpt>
      <trkpt lat="37.84760640796267" lon="112.03085046527123">
        <ele>1117.0</ele>
        <time>2018-06-21T10:58:36.020000Z</time>
      </trkpt>
      <trkpt lat="37.847662593755246" lon="112.03101730851633">
        <ele>1118.0</ele>
        <time>2018-06-21T10:58:42.020000Z</time>
      </trkpt>
      <trkpt lat="37.847849091181686" lon="112.03131625082068">
        <ele>1109.0</ele>
        <time>2018-06-21T10:58:54.120000Z</time>
      </trkpt>
      <trkpt lat="37.84801693387255" lon="112.031576438798">
        <ele>1106.0</ele>
        <time>2018-06-21T10:59:03.120000Z</time>
      </trkpt>
      <trkpt lat="37.84805197735263" lon="112.03166867114257">
        <ele>1105.0</ele>
        <time>2018-06-21T10:59:06.120000Z</time>
      </trkpt>
      <trkpt lat="37.84810337225016" lon="112.03173141845772">
        <ele>1104.0</ele>
        <time>2018-06-21T10:59:09.120000Z</time>
      </trkpt>
      <trkpt lat="37.84818146447634" lon="112.03188393932268">
        <ele>1107.0</ele>
        <time>2018-06-21T10:59:15.020000Z</time>
      </trkpt>
      <trkpt lat="37.848228299980725" lon="112.03194090879566">
        <ele>1106.0</ele>
        <time>2018-06-21T10:59:18.020000Z</time>
      </trkpt>
      <trkpt lat="37.848287995514795" lon="112.03194009723508">
        <ele>1104.0</ele>
        <time>2018-06-21T10:59:21.120000Z</time>
      </trkpt>
      <trkpt lat="37.84831773979573" lon="112.03199845375885">
        <ele>1104.0</ele>
        <time>2018-06-21T10:59:24.120000Z</time>
      </trkpt>
      <trkpt lat="37.8483400440186" lon="112.03208001961264">
        <ele>1105.0</ele>
        <time>2018-06-21T10:59:27.120000Z</time>
      </trkpt>
      <trkpt lat="37.84844455973355" lon="112.03222421390967">
        <ele>1105.0</ele>
        <time>2018-06-21T10:59:33.120000Z</time>
      </trkpt>
      <trkpt lat="37.84857170548305" lon="112.0324873911335">
        <ele>1104.0</ele>
        <time>2018-06-21T10:59:42.120000Z</time>
      </trkpt>
      <trkpt lat="37.84875395690045" lon="112.03275750712754">
        <ele>1105.0</ele>
        <time>2018-06-21T10:59:51.120000Z</time>
      </trkpt>
      <trkpt lat="37.84880528637802" lon="112.03282890037245">
        <ele>1105.0</ele>
        <time>2018-06-21T10:59:54.120000Z</time>
      </trkpt>
      <trkpt lat="37.848880874976615" lon="112.03287416785476">
        <ele>1106.0</ele>
        <time>2018-06-21T10:59:57.120000Z</time>
      </trkpt>
      <trkpt lat="37.849062627006546" lon="112.03304897758287">
        <ele>1104.0</ele>
        <time>2018-06-21T11:00:09.020000Z</time>
      </trkpt>
      <trkpt lat="37.84908675929765" lon="112.03311543130765">
        <ele>1105.0</ele>
        <time>2018-06-21T11:00:12.120000Z</time>
      </trkpt>
      <trkpt lat="37.84915573616193" lon="112.03316377719163">
        <ele>1104.0</ele>
        <time>2018-06-21T11:00:18.020000Z</time>
      </trkpt>
      <trkpt lat="37.849174766115034" lon="112.03322118993337">
        <ele>1105.0</ele>
        <time>2018-06-21T11:00:21.120000Z</time>
      </trkpt>
      <trkpt lat="37.84929747402237" lon="112.03337561304602">
        <ele>1107.0</ele>
        <time>2018-06-21T11:00:33.020000Z</time>
      </trkpt>
      <trkpt lat="37.849348080654515" lon="112.03337554408448">
        <ele>1106.0</ele>
        <time>2018-06-21T11:00:36.120000Z</time>
      </trkpt>
      <trkpt lat="37.84942300336993" lon="112.03347509553224">
        <ele>1105.0</ele>
        <time>2018-06-21T11:00:42.120000Z</time>
      </trkpt>
      <trkpt lat="37.84947621141814" lon="112.03351600358934">
        <ele>1104.0</ele>
        <time>2018-06-21T11:00:45.120000Z</time>
      </trkpt>
      <trkpt lat="37.849529215978954" lon="112.03351762718067">
        <ele>1103.0</ele>
        <time>2018-06-21T11:00:48.120000Z</time>
      </trkpt>
      <trkpt lat="37.849709197564536" lon="112.03360029214652">
        <ele>1104.0</ele>
        <time>2018-06-21T11:00:57.120000Z</time>
      </trkpt>
      <trkpt lat="37.849789778580394" lon="112.03366554999478">
        <ele>1105.0</ele>
        <time>2018-06-21T11:01:00.120000Z</time>
      </trkpt>
      <trkpt lat="37.84987098070726" lon="112.03369703593097">
        <ele>1105.0</ele>
        <time>2018-06-21T11:01:03.120000Z</time>
      </trkpt>
      <trkpt lat="37.85001343512757" lon="112.03350511853434">
        <ele>1104.0</ele>
        <time>2018-06-21T11:01:12.120000Z</time>
      </trkpt>
      <trkpt lat="37.85003829111756" lon="112.03343586562012">
        <ele>1105.0</ele>
        <time>2018-06-21T11:01:15.120000Z</time>
      </trkpt>
      <trkpt lat="37.85010734049049" lon="112.033379321371">
        <ele>1105.0</ele>
        <time>2018-06-21T11:01:18.020000Z</time>
      </trkpt>
      <trkpt lat="37.850146504254184" lon="112.03345262402759">
        <ele>1103.0</ele>
        <time>2018-06-21T11:01:21.020000Z</time>
      </trkpt>
      <trkpt lat="37.85043342253499" lon="112.03361949300024">
        <ele>1104.0</ele>
        <time>2018-06-21T11:02:15.120000Z</time>
      </trkpt>
      <trkpt lat="37.85054453142468" lon="112.03344743642467">
        <ele>1101.0</ele>
        <time>2018-06-21T11:02:24.120000Z</time>
      </trkpt>
      <trkpt lat="37.850593476345026" lon="112.03340225585563">
        <ele>1100.0</ele>
        <time>2018-06-21T11:02:27.120000Z</time>
      </trkpt>
      <trkpt lat="37.850745951152255" lon="112.03340331950865">
        <ele>1101.0</ele>
        <time>2018-06-21T11:02:33.120000Z</time>
      </trkpt>
      <trkpt lat="37.85081777137782" lon="112.03343550118113">
        <ele>1101.0</ele>
        <time>2018-06-21T11:02:36.120000Z</time>
      </trkpt>
      <trkpt lat="37.851050557337835" lon="112.0337164749715">
        <ele>1099.0</ele>
        <time>2018-06-21T11:02:48.120000Z</time>
      </trkpt>
      <trkpt lat="37.851198032122916" lon="112.0340041290676">
        <ele>1096.0</ele>
        <time>2018-06-21T11:02:57.120000Z</time>
      </trkpt>
      <trkpt lat="37.85139756336476" lon="112.03434229777628">
        <ele>1094.0</ele>
        <time>2018-06-21T11:03:09.120000Z</time>
      </trkpt>
      <trkpt lat="37.85160815352647" lon="112.03462833412469">
        <ele>1095.0</ele>
        <time>2018-06-21T11:03:21.120000Z</time>
      </trkpt>
      <trkpt lat="37.85170100102086" lon="112.03467309672705">
        <ele>1096.0</ele>
        <time>2018-06-21T11:03:24.120000Z</time>
      </trkpt>
      <trkpt lat="37.85179430994267" lon="112.03480938742693">
        <ele>1095.0</ele>
        <time>2018-06-21T11:03:30.120000Z</time>
      </trkpt>
      <trkpt lat="37.851932138426854" lon="112.03506557014424">
        <ele>1093.0</ele>
        <time>2018-06-21T11:03:39.120000Z</time>
      </trkpt>
      <trkpt lat="37.85199636628909" lon="112.03514499158918">
        <ele>1092.0</ele>
        <time>2018-06-21T11:03:42.120000Z</time>
      </trkpt>
      <trkpt lat="37.85207130613458" lon="112.03521376741796">
        <ele>1092.0</ele>
        <time>2018-06-21T11:03:45.120000Z</time>
      </trkpt>
      <trkpt lat="37.852226265458924" lon="112.03546051685534">
        <ele>1095.0</ele>
        <time>2018-06-21T11:03:54.120000Z</time>
      </trkpt>
      <trkpt lat="37.852452766405506" lon="112.03567354123878">
        <ele>1094.0</ele>
        <time>2018-06-21T11:04:03.120000Z</time>
      </trkpt>
      <trkpt lat="37.85262588342509" lon="112.0359063194089">
        <ele>1091.0</ele>
        <time>2018-06-21T11:04:12.120000Z</time>
      </trkpt>
      <trkpt lat="37.852667625717885" lon="112.03598351713103">
        <ele>1091.0</ele>
        <time>2018-06-21T11:04:15.120000Z</time>
      </trkpt>
      <trkpt lat="37.85284979770468" lon="112.03624887799683">
        <ele>1088.0</ele>
        <time>2018-06-21T11:04:24.120000Z</time>
      </trkpt>
      <trkpt lat="37.852994851620956" lon="112.0365091169186">
        <ele>1090.0</ele>
        <time>2018-06-21T11:04:33.120000Z</time>
      </trkpt>
      <trkpt lat="37.85317411854192" lon="112.03671840681498">
        <ele>1090.0</ele>
        <time>2018-06-21T11:04:42.120000Z</time>
      </trkpt>
      <trkpt lat="37.85322358904827" lon="112.03680622640508">
        <ele>1091.0</ele>
        <time>2018-06-21T11:04:45.120000Z</time>
      </trkpt>
      <trkpt lat="37.85325741680257" lon="112.03694357692609">
        <ele>1091.0</ele>
        <time>2018-06-21T11:04:51.120000Z</time>
      </trkpt>
      <trkpt lat="37.8535060524761" lon="112.03724300723262">
        <ele>1091.0</ele>
        <time>2018-06-21T11:05:00.120000Z</time>
      </trkpt>
      <trkpt lat="37.853706351817245" lon="112.03752574188192">
        <ele>1091.0</ele>
        <time>2018-06-21T11:05:12.120000Z</time>
      </trkpt>
      <trkpt lat="37.85377159421537" lon="112.0376544248747">
        <ele>1091.0</ele>
        <time>2018-06-21T11:05:15.020000Z</time>
      </trkpt>
      <trkpt lat="37.853924688125" lon="112.03782380816675">
        <ele>1093.0</ele>
        <time>2018-06-21T11:05:21.120000Z</time>
      </trkpt>
      <trkpt lat="37.854069026863876" lon="112.03792473761104">
        <ele>1094.0</ele>
        <time>2018-06-21T11:05:27.120000Z</time>
      </trkpt>
      <trkpt lat="37.8542780447577" lon="112.03820287447424">
        <ele>1091.0</ele>
        <time>2018-06-21T11:05:42.120000Z</time>
      </trkpt>
      <trkpt lat="37.85431948487199" lon="112.03827298493265">
        <ele>1090.0</ele>
        <time>2018-06-21T11:05:48.120000Z</time>
      </trkpt>
      <trkpt lat="37.85430932264963" lon="112.0383789807827">
        <ele>1089.0</ele>
        <time>2018-06-21T11:05:54.120000Z</time>
      </trkpt>
      <trkpt lat="37.85433846177679" lon="112.03844017908332">
        <ele>1085.0</ele>
        <time>2018-06-21T11:06:00.020000Z</time>
      </trkpt>
      <trkpt lat="37.85436183299071" lon="112.03855716177497">
        <ele>1086.0</ele>
        <time>2018-06-21T11:06:06.020000Z</time>
      </trkpt>
      <trkpt lat="37.85455998319058" lon="112.03873285994928">
        <ele>1087.0</ele>
        <time>2018-06-21T11:06:21.120000Z</time>
      </trkpt>
      <trkpt lat="37.854606333859834" lon="112.03881532074294">
        <ele>1088.0</ele>
        <time>2018-06-21T11:06:27.120000Z</time>
      </trkpt>
      <trkpt lat="37.85468844703179" lon="112.03893946174685">
        <ele>1088.0</ele>
        <time>2018-06-21T11:06:36.020000Z</time>
      </trkpt>
      <trkpt lat="37.85480644509896" lon="112.039052361662">
        <ele>1085.0</ele>
        <time>2018-06-21T11:06:45.120000Z</time>
      </trkpt>
      <trkpt lat="37.854909075431316" lon="112.03917835326942">
        <ele>1086.0</ele>
        <time>2018-06-21T11:06:54.120000Z</time>
      </trkpt>
      <trkpt lat="37.85496224362626" lon="112.0392702971838">
        <ele>1088.0</ele>
        <time>2018-06-21T11:07:00.120000Z</time>
      </trkpt>
      <trkpt lat="37.855019380252145" lon="112.03933787939435">
        <ele>1087.0</ele>
        <time>2018-06-21T11:07:06.020000Z</time>
      </trkpt>
      <trkpt lat="37.85502439291137" lon="112.03939903019285">
        <ele>1085.0</ele>
        <time>2018-06-21T11:07:09.020000Z</time>
      </trkpt>
      <trkpt lat="37.85507035677915" lon="112.03949661300805">
        <ele>1086.0</ele>
        <time>2018-06-21T11:07:15.020000Z</time>
      </trkpt>
      <trkpt lat="37.855307583622356" lon="112.03968964274335">
        <ele>1090.0</ele>
        <time>2018-06-21T11:07:33.120000Z</time>
      </trkpt>
      <trkpt lat="37.85538370298522" lon="112.03975847143694">
        <ele>1089.0</ele>
        <time>2018-06-21T11:07:39.120000Z</time>
      </trkpt>
      <trkpt lat="37.855464448643865" lon="112.03989905477889">
        <ele>1090.0</ele>
        <time>2018-06-21T11:07:48.120000Z</time>
      </trkpt>
      <trkpt lat="37.85557992510073" lon="112.04005301708955">
        <ele>1090.0</ele>
        <time>2018-06-21T11:08:00.120000Z</time>
      </trkpt>
      <trkpt lat="37.85560013442591" lon="112.04010401537145">
        <ele>1089.0</ele>
        <time>2018-06-21T11:08:03.120000Z</time>
      </trkpt>
      <trkpt lat="37.85576945895485" lon="112.04028926263607">
        <ele>1093.0</ele>
        <time>2018-06-21T11:08:18.120000Z</time>
      </trkpt>
      <trkpt lat="37.855796182019866" lon="112.04033916232801">
        <ele>1089.0</ele>
        <time>2018-06-21T11:08:21.120000Z</time>
      </trkpt>
      <trkpt lat="37.85587044223928" lon="112.04040103386475">
        <ele>1089.0</ele>
        <time>2018-06-21T11:08:27.120000Z</time>
      </trkpt>
      <trkpt lat="37.855979769515976" lon="112.04063385251553">
        <ele>1091.0</ele>
        <time>2018-06-21T11:08:42.120000Z</time>
      </trkpt>
      <trkpt lat="37.85616812390138" lon="112.04087898517257">
        <ele>1087.0</ele>
        <time>2018-06-21T11:09:00.120000Z</time>
      </trkpt>
      <trkpt lat="37.85621750979208" lon="112.04097480197836">
        <ele>1085.0</ele>
        <time>2018-06-21T11:09:06.120000Z</time>
      </trkpt>
      <trkpt lat="37.85629489337488" lon="112.04104475458054">
        <ele>1087.0</ele>
        <time>2018-06-21T11:09:12.120000Z</time>
      </trkpt>
      <trkpt lat="37.85637613701034" lon="112.04104940759848">
        <ele>1087.0</ele>
        <time>2018-06-21T11:09:18.120000Z</time>
      </trkpt>
      <trkpt lat="37.85641650144644" lon="112.04101864868167">
        <ele>1088.0</ele>
        <time>2018-06-21T11:09:21.120000Z</time>
      </trkpt>
      <trkpt lat="37.856460915412974" lon="112.0409995137632">
        <ele>1087.0</ele>
        <time>2018-06-21T11:09:24.120000Z</time>
      </trkpt>
      <trkpt lat="37.856570199611376" lon="112.04091925542012">
        <ele>1086.0</ele>
        <time>2018-06-21T11:09:33.120000Z</time>
      </trkpt>
      <trkpt lat="37.85659424259179" lon="112.04086185360043">
        <ele>1084.0</ele>
        <time>2018-06-21T11:09:36.120000Z</time>
      </trkpt>
      <trkpt lat="37.85674978952251" lon="112.04066050360616">
        <ele>1085.0</ele>
        <time>2018-06-21T11:09:51.120000Z</time>
      </trkpt>
      <trkpt lat="37.85686616361536" lon="112.04052699028054">
        <ele>1088.0</ele>
        <time>2018-06-21T11:10:03.020000Z</time>
      </trkpt>
      <trkpt lat="37.85686001574253" lon="112.040417949275">
        <ele>1089.0</ele>
        <time>2018-06-21T11:10:09.020000Z</time>
      </trkpt>
      <trkpt lat="37.85686990993183" lon="112.04032211909123">
        <ele>1087.0</ele>
        <time>2018-06-21T11:10:15.120000Z</time>
      </trkpt>
      <trkpt lat="37.85682059106605" lon="112.04021428713509">
        <ele>1089.0</ele>
        <time>2018-06-21T11:10:21.120000Z</time>
      </trkpt>
      <trkpt lat="37.85677330159281" lon="112.0400198270192">
        <ele>1088.0</ele>
        <time>2018-06-21T11:10:30.120000Z</time>
      </trkpt>
      <trkpt lat="37.85677275058045" lon="112.03996190443112">
        <ele>1089.0</ele>
        <time>2018-06-21T11:10:33.120000Z</time>
      </trkpt>
      <trkpt lat="37.85679191411233" lon="112.03990218606766">
        <ele>1092.0</ele>
        <time>2018-06-21T11:10:36.120000Z</time>
      </trkpt>
      <trkpt lat="37.856762534637554" lon="112.03979544793047">
        <ele>1086.0</ele>
        <time>2018-06-21T11:10:45.120000Z</time>
      </trkpt>
      <trkpt lat="37.85671638145206" lon="112.03973695051812">
        <ele>1085.0</ele>
        <time>2018-06-21T11:10:51.120000Z</time>
      </trkpt>
      <trkpt lat="37.85668885081975" lon="112.03970272672734">
        <ele>1084.0</ele>
        <time>2018-06-21T11:10:54.120000Z</time>
      </trkpt>
      <trkpt lat="37.856629992277234" lon="112.03953106682094">
        <ele>1086.0</ele>
        <time>2018-06-21T11:11:06.120000Z</time>
      </trkpt>
      <trkpt lat="37.85656196976936" lon="112.0394003632397">
        <ele>1085.0</ele>
        <time>2018-06-21T11:11:15.120000Z</time>
      </trkpt>
      <trkpt lat="37.85650485510073" lon="112.0393135681201">
        <ele>1084.0</ele>
        <time>2018-06-21T11:11:21.120000Z</time>
      </trkpt>
      <trkpt lat="37.85647760963552" lon="112.03925955528882">
        <ele>1083.0</ele>
        <time>2018-06-21T11:11:24.120000Z</time>
      </trkpt>
      <trkpt lat="37.856431149343955" lon="112.03906880404784">
        <ele>1084.0</ele>
        <time>2018-06-21T11:11:36.120000Z</time>
      </trkpt>
      <trkpt lat="37.85632673096368" lon="112.03894247881324">
        <ele>1085.0</ele>
        <time>2018-06-21T11:11:48.120000Z</time>
      </trkpt>
      <trkpt lat="37.85631875681474" lon="112.03889437438431">
        <ele>1086.0</ele>
        <time>2018-06-21T11:11:51.120000Z</time>
      </trkpt>
      <trkpt lat="37.85622896099547" lon="112.03878457845772">
        <ele>1085.0</ele>
        <time>2018-06-21T11:12:00.120000Z</time>
      </trkpt>
      <trkpt lat="37.85620211023417" lon="112.03868429501776">
        <ele>1089.0</ele>
        <time>2018-06-21T11:12:06.120000Z</time>
      </trkpt>
      <trkpt lat="37.85616787115897" lon="112.0386067574833">
        <ele>1087.0</ele>
        <time>2018-06-21T11:12:12.120000Z</time>
      </trkpt>
      <trkpt lat="37.856185506094675" lon="112.03856240349104">
        <ele>1090.0</ele>
        <time>2018-06-21T11:12:15.120000Z</time>
      </trkpt>
      <trkpt lat="37.85616238044536" lon="112.03851325137626">
        <ele>1089.0</ele>
        <time>2018-06-21T11:12:18.120000Z</time>
      </trkpt>
      <trkpt lat="37.85612603822825" lon="112.03846383040501">
        <ele>1087.0</ele>
        <time>2018-06-21T11:12:21.120000Z</time>
      </trkpt>
      <trkpt lat="37.85607265691878" lon="112.03848353221251">
        <ele>1087.0</ele>
        <time>2018-06-21T11:12:27.020000Z</time>
      </trkpt>
      <trkpt lat="37.8560467207917" lon="112.03852846796379">
        <ele>1086.0</ele>
        <time>2018-06-21T11:12:30.020000Z</time>
      </trkpt>
      <trkpt lat="37.85605284483644" lon="112.03855779455138">
        <ele>1086.0</ele>
        <time>2018-06-21T11:12:36.020000Z</time>
      </trkpt>
      <trkpt lat="37.85607276130075" lon="112.03863713234533">
        <ele>1086.0</ele>
        <time>2018-06-21T11:12:42.120000Z</time>
      </trkpt>
      <trkpt lat="37.856161166029466" lon="112.03873763070482">
        <ele>1087.0</ele>
        <time>2018-06-21T11:12:45.020000Z</time>
      </trkpt>
      <trkpt lat="37.85616762009204" lon="112.03876333367239">
        <ele>1087.0</ele>
        <time>2018-06-21T11:12:54.020000Z</time>
      </trkpt>
    </trkseg>
  </trk>
</gpx>