<?xml version="1.0" encoding="UTF-8"?>
<gpx xmlns="http://www.topografix.com/GPX/1/1" xmlns:gpxtpx="http://www.garmin.com/xmlschemas/TrackPointExtension/v1" xmlns:xsi="http://www.w3.org/2001/XMLSchema-instance" xsi:schemaLocation="http://www.topografix.com/GPX/1/1 http://www.topografix.com/GPX/1/1/gpx.xsd" version="1.1" creator="gpx.py -- https://github.com/tkrajina/gpxpy">
  <trk>
    <name>gpx from keep</name>
    <type>Run</type>
    <trkseg>
      <trkpt lat="37.85642482495635" lon="112.03888478702387">
        <ele>1155.1</ele>
        <time>2016-11-27T11:38:54Z</time>
      </trkpt>
      <trkpt lat="37.856574902047214" lon="112.03898812584339">
        <ele>1131.2</ele>
        <time>2016-11-27T11:39:03Z</time>
      </trkpt>
      <trkpt lat="37.85661874891701" lon="112.03903887859111">
        <ele>1130.5</ele>
        <time>2016-11-27T11:39:06Z</time>
      </trkpt>
      <trkpt lat="37.85663119777821" lon="112.03910753570634">
        <ele>1129.3</ele>
        <time>2016-11-27T11:39:09Z</time>
      </trkpt>
      <trkpt lat="37.85660729624632" lon="112.03916884748585">
        <ele>1128.5</ele>
        <time>2016-11-27T11:39:12.100000Z</time>
      </trkpt>
      <trkpt lat="37.85660119576956" lon="112.03930742967863">
        <ele>1125.8</ele>
        <time>2016-11-27T11:39:18.100000Z</time>
      </trkpt>
      <trkpt lat="37.856708267169246" lon="112.03965278176861">
        <ele>1113.3</ele>
        <time>2016-11-27T11:39:33Z</time>
      </trkpt>
      <trkpt lat="37.856806916848804" lon="112.04003292589957">
        <ele>1116.4</ele>
        <time>2016-11-27T11:39:48Z</time>
      </trkpt>
      <trkpt lat="37.85682093760009" lon="112.04019005724959">
        <ele>1116.1</ele>
        <time>2016-11-27T11:39:54Z</time>
      </trkpt>
      <trkpt lat="37.85687478156263" lon="112.04037939953605">
        <ele>1114.5</ele>
        <time>2016-11-27T11:40:00Z</time>
      </trkpt>
      <trkpt lat="37.85685785766356" lon="112.04046045837727">
        <ele>1113.4</ele>
        <time>2016-11-27T11:40:03Z</time>
      </trkpt>
      <trkpt lat="37.85666817708259" lon="112.04072339282018">
        <ele>1107.7</ele>
        <time>2016-11-27T11:40:18Z</time>
      </trkpt>
      <trkpt lat="37.85654077100969" lon="112.0408452728143">
        <ele>1103.5</ele>
        <time>2016-11-27T11:40:27Z</time>
      </trkpt>
      <trkpt lat="37.856406851138814" lon="112.0408765561053">
        <ele>1102.9</ele>
        <time>2016-11-27T11:40:36Z</time>
      </trkpt>
      <trkpt lat="37.85635070269031" lon="112.04085213093558">
        <ele>1102.5</ele>
        <time>2016-11-27T11:40:39Z</time>
      </trkpt>
      <trkpt lat="37.85609711435201" lon="112.04058425844966">
        <ele>1098.5</ele>
        <time>2016-11-27T11:40:57Z</time>
      </trkpt>
      <trkpt lat="37.855936071816856" lon="112.04043088815945">
        <ele>1095.3</ele>
        <time>2016-11-27T11:41:06.100000Z</time>
      </trkpt>
      <trkpt lat="37.85573121200258" lon="112.0401774353711">
        <ele>1090.3</ele>
        <time>2016-11-27T11:41:19.100000Z</time>
      </trkpt>
      <trkpt lat="37.855631494585445" lon="112.04010100746451">
        <ele>1088.2</ele>
        <time>2016-11-27T11:41:25Z</time>
      </trkpt>
      <trkpt lat="37.85544814792435" lon="112.0398061163382">
        <ele>1085.1</ele>
        <time>2016-11-27T11:41:37Z</time>
      </trkpt>
      <trkpt lat="37.85524991924779" lon="112.03952560261689">
        <ele>1084.0</ele>
        <time>2016-11-27T11:41:49Z</time>
      </trkpt>
      <trkpt lat="37.85502855470418" lon="112.03923517399942">
        <ele>1082.9</ele>
        <time>2016-11-27T11:42:01Z</time>
      </trkpt>
      <trkpt lat="37.85475561117728" lon="112.03893171987153">
        <ele>1083.4</ele>
        <time>2016-11-27T11:42:13Z</time>
      </trkpt>
      <trkpt lat="37.85456109230953" lon="112.03870181861431">
        <ele>1082.9</ele>
        <time>2016-11-27T11:42:22.100000Z</time>
      </trkpt>
      <trkpt lat="37.85443270190238" lon="112.03859039195807">
        <ele>1083.1</ele>
        <time>2016-11-27T11:42:28Z</time>
      </trkpt>
      <trkpt lat="37.85428042842189" lon="112.03839727202656">
        <ele>1084.8</ele>
        <time>2016-11-27T11:42:37Z</time>
      </trkpt>
      <trkpt lat="37.8542238672601" lon="112.0383520193365">
        <ele>1085.3</ele>
        <time>2016-11-27T11:42:40.100000Z</time>
      </trkpt>
      <trkpt lat="37.854042871981704" lon="112.038059421151">
        <ele>1086.3</ele>
        <time>2016-11-27T11:42:55.100000Z</time>
      </trkpt>
      <trkpt lat="37.85405914700292" lon="112.03800032175225">
        <ele>1089.7</ele>
        <time>2016-11-27T11:42:58.100000Z</time>
      </trkpt>
      <trkpt lat="37.853859904797986" lon="112.03775532948882">
        <ele>1091.3</ele>
        <time>2016-11-27T11:43:13Z</time>
      </trkpt>
      <trkpt lat="37.85367745222915" lon="112.03744907635853">
        <ele>1092.0</ele>
        <time>2016-11-27T11:43:28Z</time>
      </trkpt>
      <trkpt lat="37.8534862668537" lon="112.03715441367387">
        <ele>1090.9</ele>
        <time>2016-11-27T11:43:43Z</time>
      </trkpt>
      <trkpt lat="37.85336183956777" lon="112.0369257513959">
        <ele>1088.1</ele>
        <time>2016-11-27T11:43:55.100000Z</time>
      </trkpt>
      <trkpt lat="37.85315874552773" lon="112.03667050675122">
        <ele>1084.1</ele>
        <time>2016-11-27T11:44:10Z</time>
      </trkpt>
      <trkpt lat="37.85304996014688" lon="112.03653729723723">
        <ele>1082.3</ele>
        <time>2016-11-27T11:44:16.100000Z</time>
      </trkpt>
      <trkpt lat="37.85301440999372" lon="112.03645653305493">
        <ele>1081.1</ele>
        <time>2016-11-27T11:44:19.100000Z</time>
      </trkpt>
      <trkpt lat="37.852853240190534" lon="112.03622961749014">
        <ele>1075.4</ele>
        <time>2016-11-27T11:44:31.100000Z</time>
      </trkpt>
      <trkpt lat="37.852590466001" lon="112.0360062376358">
        <ele>1069.5</ele>
        <time>2016-11-27T11:44:46Z</time>
      </trkpt>
      <trkpt lat="37.852416767862266" lon="112.03579479854427">
        <ele>1065.5</ele>
        <time>2016-11-27T11:44:58Z</time>
      </trkpt>
      <trkpt lat="37.85225553362765" lon="112.03549239463054">
        <ele>1062.0</ele>
        <time>2016-11-27T11:45:10Z</time>
      </trkpt>
      <trkpt lat="37.852084056048604" lon="112.03518904511682">
        <ele>1059.3</ele>
        <time>2016-11-27T11:45:22Z</time>
      </trkpt>
      <trkpt lat="37.85186079100306" lon="112.03494776815167">
        <ele>1055.4</ele>
        <time>2016-11-27T11:45:37Z</time>
      </trkpt>
      <trkpt lat="37.851828364898616" lon="112.03489060818633">
        <ele>1054.6</ele>
        <time>2016-11-27T11:45:40Z</time>
      </trkpt>
      <trkpt lat="37.851600144847865" lon="112.03463279931016">
        <ele>1051.9</ele>
        <time>2016-11-27T11:45:56Z</time>
      </trkpt>
      <trkpt lat="37.85155578715783" lon="112.03457419344494">
        <ele>1051.4</ele>
        <time>2016-11-27T11:45:59Z</time>
      </trkpt>
      <trkpt lat="37.851320830963914" lon="112.03436069922803">
        <ele>1047.9</ele>
        <time>2016-11-27T11:46:14Z</time>
      </trkpt>
      <trkpt lat="37.8512334233769" lon="112.03427528905928">
        <ele>1046.1</ele>
        <time>2016-11-27T11:46:20Z</time>
      </trkpt>
      <trkpt lat="37.85103097277566" lon="112.03400885853384">
        <ele>1046.5</ele>
        <time>2016-11-27T11:46:32.100000Z</time>
      </trkpt>
      <trkpt lat="37.851062119922425" lon="112.03396568452617">
        <ele>1046.1</ele>
        <time>2016-11-27T11:46:38Z</time>
      </trkpt>
      <trkpt lat="37.85119130881634" lon="112.03404543503346">
        <ele>1046.4</ele>
        <time>2016-11-27T11:46:50Z</time>
      </trkpt>
      <trkpt lat="37.851373936853655" lon="112.03423885288436">
        <ele>1050.6</ele>
        <time>2016-11-27T11:47:11.100000Z</time>
      </trkpt>
      <trkpt lat="37.851498765526614" lon="112.03457076267689">
        <ele>1053.7</ele>
        <time>2016-11-27T11:47:29Z</time>
      </trkpt>
      <trkpt lat="37.851627212246136" lon="112.03486561481417">
        <ele>1051.7</ele>
        <time>2016-11-27T11:47:44.100000Z</time>
      </trkpt>
      <trkpt lat="37.85172645804968" lon="112.03501376922055">
        <ele>1049.6</ele>
        <time>2016-11-27T11:47:53Z</time>
      </trkpt>
      <trkpt lat="37.85174760631884" lon="112.03508666078724">
        <ele>1049.8</ele>
        <time>2016-11-27T11:47:56.100000Z</time>
      </trkpt>
      <trkpt lat="37.85192037431435" lon="112.03536047679314">
        <ele>1047.3</ele>
        <time>2016-11-27T11:48:11.100000Z</time>
      </trkpt>
      <trkpt lat="37.85214470347821" lon="112.03567023393312">
        <ele>1044.5</ele>
        <time>2016-11-27T11:48:26Z</time>
      </trkpt>
      <trkpt lat="37.85233875202008" lon="112.03593876743055">
        <ele>1042.1</ele>
        <time>2016-11-27T11:48:38.100000Z</time>
      </trkpt>
      <trkpt lat="37.85242919503524" lon="112.03606127067474">
        <ele>1040.7</ele>
        <time>2016-11-27T11:48:44Z</time>
      </trkpt>
      <trkpt lat="37.852494774272735" lon="112.03629160168256">
        <ele>1040.5</ele>
        <time>2016-11-27T11:48:53.100000Z</time>
      </trkpt>
      <trkpt lat="37.85270658625797" lon="112.03660326158183">
        <ele>1037.5</ele>
        <time>2016-11-27T11:49:08Z</time>
      </trkpt>
      <trkpt lat="37.85278775459303" lon="112.03673783071793">
        <ele>1036.8</ele>
        <time>2016-11-27T11:49:14.100000Z</time>
      </trkpt>
      <trkpt lat="37.85280580864612" lon="112.03681567166186">
        <ele>1036.9</ele>
        <time>2016-11-27T11:49:17Z</time>
      </trkpt>
      <trkpt lat="37.85289459543215" lon="112.03698080027539">
        <ele>1035.8</ele>
        <time>2016-11-27T11:49:23Z</time>
      </trkpt>
      <trkpt lat="37.85304988914184" lon="112.03721577905462">
        <ele>1033.9</ele>
        <time>2016-11-27T11:49:32.100000Z</time>
      </trkpt>
      <trkpt lat="37.853085768406935" lon="112.03733050369517">
        <ele>1034.4</ele>
        <time>2016-11-27T11:49:35Z</time>
      </trkpt>
      <trkpt lat="37.85325666699631" lon="112.03753719417051">
        <ele>1032.4</ele>
        <time>2016-11-27T11:49:44Z</time>
      </trkpt>
      <trkpt lat="37.85341437585229" lon="112.03769711667056">
        <ele>1031.4</ele>
        <time>2016-11-27T11:49:53Z</time>
      </trkpt>
      <trkpt lat="37.85338896594306" lon="112.03761932476007">
        <ele>1029.7</ele>
        <time>2016-11-27T11:50:05Z</time>
      </trkpt>
      <trkpt lat="37.853320017088656" lon="112.03754091193916">
        <ele>1029.0</ele>
        <time>2016-11-27T11:50:11Z</time>
      </trkpt>
      <trkpt lat="37.853249576867555" lon="112.03756773578588">
        <ele>1029.6</ele>
        <time>2016-11-27T11:50:17Z</time>
      </trkpt>
      <trkpt lat="37.85316677137416" lon="112.03756270599682">
        <ele>1030.1</ele>
        <time>2016-11-27T11:50:23Z</time>
      </trkpt>
      <trkpt lat="37.85310401315979" lon="112.03752067442313">
        <ele>1030.2</ele>
        <time>2016-11-27T11:50:29Z</time>
      </trkpt>
      <trkpt lat="37.852972546443766" lon="112.03731101003434">
        <ele>1029.1</ele>
        <time>2016-11-27T11:50:41Z</time>
      </trkpt>
      <trkpt lat="37.85294991945933" lon="112.03724020611222">
        <ele>1028.6</ele>
        <time>2016-11-27T11:50:44.100000Z</time>
      </trkpt>
      <trkpt lat="37.85287837128823" lon="112.0370730196021">
        <ele>1028.5</ele>
        <time>2016-11-27T11:50:53.100000Z</time>
      </trkpt>
      <trkpt lat="37.852846753967725" lon="112.0369510059994">
        <ele>1028.3</ele>
        <time>2016-11-27T11:50:59Z</time>
      </trkpt>
      <trkpt lat="37.85267270367867" lon="112.03662765418065">
        <ele>1028.9</ele>
        <time>2016-11-27T11:51:15Z</time>
      </trkpt>
      <trkpt lat="37.85245085389321" lon="112.03640104778414">
        <ele>1028.6</ele>
        <time>2016-11-27T11:51:33Z</time>
      </trkpt>
      <trkpt lat="37.85229598537619" lon="112.03611410063314">
        <ele>1030.0</ele>
        <time>2016-11-27T11:51:45Z</time>
      </trkpt>
      <trkpt lat="37.85213911008827" lon="112.03580316192257">
        <ele>1031.5</ele>
        <time>2016-11-27T11:52:03Z</time>
      </trkpt>
      <trkpt lat="37.851980803890676" lon="112.03552727859882">
        <ele>1029.9</ele>
        <time>2016-11-27T11:52:15Z</time>
      </trkpt>
      <trkpt lat="37.85184774126547" lon="112.03530617964715">
        <ele>1029.6</ele>
        <time>2016-11-27T11:52:24Z</time>
      </trkpt>
      <trkpt lat="37.85177897405411" lon="112.03526054901123">
        <ele>1028.4</ele>
        <time>2016-11-27T11:52:27.100000Z</time>
      </trkpt>
      <trkpt lat="37.851589011483746" lon="112.0349708075261">
        <ele>1029.5</ele>
        <time>2016-11-27T11:52:39.100000Z</time>
      </trkpt>
      <trkpt lat="37.851408444068014" lon="112.0346891998294">
        <ele>1033.8</ele>
        <time>2016-11-27T11:52:51.100000Z</time>
      </trkpt>
      <trkpt lat="37.851248384552186" lon="112.03446260254337">
        <ele>1038.8</ele>
        <time>2016-11-27T11:53:03Z</time>
      </trkpt>
      <trkpt lat="37.851205953965085" lon="112.03435438986239">
        <ele>1040.3</ele>
        <time>2016-11-27T11:53:10Z</time>
      </trkpt>
      <trkpt lat="37.85124331414191" lon="112.03428331280162">
        <ele>1044.7</ele>
        <time>2016-11-27T11:53:16Z</time>
      </trkpt>
      <trkpt lat="37.85123179393252" lon="112.03420138270933">
        <ele>1048.1</ele>
        <time>2016-11-27T11:53:22.100000Z</time>
      </trkpt>
      <trkpt lat="37.85112254492897" lon="112.03408359541858">
        <ele>1050.2</ele>
        <time>2016-11-27T11:53:31Z</time>
      </trkpt>
      <trkpt lat="37.85099454144004" lon="112.03385686610059">
        <ele>1051.9</ele>
        <time>2016-11-27T11:53:43Z</time>
      </trkpt>
      <trkpt lat="37.85087090833857" lon="112.03368465392536">
        <ele>1052.5</ele>
        <time>2016-11-27T11:53:52.100000Z</time>
      </trkpt>
      <trkpt lat="37.85080670223784" lon="112.03363341249926">
        <ele>1052.6</ele>
        <time>2016-11-27T11:53:55.100000Z</time>
      </trkpt>
      <trkpt lat="37.85061076642917" lon="112.03338400719448">
        <ele>1053.7</ele>
        <time>2016-11-27T11:54:07Z</time>
      </trkpt>
      <trkpt lat="37.85048449015447" lon="112.03325349570618">
        <ele>1054.9</ele>
        <time>2016-11-27T11:54:16Z</time>
      </trkpt>
      <trkpt lat="37.85035852434586" lon="112.03306534204849">
        <ele>1054.9</ele>
        <time>2016-11-27T11:54:25.100000Z</time>
      </trkpt>
      <trkpt lat="37.85027383072258" lon="112.03298930994573">
        <ele>1054.6</ele>
        <time>2016-11-27T11:54:31Z</time>
      </trkpt>
      <trkpt lat="37.85023961229282" lon="112.03293638950022">
        <ele>1054.5</ele>
        <time>2016-11-27T11:54:34Z</time>
      </trkpt>
      <trkpt lat="37.850136080459706" lon="112.03284281635888">
        <ele>1052.2</ele>
        <time>2016-11-27T11:54:43Z</time>
      </trkpt>
      <trkpt lat="37.84994218338068" lon="112.03251604138043">
        <ele>1049.7</ele>
        <time>2016-11-27T11:54:58.100000Z</time>
      </trkpt>
      <trkpt lat="37.84977860878902" lon="112.03218129356615">
        <ele>1046.9</ele>
        <time>2016-11-27T11:55:10Z</time>
      </trkpt>
      <trkpt lat="37.84961365734554" lon="112.03180254129063">
        <ele>1043.3</ele>
        <time>2016-11-27T11:55:22Z</time>
      </trkpt>
      <trkpt lat="37.849598380371624" lon="112.0317276175392">
        <ele>1042.3</ele>
        <time>2016-11-27T11:55:25Z</time>
      </trkpt>
      <trkpt lat="37.849470836425574" lon="112.0313213403886">
        <ele>1036.9</ele>
        <time>2016-11-27T11:55:38Z</time>
      </trkpt>
      <trkpt lat="37.84942700318923" lon="112.03094834439344">
        <ele>1033.9</ele>
        <time>2016-11-27T11:55:50Z</time>
      </trkpt>
      <trkpt lat="37.8494265588156" lon="112.03082344494018">
        <ele>1034.1</ele>
        <time>2016-11-27T11:55:53.400000Z</time>
      </trkpt>
      <trkpt lat="37.84933245628483" lon="112.03041320964036">
        <ele>1034.0</ele>
        <time>2016-11-27T11:56:03Z</time>
      </trkpt>
      <trkpt lat="37.849325364779205" lon="112.03027604891653">
        <ele>1034.1</ele>
        <time>2016-11-27T11:56:06Z</time>
      </trkpt>
      <trkpt lat="37.84927101543576" lon="112.02989612086216">
        <ele>1035.0</ele>
        <time>2016-11-27T11:56:15.100000Z</time>
      </trkpt>
      <trkpt lat="37.84919691282075" lon="112.02946363962553">
        <ele>1036.8</ele>
        <time>2016-11-27T11:56:24Z</time>
      </trkpt>
      <trkpt lat="37.849158851315764" lon="112.02910986043553">
        <ele>1037.4</ele>
        <time>2016-11-27T11:56:33.100000Z</time>
      </trkpt>
      <trkpt lat="37.84919894127372" lon="112.02903029528629">
        <ele>1038.0</ele>
        <time>2016-11-27T11:56:36Z</time>
      </trkpt>
      <trkpt lat="37.849222830054664" lon="112.02892309929697">
        <ele>1038.5</ele>
        <time>2016-11-27T11:56:39Z</time>
      </trkpt>
      <trkpt lat="37.849230185053436" lon="112.0288172741684">
        <ele>1039.2</ele>
        <time>2016-11-27T11:56:42Z</time>
      </trkpt>
      <trkpt lat="37.849183858591616" lon="112.02847144553587">
        <ele>1040.0</ele>
        <time>2016-11-27T11:56:51.100000Z</time>
      </trkpt>
      <trkpt lat="37.8491821456987" lon="112.02825961304367">
        <ele>1040.0</ele>
        <time>2016-11-27T11:56:57.100000Z</time>
      </trkpt>
      <trkpt lat="37.84920719058618" lon="112.02816803858889">
        <ele>1040.4</ele>
        <time>2016-11-27T11:57:00Z</time>
      </trkpt>
      <trkpt lat="37.84919794766453" lon="112.02805903118671">
        <ele>1040.9</ele>
        <time>2016-11-27T11:57:03Z</time>
      </trkpt>
      <trkpt lat="37.84926330564209" lon="112.02790995271397">
        <ele>1044.0</ele>
        <time>2016-11-27T11:57:09.100000Z</time>
      </trkpt>
      <trkpt lat="37.84927643384286" lon="112.02766652648751">
        <ele>1045.6</ele>
        <time>2016-11-27T11:57:21Z</time>
      </trkpt>
      <trkpt lat="37.849227112888485" lon="112.02742190842349">
        <ele>1047.1</ele>
        <time>2016-11-27T11:57:33Z</time>
      </trkpt>
      <trkpt lat="37.8491769850156" lon="112.02733729905805">
        <ele>1048.5</ele>
        <time>2016-11-27T11:57:39Z</time>
      </trkpt>
      <trkpt lat="37.849082342460065" lon="112.02732248494897">
        <ele>1049.4</ele>
        <time>2016-11-27T11:57:45Z</time>
      </trkpt>
      <trkpt lat="37.84884984824947" lon="112.0272596491237">
        <ele>1048.7</ele>
        <time>2016-11-27T11:57:56.100000Z</time>
      </trkpt>
      <trkpt lat="37.848579549430404" lon="112.02723536966145">
        <ele>1048.4</ele>
        <time>2016-11-27T11:58:05Z</time>
      </trkpt>
      <trkpt lat="37.848413717820726" lon="112.02717648201943">
        <ele>1048.4</ele>
        <time>2016-11-27T11:58:11Z</time>
      </trkpt>
      <trkpt lat="37.84835555425809" lon="112.02718353812267">
        <ele>1047.8</ele>
        <time>2016-11-27T11:58:14.100000Z</time>
      </trkpt>
      <trkpt lat="37.848300397157715" lon="112.02726114532685">
        <ele>1047.6</ele>
        <time>2016-11-27T11:58:17Z</time>
      </trkpt>
      <trkpt lat="37.84814454433245" lon="112.02732312058129">
        <ele>1049.8</ele>
        <time>2016-11-27T11:58:20Z</time>
      </trkpt>
      <trkpt lat="37.84807682522322" lon="112.02739202221929">
        <ele>1050.0</ele>
        <time>2016-11-27T11:58:23Z</time>
      </trkpt>
      <trkpt lat="37.8480370603246" lon="112.0274680268726">
        <ele>1050.2</ele>
        <time>2016-11-27T11:58:26.100000Z</time>
      </trkpt>
      <trkpt lat="37.84798338357505" lon="112.02752916228089">
        <ele>1049.8</ele>
        <time>2016-11-27T11:58:29.100000Z</time>
      </trkpt>
      <trkpt lat="37.847914179848914" lon="112.0277162927386">
        <ele>1049.7</ele>
        <time>2016-11-27T11:58:35Z</time>
      </trkpt>
      <trkpt lat="37.847857897488616" lon="112.02780474290033">
        <ele>1050.4</ele>
        <time>2016-11-27T11:58:38Z</time>
      </trkpt>
      <trkpt lat="37.84784168936958" lon="112.02790432604925">
        <ele>1051.0</ele>
        <time>2016-11-27T11:58:41Z</time>
      </trkpt>
      <trkpt lat="37.84775319654318" lon="112.02813893172272">
        <ele>1052.4</ele>
        <time>2016-11-27T11:58:50Z</time>
      </trkpt>
      <trkpt lat="37.84774333801718" lon="112.02821572597627">
        <ele>1052.2</ele>
        <time>2016-11-27T11:58:53.100000Z</time>
      </trkpt>
      <trkpt lat="37.84766259254435" lon="112.02843517274529">
        <ele>1054.2</ele>
        <time>2016-11-27T11:59:02Z</time>
      </trkpt>
      <trkpt lat="37.84760107626246" lon="112.02878062937054">
        <ele>1056.5</ele>
        <time>2016-11-27T11:59:11Z</time>
      </trkpt>
      <trkpt lat="37.84759630147914" lon="112.0291526453539">
        <ele>1056.4</ele>
        <time>2016-11-27T11:59:23.100000Z</time>
      </trkpt>
      <trkpt lat="37.847569928099" lon="112.0292752495665">
        <ele>1057.1</ele>
        <time>2016-11-27T11:59:26Z</time>
      </trkpt>
      <trkpt lat="37.84753913008432" lon="112.02934899108418">
        <ele>1058.4</ele>
        <time>2016-11-27T11:59:29Z</time>
      </trkpt>
      <trkpt lat="37.84755229187468" lon="112.0296399113982">
        <ele>1063.3</ele>
        <time>2016-11-27T11:59:44Z</time>
      </trkpt>
      <trkpt lat="37.84766034969694" lon="112.02971766736282">
        <ele>1069.9</ele>
        <time>2016-11-27T11:59:56Z</time>
      </trkpt>
      <trkpt lat="37.84771925745552" lon="112.0297161738666">
        <ele>1072.4</ele>
        <time>2016-11-27T12:00:02Z</time>
      </trkpt>
      <trkpt lat="37.84766974012632" lon="112.02982123914816">
        <ele>1075.9</ele>
        <time>2016-11-27T12:00:08Z</time>
      </trkpt>
      <trkpt lat="37.84743430150491" lon="112.02980444819283">
        <ele>1083.3</ele>
        <time>2016-11-27T12:00:17Z</time>
      </trkpt>
      <trkpt lat="37.84717784143949" lon="112.02969454957953">
        <ele>1086.3</ele>
        <time>2016-11-27T12:00:23Z</time>
      </trkpt>
      <trkpt lat="37.84707147098492" lon="112.02970105364578">
        <ele>1088.1</ele>
        <time>2016-11-27T12:00:26Z</time>
      </trkpt>
    </trkseg>
  </trk>
</gpx>