<?xml version="1.0" encoding="UTF-8"?>
<gpx xmlns="http://www.topografix.com/GPX/1/1" xmlns:gpxtpx="http://www.garmin.com/xmlschemas/TrackPointExtension/v1" xmlns:xsi="http://www.w3.org/2001/XMLSchema-instance" xsi:schemaLocation="http://www.topografix.com/GPX/1/1 http://www.topografix.com/GPX/1/1/gpx.xsd" version="1.1" creator="gpx.py -- https://github.com/tkrajina/gpxpy">
  <trk>
    <name>gpx from keep</name>
    <type>Run</type>
    <trkseg>
      <trkpt lat="37.847304222591305" lon="112.02928423533888">
        <ele>1121.0</ele>
        <time>2018-07-27T11:06:37.551000Z</time>
      </trkpt>
      <trkpt lat="37.84739211249759" lon="112.02896886385084">
        <ele>1116.0</ele>
        <time>2018-07-27T11:06:40.751000Z</time>
      </trkpt>
      <trkpt lat="37.84738000474037" lon="112.02881184453493">
        <ele>1115.0</ele>
        <time>2018-07-27T11:06:43.751000Z</time>
      </trkpt>
      <trkpt lat="37.84736232385855" lon="112.02869378935873">
        <ele>1109.0</ele>
        <time>2018-07-27T11:06:46.751000Z</time>
      </trkpt>
      <trkpt lat="37.84735028744829" lon="112.02858011392046">
        <ele>1112.0</ele>
        <time>2018-07-27T11:06:49.751000Z</time>
      </trkpt>
      <trkpt lat="37.84733731939358" lon="112.02819084292217">
        <ele>1114.0</ele>
        <time>2018-07-27T11:07:01.751000Z</time>
      </trkpt>
      <trkpt lat="37.84735010361918" lon="112.02804104285899">
        <ele>1112.0</ele>
        <time>2018-07-27T11:07:07.751000Z</time>
      </trkpt>
      <trkpt lat="37.84731910923135" lon="112.02796142277761">
        <ele>1112.0</ele>
        <time>2018-07-27T11:07:10.751000Z</time>
      </trkpt>
      <trkpt lat="37.84727055483647" lon="112.0279019819852">
        <ele>1113.0</ele>
        <time>2018-07-27T11:07:14.151000Z</time>
      </trkpt>
      <trkpt lat="37.847345097653324" lon="112.02778132478944">
        <ele>1114.0</ele>
        <time>2018-07-27T11:07:17.851000Z</time>
      </trkpt>
      <trkpt lat="37.847443593987165" lon="112.02751029098475">
        <ele>1116.0</ele>
        <time>2018-07-27T11:07:23.751000Z</time>
      </trkpt>
      <trkpt lat="37.847619789425174" lon="112.02725577863123">
        <ele>1118.0</ele>
        <time>2018-07-27T11:07:32.751000Z</time>
      </trkpt>
      <trkpt lat="37.847632495508876" lon="112.02714455411149">
        <ele>1118.0</ele>
        <time>2018-07-27T11:07:35.751000Z</time>
      </trkpt>
      <trkpt lat="37.8476718921018" lon="112.02704185003009">
        <ele>1118.0</ele>
        <time>2018-07-27T11:07:38.751000Z</time>
      </trkpt>
      <trkpt lat="37.847694538179624" lon="112.02678357396876">
        <ele>1115.0</ele>
        <time>2018-07-27T11:07:44.751000Z</time>
      </trkpt>
      <trkpt lat="37.84778857124858" lon="112.02651366264433">
        <ele>1115.0</ele>
        <time>2018-07-27T11:07:53.751000Z</time>
      </trkpt>
      <trkpt lat="37.84786539329221" lon="112.02639384886548">
        <ele>1118.0</ele>
        <time>2018-07-27T11:07:56.751000Z</time>
      </trkpt>
      <trkpt lat="37.84807806849829" lon="112.0264065339183">
        <ele>1119.0</ele>
        <time>2018-07-27T11:08:02.751000Z</time>
      </trkpt>
      <trkpt lat="37.84831742041262" lon="112.02638541093341">
        <ele>1119.0</ele>
        <time>2018-07-27T11:08:11.751000Z</time>
      </trkpt>
      <trkpt lat="37.848663450665526" lon="112.02644811114232">
        <ele>1119.0</ele>
        <time>2018-07-27T11:08:23.751000Z</time>
      </trkpt>
      <trkpt lat="37.848772659685054" lon="112.02649785884793">
        <ele>1119.0</ele>
        <time>2018-07-27T11:08:26.751000Z</time>
      </trkpt>
      <trkpt lat="37.848867254577975" lon="112.02651444315639">
        <ele>1117.0</ele>
        <time>2018-07-27T11:08:29.751000Z</time>
      </trkpt>
      <trkpt lat="37.84893471095967" lon="112.02646239901235">
        <ele>1116.0</ele>
        <time>2018-07-27T11:08:32.751000Z</time>
      </trkpt>
      <trkpt lat="37.84891396551094" lon="112.02631266149106">
        <ele>1113.0</ele>
        <time>2018-07-27T11:08:38.751000Z</time>
      </trkpt>
      <trkpt lat="37.84891344660642" lon="112.02596046228305">
        <ele>1110.0</ele>
        <time>2018-07-27T11:08:47.751000Z</time>
      </trkpt>
      <trkpt lat="37.848955165251205" lon="112.02576950061683">
        <ele>1111.0</ele>
        <time>2018-07-27T11:08:53.751000Z</time>
      </trkpt>
      <trkpt lat="37.84901898600035" lon="112.02553851588456">
        <ele>1112.0</ele>
        <time>2018-07-27T11:08:59.751000Z</time>
      </trkpt>
      <trkpt lat="37.84906748137717" lon="112.02519438363055">
        <ele>1113.0</ele>
        <time>2018-07-27T11:09:08.751000Z</time>
      </trkpt>
      <trkpt lat="37.84909173534788" lon="112.02476574812094">
        <ele>1111.0</ele>
        <time>2018-07-27T11:09:20.751000Z</time>
      </trkpt>
      <trkpt lat="37.8490905018456" lon="112.02466375809055">
        <ele>1112.0</ele>
        <time>2018-07-27T11:09:23.751000Z</time>
      </trkpt>
      <trkpt lat="37.84911489489833" lon="112.02458713078748">
        <ele>1111.0</ele>
        <time>2018-07-27T11:09:26.751000Z</time>
      </trkpt>
      <trkpt lat="37.849087668355175" lon="112.02421415288093">
        <ele>1113.0</ele>
        <time>2018-07-27T11:09:35.751000Z</time>
      </trkpt>
      <trkpt lat="37.849118735579765" lon="112.02402946808249">
        <ele>1114.0</ele>
        <time>2018-07-27T11:09:41.751000Z</time>
      </trkpt>
      <trkpt lat="37.84907810455989" lon="112.02366877263323">
        <ele>1110.0</ele>
        <time>2018-07-27T11:09:50.751000Z</time>
      </trkpt>
      <trkpt lat="37.84907365259479" lon="112.02349579580627">
        <ele>1108.0</ele>
        <time>2018-07-27T11:09:56.751000Z</time>
      </trkpt>
      <trkpt lat="37.84908714500695" lon="112.02351340521425">
        <ele>1107.0</ele>
        <time>2018-07-27T11:09:59.751000Z</time>
      </trkpt>
      <trkpt lat="37.849129363131965" lon="112.02352178553818">
        <ele>1107.0</ele>
        <time>2018-07-27T11:10:02.751000Z</time>
      </trkpt>
      <trkpt lat="37.84915226849188" lon="112.0234172408629">
        <ele>1105.0</ele>
        <time>2018-07-27T11:10:05.751000Z</time>
      </trkpt>
      <trkpt lat="37.84916380662956" lon="112.02330092830579">
        <ele>1103.0</ele>
        <time>2018-07-27T11:10:08.751000Z</time>
      </trkpt>
      <trkpt lat="37.84915906923104" lon="112.02311391865639">
        <ele>1104.0</ele>
        <time>2018-07-27T11:10:11.751000Z</time>
      </trkpt>
      <trkpt lat="37.84915078687162" lon="112.02296496634285">
        <ele>1105.0</ele>
        <time>2018-07-27T11:10:14.751000Z</time>
      </trkpt>
      <trkpt lat="37.84917437769831" lon="112.02283598414932">
        <ele>1104.0</ele>
        <time>2018-07-27T11:10:17.751000Z</time>
      </trkpt>
      <trkpt lat="37.849135939569514" lon="112.0225520936683">
        <ele>1107.0</ele>
        <time>2018-07-27T11:10:23.751000Z</time>
      </trkpt>
      <trkpt lat="37.84915150464961" lon="112.02219569970278">
        <ele>1106.0</ele>
        <time>2018-07-27T11:10:32.751000Z</time>
      </trkpt>
      <trkpt lat="37.849130754145115" lon="112.02206624584093">
        <ele>1107.0</ele>
        <time>2018-07-27T11:10:35.751000Z</time>
      </trkpt>
      <trkpt lat="37.84915847838529" lon="112.02199242253249">
        <ele>1107.0</ele>
        <time>2018-07-27T11:10:38.751000Z</time>
      </trkpt>
      <trkpt lat="37.849173021690795" lon="112.02189336147758">
        <ele>1108.0</ele>
        <time>2018-07-27T11:10:41.751000Z</time>
      </trkpt>
      <trkpt lat="37.84914768024491" lon="112.02168706171373">
        <ele>1108.0</ele>
        <time>2018-07-27T11:10:47.751000Z</time>
      </trkpt>
      <trkpt lat="37.849176407308555" lon="112.02159917864579">
        <ele>1108.0</ele>
        <time>2018-07-27T11:10:50.751000Z</time>
      </trkpt>
      <trkpt lat="37.84915610229949" lon="112.02148372111873">
        <ele>1109.0</ele>
        <time>2018-07-27T11:10:53.751000Z</time>
      </trkpt>
      <trkpt lat="37.849176545371144" lon="112.02114981506323">
        <ele>1108.0</ele>
        <time>2018-07-27T11:11:02.751000Z</time>
      </trkpt>
      <trkpt lat="37.849198200372335" lon="112.02105321252701">
        <ele>1109.0</ele>
        <time>2018-07-27T11:11:05.751000Z</time>
      </trkpt>
      <trkpt lat="37.84919735405038" lon="112.02091262484294">
        <ele>1112.0</ele>
        <time>2018-07-27T11:11:08.751000Z</time>
      </trkpt>
      <trkpt lat="37.84914645273112" lon="112.0205486998107">
        <ele>1114.0</ele>
        <time>2018-07-27T11:11:17.751000Z</time>
      </trkpt>
      <trkpt lat="37.84902999798574" lon="112.02040683598796">
        <ele>1116.0</ele>
        <time>2018-07-27T11:11:23.751000Z</time>
      </trkpt>
      <trkpt lat="37.84900676870605" lon="112.02028448727113">
        <ele>1112.0</ele>
        <time>2018-07-27T11:11:26.751000Z</time>
      </trkpt>
      <trkpt lat="37.84907604789507" lon="112.02000657946371">
        <ele>1113.0</ele>
        <time>2018-07-27T11:11:32.751000Z</time>
      </trkpt>
      <trkpt lat="37.8491019139197" lon="112.019777019017">
        <ele>1109.0</ele>
        <time>2018-07-27T11:11:38.751000Z</time>
      </trkpt>
      <trkpt lat="37.84908326271146" lon="112.0195558472125">
        <ele>1106.0</ele>
        <time>2018-07-27T11:11:44.751000Z</time>
      </trkpt>
      <trkpt lat="37.8491221654544" lon="112.01922435433103">
        <ele>1106.0</ele>
        <time>2018-07-27T11:11:53.751000Z</time>
      </trkpt>
      <trkpt lat="37.84910509205812" lon="112.01902211214941">
        <ele>1107.0</ele>
        <time>2018-07-27T11:11:59.751000Z</time>
      </trkpt>
      <trkpt lat="37.84916067666259" lon="112.01874199360365">
        <ele>1107.0</ele>
        <time>2018-07-27T11:12:08.751000Z</time>
      </trkpt>
      <trkpt lat="37.84911148175383" lon="112.01867602750328">
        <ele>1107.0</ele>
        <time>2018-07-27T11:12:11.751000Z</time>
      </trkpt>
      <trkpt lat="37.84911671686181" lon="112.01825856734699">
        <ele>1104.0</ele>
        <time>2018-07-27T11:12:20.751000Z</time>
      </trkpt>
      <trkpt lat="37.84908248710948" lon="112.01817745936796">
        <ele>1106.0</ele>
        <time>2018-07-27T11:12:23.751000Z</time>
      </trkpt>
      <trkpt lat="37.84914156500459" lon="112.0178143425945">
        <ele>1101.0</ele>
        <time>2018-07-27T11:12:32.751000Z</time>
      </trkpt>
      <trkpt lat="37.84915783943484" lon="112.01771917022755">
        <ele>1101.0</ele>
        <time>2018-07-27T11:12:35.751000Z</time>
      </trkpt>
      <trkpt lat="37.849142330311686" lon="112.01763833148485">
        <ele>1103.0</ele>
        <time>2018-07-27T11:12:38.751000Z</time>
      </trkpt>
      <trkpt lat="37.8491660202469" lon="112.0174147335887">
        <ele>1105.0</ele>
        <time>2018-07-27T11:12:44.751000Z</time>
      </trkpt>
      <trkpt lat="37.84923489214399" lon="112.017140302631">
        <ele>1107.0</ele>
        <time>2018-07-27T11:12:53.751000Z</time>
      </trkpt>
      <trkpt lat="37.84925036664743" lon="112.01691757379459">
        <ele>1105.0</ele>
        <time>2018-07-27T11:12:59.751000Z</time>
      </trkpt>
      <trkpt lat="37.84928526946056" lon="112.01678638866835">
        <ele>1105.0</ele>
        <time>2018-07-27T11:13:02.751000Z</time>
      </trkpt>
      <trkpt lat="37.84930264402594" lon="112.01655634110551">
        <ele>1104.0</ele>
        <time>2018-07-27T11:13:08.751000Z</time>
      </trkpt>
      <trkpt lat="37.849323060884885" lon="112.01647060026313">
        <ele>1108.0</ele>
        <time>2018-07-27T11:13:11.751000Z</time>
      </trkpt>
      <trkpt lat="37.84931921116701" lon="112.01638571079255">
        <ele>1109.0</ele>
        <time>2018-07-27T11:13:14.751000Z</time>
      </trkpt>
      <trkpt lat="37.84938527820367" lon="112.01618177957434">
        <ele>1109.0</ele>
        <time>2018-07-27T11:13:20.751000Z</time>
      </trkpt>
      <trkpt lat="37.84945258586976" lon="112.01576278329512">
        <ele>1111.0</ele>
        <time>2018-07-27T11:13:32.751000Z</time>
      </trkpt>
      <trkpt lat="37.849509699594044" lon="112.01542834570155">
        <ele>1112.0</ele>
        <time>2018-07-27T11:13:41.751000Z</time>
      </trkpt>
      <trkpt lat="37.84954147316189" lon="112.01532263311663">
        <ele>1113.0</ele>
        <time>2018-07-27T11:13:44.751000Z</time>
      </trkpt>
      <trkpt lat="37.849533697890664" lon="112.01519502685677">
        <ele>1112.0</ele>
        <time>2018-07-27T11:13:47.751000Z</time>
      </trkpt>
      <trkpt lat="37.84958401306151" lon="112.01477245982441">
        <ele>1113.0</ele>
        <time>2018-07-27T11:13:59.751000Z</time>
      </trkpt>
      <trkpt lat="37.84962461033122" lon="112.01471243702808">
        <ele>1114.0</ele>
        <time>2018-07-27T11:14:02.751000Z</time>
      </trkpt>
      <trkpt lat="37.84967524693762" lon="112.01467645108367">
        <ele>1116.0</ele>
        <time>2018-07-27T11:14:05.751000Z</time>
      </trkpt>
      <trkpt lat="37.849673450197834" lon="112.01423796786528">
        <ele>1115.0</ele>
        <time>2018-07-27T11:14:14.751000Z</time>
      </trkpt>
      <trkpt lat="37.84970245537886" lon="112.01415226413934">
        <ele>1116.0</ele>
        <time>2018-07-27T11:14:17.751000Z</time>
      </trkpt>
      <trkpt lat="37.84968998665565" lon="112.01374402766041">
        <ele>1115.0</ele>
        <time>2018-07-27T11:14:26.751000Z</time>
      </trkpt>
      <trkpt lat="37.84968474227035" lon="112.01351938693983">
        <ele>1116.0</ele>
        <time>2018-07-27T11:14:32.751000Z</time>
      </trkpt>
      <trkpt lat="37.84971243715536" lon="112.01341800477535">
        <ele>1117.0</ele>
        <time>2018-07-27T11:14:35.751000Z</time>
      </trkpt>
      <trkpt lat="37.84971252082186" lon="112.01329499871555">
        <ele>1118.0</ele>
        <time>2018-07-27T11:14:38.851000Z</time>
      </trkpt>
      <trkpt lat="37.849691452556044" lon="112.01316848105687">
        <ele>1119.0</ele>
        <time>2018-07-27T11:14:41.751000Z</time>
      </trkpt>
      <trkpt lat="37.849715721755544" lon="112.01293841773847">
        <ele>1118.0</ele>
        <time>2018-07-27T11:14:47.751000Z</time>
      </trkpt>
      <trkpt lat="37.849745802289526" lon="112.01285677134092">
        <ele>1119.0</ele>
        <time>2018-07-27T11:14:50.751000Z</time>
      </trkpt>
      <trkpt lat="37.84979131471405" lon="112.0125055952704">
        <ele>1117.0</ele>
        <time>2018-07-27T11:14:59.751000Z</time>
      </trkpt>
      <trkpt lat="37.849798148600414" lon="112.01230094882094">
        <ele>1118.0</ele>
        <time>2018-07-27T11:15:05.751000Z</time>
      </trkpt>
      <trkpt lat="37.84978415136219" lon="112.01216929647994">
        <ele>1118.0</ele>
        <time>2018-07-27T11:15:08.751000Z</time>
      </trkpt>
      <trkpt lat="37.849791333886024" lon="112.01193842883173">
        <ele>1120.0</ele>
        <time>2018-07-27T11:15:14.751000Z</time>
      </trkpt>
      <trkpt lat="37.84982338095605" lon="112.0118340757166">
        <ele>1120.0</ele>
        <time>2018-07-27T11:15:17.751000Z</time>
      </trkpt>
      <trkpt lat="37.84978631685971" lon="112.01150747646797">
        <ele>1118.0</ele>
        <time>2018-07-27T11:15:26.751000Z</time>
      </trkpt>
      <trkpt lat="37.84981181221037" lon="112.01127528526888">
        <ele>1120.0</ele>
        <time>2018-07-27T11:15:32.751000Z</time>
      </trkpt>
      <trkpt lat="37.849792758366625" lon="112.01107741816189">
        <ele>1118.0</ele>
        <time>2018-07-27T11:15:38.751000Z</time>
      </trkpt>
      <trkpt lat="37.84981502325067" lon="112.01087567048394">
        <ele>1112.0</ele>
        <time>2018-07-27T11:15:44.751000Z</time>
      </trkpt>
      <trkpt lat="37.84980449598003" lon="112.01077464715911">
        <ele>1111.0</ele>
        <time>2018-07-27T11:15:47.751000Z</time>
      </trkpt>
      <trkpt lat="37.8498690693205" lon="112.01046228762378">
        <ele>1111.0</ele>
        <time>2018-07-27T11:15:56.751000Z</time>
      </trkpt>
      <trkpt lat="37.84988467387536" lon="112.01029344685472">
        <ele>1113.0</ele>
        <time>2018-07-27T11:16:02.751000Z</time>
      </trkpt>
      <trkpt lat="37.849859984464835" lon="112.01020064768393">
        <ele>1112.0</ele>
        <time>2018-07-27T11:16:05.751000Z</time>
      </trkpt>
      <trkpt lat="37.84986809724673" lon="112.01006689153091">
        <ele>1113.0</ele>
        <time>2018-07-27T11:16:08.751000Z</time>
      </trkpt>
      <trkpt lat="37.849899135880214" lon="112.00990797699386">
        <ele>1112.0</ele>
        <time>2018-07-27T11:16:11.751000Z</time>
      </trkpt>
      <trkpt lat="37.84983696314025" lon="112.00951943787634">
        <ele>1117.0</ele>
        <time>2018-07-27T11:16:23.751000Z</time>
      </trkpt>
      <trkpt lat="37.849787922271936" lon="112.00939625733676">
        <ele>1114.0</ele>
        <time>2018-07-27T11:16:26.751000Z</time>
      </trkpt>
      <trkpt lat="37.849733648821434" lon="112.00912377920669">
        <ele>1115.0</ele>
        <time>2018-07-27T11:16:32.751000Z</time>
      </trkpt>
      <trkpt lat="37.84967544667354" lon="112.00907972378245">
        <ele>1115.0</ele>
        <time>2018-07-27T11:16:35.751000Z</time>
      </trkpt>
      <trkpt lat="37.849482757047554" lon="112.00879905446469">
        <ele>1117.0</ele>
        <time>2018-07-27T11:16:47.751000Z</time>
      </trkpt>
      <trkpt lat="37.849415306978244" lon="112.00869562961041">
        <ele>1115.0</ele>
        <time>2018-07-27T11:16:50.751000Z</time>
      </trkpt>
      <trkpt lat="37.84931745104176" lon="112.00848235956616">
        <ele>1117.0</ele>
        <time>2018-07-27T11:16:56.751000Z</time>
      </trkpt>
      <trkpt lat="37.849116126439526" lon="112.0081601522143">
        <ele>1121.0</ele>
        <time>2018-07-27T11:17:08.751000Z</time>
      </trkpt>
      <trkpt lat="37.84889483165305" lon="112.0079039308974">
        <ele>1124.0</ele>
        <time>2018-07-27T11:17:20.751000Z</time>
      </trkpt>
      <trkpt lat="37.84880078430086" lon="112.00767165596288">
        <ele>1123.0</ele>
        <time>2018-07-27T11:17:26.751000Z</time>
      </trkpt>
      <trkpt lat="37.84875030796445" lon="112.00758867718089">
        <ele>1125.0</ele>
        <time>2018-07-27T11:17:29.751000Z</time>
      </trkpt>
      <trkpt lat="37.848580867087925" lon="112.00737442122082">
        <ele>1124.0</ele>
        <time>2018-07-27T11:17:38.751000Z</time>
      </trkpt>
      <trkpt lat="37.848520412033324" lon="112.00726711388123">
        <ele>1125.0</ele>
        <time>2018-07-27T11:17:41.751000Z</time>
      </trkpt>
      <trkpt lat="37.848438673484" lon="112.00720062654082">
        <ele>1123.0</ele>
        <time>2018-07-27T11:17:44.751000Z</time>
      </trkpt>
      <trkpt lat="37.84832634221232" lon="112.00702088186449">
        <ele>1120.0</ele>
        <time>2018-07-27T11:17:50.751000Z</time>
      </trkpt>
      <trkpt lat="37.84820891616396" lon="112.00691223031626">
        <ele>1120.0</ele>
        <time>2018-07-27T11:17:56.751000Z</time>
      </trkpt>
      <trkpt lat="37.847956416472364" lon="112.0067903497797">
        <ele>1124.0</ele>
        <time>2018-07-27T11:18:05.851000Z</time>
      </trkpt>
      <trkpt lat="37.847741395896925" lon="112.00674685526891">
        <ele>1125.0</ele>
        <time>2018-07-27T11:18:14.751000Z</time>
      </trkpt>
      <trkpt lat="37.84759529963594" lon="112.00677811947126">
        <ele>1124.0</ele>
        <time>2018-07-27T11:18:20.751000Z</time>
      </trkpt>
      <trkpt lat="37.847503305710354" lon="112.00677532536639">
        <ele>1125.0</ele>
        <time>2018-07-27T11:18:23.751000Z</time>
      </trkpt>
      <trkpt lat="37.84733779291047" lon="112.00671041137554">
        <ele>1124.0</ele>
        <time>2018-07-27T11:18:29.751000Z</time>
      </trkpt>
      <trkpt lat="37.847007649451356" lon="112.00669612425898">
        <ele>1126.0</ele>
        <time>2018-07-27T11:18:41.751000Z</time>
      </trkpt>
      <trkpt lat="37.846823490938974" lon="112.0066753322602">
        <ele>1125.0</ele>
        <time>2018-07-27T11:18:47.751000Z</time>
      </trkpt>
      <trkpt lat="37.84654442920361" lon="112.0067014069096">
        <ele>1132.0</ele>
        <time>2018-07-27T11:18:59.751000Z</time>
      </trkpt>
      <trkpt lat="37.84646977122364" lon="112.00665483392851">
        <ele>1134.0</ele>
        <time>2018-07-27T11:19:02.751000Z</time>
      </trkpt>
      <trkpt lat="37.8462615219515" lon="112.00665634932021">
        <ele>1133.0</ele>
        <time>2018-07-27T11:19:08.751000Z</time>
      </trkpt>
      <trkpt lat="37.84608905260457" lon="112.00658378442134">
        <ele>1133.0</ele>
        <time>2018-07-27T11:19:14.751000Z</time>
      </trkpt>
      <trkpt lat="37.84601642310339" lon="112.00657592340123">
        <ele>1133.0</ele>
        <time>2018-07-27T11:19:17.751000Z</time>
      </trkpt>
      <trkpt lat="37.845673382215125" lon="112.00640894307352">
        <ele>1131.0</ele>
        <time>2018-07-27T11:19:29.751000Z</time>
      </trkpt>
      <trkpt lat="37.845597344402364" lon="112.00634164492801">
        <ele>1132.0</ele>
        <time>2018-07-27T11:19:32.751000Z</time>
      </trkpt>
      <trkpt lat="37.845379159153744" lon="112.00623221907887">
        <ele>1133.0</ele>
        <time>2018-07-27T11:19:41.751000Z</time>
      </trkpt>
      <trkpt lat="37.84529308044095" lon="112.00622957154349">
        <ele>1133.0</ele>
        <time>2018-07-27T11:19:44.751000Z</time>
      </trkpt>
      <trkpt lat="37.84510540068061" lon="112.00617870686614">
        <ele>1133.0</ele>
        <time>2018-07-27T11:19:50.751000Z</time>
      </trkpt>
      <trkpt lat="37.84501804310086" lon="112.00618621852443">
        <ele>1133.0</ele>
        <time>2018-07-27T11:19:53.751000Z</time>
      </trkpt>
      <trkpt lat="37.84474670006487" lon="112.00611264227031">
        <ele>1133.0</ele>
        <time>2018-07-27T11:20:02.751000Z</time>
      </trkpt>
      <trkpt lat="37.844667719770655" lon="112.00608440444849">
        <ele>1133.0</ele>
        <time>2018-07-27T11:20:05.751000Z</time>
      </trkpt>
      <trkpt lat="37.84433465264016" lon="112.00616312083872">
        <ele>1134.0</ele>
        <time>2018-07-27T11:20:17.751000Z</time>
      </trkpt>
      <trkpt lat="37.8440119497908" lon="112.00629236729472">
        <ele>1135.0</ele>
        <time>2018-07-27T11:20:29.751000Z</time>
      </trkpt>
      <trkpt lat="37.84391601663158" lon="112.00634617040744">
        <ele>1136.0</ele>
        <time>2018-07-27T11:20:32.751000Z</time>
      </trkpt>
      <trkpt lat="37.84371821689116" lon="112.00653297845892">
        <ele>1135.0</ele>
        <time>2018-07-27T11:20:41.751000Z</time>
      </trkpt>
      <trkpt lat="37.84345641474808" lon="112.00671087436133">
        <ele>1133.0</ele>
        <time>2018-07-27T11:20:53.751000Z</time>
      </trkpt>
      <trkpt lat="37.84333367054257" lon="112.00683955734799">
        <ele>1135.0</ele>
        <time>2018-07-27T11:20:59.751000Z</time>
      </trkpt>
      <trkpt lat="37.84326249781333" lon="112.00686957046507">
        <ele>1136.0</ele>
        <time>2018-07-27T11:21:02.751000Z</time>
      </trkpt>
      <trkpt lat="37.8430399657448" lon="112.00707125007149">
        <ele>1135.0</ele>
        <time>2018-07-27T11:21:11.751000Z</time>
      </trkpt>
      <trkpt lat="37.84275639326524" lon="112.00727158599013">
        <ele>1141.0</ele>
        <time>2018-07-27T11:21:23.751000Z</time>
      </trkpt>
      <trkpt lat="37.842470934964204" lon="112.00746759770269">
        <ele>1141.0</ele>
        <time>2018-07-27T11:21:35.751000Z</time>
      </trkpt>
      <trkpt lat="37.842415128508385" lon="112.00753085796228">
        <ele>1142.0</ele>
        <time>2018-07-27T11:21:38.751000Z</time>
      </trkpt>
      <trkpt lat="37.842347172479364" lon="112.00757411643075">
        <ele>1141.0</ele>
        <time>2018-07-27T11:21:41.751000Z</time>
      </trkpt>
      <trkpt lat="37.84226386391448" lon="112.00758277944433">
        <ele>1142.0</ele>
        <time>2018-07-27T11:21:44.751000Z</time>
      </trkpt>
      <trkpt lat="37.84208033481936" lon="112.00771254961373">
        <ele>1143.0</ele>
        <time>2018-07-27T11:21:50.751000Z</time>
      </trkpt>
      <trkpt lat="37.84195843979313" lon="112.0078298811538">
        <ele>1144.0</ele>
        <time>2018-07-27T11:21:56.751000Z</time>
      </trkpt>
      <trkpt lat="37.84187368751871" lon="112.00786476202744">
        <ele>1144.0</ele>
        <time>2018-07-27T11:21:59.751000Z</time>
      </trkpt>
      <trkpt lat="37.84181788298411" lon="112.00792748204003">
        <ele>1144.0</ele>
        <time>2018-07-27T11:22:02.751000Z</time>
      </trkpt>
      <trkpt lat="37.84157597768281" lon="112.00805076166196">
        <ele>1146.0</ele>
        <time>2018-07-27T11:22:11.751000Z</time>
      </trkpt>
      <trkpt lat="37.841275557760824" lon="112.00810244164815">
        <ele>1147.0</ele>
        <time>2018-07-27T11:22:26.751000Z</time>
      </trkpt>
      <trkpt lat="37.84114697100425" lon="112.00809759128559">
        <ele>1148.0</ele>
        <time>2018-07-27T11:22:32.751000Z</time>
      </trkpt>
      <trkpt lat="37.841087068229385" lon="112.008078405927">
        <ele>1148.0</ele>
        <time>2018-07-27T11:22:35.751000Z</time>
      </trkpt>
      <trkpt lat="37.841008072861115" lon="112.00809328278774">
        <ele>1149.0</ele>
        <time>2018-07-27T11:22:38.751000Z</time>
      </trkpt>
      <trkpt lat="37.84095786801761" lon="112.00806020032216">
        <ele>1149.0</ele>
        <time>2018-07-27T11:22:41.751000Z</time>
      </trkpt>
      <trkpt lat="37.84061349795914" lon="112.00803196793619">
        <ele>1150.0</ele>
        <time>2018-07-27T11:22:53.751000Z</time>
      </trkpt>
      <trkpt lat="37.840331500965256" lon="112.00797604603798">
        <ele>1152.0</ele>
        <time>2018-07-27T11:23:05.751000Z</time>
      </trkpt>
      <trkpt lat="37.8402711373308" lon="112.00792928849697">
        <ele>1150.0</ele>
        <time>2018-07-27T11:23:08.751000Z</time>
      </trkpt>
      <trkpt lat="37.84010475203233" lon="112.00795363682474">
        <ele>1153.0</ele>
        <time>2018-07-27T11:23:14.751000Z</time>
      </trkpt>
      <trkpt lat="37.83993477085421" lon="112.00800123281827">
        <ele>1152.0</ele>
        <time>2018-07-27T11:23:20.751000Z</time>
      </trkpt>
      <trkpt lat="37.83962028422144" lon="112.00800814892246">
        <ele>1149.0</ele>
        <time>2018-07-27T11:23:32.751000Z</time>
      </trkpt>
      <trkpt lat="37.839303764714245" lon="112.00804248122196">
        <ele>1153.0</ele>
        <time>2018-07-27T11:23:44.751000Z</time>
      </trkpt>
      <trkpt lat="37.839144791562894" lon="112.00806728437374">
        <ele>1154.0</ele>
        <time>2018-07-27T11:23:50.751000Z</time>
      </trkpt>
      <trkpt lat="37.83906329686686" lon="112.00810162435738">
        <ele>1154.0</ele>
        <time>2018-07-27T11:23:53.751000Z</time>
      </trkpt>
      <trkpt lat="37.838818175811326" lon="112.00814490435276">
        <ele>1155.0</ele>
        <time>2018-07-27T11:24:02.751000Z</time>
      </trkpt>
      <trkpt lat="37.83866193964919" lon="112.00813194776721">
        <ele>1158.0</ele>
        <time>2018-07-27T11:24:08.751000Z</time>
      </trkpt>
      <trkpt lat="37.83858048502013" lon="112.00815277191515">
        <ele>1158.0</ele>
        <time>2018-07-27T11:24:11.751000Z</time>
      </trkpt>
      <trkpt lat="37.83851240461783" lon="112.00814656274073">
        <ele>1156.0</ele>
        <time>2018-07-27T11:24:14.751000Z</time>
      </trkpt>
      <trkpt lat="37.8384315480145" lon="112.0081728928949">
        <ele>1155.0</ele>
        <time>2018-07-27T11:24:17.751000Z</time>
      </trkpt>
      <trkpt lat="37.838363903508764" lon="112.0081698169238">
        <ele>1155.0</ele>
        <time>2018-07-27T11:24:20.751000Z</time>
      </trkpt>
      <trkpt lat="37.838149286361265" lon="112.00806481093487">
        <ele>1154.0</ele>
        <time>2018-07-27T11:24:29.751000Z</time>
      </trkpt>
      <trkpt lat="37.837816755750005" lon="112.0079668850006">
        <ele>1158.0</ele>
        <time>2018-07-27T11:24:41.751000Z</time>
      </trkpt>
      <trkpt lat="37.83751352855238" lon="112.00784257569244">
        <ele>1158.0</ele>
        <time>2018-07-27T11:24:53.751000Z</time>
      </trkpt>
      <trkpt lat="37.8374418021538" lon="112.00778500696407">
        <ele>1160.0</ele>
        <time>2018-07-27T11:24:56.751000Z</time>
      </trkpt>
      <trkpt lat="37.83712621482074" lon="112.00771178907725">
        <ele>1157.0</ele>
        <time>2018-07-27T11:25:08.751000Z</time>
      </trkpt>
      <trkpt lat="37.8369712124849" lon="112.00764882409162">
        <ele>1158.0</ele>
        <time>2018-07-27T11:25:14.751000Z</time>
      </trkpt>
      <trkpt lat="37.83692878528622" lon="112.0075920629813">
        <ele>1160.0</ele>
        <time>2018-07-27T11:25:17.751000Z</time>
      </trkpt>
      <trkpt lat="37.83677408405576" lon="112.00751909642827">
        <ele>1162.0</ele>
        <time>2018-07-27T11:25:23.751000Z</time>
      </trkpt>
      <trkpt lat="37.83660163060934" lon="112.00748559798497">
        <ele>1158.0</ele>
        <time>2018-07-27T11:25:29.751000Z</time>
      </trkpt>
      <trkpt lat="37.836535310624214" lon="112.00743478677826">
        <ele>1159.0</ele>
        <time>2018-07-27T11:25:32.751000Z</time>
      </trkpt>
      <trkpt lat="37.83631904395612" lon="112.00744589546241">
        <ele>1157.0</ele>
        <time>2018-07-27T11:25:38.751000Z</time>
      </trkpt>
      <trkpt lat="37.836024205138195" lon="112.007329425223">
        <ele>1155.0</ele>
        <time>2018-07-27T11:25:50.751000Z</time>
      </trkpt>
      <trkpt lat="37.83586455078092" lon="112.00727997683266">
        <ele>1157.0</ele>
        <time>2018-07-27T11:25:56.751000Z</time>
      </trkpt>
      <trkpt lat="37.835782091966685" lon="112.00727349913755">
        <ele>1157.0</ele>
        <time>2018-07-27T11:25:59.751000Z</time>
      </trkpt>
      <trkpt lat="37.83567672751814" lon="112.00730594935659">
        <ele>1160.0</ele>
        <time>2018-07-27T11:26:05.751000Z</time>
      </trkpt>
      <trkpt lat="37.83545398245516" lon="112.00730597592168">
        <ele>1163.0</ele>
        <time>2018-07-27T11:26:17.751000Z</time>
      </trkpt>
      <trkpt lat="37.835413102264916" lon="112.0072765165945">
        <ele>1162.0</ele>
        <time>2018-07-27T11:26:20.751000Z</time>
      </trkpt>
      <trkpt lat="37.83537932773248" lon="112.0069559292983">
        <ele>1156.0</ele>
        <time>2018-07-27T11:26:38.751000Z</time>
      </trkpt>
      <trkpt lat="37.8352974590322" lon="112.00693350313028">
        <ele>1156.0</ele>
        <time>2018-07-27T11:26:44.751000Z</time>
      </trkpt>
      <trkpt lat="37.83526751579792" lon="112.00687565987766">
        <ele>1156.0</ele>
        <time>2018-07-27T11:26:47.751000Z</time>
      </trkpt>
      <trkpt lat="37.835174859908115" lon="112.00683133974812">
        <ele>1155.0</ele>
        <time>2018-07-27T11:26:56.751000Z</time>
      </trkpt>
      <trkpt lat="37.835143532233026" lon="112.00687405278855">
        <ele>1157.0</ele>
        <time>2018-07-27T11:26:59.751000Z</time>
      </trkpt>
      <trkpt lat="37.83499358824609" lon="112.00684379571435">
        <ele>1156.0</ele>
        <time>2018-07-27T11:27:05.751000Z</time>
      </trkpt>
      <trkpt lat="37.83491867227737" lon="112.00685542806514">
        <ele>1157.0</ele>
        <time>2018-07-27T11:27:08.751000Z</time>
      </trkpt>
      <trkpt lat="37.83482820885982" lon="112.00683659841776">
        <ele>1159.0</ele>
        <time>2018-07-27T11:27:11.751000Z</time>
      </trkpt>
      <trkpt lat="37.83466389748938" lon="112.00687898292227">
        <ele>1159.0</ele>
        <time>2018-07-27T11:27:17.751000Z</time>
      </trkpt>
      <trkpt lat="37.8344622672903" lon="112.0068244731723">
        <ele>1162.0</ele>
        <time>2018-07-27T11:27:26.751000Z</time>
      </trkpt>
      <trkpt lat="37.83436582423679" lon="112.00687254345131">
        <ele>1163.0</ele>
        <time>2018-07-27T11:27:29.751000Z</time>
      </trkpt>
      <trkpt lat="37.834212366357974" lon="112.0067938811547">
        <ele>1164.0</ele>
        <time>2018-07-27T11:27:35.751000Z</time>
      </trkpt>
      <trkpt lat="37.834156123123805" lon="112.00681420913523">
        <ele>1162.0</ele>
        <time>2018-07-27T11:27:38.751000Z</time>
      </trkpt>
      <trkpt lat="37.83406791087286" lon="112.00676456315543">
        <ele>1162.0</ele>
        <time>2018-07-27T11:27:41.751000Z</time>
      </trkpt>
      <trkpt lat="37.83385357398812" lon="112.00674364594815">
        <ele>1163.0</ele>
        <time>2018-07-27T11:27:50.751000Z</time>
      </trkpt>
      <trkpt lat="37.83370953775473" lon="112.0066428369468">
        <ele>1162.0</ele>
        <time>2018-07-27T11:27:56.751000Z</time>
      </trkpt>
      <trkpt lat="37.83364159308746" lon="112.00663079623287">
        <ele>1160.0</ele>
        <time>2018-07-27T11:27:59.751000Z</time>
      </trkpt>
      <trkpt lat="37.833558623046926" lon="112.00658657637578">
        <ele>1161.0</ele>
        <time>2018-07-27T11:28:02.751000Z</time>
      </trkpt>
      <trkpt lat="37.833234645543975" lon="112.00649476314108">
        <ele>1164.0</ele>
        <time>2018-07-27T11:28:14.751000Z</time>
      </trkpt>
      <trkpt lat="37.83305898310941" lon="112.00644585786014">
        <ele>1165.0</ele>
        <time>2018-07-27T11:28:20.751000Z</time>
      </trkpt>
      <trkpt lat="37.83298004025076" lon="112.00644316416549">
        <ele>1165.0</ele>
        <time>2018-07-27T11:28:23.751000Z</time>
      </trkpt>
      <trkpt lat="37.83289877082918" lon="112.00640181635625">
        <ele>1157.0</ele>
        <time>2018-07-27T11:28:26.751000Z</time>
      </trkpt>
      <trkpt lat="37.83276667265848" lon="112.0063010064083">
        <ele>1162.0</ele>
        <time>2018-07-27T11:28:32.751000Z</time>
      </trkpt>
      <trkpt lat="37.83270181128491" lon="112.00630723126962">
        <ele>1163.0</ele>
        <time>2018-07-27T11:28:35.751000Z</time>
      </trkpt>
      <trkpt lat="37.832526579957296" lon="112.00620480473516">
        <ele>1166.0</ele>
        <time>2018-07-27T11:28:41.751000Z</time>
      </trkpt>
      <trkpt lat="37.83228479985546" lon="112.00612860627685">
        <ele>1166.0</ele>
        <time>2018-07-27T11:28:50.751000Z</time>
      </trkpt>
      <trkpt lat="37.832001535701124" lon="112.00613458684433">
        <ele>1167.0</ele>
        <time>2018-07-27T11:29:02.751000Z</time>
      </trkpt>
      <trkpt lat="37.83192904302597" lon="112.00615243590556">
        <ele>1168.0</ele>
        <time>2018-07-27T11:29:05.751000Z</time>
      </trkpt>
      <trkpt lat="37.831750286840894" lon="112.00614029328688">
        <ele>1168.0</ele>
        <time>2018-07-27T11:29:11.751000Z</time>
      </trkpt>
      <trkpt lat="37.83167335491906" lon="112.006168608311">
        <ele>1168.0</ele>
        <time>2018-07-27T11:29:14.751000Z</time>
      </trkpt>
      <trkpt lat="37.83155486713413" lon="112.00616626628533">
        <ele>1169.0</ele>
        <time>2018-07-27T11:29:17.751000Z</time>
      </trkpt>
      <trkpt lat="37.831455406520966" lon="112.00612951605679">
        <ele>1168.0</ele>
        <time>2018-07-27T11:29:20.751000Z</time>
      </trkpt>
      <trkpt lat="37.83119575158172" lon="112.00622469596271">
        <ele>1170.0</ele>
        <time>2018-07-27T11:29:29.751000Z</time>
      </trkpt>
      <trkpt lat="37.83109058220028" lon="112.00619173071894">
        <ele>1170.0</ele>
        <time>2018-07-27T11:29:32.751000Z</time>
      </trkpt>
      <trkpt lat="37.831002517163476" lon="112.0062034165917">
        <ele>1170.0</ele>
        <time>2018-07-27T11:29:35.751000Z</time>
      </trkpt>
      <trkpt lat="37.83080564369654" lon="112.00616083027809">
        <ele>1170.0</ele>
        <time>2018-07-27T11:29:41.751000Z</time>
      </trkpt>
      <trkpt lat="37.8307156595153" lon="112.00617836812566">
        <ele>1170.0</ele>
        <time>2018-07-27T11:29:44.751000Z</time>
      </trkpt>
      <trkpt lat="37.83044327141213" lon="112.00618126579351">
        <ele>1168.0</ele>
        <time>2018-07-27T11:29:53.751000Z</time>
      </trkpt>
      <trkpt lat="37.83034616232424" lon="112.00617478993766">
        <ele>1169.0</ele>
        <time>2018-07-27T11:29:56.751000Z</time>
      </trkpt>
      <trkpt lat="37.83019115084334" lon="112.00620643463587">
        <ele>1172.0</ele>
        <time>2018-07-27T11:30:02.751000Z</time>
      </trkpt>
      <trkpt lat="37.83011499864223" lon="112.00617779089274">
        <ele>1172.0</ele>
        <time>2018-07-27T11:30:05.751000Z</time>
      </trkpt>
      <trkpt lat="37.82974469572846" lon="112.00616675233343">
        <ele>1174.0</ele>
        <time>2018-07-27T11:30:17.751000Z</time>
      </trkpt>
      <trkpt lat="37.82944518583186" lon="112.00616192245644">
        <ele>1173.0</ele>
        <time>2018-07-27T11:30:26.751000Z</time>
      </trkpt>
      <trkpt lat="37.8293688707825" lon="112.00618788126894">
        <ele>1173.0</ele>
        <time>2018-07-27T11:30:29.751000Z</time>
      </trkpt>
      <trkpt lat="37.829158142468415" lon="112.00616168635506">
        <ele>1170.0</ele>
        <time>2018-07-27T11:30:35.751000Z</time>
      </trkpt>
      <trkpt lat="37.828972978000095" lon="112.00620603919563">
        <ele>1172.0</ele>
        <time>2018-07-27T11:30:41.751000Z</time>
      </trkpt>
      <trkpt lat="37.82867811920606" lon="112.00618823389816">
        <ele>1173.0</ele>
        <time>2018-07-27T11:30:50.751000Z</time>
      </trkpt>
      <trkpt lat="37.828378088687515" lon="112.0061761057213">
        <ele>1173.0</ele>
        <time>2018-07-27T11:30:59.751000Z</time>
      </trkpt>
      <trkpt lat="37.828285077586244" lon="112.00616016854208">
        <ele>1173.0</ele>
        <time>2018-07-27T11:31:02.751000Z</time>
      </trkpt>
      <trkpt lat="37.82809750371088" lon="112.00619370928324">
        <ele>1174.0</ele>
        <time>2018-07-27T11:31:08.851000Z</time>
      </trkpt>
      <trkpt lat="37.82792587899757" lon="112.00624671044571">
        <ele>1174.0</ele>
        <time>2018-07-27T11:31:14.751000Z</time>
      </trkpt>
      <trkpt lat="37.827653100789625" lon="112.00628485665133">
        <ele>1178.0</ele>
        <time>2018-07-27T11:31:23.751000Z</time>
      </trkpt>
      <trkpt lat="37.827375615980245" lon="112.00629188859945">
        <ele>1179.0</ele>
        <time>2018-07-27T11:31:32.751000Z</time>
      </trkpt>
      <trkpt lat="37.82726133958319" lon="112.00628571472159">
        <ele>1179.0</ele>
        <time>2018-07-27T11:31:35.751000Z</time>
      </trkpt>
      <trkpt lat="37.82698715883586" lon="112.00633602461933">
        <ele>1179.0</ele>
        <time>2018-07-27T11:31:44.751000Z</time>
      </trkpt>
      <trkpt lat="37.826803637083295" lon="112.00637551178843">
        <ele>1180.0</ele>
        <time>2018-07-27T11:31:50.751000Z</time>
      </trkpt>
      <trkpt lat="37.82670273959023" lon="112.00636579264092">
        <ele>1180.0</ele>
        <time>2018-07-27T11:31:53.751000Z</time>
      </trkpt>
      <trkpt lat="37.82660495678186" lon="112.00640337743606">
        <ele>1181.0</ele>
        <time>2018-07-27T11:31:56.751000Z</time>
      </trkpt>
      <trkpt lat="37.8265045954694" lon="112.00639582070416">
        <ele>1182.0</ele>
        <time>2018-07-27T11:31:59.751000Z</time>
      </trkpt>
      <trkpt lat="37.82623150117242" lon="112.0064491044221">
        <ele>1183.0</ele>
        <time>2018-07-27T11:32:08.751000Z</time>
      </trkpt>
      <trkpt lat="37.82597982674103" lon="112.00641588621512">
        <ele>1184.0</ele>
        <time>2018-07-27T11:32:17.751000Z</time>
      </trkpt>
      <trkpt lat="37.825791392615116" lon="112.00646510519933">
        <ele>1185.0</ele>
        <time>2018-07-27T11:32:23.751000Z</time>
      </trkpt>
      <trkpt lat="37.82542574652306" lon="112.00643946926195">
        <ele>1188.0</ele>
        <time>2018-07-27T11:32:35.751000Z</time>
      </trkpt>
      <trkpt lat="37.82516861987593" lon="112.00634389886189">
        <ele>1188.0</ele>
        <time>2018-07-27T11:32:44.751000Z</time>
      </trkpt>
      <trkpt lat="37.824896646907014" lon="112.00632544474108">
        <ele>1187.0</ele>
        <time>2018-07-27T11:32:53.851000Z</time>
      </trkpt>
      <trkpt lat="37.82460259619139" lon="112.0062587297831">
        <ele>1188.0</ele>
        <time>2018-07-27T11:33:02.751000Z</time>
      </trkpt>
      <trkpt lat="37.82440000375565" lon="112.0062338854132">
        <ele>1191.0</ele>
        <time>2018-07-27T11:33:08.751000Z</time>
      </trkpt>
      <trkpt lat="37.824134328873086" lon="112.00615003692285">
        <ele>1191.0</ele>
        <time>2018-07-27T11:33:17.751000Z</time>
      </trkpt>
      <trkpt lat="37.82402537700177" lon="112.00613823487518">
        <ele>1191.0</ele>
        <time>2018-07-27T11:33:20.751000Z</time>
      </trkpt>
      <trkpt lat="37.82394112499101" lon="112.00610022650213">
        <ele>1190.0</ele>
        <time>2018-07-27T11:33:23.751000Z</time>
      </trkpt>
      <trkpt lat="37.823833135678406" lon="112.00608798578365">
        <ele>1191.0</ele>
        <time>2018-07-27T11:33:26.751000Z</time>
      </trkpt>
      <trkpt lat="37.82372880178723" lon="112.0060479924471">
        <ele>1189.0</ele>
        <time>2018-07-27T11:33:29.751000Z</time>
      </trkpt>
      <trkpt lat="37.82341330291414" lon="112.00607775206035">
        <ele>1186.0</ele>
        <time>2018-07-27T11:33:38.751000Z</time>
      </trkpt>
      <trkpt lat="37.823100833262345" lon="112.0061029400446">
        <ele>1189.0</ele>
        <time>2018-07-27T11:33:47.751000Z</time>
      </trkpt>
      <trkpt lat="37.82306951732899" lon="112.00605077408484">
        <ele>1189.0</ele>
        <time>2018-07-27T11:33:50.751000Z</time>
      </trkpt>
      <trkpt lat="37.8229995055794" lon="112.00605564799126">
        <ele>1190.0</ele>
        <time>2018-07-27T11:33:53.751000Z</time>
      </trkpt>
      <trkpt lat="37.82291112831334" lon="112.0061235061613">
        <ele>1190.0</ele>
        <time>2018-07-27T11:33:56.751000Z</time>
      </trkpt>
      <trkpt lat="37.822666221137005" lon="112.00609569347066">
        <ele>1191.0</ele>
        <time>2018-07-27T11:34:11.751000Z</time>
      </trkpt>
      <trkpt lat="37.82261136469204" lon="112.00611327011613">
        <ele>1192.0</ele>
        <time>2018-07-27T11:34:14.751000Z</time>
      </trkpt>
      <trkpt lat="37.822545329536254" lon="112.00605840519181">
        <ele>1194.0</ele>
        <time>2018-07-27T11:34:17.751000Z</time>
      </trkpt>
      <trkpt lat="37.822520484978426" lon="112.0060176629078">
        <ele>1194.0</ele>
        <time>2018-07-27T11:34:20.751000Z</time>
      </trkpt>
      <trkpt lat="37.822458080831765" lon="112.00602084261432">
        <ele>1195.0</ele>
        <time>2018-07-27T11:34:26.751000Z</time>
      </trkpt>
      <trkpt lat="37.82234912181133" lon="112.00589435105216">
        <ele>1197.0</ele>
        <time>2018-07-27T11:34:38.751000Z</time>
      </trkpt>
      <trkpt lat="37.8220471733104" lon="112.00579815721264">
        <ele>1204.0</ele>
        <time>2018-07-27T11:35:02.751000Z</time>
      </trkpt>
      <trkpt lat="37.82194046413602" lon="112.0057359990449">
        <ele>1205.0</ele>
        <time>2018-07-27T11:35:08.751000Z</time>
      </trkpt>
      <trkpt lat="37.82191078302504" lon="112.00562631251549">
        <ele>1204.0</ele>
        <time>2018-07-27T11:35:14.751000Z</time>
      </trkpt>
      <trkpt lat="37.821796214630325" lon="112.00561654015915">
        <ele>1203.0</ele>
        <time>2018-07-27T11:35:20.751000Z</time>
      </trkpt>
      <trkpt lat="37.82171715787524" lon="112.00556140683787">
        <ele>1203.0</ele>
        <time>2018-07-27T11:35:26.751000Z</time>
      </trkpt>
      <trkpt lat="37.82167965022082" lon="112.00540247069445">
        <ele>1203.0</ele>
        <time>2018-07-27T11:35:35.751000Z</time>
      </trkpt>
      <trkpt lat="37.82146942748979" lon="112.00529842764989">
        <ele>1205.0</ele>
        <time>2018-07-27T11:35:47.751000Z</time>
      </trkpt>
      <trkpt lat="37.82141957504101" lon="112.00524320248455">
        <ele>1205.0</ele>
        <time>2018-07-27T11:35:53.651000Z</time>
      </trkpt>
      <trkpt lat="37.82141170957758" lon="112.00518814855081">
        <ele>1204.0</ele>
        <time>2018-07-27T11:35:56.751000Z</time>
      </trkpt>
      <trkpt lat="37.82133124533675" lon="112.00512900579899">
        <ele>1205.0</ele>
        <time>2018-07-27T11:36:02.651000Z</time>
      </trkpt>
      <trkpt lat="37.821218298877" lon="112.00508329385467">
        <ele>1205.0</ele>
        <time>2018-07-27T11:36:08.751000Z</time>
      </trkpt>
      <trkpt lat="37.821096814883234" lon="112.00497221271726">
        <ele>1207.0</ele>
        <time>2018-07-27T11:36:20.751000Z</time>
      </trkpt>
      <trkpt lat="37.821004151883564" lon="112.00493086703251">
        <ele>1208.0</ele>
        <time>2018-07-27T11:36:26.751000Z</time>
      </trkpt>
      <trkpt lat="37.820959081777616" lon="112.00485140268566">
        <ele>1208.0</ele>
        <time>2018-07-27T11:36:32.751000Z</time>
      </trkpt>
      <trkpt lat="37.82078535566524" lon="112.00479087506928">
        <ele>1211.0</ele>
        <time>2018-07-27T11:36:44.751000Z</time>
      </trkpt>
      <trkpt lat="37.82079882308003" lon="112.00473302825564">
        <ele>1210.0</ele>
        <time>2018-07-27T11:36:47.751000Z</time>
      </trkpt>
      <trkpt lat="37.82076532854284" lon="112.00468383681644">
        <ele>1210.0</ele>
        <time>2018-07-27T11:36:50.751000Z</time>
      </trkpt>
      <trkpt lat="37.82071955795717" lon="112.00465708212819">
        <ele>1211.0</ele>
        <time>2018-07-27T11:36:53.751000Z</time>
      </trkpt>
      <trkpt lat="37.82067612940216" lon="112.00457317397367">
        <ele>1214.0</ele>
        <time>2018-07-27T11:36:59.751000Z</time>
      </trkpt>
      <trkpt lat="37.820562723523906" lon="112.00457303618126">
        <ele>1215.0</ele>
        <time>2018-07-27T11:37:05.751000Z</time>
      </trkpt>
      <trkpt lat="37.820521030679274" lon="112.00454357800265">
        <ele>1210.0</ele>
        <time>2018-07-27T11:37:08.751000Z</time>
      </trkpt>
      <trkpt lat="37.82050411431958" lon="112.00448492406716">
        <ele>1211.0</ele>
        <time>2018-07-27T11:37:11.751000Z</time>
      </trkpt>
      <trkpt lat="37.82051025824065" lon="112.0044265377311">
        <ele>1209.0</ele>
        <time>2018-07-27T11:37:14.751000Z</time>
      </trkpt>
      <trkpt lat="37.82051874054791" lon="112.00449303144094">
        <ele>1211.0</ele>
        <time>2018-07-27T11:37:23.651000Z</time>
      </trkpt>
      <trkpt lat="37.820606357677995" lon="112.00458843832187">
        <ele>1214.0</ele>
        <time>2018-07-27T11:37:32.751000Z</time>
      </trkpt>
      <trkpt lat="37.82064464085736" lon="112.00466925474538">
        <ele>1213.0</ele>
        <time>2018-07-27T11:37:38.751000Z</time>
      </trkpt>
      <trkpt lat="37.820893636931515" lon="112.0048714130516">
        <ele>1214.0</ele>
        <time>2018-07-27T11:37:59.751000Z</time>
      </trkpt>
      <trkpt lat="37.82109128835318" lon="112.00500573125412">
        <ele>1211.0</ele>
        <time>2018-07-27T11:38:08.751000Z</time>
      </trkpt>
      <trkpt lat="37.82116102632211" lon="112.0050016683672">
        <ele>1212.0</ele>
        <time>2018-07-27T11:38:11.751000Z</time>
      </trkpt>
      <trkpt lat="37.82146558357944" lon="112.00522301262347">
        <ele>1211.0</ele>
        <time>2018-07-27T11:38:23.751000Z</time>
      </trkpt>
      <trkpt lat="37.82163832291134" lon="112.00543348467797">
        <ele>1210.0</ele>
        <time>2018-07-27T11:38:32.751000Z</time>
      </trkpt>
      <trkpt lat="37.82171712176221" lon="112.00548274741746">
        <ele>1209.0</ele>
        <time>2018-07-27T11:38:35.751000Z</time>
      </trkpt>
      <trkpt lat="37.8218920996212" lon="112.00566840895044">
        <ele>1207.0</ele>
        <time>2018-07-27T11:38:44.751000Z</time>
      </trkpt>
      <trkpt lat="37.822216008827795" lon="112.00584488955546">
        <ele>1205.0</ele>
        <time>2018-07-27T11:38:56.751000Z</time>
      </trkpt>
      <trkpt lat="37.822441184577634" lon="112.00595515954963">
        <ele>1205.0</ele>
        <time>2018-07-27T11:39:05.751000Z</time>
      </trkpt>
      <trkpt lat="37.822706066164486" lon="112.00610812295488">
        <ele>1200.0</ele>
        <time>2018-07-27T11:39:14.751000Z</time>
      </trkpt>
      <trkpt lat="37.822788994975404" lon="112.00613865804311">
        <ele>1199.0</ele>
        <time>2018-07-27T11:39:17.751000Z</time>
      </trkpt>
      <trkpt lat="37.823156621705756" lon="112.00613672207739">
        <ele>1198.0</ele>
        <time>2018-07-27T11:39:29.751000Z</time>
      </trkpt>
      <trkpt lat="37.82350130598938" lon="112.00609505336084">
        <ele>1195.0</ele>
        <time>2018-07-27T11:39:41.751000Z</time>
      </trkpt>
      <trkpt lat="37.8238299125639" lon="112.00616799776687">
        <ele>1194.0</ele>
        <time>2018-07-27T11:39:53.751000Z</time>
      </trkpt>
      <trkpt lat="37.82398444561429" lon="112.00620555239914">
        <ele>1195.0</ele>
        <time>2018-07-27T11:39:59.751000Z</time>
      </trkpt>
      <trkpt lat="37.82405152382574" lon="112.00618364932114">
        <ele>1194.0</ele>
        <time>2018-07-27T11:40:02.751000Z</time>
      </trkpt>
      <trkpt lat="37.824389669889705" lon="112.0062419959402">
        <ele>1192.0</ele>
        <time>2018-07-27T11:40:14.751000Z</time>
      </trkpt>
      <trkpt lat="37.824549007570226" lon="112.00630604042193">
        <ele>1193.0</ele>
        <time>2018-07-27T11:40:20.751000Z</time>
      </trkpt>
      <trkpt lat="37.82463828865797" lon="112.00629900172103">
        <ele>1192.0</ele>
        <time>2018-07-27T11:40:23.751000Z</time>
      </trkpt>
      <trkpt lat="37.82482722228612" lon="112.00635520372634">
        <ele>1192.0</ele>
        <time>2018-07-27T11:40:29.751000Z</time>
      </trkpt>
      <trkpt lat="37.82489047535997" lon="112.00643331590466">
        <ele>1193.0</ele>
        <time>2018-07-27T11:40:32.751000Z</time>
      </trkpt>
      <trkpt lat="37.82510525097857" lon="112.00646680883047">
        <ele>1190.0</ele>
        <time>2018-07-27T11:40:38.751000Z</time>
      </trkpt>
      <trkpt lat="37.825300074740724" lon="112.00645840598243">
        <ele>1192.0</ele>
        <time>2018-07-27T11:40:44.751000Z</time>
      </trkpt>
      <trkpt lat="37.825389158516074" lon="112.0065175934277">
        <ele>1193.0</ele>
        <time>2018-07-27T11:40:47.751000Z</time>
      </trkpt>
      <trkpt lat="37.82557394876511" lon="112.0065075699036">
        <ele>1191.0</ele>
        <time>2018-07-27T11:40:53.751000Z</time>
      </trkpt>
      <trkpt lat="37.825764089481446" lon="112.00652295496425">
        <ele>1188.0</ele>
        <time>2018-07-27T11:40:59.751000Z</time>
      </trkpt>
      <trkpt lat="37.82592670413967" lon="112.00657997120916">
        <ele>1189.0</ele>
        <time>2018-07-27T11:41:05.751000Z</time>
      </trkpt>
      <trkpt lat="37.826297134951986" lon="112.00654776004596">
        <ele>1186.0</ele>
        <time>2018-07-27T11:41:17.751000Z</time>
      </trkpt>
      <trkpt lat="37.82647468054607" lon="112.00651070628979">
        <ele>1187.0</ele>
        <time>2018-07-27T11:41:23.751000Z</time>
      </trkpt>
      <trkpt lat="37.82657289573298" lon="112.0064190592645">
        <ele>1188.0</ele>
        <time>2018-07-27T11:41:26.751000Z</time>
      </trkpt>
      <trkpt lat="37.82666934052758" lon="112.00637525748242">
        <ele>1190.0</ele>
        <time>2018-07-27T11:41:29.751000Z</time>
      </trkpt>
      <trkpt lat="37.826774551547615" lon="112.00639416667049">
        <ele>1188.0</ele>
        <time>2018-07-27T11:41:32.751000Z</time>
      </trkpt>
      <trkpt lat="37.82686979831865" lon="112.00638820849093">
        <ele>1188.0</ele>
        <time>2018-07-27T11:41:35.751000Z</time>
      </trkpt>
      <trkpt lat="37.826942087079054" lon="112.00634765332966">
        <ele>1187.0</ele>
        <time>2018-07-27T11:41:38.751000Z</time>
      </trkpt>
      <trkpt lat="37.827253228853344" lon="112.00636383486587">
        <ele>1184.0</ele>
        <time>2018-07-27T11:41:47.751000Z</time>
      </trkpt>
      <trkpt lat="37.82744324755203" lon="112.00632921251209">
        <ele>1183.0</ele>
        <time>2018-07-27T11:41:53.751000Z</time>
      </trkpt>
      <trkpt lat="37.82762682583367" lon="112.00627080366445">
        <ele>1185.0</ele>
        <time>2018-07-27T11:41:59.751000Z</time>
      </trkpt>
      <trkpt lat="37.82783596560166" lon="112.006283753619">
        <ele>1180.0</ele>
        <time>2018-07-27T11:42:05.751000Z</time>
      </trkpt>
      <trkpt lat="37.827921508240436" lon="112.0062567124315">
        <ele>1177.0</ele>
        <time>2018-07-27T11:42:08.751000Z</time>
      </trkpt>
      <trkpt lat="37.82811361449111" lon="112.00624993179112">
        <ele>1180.0</ele>
        <time>2018-07-27T11:42:14.751000Z</time>
      </trkpt>
      <trkpt lat="37.828211377307696" lon="112.00621910482384">
        <ele>1180.0</ele>
        <time>2018-07-27T11:42:17.751000Z</time>
      </trkpt>
      <trkpt lat="37.82851529802715" lon="112.00620041723573">
        <ele>1177.0</ele>
        <time>2018-07-27T11:42:26.751000Z</time>
      </trkpt>
      <trkpt lat="37.82860082298982" lon="112.00617932289285">
        <ele>1179.0</ele>
        <time>2018-07-27T11:42:29.751000Z</time>
      </trkpt>
      <trkpt lat="37.828788198564496" lon="112.0062122783395">
        <ele>1176.0</ele>
        <time>2018-07-27T11:42:35.751000Z</time>
      </trkpt>
      <trkpt lat="37.82899257992551" lon="112.00618333085005">
        <ele>1175.0</ele>
        <time>2018-07-27T11:42:41.751000Z</time>
      </trkpt>
      <trkpt lat="37.82916608057116" lon="112.00613816848524">
        <ele>1174.0</ele>
        <time>2018-07-27T11:42:47.751000Z</time>
      </trkpt>
      <trkpt lat="37.82947208567831" lon="112.00614840377641">
        <ele>1180.0</ele>
        <time>2018-07-27T11:42:56.751000Z</time>
      </trkpt>
      <trkpt lat="37.82979633948369" lon="112.00613484966188">
        <ele>1179.0</ele>
        <time>2018-07-27T11:43:05.751000Z</time>
      </trkpt>
      <trkpt lat="37.83007573230354" lon="112.00615319740658">
        <ele>1173.0</ele>
        <time>2018-07-27T11:43:14.751000Z</time>
      </trkpt>
      <trkpt lat="37.830360015991694" lon="112.00616911178632">
        <ele>1170.0</ele>
        <time>2018-07-27T11:43:23.751000Z</time>
      </trkpt>
      <trkpt lat="37.830452999006496" lon="112.00619450980425">
        <ele>1167.0</ele>
        <time>2018-07-27T11:43:26.751000Z</time>
      </trkpt>
      <trkpt lat="37.83063460520771" lon="112.00616069946592">
        <ele>1167.0</ele>
        <time>2018-07-27T11:43:32.751000Z</time>
      </trkpt>
      <trkpt lat="37.83071946752793" lon="112.0061798813282">
        <ele>1168.0</ele>
        <time>2018-07-27T11:43:35.751000Z</time>
      </trkpt>
      <trkpt lat="37.830819625547534" lon="112.00616473205737">
        <ele>1169.0</ele>
        <time>2018-07-27T11:43:38.751000Z</time>
      </trkpt>
      <trkpt lat="37.830921058669595" lon="112.00617688389691">
        <ele>1168.0</ele>
        <time>2018-07-27T11:43:41.851000Z</time>
      </trkpt>
      <trkpt lat="37.831124875145754" lon="112.00615550515447">
        <ele>1172.0</ele>
        <time>2018-07-27T11:43:47.751000Z</time>
      </trkpt>
      <trkpt lat="37.83146789075361" lon="112.00612816302205">
        <ele>1171.0</ele>
        <time>2018-07-27T11:43:59.751000Z</time>
      </trkpt>
      <trkpt lat="37.83155739036546" lon="112.00613896473028">
        <ele>1170.0</ele>
        <time>2018-07-27T11:44:02.751000Z</time>
      </trkpt>
      <trkpt lat="37.83175579770262" lon="112.0061119101485">
        <ele>1168.0</ele>
        <time>2018-07-27T11:44:08.751000Z</time>
      </trkpt>
      <trkpt lat="37.83202905482399" lon="112.00610306313433">
        <ele>1165.0</ele>
        <time>2018-07-27T11:44:17.751000Z</time>
      </trkpt>
      <trkpt lat="37.83212516350093" lon="112.00607348221624">
        <ele>1166.0</ele>
        <time>2018-07-27T11:44:20.751000Z</time>
      </trkpt>
      <trkpt lat="37.83222010949049" lon="112.00607752553748">
        <ele>1168.0</ele>
        <time>2018-07-27T11:44:23.751000Z</time>
      </trkpt>
      <trkpt lat="37.83239711667251" lon="112.00616767770384">
        <ele>1166.0</ele>
        <time>2018-07-27T11:44:29.751000Z</time>
      </trkpt>
      <trkpt lat="37.8325397314257" lon="112.00621164937374">
        <ele>1164.0</ele>
        <time>2018-07-27T11:44:35.751000Z</time>
      </trkpt>
      <trkpt lat="37.832813016514926" lon="112.0063177601051">
        <ele>1165.0</ele>
        <time>2018-07-27T11:44:44.751000Z</time>
      </trkpt>
      <trkpt lat="37.83306814453935" lon="112.00644156464281">
        <ele>1165.0</ele>
        <time>2018-07-27T11:44:53.751000Z</time>
      </trkpt>
      <trkpt lat="37.8332290592172" lon="112.00645746093915">
        <ele>1165.0</ele>
        <time>2018-07-27T11:44:59.751000Z</time>
      </trkpt>
      <trkpt lat="37.83332548896518" lon="112.0065098897127">
        <ele>1164.0</ele>
        <time>2018-07-27T11:45:02.751000Z</time>
      </trkpt>
      <trkpt lat="37.833605504004005" lon="112.00659284178306">
        <ele>1165.0</ele>
        <time>2018-07-27T11:45:11.751000Z</time>
      </trkpt>
      <trkpt lat="37.8337811963696" lon="112.00663174564265">
        <ele>1163.0</ele>
        <time>2018-07-27T11:45:17.751000Z</time>
      </trkpt>
      <trkpt lat="37.83386667971889" lon="112.0067158022911">
        <ele>1163.0</ele>
        <time>2018-07-27T11:45:20.751000Z</time>
      </trkpt>
      <trkpt lat="37.8339772515303" lon="112.00675687647461">
        <ele>1163.0</ele>
        <time>2018-07-27T11:45:23.751000Z</time>
      </trkpt>
      <trkpt lat="37.83420427097792" lon="112.00676365707056">
        <ele>1164.0</ele>
        <time>2018-07-27T11:45:29.751000Z</time>
      </trkpt>
      <trkpt lat="37.834303246899196" lon="112.00679657343743">
        <ele>1162.0</ele>
        <time>2018-07-27T11:45:32.751000Z</time>
      </trkpt>
      <trkpt lat="37.8343618654637" lon="112.00683887690332">
        <ele>1159.0</ele>
        <time>2018-07-27T11:45:35.751000Z</time>
      </trkpt>
      <trkpt lat="37.83462644347612" lon="112.00695628938642">
        <ele>1159.0</ele>
        <time>2018-07-27T11:45:44.751000Z</time>
      </trkpt>
      <trkpt lat="37.834708298476606" lon="112.00698331087794">
        <ele>1159.0</ele>
        <time>2018-07-27T11:45:47.751000Z</time>
      </trkpt>
      <trkpt lat="37.83497106474359" lon="112.00684542027214">
        <ele>1157.0</ele>
        <time>2018-07-27T11:45:56.751000Z</time>
      </trkpt>
      <trkpt lat="37.835013286640866" lon="112.0067886497345">
        <ele>1157.0</ele>
        <time>2018-07-27T11:45:59.751000Z</time>
      </trkpt>
      <trkpt lat="37.835227079437125" lon="112.00687944906943">
        <ele>1154.0</ele>
        <time>2018-07-27T11:46:05.751000Z</time>
      </trkpt>
      <trkpt lat="37.83531662148626" lon="112.0069672898998">
        <ele>1157.0</ele>
        <time>2018-07-27T11:46:08.751000Z</time>
      </trkpt>
      <trkpt lat="37.83535098172184" lon="112.0070908187268">
        <ele>1158.0</ele>
        <time>2018-07-27T11:46:11.751000Z</time>
      </trkpt>
      <trkpt lat="37.835447894926645" lon="112.00725461703686">
        <ele>1159.0</ele>
        <time>2018-07-27T11:46:17.751000Z</time>
      </trkpt>
      <trkpt lat="37.83560667185994" lon="112.00732542031106">
        <ele>1158.0</ele>
        <time>2018-07-27T11:46:23.751000Z</time>
      </trkpt>
      <trkpt lat="37.83575746198551" lon="112.0073127695822">
        <ele>1156.0</ele>
        <time>2018-07-27T11:46:29.751000Z</time>
      </trkpt>
      <trkpt lat="37.83594403153511" lon="112.00737565848324">
        <ele>1157.0</ele>
        <time>2018-07-27T11:46:35.751000Z</time>
      </trkpt>
      <trkpt lat="37.83603655049437" lon="112.00737483650637">
        <ele>1156.0</ele>
        <time>2018-07-27T11:46:38.751000Z</time>
      </trkpt>
      <trkpt lat="37.8363075277735" lon="112.00748671432251">
        <ele>1152.0</ele>
        <time>2018-07-27T11:46:47.751000Z</time>
      </trkpt>
      <trkpt lat="37.836628781757504" lon="112.00757020325598">
        <ele>1158.0</ele>
        <time>2018-07-27T11:46:56.751000Z</time>
      </trkpt>
      <trkpt lat="37.83670541720876" lon="112.00761912112958">
        <ele>1158.0</ele>
        <time>2018-07-27T11:46:59.751000Z</time>
      </trkpt>
      <trkpt lat="37.836761896941226" lon="112.00760316580363">
        <ele>1158.0</ele>
        <time>2018-07-27T11:47:02.751000Z</time>
      </trkpt>
      <trkpt lat="37.83704188800485" lon="112.00769476926384">
        <ele>1158.0</ele>
        <time>2018-07-27T11:47:11.751000Z</time>
      </trkpt>
      <trkpt lat="37.83735157512476" lon="112.00780753904554">
        <ele>1156.0</ele>
        <time>2018-07-27T11:47:20.751000Z</time>
      </trkpt>
      <trkpt lat="37.83752005947046" lon="112.00785660068256">
        <ele>1155.0</ele>
        <time>2018-07-27T11:47:26.751000Z</time>
      </trkpt>
      <trkpt lat="37.83762241440001" lon="112.0079336613181">
        <ele>1154.0</ele>
        <time>2018-07-27T11:47:29.751000Z</time>
      </trkpt>
      <trkpt lat="37.83783080539904" lon="112.00798661643391">
        <ele>1150.0</ele>
        <time>2018-07-27T11:47:35.751000Z</time>
      </trkpt>
      <trkpt lat="37.83803449895978" lon="112.0080985033048">
        <ele>1153.0</ele>
        <time>2018-07-27T11:47:41.751000Z</time>
      </trkpt>
      <trkpt lat="37.83812044977173" lon="112.00811687461365">
        <ele>1153.0</ele>
        <time>2018-07-27T11:47:44.751000Z</time>
      </trkpt>
      <trkpt lat="37.83821473116947" lon="112.00816227666267">
        <ele>1154.0</ele>
        <time>2018-07-27T11:47:47.751000Z</time>
      </trkpt>
      <trkpt lat="37.83831265805504" lon="112.00816767132538">
        <ele>1152.0</ele>
        <time>2018-07-27T11:47:50.751000Z</time>
      </trkpt>
      <trkpt lat="37.83849097278154" lon="112.00823766228578">
        <ele>1149.0</ele>
        <time>2018-07-27T11:47:56.751000Z</time>
      </trkpt>
      <trkpt lat="37.83879437658464" lon="112.00821086463974">
        <ele>1147.0</ele>
        <time>2018-07-27T11:48:05.751000Z</time>
      </trkpt>
      <trkpt lat="37.8390074413998" lon="112.00818164492802">
        <ele>1147.0</ele>
        <time>2018-07-27T11:48:11.751000Z</time>
      </trkpt>
      <trkpt lat="37.83910549317814" lon="112.00814487006987">
        <ele>1147.0</ele>
        <time>2018-07-27T11:48:14.751000Z</time>
      </trkpt>
      <trkpt lat="37.839300242967994" lon="112.00812392722472">
        <ele>1145.0</ele>
        <time>2018-07-27T11:48:20.751000Z</time>
      </trkpt>
      <trkpt lat="37.83939148911406" lon="112.00809414715869">
        <ele>1142.0</ele>
        <time>2018-07-27T11:48:23.751000Z</time>
      </trkpt>
      <trkpt lat="37.83958374021807" lon="112.00808121745033">
        <ele>1142.0</ele>
        <time>2018-07-27T11:48:29.751000Z</time>
      </trkpt>
      <trkpt lat="37.839775168168316" lon="112.00803228654783">
        <ele>1145.0</ele>
        <time>2018-07-27T11:48:35.751000Z</time>
      </trkpt>
      <trkpt lat="37.839874699455265" lon="112.00804847844965">
        <ele>1143.0</ele>
        <time>2018-07-27T11:48:38.751000Z</time>
      </trkpt>
      <trkpt lat="37.840184965173854" lon="112.0080143637984">
        <ele>1142.0</ele>
        <time>2018-07-27T11:48:47.751000Z</time>
      </trkpt>
      <trkpt lat="37.840374648629314" lon="112.00800997401699">
        <ele>1139.0</ele>
        <time>2018-07-27T11:48:53.751000Z</time>
      </trkpt>
      <trkpt lat="37.840672623505164" lon="112.00807640695177">
        <ele>1137.0</ele>
        <time>2018-07-27T11:49:02.751000Z</time>
      </trkpt>
      <trkpt lat="37.84086160024297" lon="112.00813122302188">
        <ele>1141.0</ele>
        <time>2018-07-27T11:49:08.751000Z</time>
      </trkpt>
      <trkpt lat="37.840953749921496" lon="112.00813276801401">
        <ele>1142.0</ele>
        <time>2018-07-27T11:49:11.751000Z</time>
      </trkpt>
      <trkpt lat="37.841017561684836" lon="112.00810936757613">
        <ele>1140.0</ele>
        <time>2018-07-27T11:49:14.751000Z</time>
      </trkpt>
      <trkpt lat="37.841195444474295" lon="112.00807999919606">
        <ele>1137.0</ele>
        <time>2018-07-27T11:49:20.751000Z</time>
      </trkpt>
      <trkpt lat="37.84143545865607" lon="112.00810584082028">
        <ele>1140.0</ele>
        <time>2018-07-27T11:49:26.751000Z</time>
      </trkpt>
      <trkpt lat="37.84161913928018" lon="112.0080653910872">
        <ele>1140.0</ele>
        <time>2018-07-27T11:49:32.751000Z</time>
      </trkpt>
      <trkpt lat="37.84177113506251" lon="112.0079553302044">
        <ele>1137.0</ele>
        <time>2018-07-27T11:49:38.751000Z</time>
      </trkpt>
      <trkpt lat="37.841869437602924" lon="112.00792558367415">
        <ele>1138.0</ele>
        <time>2018-07-27T11:49:41.751000Z</time>
      </trkpt>
      <trkpt lat="37.842120972890186" lon="112.0077322777932">
        <ele>1132.0</ele>
        <time>2018-07-27T11:49:50.751000Z</time>
      </trkpt>
      <trkpt lat="37.84220745252446" lon="112.0076638776902">
        <ele>1134.0</ele>
        <time>2018-07-27T11:49:53.751000Z</time>
      </trkpt>
      <trkpt lat="37.84248669917437" lon="112.00754950113776">
        <ele>1133.0</ele>
        <time>2018-07-27T11:50:02.751000Z</time>
      </trkpt>
      <trkpt lat="37.84266476799004" lon="112.00742810868576">
        <ele>1133.0</ele>
        <time>2018-07-27T11:50:08.751000Z</time>
      </trkpt>
      <trkpt lat="37.842821790400706" lon="112.00726779379792">
        <ele>1132.0</ele>
        <time>2018-07-27T11:50:14.751000Z</time>
      </trkpt>
      <trkpt lat="37.842985134144755" lon="112.00717154273984">
        <ele>1133.0</ele>
        <time>2018-07-27T11:50:20.751000Z</time>
      </trkpt>
      <trkpt lat="37.84320602363931" lon="112.00697472865693">
        <ele>1130.0</ele>
        <time>2018-07-27T11:50:29.751000Z</time>
      </trkpt>
      <trkpt lat="37.84329437415563" lon="112.00691606034566">
        <ele>1129.0</ele>
        <time>2018-07-27T11:50:32.751000Z</time>
      </trkpt>
      <trkpt lat="37.84348618248895" lon="112.0067365503987">
        <ele>1131.0</ele>
        <time>2018-07-27T11:50:38.751000Z</time>
      </trkpt>
      <trkpt lat="37.84376238822469" lon="112.00655054338958">
        <ele>1133.0</ele>
        <time>2018-07-27T11:50:47.751000Z</time>
      </trkpt>
      <trkpt lat="37.84403318186698" lon="112.00635994224625">
        <ele>1132.0</ele>
        <time>2018-07-27T11:50:56.751000Z</time>
      </trkpt>
      <trkpt lat="37.84429264094143" lon="112.00624016404683">
        <ele>1130.0</ele>
        <time>2018-07-27T11:51:05.751000Z</time>
      </trkpt>
      <trkpt lat="37.84436459238053" lon="112.00622204472468">
        <ele>1132.0</ele>
        <time>2018-07-27T11:51:08.751000Z</time>
      </trkpt>
      <trkpt lat="37.84469873867233" lon="112.00623782141064">
        <ele>1130.0</ele>
        <time>2018-07-27T11:51:20.751000Z</time>
      </trkpt>
      <trkpt lat="37.84501413088975" lon="112.00625774370148">
        <ele>1129.0</ele>
        <time>2018-07-27T11:51:29.751000Z</time>
      </trkpt>
      <trkpt lat="37.84535343961715" lon="112.00637108412862">
        <ele>1132.0</ele>
        <time>2018-07-27T11:51:41.751000Z</time>
      </trkpt>
      <trkpt lat="37.84571952488113" lon="112.00642134845732">
        <ele>1132.0</ele>
        <time>2018-07-27T11:51:50.751000Z</time>
      </trkpt>
      <trkpt lat="37.845930796471954" lon="112.00650028010003">
        <ele>1132.0</ele>
        <time>2018-07-27T11:51:56.751000Z</time>
      </trkpt>
      <trkpt lat="37.8461658475996" lon="112.00654383417285">
        <ele>1131.0</ele>
        <time>2018-07-27T11:52:02.751000Z</time>
      </trkpt>
      <trkpt lat="37.8463193323942" lon="112.00661224008434">
        <ele>1132.0</ele>
        <time>2018-07-27T11:52:08.751000Z</time>
      </trkpt>
      <trkpt lat="37.84663763724709" lon="112.00667848518766">
        <ele>1130.0</ele>
        <time>2018-07-27T11:52:17.751000Z</time>
      </trkpt>
      <trkpt lat="37.84690835058085" lon="112.00671674525381">
        <ele>1129.0</ele>
        <time>2018-07-27T11:52:26.851000Z</time>
      </trkpt>
      <trkpt lat="37.84724265042239" lon="112.00673958085969">
        <ele>1129.0</ele>
        <time>2018-07-27T11:52:35.751000Z</time>
      </trkpt>
      <trkpt lat="37.847407984544155" lon="112.00673220131954">
        <ele>1126.0</ele>
        <time>2018-07-27T11:52:41.751000Z</time>
      </trkpt>
      <trkpt lat="37.84771228490606" lon="112.00679014306829">
        <ele>1125.0</ele>
        <time>2018-07-27T11:52:50.751000Z</time>
      </trkpt>
      <trkpt lat="37.84791341780996" lon="112.00681783872122">
        <ele>1128.0</ele>
        <time>2018-07-27T11:52:56.751000Z</time>
      </trkpt>
      <trkpt lat="37.84801018309501" lon="112.00681635126732">
        <ele>1132.0</ele>
        <time>2018-07-27T11:52:59.751000Z</time>
      </trkpt>
      <trkpt lat="37.84812949827252" lon="112.00683920129102">
        <ele>1126.0</ele>
        <time>2018-07-27T11:53:02.751000Z</time>
      </trkpt>
      <trkpt lat="37.848385400692095" lon="112.00700267586869">
        <ele>1130.0</ele>
        <time>2018-07-27T11:53:11.751000Z</time>
      </trkpt>
      <trkpt lat="37.84858678281184" lon="112.00729227601677">
        <ele>1121.0</ele>
        <time>2018-07-27T11:53:20.751000Z</time>
      </trkpt>
      <trkpt lat="37.84864723431887" lon="112.00740273797928">
        <ele>1122.0</ele>
        <time>2018-07-27T11:53:23.751000Z</time>
      </trkpt>
      <trkpt lat="37.84884923660553" lon="112.00770097146403">
        <ele>1121.0</ele>
        <time>2018-07-27T11:53:32.751000Z</time>
      </trkpt>
      <trkpt lat="37.84904690451743" lon="112.00800309711671">
        <ele>1123.0</ele>
        <time>2018-07-27T11:53:41.751000Z</time>
      </trkpt>
      <trkpt lat="37.84921214468382" lon="112.00831153102715">
        <ele>1120.0</ele>
        <time>2018-07-27T11:53:50.751000Z</time>
      </trkpt>
      <trkpt lat="37.84936217195064" lon="112.00849776238799">
        <ele>1122.0</ele>
        <time>2018-07-27T11:53:56.751000Z</time>
      </trkpt>
      <trkpt lat="37.849569601137475" lon="112.0088153628478">
        <ele>1121.0</ele>
        <time>2018-07-27T11:54:05.751000Z</time>
      </trkpt>
      <trkpt lat="37.84973639458606" lon="112.00915987586829">
        <ele>1115.0</ele>
        <time>2018-07-27T11:54:14.751000Z</time>
      </trkpt>
      <trkpt lat="37.849784301877534" lon="112.0092867559557">
        <ele>1117.0</ele>
        <time>2018-07-27T11:54:17.751000Z</time>
      </trkpt>
      <trkpt lat="37.849825431690995" lon="112.00955736538135">
        <ele>1118.0</ele>
        <time>2018-07-27T11:54:23.751000Z</time>
      </trkpt>
      <trkpt lat="37.8498590005578" lon="112.0096746818454">
        <ele>1119.0</ele>
        <time>2018-07-27T11:54:26.751000Z</time>
      </trkpt>
      <trkpt lat="37.849877872742226" lon="112.01008476247877">
        <ele>1118.0</ele>
        <time>2018-07-27T11:54:35.751000Z</time>
      </trkpt>
      <trkpt lat="37.84991574858595" lon="112.01049159987909">
        <ele>1114.0</ele>
        <time>2018-07-27T11:54:41.651000Z</time>
      </trkpt>
      <trkpt lat="37.849866875020055" lon="112.0109800641251">
        <ele>1115.0</ele>
        <time>2018-07-27T11:54:53.751000Z</time>
      </trkpt>
      <trkpt lat="37.84983964947283" lon="112.0112347558">
        <ele>1114.0</ele>
        <time>2018-07-27T11:54:59.751000Z</time>
      </trkpt>
      <trkpt lat="37.849845049157196" lon="112.01137245660578">
        <ele>1111.0</ele>
        <time>2018-07-27T11:55:02.751000Z</time>
      </trkpt>
      <trkpt lat="37.849811800326044" lon="112.01162922081073">
        <ele>1115.0</ele>
        <time>2018-07-27T11:55:08.751000Z</time>
      </trkpt>
      <trkpt lat="37.849837253643436" lon="112.01188681262806">
        <ele>1117.0</ele>
        <time>2018-07-27T11:55:14.751000Z</time>
      </trkpt>
      <trkpt lat="37.849767797902025" lon="112.01230063953729">
        <ele>1116.0</ele>
        <time>2018-07-27T11:55:23.751000Z</time>
      </trkpt>
      <trkpt lat="37.8497285574914" lon="112.01269127740305">
        <ele>1117.0</ele>
        <time>2018-07-27T11:55:32.751000Z</time>
      </trkpt>
      <trkpt lat="37.849711098630536" lon="112.0128211940472">
        <ele>1117.0</ele>
        <time>2018-07-27T11:55:35.751000Z</time>
      </trkpt>
      <trkpt lat="37.84969362604483" lon="112.01309168033121">
        <ele>1114.0</ele>
        <time>2018-07-27T11:55:41.751000Z</time>
      </trkpt>
      <trkpt lat="37.849644441029" lon="112.01348840166607">
        <ele>1113.0</ele>
        <time>2018-07-27T11:55:50.751000Z</time>
      </trkpt>
      <trkpt lat="37.84963510369698" lon="112.0136193466784">
        <ele>1115.0</ele>
        <time>2018-07-27T11:55:53.751000Z</time>
      </trkpt>
      <trkpt lat="37.849662147484175" lon="112.01372443204558">
        <ele>1115.0</ele>
        <time>2018-07-27T11:55:56.751000Z</time>
      </trkpt>
      <trkpt lat="37.849673570022354" lon="112.01384679547368">
        <ele>1117.0</ele>
        <time>2018-07-27T11:55:59.751000Z</time>
      </trkpt>
      <trkpt lat="37.84958709150803" lon="112.0142663647548">
        <ele>1114.0</ele>
        <time>2018-07-27T11:56:08.751000Z</time>
      </trkpt>
      <trkpt lat="37.849558823190335" lon="112.01466297071678">
        <ele>1112.0</ele>
        <time>2018-07-27T11:56:17.751000Z</time>
      </trkpt>
      <trkpt lat="37.84954565209558" lon="112.01480950255254">
        <ele>1112.0</ele>
        <time>2018-07-27T11:56:20.751000Z</time>
      </trkpt>
      <trkpt lat="37.84955443460316" lon="112.01505903661052">
        <ele>1111.0</ele>
        <time>2018-07-27T11:56:26.751000Z</time>
      </trkpt>
      <trkpt lat="37.84945155640308" lon="112.01545728068578">
        <ele>1113.0</ele>
        <time>2018-07-27T11:56:35.751000Z</time>
      </trkpt>
      <trkpt lat="37.849417917089056" lon="112.01583740614218">
        <ele>1111.0</ele>
        <time>2018-07-27T11:56:44.751000Z</time>
      </trkpt>
      <trkpt lat="37.849371321050015" lon="112.01629080421841">
        <ele>1111.0</ele>
        <time>2018-07-27T11:56:53.751000Z</time>
      </trkpt>
      <trkpt lat="37.84935103922407" lon="112.01674663730995">
        <ele>1106.0</ele>
        <time>2018-07-27T11:57:02.851000Z</time>
      </trkpt>
      <trkpt lat="37.8493422780457" lon="112.01687073547575">
        <ele>1107.0</ele>
        <time>2018-07-27T11:57:05.751000Z</time>
      </trkpt>
      <trkpt lat="37.849257340382444" lon="112.01726169458364">
        <ele>1108.0</ele>
        <time>2018-07-27T11:57:14.851000Z</time>
      </trkpt>
      <trkpt lat="37.849226977335825" lon="112.01763913245104">
        <ele>1109.0</ele>
        <time>2018-07-27T11:57:23.751000Z</time>
      </trkpt>
      <trkpt lat="37.84919896728135" lon="112.01804928866304">
        <ele>1113.0</ele>
        <time>2018-07-27T11:57:32.751000Z</time>
      </trkpt>
      <trkpt lat="37.84917387749473" lon="112.01828938313132">
        <ele>1114.0</ele>
        <time>2018-07-27T11:57:38.751000Z</time>
      </trkpt>
      <trkpt lat="37.84914986149999" lon="112.01833967562477">
        <ele>1114.0</ele>
        <time>2018-07-27T11:57:41.751000Z</time>
      </trkpt>
      <trkpt lat="37.84917359521165" lon="112.01848756788603">
        <ele>1115.0</ele>
        <time>2018-07-27T11:57:50.751000Z</time>
      </trkpt>
      <trkpt lat="37.849162493766315" lon="112.01857679322889">
        <ele>1113.0</ele>
        <time>2018-07-27T11:57:53.751000Z</time>
      </trkpt>
      <trkpt lat="37.849177753452196" lon="112.01865033377129">
        <ele>1114.0</ele>
        <time>2018-07-27T11:57:56.751000Z</time>
      </trkpt>
      <trkpt lat="37.84915420133795" lon="112.01872901627304">
        <ele>1113.0</ele>
        <time>2018-07-27T11:57:59.751000Z</time>
      </trkpt>
      <trkpt lat="37.84911604368946" lon="112.01879147802676">
        <ele>1112.0</ele>
        <time>2018-07-27T11:58:02.851000Z</time>
      </trkpt>
      <trkpt lat="37.8491623265862" lon="112.01883148838749">
        <ele>1112.0</ele>
        <time>2018-07-27T11:58:05.751000Z</time>
      </trkpt>
      <trkpt lat="37.84916242365295" lon="112.01909243860817">
        <ele>1117.0</ele>
        <time>2018-07-27T11:58:14.751000Z</time>
      </trkpt>
      <trkpt lat="37.84913167978071" lon="112.01951122822098">
        <ele>1113.0</ele>
        <time>2018-07-27T11:58:23.751000Z</time>
      </trkpt>
      <trkpt lat="37.849109929467" lon="112.01962560292193">
        <ele>1111.0</ele>
        <time>2018-07-27T11:58:26.751000Z</time>
      </trkpt>
      <trkpt lat="37.84911424331186" lon="112.01983163529263">
        <ele>1112.0</ele>
        <time>2018-07-27T11:58:32.751000Z</time>
      </trkpt>
      <trkpt lat="37.84905525957546" lon="112.0198711186152">
        <ele>1111.0</ele>
        <time>2018-07-27T11:58:35.751000Z</time>
      </trkpt>
      <trkpt lat="37.84907814634883" lon="112.0199343861115">
        <ele>1112.0</ele>
        <time>2018-07-27T11:58:38.751000Z</time>
      </trkpt>
      <trkpt lat="37.849124046405876" lon="112.01993146144628">
        <ele>1110.0</ele>
        <time>2018-07-27T11:58:44.751000Z</time>
      </trkpt>
      <trkpt lat="37.84913660490947" lon="112.01998683399844">
        <ele>1112.0</ele>
        <time>2018-07-27T11:58:47.751000Z</time>
      </trkpt>
      <trkpt lat="37.84907520843862" lon="112.02011419351423">
        <ele>1113.0</ele>
        <time>2018-07-27T11:58:53.751000Z</time>
      </trkpt>
      <trkpt lat="37.84910200281955" lon="112.02023640552311">
        <ele>1111.0</ele>
        <time>2018-07-27T11:58:56.751000Z</time>
      </trkpt>
      <trkpt lat="37.84907855944593" lon="112.02037511770314">
        <ele>1111.0</ele>
        <time>2018-07-27T11:59:02.751000Z</time>
      </trkpt>
      <trkpt lat="37.84908117893152" lon="112.02060657124393">
        <ele>1114.0</ele>
        <time>2018-07-27T11:59:14.751000Z</time>
      </trkpt>
      <trkpt lat="37.849105202158086" lon="112.02075041660297">
        <ele>1113.0</ele>
        <time>2018-07-27T11:59:20.751000Z</time>
      </trkpt>
      <trkpt lat="37.84910654309129" lon="112.0208550582895">
        <ele>1112.0</ele>
        <time>2018-07-27T11:59:26.751000Z</time>
      </trkpt>
      <trkpt lat="37.84906708161328" lon="112.02099837147978">
        <ele>1114.0</ele>
        <time>2018-07-27T11:59:32.851000Z</time>
      </trkpt>
      <trkpt lat="37.84905946334879" lon="112.02130391877759">
        <ele>1110.0</ele>
        <time>2018-07-27T11:59:41.751000Z</time>
      </trkpt>
      <trkpt lat="37.84909820745157" lon="112.02152239494333">
        <ele>1114.0</ele>
        <time>2018-07-27T11:59:47.751000Z</time>
      </trkpt>
      <trkpt lat="37.849055440667975" lon="112.02188419434468">
        <ele>1114.0</ele>
        <time>2018-07-27T11:59:56.751000Z</time>
      </trkpt>
      <trkpt lat="37.84908854225294" lon="112.0220257983186">
        <ele>1114.0</ele>
        <time>2018-07-27T11:59:59.751000Z</time>
      </trkpt>
      <trkpt lat="37.84907474484349" lon="112.02216892516655">
        <ele>1112.0</ele>
        <time>2018-07-27T12:00:02.751000Z</time>
      </trkpt>
      <trkpt lat="37.849086900584126" lon="112.02228871243184">
        <ele>1110.0</ele>
        <time>2018-07-27T12:00:05.751000Z</time>
      </trkpt>
      <trkpt lat="37.849041597690295" lon="112.0224769182265">
        <ele>1110.0</ele>
        <time>2018-07-27T12:00:11.751000Z</time>
      </trkpt>
      <trkpt lat="37.849039567732476" lon="112.02253532738253">
        <ele>1112.0</ele>
        <time>2018-07-27T12:00:14.751000Z</time>
      </trkpt>
      <trkpt lat="37.849066719482906" lon="112.02260129413256">
        <ele>1112.0</ele>
        <time>2018-07-27T12:00:17.751000Z</time>
      </trkpt>
      <trkpt lat="37.849080782783396" lon="112.02294661230408">
        <ele>1106.0</ele>
        <time>2018-07-27T12:00:35.751000Z</time>
      </trkpt>
      <trkpt lat="37.84899724551322" lon="112.02301223856742">
        <ele>1107.0</ele>
        <time>2018-07-27T12:00:41.751000Z</time>
      </trkpt>
      <trkpt lat="37.84902278636187" lon="112.02307035029482">
        <ele>1106.0</ele>
        <time>2018-07-27T12:00:44.751000Z</time>
      </trkpt>
      <trkpt lat="37.84903107878747" lon="112.02316835455736">
        <ele>1108.0</ele>
        <time>2018-07-27T12:00:50.751000Z</time>
      </trkpt>
      <trkpt lat="37.84906091253786" lon="112.02327327061265">
        <ele>1106.0</ele>
        <time>2018-07-27T12:00:56.751000Z</time>
      </trkpt>
      <trkpt lat="37.849029254535296" lon="112.0233424999245">
        <ele>1104.0</ele>
        <time>2018-07-27T12:00:59.751000Z</time>
      </trkpt>
      <trkpt lat="37.84901904316628" lon="112.0234160240076">
        <ele>1109.0</ele>
        <time>2018-07-27T12:01:05.751000Z</time>
      </trkpt>
      <trkpt lat="37.8490585170996" lon="112.02345823313604">
        <ele>1111.0</ele>
        <time>2018-07-27T12:01:08.751000Z</time>
      </trkpt>
      <trkpt lat="37.84905742307509" lon="112.02371604392813">
        <ele>1115.0</ele>
        <time>2018-07-27T12:01:20.751000Z</time>
      </trkpt>
      <trkpt lat="37.84911264515661" lon="112.02380932817843">
        <ele>1115.0</ele>
        <time>2018-07-27T12:01:26.751000Z</time>
      </trkpt>
      <trkpt lat="37.849139828172206" lon="112.02389467348934">
        <ele>1116.0</ele>
        <time>2018-07-27T12:01:32.751000Z</time>
      </trkpt>
      <trkpt lat="37.849127652262496" lon="112.02398391268595">
        <ele>1115.0</ele>
        <time>2018-07-27T12:01:35.751000Z</time>
      </trkpt>
      <trkpt lat="37.84905872623586" lon="112.02409046573386">
        <ele>1113.0</ele>
        <time>2018-07-27T12:01:41.751000Z</time>
      </trkpt>
      <trkpt lat="37.84914758642368" lon="112.02423993907006">
        <ele>1120.0</ele>
        <time>2018-07-27T12:01:50.751000Z</time>
      </trkpt>
      <trkpt lat="37.84905584498928" lon="112.0244922748997">
        <ele>1115.0</ele>
        <time>2018-07-27T12:02:02.751000Z</time>
      </trkpt>
      <trkpt lat="37.84905085333507" lon="112.02455730531986">
        <ele>1118.0</ele>
        <time>2018-07-27T12:02:05.751000Z</time>
      </trkpt>
      <trkpt lat="37.84910630353348" lon="112.02457827725831">
        <ele>1119.0</ele>
        <time>2018-07-27T12:02:08.751000Z</time>
      </trkpt>
      <trkpt lat="37.849127638472496" lon="112.02463166140082">
        <ele>1116.0</ele>
        <time>2018-07-27T12:02:11.751000Z</time>
      </trkpt>
      <trkpt lat="37.84912902892697" lon="112.02469541061062">
        <ele>1117.0</ele>
        <time>2018-07-27T12:02:14.751000Z</time>
      </trkpt>
      <trkpt lat="37.849107178262486" lon="112.02497841601243">
        <ele>1126.0</ele>
        <time>2018-07-27T12:02:26.751000Z</time>
      </trkpt>
      <trkpt lat="37.849078038152136" lon="112.02504285796476">
        <ele>1123.0</ele>
        <time>2018-07-27T12:02:29.751000Z</time>
      </trkpt>
      <trkpt lat="37.849046895737544" lon="112.02509770184452">
        <ele>1127.0</ele>
        <time>2018-07-27T12:02:35.751000Z</time>
      </trkpt>
      <trkpt lat="37.849026203224966" lon="112.02531258950167">
        <ele>1127.0</ele>
        <time>2018-07-27T12:02:47.751000Z</time>
      </trkpt>
      <trkpt lat="37.84905941983872" lon="112.02535415378918">
        <ele>1126.0</ele>
        <time>2018-07-27T12:02:50.751000Z</time>
      </trkpt>
      <trkpt lat="37.84904801776612" lon="112.02543827990857">
        <ele>1121.0</ele>
        <time>2018-07-27T12:02:56.751000Z</time>
      </trkpt>
      <trkpt lat="37.84903557728589" lon="112.02551520836667">
        <ele>1117.0</ele>
        <time>2018-07-27T12:03:02.751000Z</time>
      </trkpt>
      <trkpt lat="37.84897928621062" lon="112.0255470647022">
        <ele>1117.0</ele>
        <time>2018-07-27T12:03:05.751000Z</time>
      </trkpt>
      <trkpt lat="37.848947734834326" lon="112.02559258825801">
        <ele>1117.0</ele>
        <time>2018-07-27T12:03:08.751000Z</time>
      </trkpt>
      <trkpt lat="37.84892865533896" lon="112.02570713648399">
        <ele>1116.0</ele>
        <time>2018-07-27T12:03:14.751000Z</time>
      </trkpt>
      <trkpt lat="37.84887339138334" lon="112.02575485191198">
        <ele>1119.0</ele>
        <time>2018-07-27T12:03:17.651000Z</time>
      </trkpt>
      <trkpt lat="37.848832452724885" lon="112.02581536991424">
        <ele>1118.0</ele>
        <time>2018-07-27T12:03:20.751000Z</time>
      </trkpt>
      <trkpt lat="37.848834982729755" lon="112.02588715967651">
        <ele>1117.0</ele>
        <time>2018-07-27T12:03:23.751000Z</time>
      </trkpt>
      <trkpt lat="37.84877738188176" lon="112.02594518568377">
        <ele>1120.0</ele>
        <time>2018-07-27T12:03:29.751000Z</time>
      </trkpt>
      <trkpt lat="37.84879039796576" lon="112.02625516226516">
        <ele>1117.0</ele>
        <time>2018-07-27T12:03:44.751000Z</time>
      </trkpt>
      <trkpt lat="37.84884887658346" lon="112.0263308948737">
        <ele>1115.0</ele>
        <time>2018-07-27T12:03:47.751000Z</time>
      </trkpt>
      <trkpt lat="37.84886804385078" lon="112.02638908701604">
        <ele>1115.0</ele>
        <time>2018-07-27T12:03:50.751000Z</time>
      </trkpt>
      <trkpt lat="37.84888730215295" lon="112.02645238141855">
        <ele>1115.0</ele>
        <time>2018-07-27T12:03:53.751000Z</time>
      </trkpt>
      <trkpt lat="37.848896378535066" lon="112.02655428735453">
        <ele>1115.0</ele>
        <time>2018-07-27T12:03:59.751000Z</time>
      </trkpt>
      <trkpt lat="37.8488603373069" lon="112.02658520040448">
        <ele>1113.0</ele>
        <time>2018-07-27T12:04:02.751000Z</time>
      </trkpt>
      <trkpt lat="37.84880609394647" lon="112.02657790503773">
        <ele>1112.0</ele>
        <time>2018-07-27T12:04:05.751000Z</time>
      </trkpt>
      <trkpt lat="37.8487696592794" lon="112.02660732928736">
        <ele>1111.0</ele>
        <time>2018-07-27T12:04:08.751000Z</time>
      </trkpt>
      <trkpt lat="37.848665830284084" lon="112.02657687678814">
        <ele>1111.0</ele>
        <time>2018-07-27T12:04:14.751000Z</time>
      </trkpt>
      <trkpt lat="37.84860481827698" lon="112.02650178113996">
        <ele>1110.0</ele>
        <time>2018-07-27T12:04:20.751000Z</time>
      </trkpt>
      <trkpt lat="37.84843196395579" lon="112.0264703149834">
        <ele>1111.0</ele>
        <time>2018-07-27T12:04:32.751000Z</time>
      </trkpt>
      <trkpt lat="37.84839095168744" lon="112.02644178315192">
        <ele>1107.0</ele>
        <time>2018-07-27T12:04:35.751000Z</time>
      </trkpt>
      <trkpt lat="37.84831288877893" lon="112.02644236451341">
        <ele>1109.0</ele>
        <time>2018-07-27T12:04:41.751000Z</time>
      </trkpt>
      <trkpt lat="37.84827512965733" lon="112.02646963870068">
        <ele>1107.0</ele>
        <time>2018-07-27T12:04:44.751000Z</time>
      </trkpt>
      <trkpt lat="37.84821600898443" lon="112.02646682523277">
        <ele>1109.0</ele>
        <time>2018-07-27T12:04:47.751000Z</time>
      </trkpt>
      <trkpt lat="37.84816678680811" lon="112.02653298676307">
        <ele>1111.0</ele>
        <time>2018-07-27T12:04:53.751000Z</time>
      </trkpt>
      <trkpt lat="37.84809842606262" lon="112.02650713484489">
        <ele>1110.0</ele>
        <time>2018-07-27T12:04:59.751000Z</time>
      </trkpt>
      <trkpt lat="37.84802780182517" lon="112.02643493604036">
        <ele>1111.0</ele>
        <time>2018-07-27T12:05:05.751000Z</time>
      </trkpt>
      <trkpt lat="37.84795242934189" lon="112.02641493262261">
        <ele>1111.0</ele>
        <time>2018-07-27T12:05:11.751000Z</time>
      </trkpt>
      <trkpt lat="37.847840120459146" lon="112.02651365644763">
        <ele>1110.0</ele>
        <time>2018-07-27T12:05:20.751000Z</time>
      </trkpt>
      <trkpt lat="37.84777001206924" lon="112.02656143024372">
        <ele>1110.0</ele>
        <time>2018-07-27T12:05:29.751000Z</time>
      </trkpt>
      <trkpt lat="37.847763653444225" lon="112.02664078208082">
        <ele>1110.0</ele>
        <time>2018-07-27T12:05:32.751000Z</time>
      </trkpt>
      <trkpt lat="37.8477319084752" lon="112.02667902273609">
        <ele>1109.0</ele>
        <time>2018-07-27T12:05:35.751000Z</time>
      </trkpt>
      <trkpt lat="37.84772496092535" lon="112.02677250407295">
        <ele>1105.0</ele>
        <time>2018-07-27T12:05:41.751000Z</time>
      </trkpt>
      <trkpt lat="37.8477157220514" lon="112.02683683831823">
        <ele>1105.0</ele>
        <time>2018-07-27T12:05:44.651000Z</time>
      </trkpt>
      <trkpt lat="37.84769312500298" lon="112.02689918936511">
        <ele>1108.0</ele>
        <time>2018-07-27T12:05:47.751000Z</time>
      </trkpt>
      <trkpt lat="37.84765537633298" lon="112.02693180959825">
        <ele>1107.0</ele>
        <time>2018-07-27T12:05:50.651000Z</time>
      </trkpt>
      <trkpt lat="37.847599224292985" lon="112.027042917467">
        <ele>1106.0</ele>
        <time>2018-07-27T12:05:56.751000Z</time>
      </trkpt>
      <trkpt lat="37.84757035257905" lon="112.02713161131437">
        <ele>1106.0</ele>
        <time>2018-07-27T12:06:02.751000Z</time>
      </trkpt>
      <trkpt lat="37.847546746920095" lon="112.02732328541138">
        <ele>1114.0</ele>
        <time>2018-07-27T12:06:14.751000Z</time>
      </trkpt>
      <trkpt lat="37.84752578536249" lon="112.02751650142297">
        <ele>1117.0</ele>
        <time>2018-07-27T12:06:29.751000Z</time>
      </trkpt>
      <trkpt lat="37.84747209382641" lon="112.02761089466193">
        <ele>1119.0</ele>
        <time>2018-07-27T12:06:35.751000Z</time>
      </trkpt>
      <trkpt lat="37.84747682984727" lon="112.02766822947817">
        <ele>1118.0</ele>
        <time>2018-07-27T12:06:38.751000Z</time>
      </trkpt>
      <trkpt lat="37.84744930631113" lon="112.02771529116025">
        <ele>1117.0</ele>
        <time>2018-07-27T12:06:41.751000Z</time>
      </trkpt>
      <trkpt lat="37.8474489615277" lon="112.02784943502319">
        <ele>1117.0</ele>
        <time>2018-07-27T12:06:47.751000Z</time>
      </trkpt>
      <trkpt lat="37.84736156023187" lon="112.02818210324337">
        <ele>1109.0</ele>
        <time>2018-07-27T12:07:11.751000Z</time>
      </trkpt>
      <trkpt lat="37.847358968267756" lon="112.0282407923438">
        <ele>1112.0</ele>
        <time>2018-07-27T12:07:14.751000Z</time>
      </trkpt>
      <trkpt lat="37.847322095065934" lon="112.02833707910544">
        <ele>1108.0</ele>
        <time>2018-07-27T12:07:20.751000Z</time>
      </trkpt>
      <trkpt lat="37.84738351400018" lon="112.02861591364315">
        <ele>1108.0</ele>
        <time>2018-07-27T12:07:35.751000Z</time>
      </trkpt>
      <trkpt lat="37.84731352844963" lon="112.02886005552429">
        <ele>1106.0</ele>
        <time>2018-07-27T12:07:50.751000Z</time>
      </trkpt>
      <trkpt lat="37.84734421857772" lon="112.0288992056985">
        <ele>1106.0</ele>
        <time>2018-07-27T12:07:53.751000Z</time>
      </trkpt>
      <trkpt lat="37.84733940188324" lon="112.02899889153464">
        <ele>1104.0</ele>
        <time>2018-07-27T12:07:59.751000Z</time>
      </trkpt>
      <trkpt lat="37.84735817981739" lon="112.02914348129912">
        <ele>1105.0</ele>
        <time>2018-07-27T12:08:08.751000Z</time>
      </trkpt>
      <trkpt lat="37.8473937044376" lon="112.02919713484319">
        <ele>1105.0</ele>
        <time>2018-07-27T12:08:11.751000Z</time>
      </trkpt>
      <trkpt lat="37.84739411229971" lon="112.02925493295076">
        <ele>1106.0</ele>
        <time>2018-07-27T12:08:14.751000Z</time>
      </trkpt>
      <trkpt lat="37.84743249777307" lon="112.02936990909775">
        <ele>1111.0</ele>
        <time>2018-07-27T12:08:20.751000Z</time>
      </trkpt>
      <trkpt lat="37.847420202443345" lon="112.0294249451884">
        <ele>1111.0</ele>
        <time>2018-07-27T12:08:23.751000Z</time>
      </trkpt>
      <trkpt lat="37.84737129065293" lon="112.0294776107052">
        <ele>1111.0</ele>
        <time>2018-07-27T12:08:29.751000Z</time>
      </trkpt>
      <trkpt lat="37.84727173910725" lon="112.0294697791344">
        <ele>1110.0</ele>
        <time>2018-07-27T12:08:35.651000Z</time>
      </trkpt>
    </trkseg>
  </trk>
</gpx>