<?xml version="1.0" encoding="UTF-8"?>
<gpx xmlns="http://www.topografix.com/GPX/1/1" xmlns:gpxtpx="http://www.garmin.com/xmlschemas/TrackPointExtension/v1" xmlns:xsi="http://www.w3.org/2001/XMLSchema-instance" xsi:schemaLocation="http://www.topografix.com/GPX/1/1 http://www.topografix.com/GPX/1/1/gpx.xsd" version="1.1" creator="gpx.py -- https://github.com/tkrajina/gpxpy">
  <trk>
    <name>gpx from keep</name>
    <type>Run</type>
    <trkseg>
      <trkpt lat="37.84719265157671" lon="112.02909438267959">
        <ele>1110.3</ele>
        <time>2017-05-28T09:21:50.200000Z</time>
      </trkpt>
      <trkpt lat="37.84720446195213" lon="112.02903758395998">
        <ele>1112.59</ele>
        <time>2017-05-28T09:22:02.200000Z</time>
      </trkpt>
      <trkpt lat="37.847169325822875" lon="112.02887774497127">
        <ele>1112.5</ele>
        <time>2017-05-28T09:22:11.200000Z</time>
      </trkpt>
      <trkpt lat="37.84716129265047" lon="112.02872926294273">
        <ele>1110.4</ele>
        <time>2017-05-28T09:22:20.900000Z</time>
      </trkpt>
      <trkpt lat="37.84718786392984" lon="112.02862946013468">
        <ele>1110.5</ele>
        <time>2017-05-28T09:22:26.800000Z</time>
      </trkpt>
      <trkpt lat="37.84721960960249" lon="112.02841579436027">
        <ele>1109.9</ele>
        <time>2017-05-28T09:22:38.800000Z</time>
      </trkpt>
      <trkpt lat="37.84725780597796" lon="112.02833248907949">
        <ele>1112.3</ele>
        <time>2017-05-28T09:22:44.900000Z</time>
      </trkpt>
      <trkpt lat="37.84727429347029" lon="112.02825080938453">
        <ele>1113.3</ele>
        <time>2017-05-28T09:22:50.800000Z</time>
      </trkpt>
      <trkpt lat="37.84726614718424" lon="112.02814749650342">
        <ele>1112.4</ele>
        <time>2017-05-28T09:22:56.800000Z</time>
      </trkpt>
      <trkpt lat="37.84730430910234" lon="112.02776074433912">
        <ele>1110.8</ele>
        <time>2017-05-28T09:23:20.800000Z</time>
      </trkpt>
      <trkpt lat="37.847304282653404" lon="112.02766554572615">
        <ele>1111.0</ele>
        <time>2017-05-28T09:23:26.900000Z</time>
      </trkpt>
      <trkpt lat="37.847322653388716" lon="112.02759062891447">
        <ele>1111.0</ele>
        <time>2017-05-28T09:23:32.800000Z</time>
      </trkpt>
      <trkpt lat="37.84737111406748" lon="112.02752571528283">
        <ele>1110.4</ele>
        <time>2017-05-28T09:23:38.900000Z</time>
      </trkpt>
      <trkpt lat="37.84737759062674" lon="112.02743403247489">
        <ele>1109.09</ele>
        <time>2017-05-28T09:23:44.800000Z</time>
      </trkpt>
      <trkpt lat="37.84749778606779" lon="112.02732719123901">
        <ele>1106.7</ele>
        <time>2017-05-28T09:23:56.800000Z</time>
      </trkpt>
      <trkpt lat="37.8475310488677" lon="112.02726417314122">
        <ele>1106.7</ele>
        <time>2017-05-28T09:24:02.800000Z</time>
      </trkpt>
      <trkpt lat="37.84751932720551" lon="112.02718060670456">
        <ele>1104.8</ele>
        <time>2017-05-28T09:24:08.800000Z</time>
      </trkpt>
      <trkpt lat="37.84753432311219" lon="112.0270472754598">
        <ele>1104.2</ele>
        <time>2017-05-28T09:24:14.800000Z</time>
      </trkpt>
      <trkpt lat="37.84765767351413" lon="112.02677059718175">
        <ele>1104.8</ele>
        <time>2017-05-28T09:24:29.800000Z</time>
      </trkpt>
      <trkpt lat="37.84770584743538" lon="112.02671217597505">
        <ele>1104.9</ele>
        <time>2017-05-28T09:24:32.800000Z</time>
      </trkpt>
      <trkpt lat="37.847770801519175" lon="112.02656531880528">
        <ele>1105.09</ele>
        <time>2017-05-28T09:24:44.800000Z</time>
      </trkpt>
      <trkpt lat="37.84793237909557" lon="112.02650877744325">
        <ele>1107.3</ele>
        <time>2017-05-28T09:24:53.800000Z</time>
      </trkpt>
      <trkpt lat="37.84797261563326" lon="112.02647713118476">
        <ele>1106.9</ele>
        <time>2017-05-28T09:24:56.800000Z</time>
      </trkpt>
      <trkpt lat="37.848280598081175" lon="112.02646032692691">
        <ele>1108.3</ele>
        <time>2017-05-28T09:25:14.900000Z</time>
      </trkpt>
      <trkpt lat="37.84855927822089" lon="112.0264437966398">
        <ele>1108.4</ele>
        <time>2017-05-28T09:25:23.800000Z</time>
      </trkpt>
      <trkpt lat="37.848782576978195" lon="112.02644025408934">
        <ele>1107.59</ele>
        <time>2017-05-28T09:25:32.800000Z</time>
      </trkpt>
      <trkpt lat="37.84882244868361" lon="112.02634045746231">
        <ele>1108.5</ele>
        <time>2017-05-28T09:25:38.800000Z</time>
      </trkpt>
      <trkpt lat="37.849102251503126" lon="112.02610189833784">
        <ele>1113.09</ele>
        <time>2017-05-28T09:25:47.800000Z</time>
      </trkpt>
      <trkpt lat="37.84908424691061" lon="112.02603564375302">
        <ele>1113.0</ele>
        <time>2017-05-28T09:25:50.800000Z</time>
      </trkpt>
      <trkpt lat="37.849092635452614" lon="112.02594044962638">
        <ele>1110.59</ele>
        <time>2017-05-28T09:25:56.800000Z</time>
      </trkpt>
      <trkpt lat="37.84903418937071" lon="112.02588042023419">
        <ele>1109.4</ele>
        <time>2017-05-28T09:25:59.800000Z</time>
      </trkpt>
      <trkpt lat="37.84911400779797" lon="112.02575682253118">
        <ele>1106.8</ele>
        <time>2017-05-28T09:26:02.800000Z</time>
      </trkpt>
      <trkpt lat="37.84900074435059" lon="112.02539202423839">
        <ele>1101.0</ele>
        <time>2017-05-28T09:26:11.800000Z</time>
      </trkpt>
      <trkpt lat="37.84901563667499" lon="112.02530034689265">
        <ele>1099.0</ele>
        <time>2017-05-28T09:26:14.800000Z</time>
      </trkpt>
      <trkpt lat="37.848999052758835" lon="112.02521029616807">
        <ele>1097.5</ele>
        <time>2017-05-28T09:26:17.800000Z</time>
      </trkpt>
      <trkpt lat="37.84900226981402" lon="112.02512213631574">
        <ele>1096.4</ele>
        <time>2017-05-28T09:26:20.800000Z</time>
      </trkpt>
      <trkpt lat="37.84903906043765" lon="112.0250602040754">
        <ele>1095.09</ele>
        <time>2017-05-28T09:26:23.800000Z</time>
      </trkpt>
      <trkpt lat="37.8490472901486" lon="112.02492336737683">
        <ele>1092.4</ele>
        <time>2017-05-28T09:26:29.800000Z</time>
      </trkpt>
      <trkpt lat="37.849025639503914" lon="112.02480032651772">
        <ele>1090.5</ele>
        <time>2017-05-28T09:26:32.800000Z</time>
      </trkpt>
      <trkpt lat="37.84892700249838" lon="112.02455019654441">
        <ele>1084.5</ele>
        <time>2017-05-28T09:26:38.800000Z</time>
      </trkpt>
      <trkpt lat="37.848923802917724" lon="112.02442688449497">
        <ele>1083.3</ele>
        <time>2017-05-28T09:26:41.800000Z</time>
      </trkpt>
      <trkpt lat="37.8488955991459" lon="112.0243200715764">
        <ele>1082.59</ele>
        <time>2017-05-28T09:26:44.800000Z</time>
      </trkpt>
      <trkpt lat="37.84889204393333" lon="112.02392336746436">
        <ele>1078.4</ele>
        <time>2017-05-28T09:26:56.800000Z</time>
      </trkpt>
      <trkpt lat="37.84890536013279" lon="112.02381357664916">
        <ele>1077.4</ele>
        <time>2017-05-28T09:26:59.800000Z</time>
      </trkpt>
      <trkpt lat="37.84905361101466" lon="112.0234666165412">
        <ele>1076.09</ele>
        <time>2017-05-28T09:27:08.800000Z</time>
      </trkpt>
      <trkpt lat="37.849157021274124" lon="112.02314832902678">
        <ele>1075.8</ele>
        <time>2017-05-28T09:27:17.800000Z</time>
      </trkpt>
      <trkpt lat="37.84915054124496" lon="112.02293497633511">
        <ele>1075.09</ele>
        <time>2017-05-28T09:27:23.800000Z</time>
      </trkpt>
      <trkpt lat="37.849168665011476" lon="112.0226532090571">
        <ele>1077.5</ele>
        <time>2017-05-28T09:27:29.800000Z</time>
      </trkpt>
      <trkpt lat="37.849163544022744" lon="112.02243985935756">
        <ele>1077.7</ele>
        <time>2017-05-28T09:27:35.800000Z</time>
      </trkpt>
      <trkpt lat="37.84919688723532" lon="112.022149711901">
        <ele>1073.5</ele>
        <time>2017-05-28T09:27:44.800000Z</time>
      </trkpt>
      <trkpt lat="37.84917525091022" lon="112.02182469185897">
        <ele>1073.5</ele>
        <time>2017-05-28T09:27:53.800000Z</time>
      </trkpt>
      <trkpt lat="37.84918694097672" lon="112.02171626012539">
        <ele>1072.4</ele>
        <time>2017-05-28T09:27:56.800000Z</time>
      </trkpt>
      <trkpt lat="37.84917842233829" lon="112.0213577133894">
        <ele>1077.2</ele>
        <time>2017-05-28T09:28:02.800000Z</time>
      </trkpt>
      <trkpt lat="37.84920847284763" lon="112.02098456443221">
        <ele>1079.4</ele>
        <time>2017-05-28T09:28:11.800000Z</time>
      </trkpt>
      <trkpt lat="37.84922177281102" lon="112.02078447202341">
        <ele>1079.7</ele>
        <time>2017-05-28T09:28:17.800000Z</time>
      </trkpt>
      <trkpt lat="37.84921173117987" lon="112.02058789861685">
        <ele>1083.5</ele>
        <time>2017-05-28T09:28:23.800000Z</time>
      </trkpt>
      <trkpt lat="37.849191665564604" lon="112.02028776854675">
        <ele>1092.5</ele>
        <time>2017-05-28T09:28:32.800000Z</time>
      </trkpt>
      <trkpt lat="37.84919682461684" lon="112.0198927324773">
        <ele>1097.7</ele>
        <time>2017-05-28T09:28:44.800000Z</time>
      </trkpt>
      <trkpt lat="37.84923984245053" lon="112.01944605305806">
        <ele>1104.59</ele>
        <time>2017-05-28T09:28:56.800000Z</time>
      </trkpt>
      <trkpt lat="37.849210018340315" lon="112.01904778560858">
        <ele>1105.8</ele>
        <time>2017-05-28T09:29:05.800000Z</time>
      </trkpt>
      <trkpt lat="37.849219864275334" lon="112.01882445166513">
        <ele>1105.59</ele>
        <time>2017-05-28T09:29:11.800000Z</time>
      </trkpt>
      <trkpt lat="37.849265021747684" lon="112.01839238487534">
        <ele>1110.4</ele>
        <time>2017-05-28T09:29:23.800000Z</time>
      </trkpt>
      <trkpt lat="37.849282924844154" lon="112.01810254200753">
        <ele>1112.09</ele>
        <time>2017-05-28T09:29:32.800000Z</time>
      </trkpt>
      <trkpt lat="37.8492728893278" lon="112.01771428977857">
        <ele>1113.09</ele>
        <time>2017-05-28T09:29:44.800000Z</time>
      </trkpt>
      <trkpt lat="37.84929979753402" lon="112.0174074176219">
        <ele>1111.59</ele>
        <time>2017-05-28T09:29:53.800000Z</time>
      </trkpt>
      <trkpt lat="37.849368031589655" lon="112.01707053224035">
        <ele>1112.2</ele>
        <time>2017-05-28T09:30:02.800000Z</time>
      </trkpt>
      <trkpt lat="37.84940951347387" lon="112.0166003638137">
        <ele>1112.4</ele>
        <time>2017-05-28T09:30:14.800000Z</time>
      </trkpt>
      <trkpt lat="37.84943133089514" lon="112.01636893135219">
        <ele>1114.3</ele>
        <time>2017-05-28T09:30:20.800000Z</time>
      </trkpt>
      <trkpt lat="37.849476374003096" lon="112.01617561812836">
        <ele>1115.5</ele>
        <time>2017-05-28T09:30:26.800000Z</time>
      </trkpt>
      <trkpt lat="37.84950597127919" lon="112.01588038251472">
        <ele>1117.09</ele>
        <time>2017-05-28T09:30:35.800000Z</time>
      </trkpt>
      <trkpt lat="37.84954461851374" lon="112.01564705948215">
        <ele>1116.4</ele>
        <time>2017-05-28T09:30:41.800000Z</time>
      </trkpt>
      <trkpt lat="37.849549519266205" lon="112.01545051007167">
        <ele>1118.09</ele>
        <time>2017-05-28T09:30:47.800000Z</time>
      </trkpt>
      <trkpt lat="37.84959774566447" lon="112.01509363662224">
        <ele>1118.2</ele>
        <time>2017-05-28T09:30:56.800000Z</time>
      </trkpt>
      <trkpt lat="37.84962928610452" lon="112.01469026770116">
        <ele>1121.59</ele>
        <time>2017-05-28T09:31:05.800000Z</time>
      </trkpt>
      <trkpt lat="37.84964428690705" lon="112.01437882291141">
        <ele>1122.8</ele>
        <time>2017-05-28T09:31:14.800000Z</time>
      </trkpt>
      <trkpt lat="37.8497045058952" lon="112.01400519505822">
        <ele>1124.0</ele>
        <time>2017-05-28T09:31:26.800000Z</time>
      </trkpt>
      <trkpt lat="37.84974420724813" lon="112.01359696858627">
        <ele>1127.7</ele>
        <time>2017-05-28T09:31:38.800000Z</time>
      </trkpt>
      <trkpt lat="37.84978258369661" lon="112.01317874314951">
        <ele>1129.8</ele>
        <time>2017-05-28T09:31:50.800000Z</time>
      </trkpt>
      <trkpt lat="37.849801107610595" lon="112.01296517125466">
        <ele>1129.5</ele>
        <time>2017-05-28T09:31:56.800000Z</time>
      </trkpt>
      <trkpt lat="37.849777732044416" lon="112.01260508146868">
        <ele>1131.5</ele>
        <time>2017-05-28T09:32:05.800000Z</time>
      </trkpt>
      <trkpt lat="37.84973264864421" lon="112.01234015555376">
        <ele>1135.7</ele>
        <time>2017-05-28T09:32:14.800000Z</time>
      </trkpt>
      <trkpt lat="37.84977079201945" lon="112.01191166810915">
        <ele>1137.5</ele>
        <time>2017-05-28T09:32:26.800000Z</time>
      </trkpt>
      <trkpt lat="37.849794038363854" lon="112.01156861127265">
        <ele>1137.9</ele>
        <time>2017-05-28T09:32:35.800000Z</time>
      </trkpt>
      <trkpt lat="37.849807559484766" lon="112.01121177094954">
        <ele>1136.5</ele>
        <time>2017-05-28T09:32:44.800000Z</time>
      </trkpt>
      <trkpt lat="37.84983104275552" lon="112.01088169447262">
        <ele>1137.4</ele>
        <time>2017-05-28T09:32:53.800000Z</time>
      </trkpt>
      <trkpt lat="37.84988919140208" lon="112.01057351245117">
        <ele>1135.8</ele>
        <time>2017-05-28T09:33:02.800000Z</time>
      </trkpt>
      <trkpt lat="37.84986384232042" lon="112.0102431753442">
        <ele>1135.7</ele>
        <time>2017-05-28T09:33:11.800000Z</time>
      </trkpt>
      <trkpt lat="37.84988728305819" lon="112.01002150513357">
        <ele>1135.7</ele>
        <time>2017-05-28T09:33:17.800000Z</time>
      </trkpt>
      <trkpt lat="37.84984729825533" lon="112.00987147941105">
        <ele>1137.2</ele>
        <time>2017-05-28T09:33:23.800000Z</time>
      </trkpt>
      <trkpt lat="37.84985056154683" lon="112.00977659507066">
        <ele>1137.7</ele>
        <time>2017-05-28T09:33:26.800000Z</time>
      </trkpt>
      <trkpt lat="37.84983745879846" lon="112.00971144848684">
        <ele>1139.7</ele>
        <time>2017-05-28T09:33:29.800000Z</time>
      </trkpt>
      <trkpt lat="37.84983419401877" lon="112.00953006167772">
        <ele>1139.09</ele>
        <time>2017-05-28T09:33:35.800000Z</time>
      </trkpt>
      <trkpt lat="37.849785681092214" lon="112.00932813633413">
        <ele>1139.09</ele>
        <time>2017-05-28T09:33:41.800000Z</time>
      </trkpt>
      <trkpt lat="37.849628883858706" lon="112.00904485791577">
        <ele>1133.9</ele>
        <time>2017-05-28T09:33:53.800000Z</time>
      </trkpt>
      <trkpt lat="37.849462369943254" lon="112.00874482216201">
        <ele>1125.9</ele>
        <time>2017-05-28T09:34:05.800000Z</time>
      </trkpt>
      <trkpt lat="37.8493857653564" lon="112.00859318212736">
        <ele>1119.2</ele>
        <time>2017-05-28T09:34:11.800000Z</time>
      </trkpt>
      <trkpt lat="37.84925579695455" lon="112.00822961956173">
        <ele>1109.4</ele>
        <time>2017-05-28T09:34:23.800000Z</time>
      </trkpt>
      <trkpt lat="37.84906740840655" lon="112.00789634144759">
        <ele>1108.5</ele>
        <time>2017-05-28T09:34:35.800000Z</time>
      </trkpt>
      <trkpt lat="37.84889209331555" lon="112.00763794070245">
        <ele>1130.5</ele>
        <time>2017-05-28T09:34:41.800000Z</time>
      </trkpt>
      <trkpt lat="37.848763753708255" lon="112.00745819677347">
        <ele>1139.09</ele>
        <time>2017-05-28T09:34:47.800000Z</time>
      </trkpt>
      <trkpt lat="37.848497032822024" lon="112.00719142892707">
        <ele>1143.59</ele>
        <time>2017-05-28T09:34:59.800000Z</time>
      </trkpt>
      <trkpt lat="37.84831364844421" lon="112.00700142087841">
        <ele>1146.0</ele>
        <time>2017-05-28T09:35:08.800000Z</time>
      </trkpt>
      <trkpt lat="37.84816574543676" lon="112.00692304795265">
        <ele>1147.59</ele>
        <time>2017-05-28T09:35:14.800000Z</time>
      </trkpt>
      <trkpt lat="37.84784880007154" lon="112.00684983120748">
        <ele>1148.2</ele>
        <time>2017-05-28T09:35:26.800000Z</time>
      </trkpt>
      <trkpt lat="37.84757213704372" lon="112.0068247252131">
        <ele>1148.3</ele>
        <time>2017-05-28T09:35:38.800000Z</time>
      </trkpt>
      <trkpt lat="37.8472623587775" lon="112.00680475909971">
        <ele>1147.09</ele>
        <time>2017-05-28T09:35:50.800000Z</time>
      </trkpt>
      <trkpt lat="37.84698900068646" lon="112.00676316371815">
        <ele>1145.5</ele>
        <time>2017-05-28T09:36:02.800000Z</time>
      </trkpt>
      <trkpt lat="37.84668883836289" lon="112.00670292007308">
        <ele>1143.5</ele>
        <time>2017-05-28T09:36:14.800000Z</time>
      </trkpt>
      <trkpt lat="37.84637224692687" lon="112.0066932266317">
        <ele>1142.2</ele>
        <time>2017-05-28T09:36:26.800000Z</time>
      </trkpt>
      <trkpt lat="37.84621869515739" lon="112.00668973090173">
        <ele>1146.09</ele>
        <time>2017-05-28T09:36:32.800000Z</time>
      </trkpt>
      <trkpt lat="37.84598047090863" lon="112.00660298944837">
        <ele>1146.8</ele>
        <time>2017-05-28T09:36:41.800000Z</time>
      </trkpt>
      <trkpt lat="37.845657218556035" lon="112.0064613852041">
        <ele>1146.4</ele>
        <time>2017-05-28T09:36:53.800000Z</time>
      </trkpt>
      <trkpt lat="37.845368792365285" lon="112.00637789373236">
        <ele>1147.5</ele>
        <time>2017-05-28T09:37:02.800000Z</time>
      </trkpt>
      <trkpt lat="37.845113998407946" lon="112.00629791237128">
        <ele>1149.0</ele>
        <time>2017-05-28T09:37:11.800000Z</time>
      </trkpt>
      <trkpt lat="37.84482384946162" lon="112.00624631781788">
        <ele>1150.9</ele>
        <time>2017-05-28T09:37:20.800000Z</time>
      </trkpt>
      <trkpt lat="37.84452380923244" lon="112.00623635214428">
        <ele>1148.9</ele>
        <time>2017-05-28T09:37:32.800000Z</time>
      </trkpt>
      <trkpt lat="37.84425715286123" lon="112.00631315191055">
        <ele>1147.2</ele>
        <time>2017-05-28T09:37:44.800000Z</time>
      </trkpt>
      <trkpt lat="37.84396233806677" lon="112.00646158735022">
        <ele>1146.9</ele>
        <time>2017-05-28T09:37:56.800000Z</time>
      </trkpt>
      <trkpt lat="37.84388873385667" lon="112.00648808655713">
        <ele>1146.3</ele>
        <time>2017-05-28T09:37:59.800000Z</time>
      </trkpt>
      <trkpt lat="37.8436488618989" lon="112.00668138747095">
        <ele>1146.4</ele>
        <time>2017-05-28T09:38:11.800000Z</time>
      </trkpt>
      <trkpt lat="37.84337389718678" lon="112.00690631962141">
        <ele>1146.59</ele>
        <time>2017-05-28T09:38:23.800000Z</time>
      </trkpt>
      <trkpt lat="37.843148917762996" lon="112.00710989181762">
        <ele>1145.3</ele>
        <time>2017-05-28T09:38:35.800000Z</time>
      </trkpt>
      <trkpt lat="37.842845668858615" lon="112.00735807575118">
        <ele>1146.09</ele>
        <time>2017-05-28T09:38:47.800000Z</time>
      </trkpt>
      <trkpt lat="37.842532189526096" lon="112.0075797709681">
        <ele>1147.8</ele>
        <time>2017-05-28T09:38:59.800000Z</time>
      </trkpt>
      <trkpt lat="37.84229371120006" lon="112.00776145126235">
        <ele>1147.9</ele>
        <time>2017-05-28T09:39:08.800000Z</time>
      </trkpt>
      <trkpt lat="37.84198039162335" lon="112.00792962517919">
        <ele>1151.0</ele>
        <time>2017-05-28T09:39:20.800000Z</time>
      </trkpt>
      <trkpt lat="37.84164708352788" lon="112.00806806705728">
        <ele>1156.7</ele>
        <time>2017-05-28T09:39:32.800000Z</time>
      </trkpt>
      <trkpt lat="37.84130233665682" lon="112.008129740481">
        <ele>1159.7</ele>
        <time>2017-05-28T09:39:44.800000Z</time>
      </trkpt>
      <trkpt lat="37.84098550526634" lon="112.00810977482105">
        <ele>1161.8</ele>
        <time>2017-05-28T09:39:56.800000Z</time>
      </trkpt>
      <trkpt lat="37.84068554482325" lon="112.00807304750072">
        <ele>1163.8</ele>
        <time>2017-05-28T09:40:08.800000Z</time>
      </trkpt>
      <trkpt lat="37.840428969288084" lon="112.0080446948441">
        <ele>1164.7</ele>
        <time>2017-05-28T09:40:17.800000Z</time>
      </trkpt>
      <trkpt lat="37.840248937742594" lon="112.00800470944849">
        <ele>1165.4</ele>
        <time>2017-05-28T09:40:23.800000Z</time>
      </trkpt>
      <trkpt lat="37.84000229747836" lon="112.00801122647769">
        <ele>1166.9</ele>
        <time>2017-05-28T09:40:32.800000Z</time>
      </trkpt>
      <trkpt lat="37.839935599199436" lon="112.00799636702001">
        <ele>1167.3</ele>
        <time>2017-05-28T09:40:35.800000Z</time>
      </trkpt>
      <trkpt lat="37.83962227981132" lon="112.00807317437298">
        <ele>1166.9</ele>
        <time>2017-05-28T09:40:47.800000Z</time>
      </trkpt>
      <trkpt lat="37.83944563767399" lon="112.00807968305718">
        <ele>1168.0</ele>
        <time>2017-05-28T09:40:53.800000Z</time>
      </trkpt>
      <trkpt lat="37.839502178206715" lon="112.00813482099873">
        <ele>1172.09</ele>
        <time>2017-05-28T09:41:08.800000Z</time>
      </trkpt>
      <trkpt lat="37.83977578775168" lon="112.0080912672945">
        <ele>1174.59</ele>
        <time>2017-05-28T09:41:23.800000Z</time>
      </trkpt>
      <trkpt lat="37.840074065787164" lon="112.00805473891539">
        <ele>1173.0</ele>
        <time>2017-05-28T09:41:33.800000Z</time>
      </trkpt>
      <trkpt lat="37.84028408957586" lon="112.00804471213156">
        <ele>1172.59</ele>
        <time>2017-05-28T09:41:39.800000Z</time>
      </trkpt>
      <trkpt lat="37.84048725617607" lon="112.00805982563287">
        <ele>1172.3</ele>
        <time>2017-05-28T09:41:45.800000Z</time>
      </trkpt>
      <trkpt lat="37.840753845395376" lon="112.00809655692856">
        <ele>1170.3</ele>
        <time>2017-05-28T09:41:54.900000Z</time>
      </trkpt>
      <trkpt lat="37.84102736070265" lon="112.00817653818252">
        <ele>1169.0</ele>
        <time>2017-05-28T09:42:03.800000Z</time>
      </trkpt>
      <trkpt lat="37.84123574714226" lon="112.00816975538118">
        <ele>1163.9</ele>
        <time>2017-05-28T09:42:13.100000Z</time>
      </trkpt>
      <trkpt lat="37.84143232400203" lon="112.00811972323484">
        <ele>1161.7</ele>
        <time>2017-05-28T09:42:19.900000Z</time>
      </trkpt>
      <trkpt lat="37.84148232918516" lon="112.00809133397571">
        <ele>1159.7</ele>
        <time>2017-05-28T09:42:22.800000Z</time>
      </trkpt>
      <trkpt lat="37.84174731562012" lon="112.00802804820722">
        <ele>1153.59</ele>
        <time>2017-05-28T09:42:31.800000Z</time>
      </trkpt>
      <trkpt lat="37.841998998564954" lon="112.00787637066611">
        <ele>1152.0</ele>
        <time>2017-05-28T09:42:40.800000Z</time>
      </trkpt>
      <trkpt lat="37.84226404018719" lon="112.00770306665595">
        <ele>1153.4</ele>
        <time>2017-05-28T09:42:49.800000Z</time>
      </trkpt>
      <trkpt lat="37.842405704196565" lon="112.00759816747262">
        <ele>1152.7</ele>
        <time>2017-05-28T09:42:55.800000Z</time>
      </trkpt>
      <trkpt lat="37.84258887563552" lon="112.00740297851993">
        <ele>1151.59</ele>
        <time>2017-05-28T09:43:04.800000Z</time>
      </trkpt>
      <trkpt lat="37.84289377128418" lon="112.00723967260257">
        <ele>1154.4</ele>
        <time>2017-05-28T09:43:13.800000Z</time>
      </trkpt>
      <trkpt lat="37.84299897099501" lon="112.00717154108919">
        <ele>1156.59</ele>
        <time>2017-05-28T09:43:16.800000Z</time>
      </trkpt>
      <trkpt lat="37.84319710260781" lon="112.00714637832944">
        <ele>1155.0</ele>
        <time>2017-05-28T09:43:22.800000Z</time>
      </trkpt>
      <trkpt lat="37.84335074524882" lon="112.0070279629628">
        <ele>1155.8</ele>
        <time>2017-05-28T09:43:28.800000Z</time>
      </trkpt>
      <trkpt lat="37.84355540700263" lon="112.00672302656824">
        <ele>1156.7</ele>
        <time>2017-05-28T09:43:40.800000Z</time>
      </trkpt>
      <trkpt lat="37.84382561265506" lon="112.00645646775831">
        <ele>1151.59</ele>
        <time>2017-05-28T09:43:52.800000Z</time>
      </trkpt>
      <trkpt lat="37.84407211876265" lon="112.00631317397735">
        <ele>1150.2</ele>
        <time>2017-05-28T09:44:01.800000Z</time>
      </trkpt>
      <trkpt lat="37.84436228201235" lon="112.00617798455818">
        <ele>1145.3</ele>
        <time>2017-05-28T09:44:13.800000Z</time>
      </trkpt>
      <trkpt lat="37.844447000408174" lon="112.00615472785253">
        <ele>1143.9</ele>
        <time>2017-05-28T09:44:16.900000Z</time>
      </trkpt>
      <trkpt lat="37.844732290630006" lon="112.00619794332978">
        <ele>1141.5</ele>
        <time>2017-05-28T09:44:25.800000Z</time>
      </trkpt>
      <trkpt lat="37.84503220189677" lon="112.00625115854344">
        <ele>1144.9</ele>
        <time>2017-05-28T09:44:34.800000Z</time>
      </trkpt>
      <trkpt lat="37.845323750967296" lon="112.00628815620304">
        <ele>1146.59</ele>
        <time>2017-05-28T09:44:43.800000Z</time>
      </trkpt>
      <trkpt lat="37.84552383920495" lon="112.00633489594573">
        <ele>1146.7</ele>
        <time>2017-05-28T09:44:49.800000Z</time>
      </trkpt>
      <trkpt lat="37.84578727090943" lon="112.0064297433801">
        <ele>1142.5</ele>
        <time>2017-05-28T09:44:58.800000Z</time>
      </trkpt>
      <trkpt lat="37.8460355584514" lon="112.0065081037955">
        <ele>1142.4</ele>
        <time>2017-05-28T09:45:07.800000Z</time>
      </trkpt>
      <trkpt lat="37.84632573273278" lon="112.00655131889171">
        <ele>1139.9</ele>
        <time>2017-05-28T09:45:19.800000Z</time>
      </trkpt>
      <trkpt lat="37.84653560857184" lon="112.00659129986">
        <ele>1140.5</ele>
        <time>2017-05-28T09:45:25.800000Z</time>
      </trkpt>
      <trkpt lat="37.84685380696479" lon="112.00660802118162">
        <ele>1142.5</ele>
        <time>2017-05-28T09:45:34.800000Z</time>
      </trkpt>
      <trkpt lat="37.84703056760162" lon="112.00665314204147">
        <ele>1140.3</ele>
        <time>2017-05-28T09:45:40.800000Z</time>
      </trkpt>
      <trkpt lat="37.847334075840855" lon="112.00668311037782">
        <ele>1143.4</ele>
        <time>2017-05-28T09:45:49.800000Z</time>
      </trkpt>
      <trkpt lat="37.84765222384337" lon="112.00680795632978">
        <ele>1145.59</ele>
        <time>2017-05-28T09:45:58.800000Z</time>
      </trkpt>
      <trkpt lat="37.84792729360328" lon="112.006821439101">
        <ele>1144.3</ele>
        <time>2017-05-28T09:46:04.800000Z</time>
      </trkpt>
      <trkpt lat="37.84817051617695" lon="112.00686979590738">
        <ele>1143.5</ele>
        <time>2017-05-28T09:46:10.800000Z</time>
      </trkpt>
      <trkpt lat="37.84828072691336" lon="112.00694141546393">
        <ele>1144.09</ele>
        <time>2017-05-28T09:46:13.800000Z</time>
      </trkpt>
      <trkpt lat="37.84845569004811" lon="112.00713493842056">
        <ele>1144.2</ele>
        <time>2017-05-28T09:46:19.800000Z</time>
      </trkpt>
      <trkpt lat="37.84867048184534" lon="112.0074382046498">
        <ele>1145.59</ele>
        <time>2017-05-28T09:46:28.800000Z</time>
      </trkpt>
      <trkpt lat="37.84885907133758" lon="112.00770309059611">
        <ele>1147.9</ele>
        <time>2017-05-28T09:46:37.800000Z</time>
      </trkpt>
      <trkpt lat="37.848992303899074" lon="112.00787986113266">
        <ele>1148.0</ele>
        <time>2017-05-28T09:46:49.800000Z</time>
      </trkpt>
      <trkpt lat="37.849048864485965" lon="112.00801987823237">
        <ele>1149.0</ele>
        <time>2017-05-28T09:47:01.800000Z</time>
      </trkpt>
      <trkpt lat="37.84926900643701" lon="112.00825827164579">
        <ele>1150.3</ele>
        <time>2017-05-28T09:47:22.800000Z</time>
      </trkpt>
      <trkpt lat="37.849439189368404" lon="112.00850964721438">
        <ele>1151.5</ele>
        <time>2017-05-28T09:47:37.800000Z</time>
      </trkpt>
      <trkpt lat="37.84960244664051" lon="112.00880968220521">
        <ele>1153.4</ele>
        <time>2017-05-28T09:47:58.800000Z</time>
      </trkpt>
      <trkpt lat="37.84967389114569" lon="112.00896321563543">
        <ele>1153.5</ele>
        <time>2017-05-28T09:48:10.800000Z</time>
      </trkpt>
      <trkpt lat="37.84986231848256" lon="112.00928487562174">
        <ele>1153.59</ele>
        <time>2017-05-28T09:48:29.800000Z</time>
      </trkpt>
      <trkpt lat="37.84994907057157" lon="112.00967656335406">
        <ele>1153.2</ele>
        <time>2017-05-28T09:48:41.800000Z</time>
      </trkpt>
      <trkpt lat="37.849970819292686" lon="112.01012340798847">
        <ele>1150.4</ele>
        <time>2017-05-28T09:48:53.800000Z</time>
      </trkpt>
      <trkpt lat="37.84994245247361" lon="112.01054485129985">
        <ele>1147.5</ele>
        <time>2017-05-28T09:49:05.800000Z</time>
      </trkpt>
      <trkpt lat="37.849932337753536" lon="112.01066352667608">
        <ele>1146.9</ele>
        <time>2017-05-28T09:49:08.800000Z</time>
      </trkpt>
      <trkpt lat="37.849879163520534" lon="112.01103361426982">
        <ele>1145.0</ele>
        <time>2017-05-28T09:49:17.800000Z</time>
      </trkpt>
      <trkpt lat="37.84984069115004" lon="112.01147993645775">
        <ele>1141.4</ele>
        <time>2017-05-28T09:49:29.800000Z</time>
      </trkpt>
      <trkpt lat="37.84981248206749" lon="112.01194329233721">
        <ele>1135.3</ele>
        <time>2017-05-28T09:49:41.800000Z</time>
      </trkpt>
      <trkpt lat="37.849760738939274" lon="112.01229013980982">
        <ele>1131.8</ele>
        <time>2017-05-28T09:49:50.800000Z</time>
      </trkpt>
      <trkpt lat="37.84974419147737" lon="112.01266347869245">
        <ele>1131.4</ele>
        <time>2017-05-28T09:49:59.800000Z</time>
      </trkpt>
      <trkpt lat="37.84971259902698" lon="112.01308007680487">
        <ele>1129.7</ele>
        <time>2017-05-28T09:50:11.800000Z</time>
      </trkpt>
      <trkpt lat="37.8496876307963" lon="112.01345855925749">
        <ele>1127.5</ele>
        <time>2017-05-28T09:50:23.800000Z</time>
      </trkpt>
      <trkpt lat="37.849672857537" lon="112.01378351508363">
        <ele>1127.4</ele>
        <time>2017-05-28T09:50:32.800000Z</time>
      </trkpt>
      <trkpt lat="37.84962103849836" lon="112.01416038430939">
        <ele>1126.5</ele>
        <time>2017-05-28T09:50:41.800000Z</time>
      </trkpt>
      <trkpt lat="37.84959426858428" lon="112.01450724480324">
        <ele>1127.09</ele>
        <time>2017-05-28T09:50:50.800000Z</time>
      </trkpt>
      <trkpt lat="37.84955952367932" lon="112.0148922285198">
        <ele>1127.59</ele>
        <time>2017-05-28T09:50:59.800000Z</time>
      </trkpt>
      <trkpt lat="37.84952457717386" lon="112.01525369476776">
        <ele>1128.09</ele>
        <time>2017-05-28T09:51:08.800000Z</time>
      </trkpt>
      <trkpt lat="37.84947111570963" lon="112.01554379217315">
        <ele>1127.59</ele>
        <time>2017-05-28T09:51:14.800000Z</time>
      </trkpt>
      <trkpt lat="37.8494278397521" lon="112.01568735662131">
        <ele>1126.09</ele>
        <time>2017-05-28T09:51:17.800000Z</time>
      </trkpt>
      <trkpt lat="37.84938140817005" lon="112.0160823554107">
        <ele>1126.59</ele>
        <time>2017-05-28T09:51:26.800000Z</time>
      </trkpt>
      <trkpt lat="37.84935454224877" lon="112.01646735215014">
        <ele>1128.0</ele>
        <time>2017-05-28T09:51:35.800000Z</time>
      </trkpt>
      <trkpt lat="37.84933282945789" lon="112.01685397401224">
        <ele>1129.3</ele>
        <time>2017-05-28T09:51:44.800000Z</time>
      </trkpt>
      <trkpt lat="37.8492781590816" lon="112.01728737697121">
        <ele>1131.0</ele>
        <time>2017-05-28T09:51:56.800000Z</time>
      </trkpt>
      <trkpt lat="37.849239476230096" lon="112.01772916414306">
        <ele>1131.0</ele>
        <time>2017-05-28T09:52:05.800000Z</time>
      </trkpt>
      <trkpt lat="37.84922645943247" lon="112.01811417480695">
        <ele>1130.9</ele>
        <time>2017-05-28T09:52:14.800000Z</time>
      </trkpt>
      <trkpt lat="37.84922810674239" lon="112.0185927375577">
        <ele>1128.9</ele>
        <time>2017-05-28T09:52:26.800000Z</time>
      </trkpt>
      <trkpt lat="37.84922320820105" lon="112.01898775983842">
        <ele>1126.9</ele>
        <time>2017-05-28T09:52:35.800000Z</time>
      </trkpt>
      <trkpt lat="37.84922322874139" lon="112.01937115922576">
        <ele>1127.8</ele>
        <time>2017-05-28T09:52:44.800000Z</time>
      </trkpt>
      <trkpt lat="37.84921995550895" lon="112.01976943408998">
        <ele>1126.5</ele>
        <time>2017-05-28T09:52:53.800000Z</time>
      </trkpt>
      <trkpt lat="37.84923174061493" lon="112.0200211616603">
        <ele>1127.9</ele>
        <time>2017-05-28T09:52:59.800000Z</time>
      </trkpt>
      <trkpt lat="37.849195119667016" lon="112.02031426621477">
        <ele>1129.0</ele>
        <time>2017-05-28T09:53:05.800000Z</time>
      </trkpt>
      <trkpt lat="37.84920178842615" lon="112.02045432702944">
        <ele>1129.9</ele>
        <time>2017-05-28T09:53:08.800000Z</time>
      </trkpt>
      <trkpt lat="37.849183469442735" lon="112.02060439584633">
        <ele>1130.7</ele>
        <time>2017-05-28T09:53:11.800000Z</time>
      </trkpt>
      <trkpt lat="37.84922512468499" lon="112.02104648265785">
        <ele>1132.4</ele>
        <time>2017-05-28T09:53:20.800000Z</time>
      </trkpt>
      <trkpt lat="37.84919348476027" lon="112.02130633626237">
        <ele>1132.7</ele>
        <time>2017-05-28T09:53:26.800000Z</time>
      </trkpt>
      <trkpt lat="37.849210156328006" lon="112.02165974391032">
        <ele>1134.9</ele>
        <time>2017-05-28T09:53:35.800000Z</time>
      </trkpt>
      <trkpt lat="37.849193473739994" lon="112.02190797305006">
        <ele>1136.2</ele>
        <time>2017-05-28T09:53:41.800000Z</time>
      </trkpt>
      <trkpt lat="37.8491969326991" lon="112.02213294692528">
        <ele>1137.4</ele>
        <time>2017-05-28T09:53:47.800000Z</time>
      </trkpt>
      <trkpt lat="37.849185344061" lon="112.02250502443752">
        <ele>1138.2</ele>
        <time>2017-05-28T09:53:56.800000Z</time>
      </trkpt>
      <trkpt lat="37.84916376446365" lon="112.02276002051356">
        <ele>1137.9</ele>
        <time>2017-05-28T09:54:02.800000Z</time>
      </trkpt>
      <trkpt lat="37.84919032397193" lon="112.02287142547918">
        <ele>1138.09</ele>
        <time>2017-05-28T09:54:05.800000Z</time>
      </trkpt>
      <trkpt lat="37.84919870082304" lon="112.02318645197306">
        <ele>1139.2</ele>
        <time>2017-05-28T09:54:14.800000Z</time>
      </trkpt>
      <trkpt lat="37.849110471078205" lon="112.02340847087198">
        <ele>1141.8</ele>
        <time>2017-05-28T09:54:23.800000Z</time>
      </trkpt>
      <trkpt lat="37.849097107940175" lon="112.02363670182235">
        <ele>1141.8</ele>
        <time>2017-05-28T09:54:35.800000Z</time>
      </trkpt>
      <trkpt lat="37.8490487149439" lon="112.02397851381234">
        <ele>1137.2</ele>
        <time>2017-05-28T09:54:53.800000Z</time>
      </trkpt>
      <trkpt lat="37.84904205352277" lon="112.02423838707422">
        <ele>1137.5</ele>
        <time>2017-05-28T09:55:02.800000Z</time>
      </trkpt>
      <trkpt lat="37.849055370888316" lon="112.02433168047128">
        <ele>1137.59</ele>
        <time>2017-05-28T09:55:05.800000Z</time>
      </trkpt>
      <trkpt lat="37.84902731488618" lon="112.02467998757155">
        <ele>1137.8</ele>
        <time>2017-05-28T09:55:17.800000Z</time>
      </trkpt>
      <trkpt lat="37.84898560271976" lon="112.02506372604834">
        <ele>1139.2</ele>
        <time>2017-05-28T09:55:26.800000Z</time>
      </trkpt>
      <trkpt lat="37.848962236708616" lon="112.02528196414474">
        <ele>1141.0</ele>
        <time>2017-05-28T09:55:32.800000Z</time>
      </trkpt>
      <trkpt lat="37.84891716749077" lon="112.02539690201785">
        <ele>1143.2</ele>
        <time>2017-05-28T09:55:38.800000Z</time>
      </trkpt>
      <trkpt lat="37.848915521301855" lon="112.02550696734397">
        <ele>1143.5</ele>
        <time>2017-05-28T09:55:41.800000Z</time>
      </trkpt>
      <trkpt lat="37.84898729779203" lon="112.02573712243219">
        <ele>1143.8</ele>
        <time>2017-05-28T09:55:47.800000Z</time>
      </trkpt>
      <trkpt lat="37.849163722570125" lon="112.02606234263251">
        <ele>1144.0</ele>
        <time>2017-05-28T09:55:56.800000Z</time>
      </trkpt>
      <trkpt lat="37.849236032771785" lon="112.0261691589192">
        <ele>1144.2</ele>
        <time>2017-05-28T09:55:59.800000Z</time>
      </trkpt>
      <trkpt lat="37.84920430011238" lon="112.02636136783289">
        <ele>1143.9</ele>
        <time>2017-05-28T09:56:02.800000Z</time>
      </trkpt>
      <trkpt lat="37.848957502633404" lon="112.0264672769752">
        <ele>1142.09</ele>
        <time>2017-05-28T09:56:08.800000Z</time>
      </trkpt>
      <trkpt lat="37.84865761221747" lon="112.02650219971112">
        <ele>1139.4</ele>
        <time>2017-05-28T09:56:23.800000Z</time>
      </trkpt>
      <trkpt lat="37.848582652705474" lon="112.02653195709048">
        <ele>1139.4</ele>
        <time>2017-05-28T09:56:29.800000Z</time>
      </trkpt>
      <trkpt lat="37.84833582802888" lon="112.02650548366877">
        <ele>1138.2</ele>
        <time>2017-05-28T09:56:41.800000Z</time>
      </trkpt>
      <trkpt lat="37.848269041683935" lon="112.0265222589578">
        <ele>1138.0</ele>
        <time>2017-05-28T09:56:44.800000Z</time>
      </trkpt>
      <trkpt lat="37.8480743053826" lon="112.0264971314799">
        <ele>1137.5</ele>
        <time>2017-05-28T09:56:50.800000Z</time>
      </trkpt>
      <trkpt lat="37.847990861308446" lon="112.02655528606755">
        <ele>1137.3</ele>
        <time>2017-05-28T09:56:53.800000Z</time>
      </trkpt>
      <trkpt lat="37.84780760981927" lon="112.02680871150262">
        <ele>1137.0</ele>
        <time>2017-05-28T09:57:02.800000Z</time>
      </trkpt>
      <trkpt lat="37.84773425108221" lon="112.02684901625844">
        <ele>1136.7</ele>
        <time>2017-05-28T09:57:05.800000Z</time>
      </trkpt>
      <trkpt lat="37.847675754903534" lon="112.02691230695208">
        <ele>1136.2</ele>
        <time>2017-05-28T09:57:08.800000Z</time>
      </trkpt>
      <trkpt lat="37.84761767555311" lon="112.02723387273448">
        <ele>1136.09</ele>
        <time>2017-05-28T09:57:17.800000Z</time>
      </trkpt>
      <trkpt lat="37.84758597490595" lon="112.02732231258827">
        <ele>1136.4</ele>
        <time>2017-05-28T09:57:23.800000Z</time>
      </trkpt>
      <trkpt lat="37.847502682005135" lon="112.02742752668081">
        <ele>1138.5</ele>
        <time>2017-05-28T09:57:33Z</time>
      </trkpt>
      <trkpt lat="37.84747271494043" lon="112.02768580924112">
        <ele>1139.9</ele>
        <time>2017-05-28T09:57:41.800000Z</time>
      </trkpt>
      <trkpt lat="37.84741773569149" lon="112.02785917504764">
        <ele>1141.09</ele>
        <time>2017-05-28T09:57:50.900000Z</time>
      </trkpt>
      <trkpt lat="37.847414424594405" lon="112.02809230597343">
        <ele>1143.3</ele>
        <time>2017-05-28T09:58:08.800000Z</time>
      </trkpt>
      <trkpt lat="37.847399361156484" lon="112.028147480481">
        <ele>1144.8</ele>
        <time>2017-05-28T09:58:11.800000Z</time>
      </trkpt>
      <trkpt lat="37.84741095126453" lon="112.02849582677617">
        <ele>1150.8</ele>
        <time>2017-05-28T09:58:29.800000Z</time>
      </trkpt>
      <trkpt lat="37.84740632895524" lon="112.02871273540227">
        <ele>1153.3</ele>
        <time>2017-05-28T09:58:41.800000Z</time>
      </trkpt>
      <trkpt lat="37.84746784067749" lon="112.02884931061162">
        <ele>1153.0</ele>
        <time>2017-05-28T09:58:47.800000Z</time>
      </trkpt>
      <trkpt lat="37.847467769306945" lon="112.0289842711094">
        <ele>1154.09</ele>
        <time>2017-05-28T09:58:53.800000Z</time>
      </trkpt>
      <trkpt lat="37.847411239598685" lon="112.0291295166695">
        <ele>1156.9</ele>
        <time>2017-05-28T09:59:05.800000Z</time>
      </trkpt>
      <trkpt lat="37.847436092320876" lon="112.02927935109489">
        <ele>1157.59</ele>
        <time>2017-05-28T09:59:17.800000Z</time>
      </trkpt>
      <trkpt lat="37.84741484319134" lon="112.029421077861">
        <ele>1153.09</ele>
        <time>2017-05-28T09:59:36.100000Z</time>
      </trkpt>
      <trkpt lat="37.8473527797811" lon="112.02939457960191">
        <ele>1150.7</ele>
        <time>2017-05-28T09:59:42.800000Z</time>
      </trkpt>
      <trkpt lat="37.847298212688095" lon="112.02940783902828">
        <ele>1150.9</ele>
        <time>2017-05-28T09:59:48.800000Z</time>
      </trkpt>
      <trkpt lat="37.84721958518716" lon="112.02949439793619">
        <ele>1150.5</ele>
        <time>2017-05-28T09:59:57.900000Z</time>
      </trkpt>
      <trkpt lat="37.84721958518716" lon="112.02949439793619">
        <ele>1150.5</ele>
        <time>2017-05-28T10:00:00.900000Z</time>
      </trkpt>
    </trkseg>
  </trk>
</gpx>