<?xml version="1.0" encoding="UTF-8"?>
<gpx xmlns="http://www.topografix.com/GPX/1/1" xmlns:gpxtpx="http://www.garmin.com/xmlschemas/TrackPointExtension/v1" xmlns:xsi="http://www.w3.org/2001/XMLSchema-instance" xsi:schemaLocation="http://www.topografix.com/GPX/1/1 http://www.topografix.com/GPX/1/1/gpx.xsd" version="1.1" creator="gpx.py -- https://github.com/tkrajina/gpxpy">
  <trk>
    <name>gpx from keep</name>
    <type>Run</type>
    <trkseg>
      <trkpt lat="37.84754449147639" lon="112.02900752166714">
        <ele>1224.8</ele>
        <time>2017-03-09T13:38:19Z</time>
      </trkpt>
      <trkpt lat="37.8474263093134" lon="112.02939294795547">
        <ele>1145.2</ele>
        <time>2017-03-09T13:38:28Z</time>
      </trkpt>
      <trkpt lat="37.847508109401055" lon="112.02933938580489">
        <ele>1134.09</ele>
        <time>2017-03-09T13:38:31Z</time>
      </trkpt>
      <trkpt lat="37.847524400052535" lon="112.0294012938347">
        <ele>1127.3</ele>
        <time>2017-03-09T13:38:34Z</time>
      </trkpt>
      <trkpt lat="37.847512955303706" lon="112.02958825947022">
        <ele>1122.3</ele>
        <time>2017-03-09T13:38:40Z</time>
      </trkpt>
      <trkpt lat="37.84752772231714" lon="112.02970125967249">
        <ele>1122.7</ele>
        <time>2017-03-09T13:38:43Z</time>
      </trkpt>
      <trkpt lat="37.847511189108715" lon="112.0297802728358">
        <ele>1123.09</ele>
        <time>2017-03-09T13:38:46.100000Z</time>
      </trkpt>
      <trkpt lat="37.84753228169764" lon="112.02984824974202">
        <ele>1123.09</ele>
        <time>2017-03-09T13:38:49Z</time>
      </trkpt>
      <trkpt lat="37.847695358418555" lon="112.02982775706205">
        <ele>1122.4</ele>
        <time>2017-03-09T13:38:55.100000Z</time>
      </trkpt>
      <trkpt lat="37.84800355199071" lon="112.02984268240965">
        <ele>1119.0</ele>
        <time>2017-03-09T13:39:04.100000Z</time>
      </trkpt>
      <trkpt lat="37.84823880744595" lon="112.02981130217557">
        <ele>1117.5</ele>
        <time>2017-03-09T13:39:10.100000Z</time>
      </trkpt>
      <trkpt lat="37.84834168283231" lon="112.02977819375054">
        <ele>1117.9</ele>
        <time>2017-03-09T13:39:13.100000Z</time>
      </trkpt>
      <trkpt lat="37.848554262774634" lon="112.02976325969276">
        <ele>1116.4</ele>
        <time>2017-03-09T13:39:19Z</time>
      </trkpt>
      <trkpt lat="37.848640519702435" lon="112.02979627422748">
        <ele>1115.9</ele>
        <time>2017-03-09T13:39:22.100000Z</time>
      </trkpt>
      <trkpt lat="37.848825210863126" lon="112.03013221805575">
        <ele>1111.09</ele>
        <time>2017-03-09T13:39:31Z</time>
      </trkpt>
      <trkpt lat="37.84891390659384" lon="112.0303613940224">
        <ele>1106.4</ele>
        <time>2017-03-09T13:39:37Z</time>
      </trkpt>
      <trkpt lat="37.849121396860674" lon="112.03074347055744">
        <ele>1102.2</ele>
        <time>2017-03-09T13:39:46.100000Z</time>
      </trkpt>
      <trkpt lat="37.84917326798354" lon="112.03087070165958">
        <ele>1101.2</ele>
        <time>2017-03-09T13:39:49.100000Z</time>
      </trkpt>
      <trkpt lat="37.8491834749141" lon="112.03097802175375">
        <ele>1100.0</ele>
        <time>2017-03-09T13:39:52Z</time>
      </trkpt>
      <trkpt lat="37.84928885371516" lon="112.03120067269086">
        <ele>1098.2</ele>
        <time>2017-03-09T13:39:58Z</time>
      </trkpt>
      <trkpt lat="37.84931348704312" lon="112.03128879477508">
        <ele>1097.8</ele>
        <time>2017-03-09T13:40:01Z</time>
      </trkpt>
      <trkpt lat="37.8493627229481" lon="112.03134861209178">
        <ele>1100.4</ele>
        <time>2017-03-09T13:40:04Z</time>
      </trkpt>
      <trkpt lat="37.849402379568254" lon="112.03144745043612">
        <ele>1100.5</ele>
        <time>2017-03-09T13:40:07Z</time>
      </trkpt>
      <trkpt lat="37.84957400727278" lon="112.03171580069565">
        <ele>1099.59</ele>
        <time>2017-03-09T13:40:16Z</time>
      </trkpt>
      <trkpt lat="37.84979525035822" lon="112.0319306425229">
        <ele>1097.09</ele>
        <time>2017-03-09T13:40:25Z</time>
      </trkpt>
      <trkpt lat="37.85004416563378" lon="112.0322919577214">
        <ele>1091.7</ele>
        <time>2017-03-09T13:40:34Z</time>
      </trkpt>
      <trkpt lat="37.85031247992637" lon="112.03257408210571">
        <ele>1092.59</ele>
        <time>2017-03-09T13:40:40.800000Z</time>
      </trkpt>
      <trkpt lat="37.85032964236175" lon="112.03265814896581">
        <ele>1091.59</ele>
        <time>2017-03-09T13:40:43.700000Z</time>
      </trkpt>
      <trkpt lat="37.85029069996817" lon="112.03275349185628">
        <ele>1094.59</ele>
        <time>2017-03-09T13:40:46.700000Z</time>
      </trkpt>
      <trkpt lat="37.85008719050917" lon="112.03250618723888">
        <ele>1093.09</ele>
        <time>2017-03-09T13:40:58.800000Z</time>
      </trkpt>
      <trkpt lat="37.84992412224874" lon="112.03229964889448">
        <ele>1093.5</ele>
        <time>2017-03-09T13:41:07.700000Z</time>
      </trkpt>
      <trkpt lat="37.849743744113276" lon="112.03202594909808">
        <ele>1097.09</ele>
        <time>2017-03-09T13:41:16.800000Z</time>
      </trkpt>
      <trkpt lat="37.849589931918565" lon="112.03174410161665">
        <ele>1101.09</ele>
        <time>2017-03-09T13:41:25.700000Z</time>
      </trkpt>
      <trkpt lat="37.8494263862123" lon="112.03143841399913">
        <ele>1107.8</ele>
        <time>2017-03-09T13:41:34.800000Z</time>
      </trkpt>
      <trkpt lat="37.84930017144743" lon="112.03124003085289">
        <ele>1112.9</ele>
        <time>2017-03-09T13:41:40.700000Z</time>
      </trkpt>
      <trkpt lat="37.84922429755767" lon="112.03115596624023">
        <ele>1114.7</ele>
        <time>2017-03-09T13:41:43.800000Z</time>
      </trkpt>
      <trkpt lat="37.84910159014225" lon="112.03092989766924">
        <ele>1115.0</ele>
        <time>2017-03-09T13:41:49.800000Z</time>
      </trkpt>
      <trkpt lat="37.84902993084122" lon="112.0305474430477">
        <ele>1118.8</ele>
        <time>2017-03-09T13:41:58.700000Z</time>
      </trkpt>
      <trkpt lat="37.84897668689563" lon="112.03028597093436">
        <ele>1120.8</ele>
        <time>2017-03-09T13:42:04.700000Z</time>
      </trkpt>
      <trkpt lat="37.848921416221096" lon="112.03016644020678">
        <ele>1122.0</ele>
        <time>2017-03-09T13:42:07.800000Z</time>
      </trkpt>
      <trkpt lat="37.848904339707076" lon="112.0300427573443">
        <ele>1122.8</ele>
        <time>2017-03-09T13:42:10.800000Z</time>
      </trkpt>
      <trkpt lat="37.848840515956184" lon="112.02995664643849">
        <ele>1123.7</ele>
        <time>2017-03-09T13:42:13.700000Z</time>
      </trkpt>
      <trkpt lat="37.8487621725312" lon="112.02992706796542">
        <ele>1123.7</ele>
        <time>2017-03-09T13:42:16.700000Z</time>
      </trkpt>
      <trkpt lat="37.848415923891885" lon="112.02990856663027">
        <ele>1119.3</ele>
        <time>2017-03-09T13:42:25.800000Z</time>
      </trkpt>
      <trkpt lat="37.84832206708557" lon="112.02991505414658">
        <ele>1119.8</ele>
        <time>2017-03-09T13:42:28.800000Z</time>
      </trkpt>
      <trkpt lat="37.84808208210596" lon="112.02988545479644">
        <ele>1118.3</ele>
        <time>2017-03-09T13:42:37.800000Z</time>
      </trkpt>
      <trkpt lat="37.847759424482625" lon="112.02990401484689">
        <ele>1122.09</ele>
        <time>2017-03-09T13:42:49.700000Z</time>
      </trkpt>
      <trkpt lat="37.84763212038478" lon="112.02993350372395">
        <ele>1121.4</ele>
        <time>2017-03-09T13:42:55.800000Z</time>
      </trkpt>
      <trkpt lat="37.84757957225184" lon="112.0298973283296">
        <ele>1121.7</ele>
        <time>2017-03-09T13:42:58.800000Z</time>
      </trkpt>
      <trkpt lat="37.847496011727536" lon="112.02972147827073">
        <ele>1118.9</ele>
        <time>2017-03-09T13:43:04.800000Z</time>
      </trkpt>
      <trkpt lat="37.8474744959761" lon="112.02961910247629">
        <ele>1112.2</ele>
        <time>2017-03-09T13:43:07.800000Z</time>
      </trkpt>
      <trkpt lat="37.84743214738542" lon="112.02952648051664">
        <ele>1110.3</ele>
        <time>2017-03-09T13:43:10.700000Z</time>
      </trkpt>
      <trkpt lat="37.84743063380131" lon="112.0294218134849">
        <ele>1109.3</ele>
        <time>2017-03-09T13:43:13.800000Z</time>
      </trkpt>
      <trkpt lat="37.847391697334224" lon="112.02932829500388">
        <ele>1107.7</ele>
        <time>2017-03-09T13:43:16.700000Z</time>
      </trkpt>
      <trkpt lat="37.8474304213264" lon="112.02929084951276">
        <ele>1107.0</ele>
        <time>2017-03-09T13:43:19.700000Z</time>
      </trkpt>
      <trkpt lat="37.84745805024236" lon="112.02932707313518">
        <ele>1111.7</ele>
        <time>2017-03-09T13:43:31.800000Z</time>
      </trkpt>
      <trkpt lat="37.84745075995965" lon="112.02942539854156">
        <ele>1113.59</ele>
        <time>2017-03-09T13:43:37.700000Z</time>
      </trkpt>
      <trkpt lat="37.847416499530084" lon="112.02954531420652">
        <ele>1114.3</ele>
        <time>2017-03-09T13:43:43.800000Z</time>
      </trkpt>
      <trkpt lat="37.8474345525529" lon="112.0296745039607">
        <ele>1117.4</ele>
        <time>2017-03-09T13:43:52.700000Z</time>
      </trkpt>
      <trkpt lat="37.8474345525529" lon="112.0296745039607">
        <ele>1117.4</ele>
        <time>2017-03-09T13:43:58.200000Z</time>
      </trkpt>
    </trkseg>
  </trk>
</gpx>