<?xml version="1.0" encoding="UTF-8"?>
<gpx xmlns="http://www.topografix.com/GPX/1/1" xmlns:gpxtpx="http://www.garmin.com/xmlschemas/TrackPointExtension/v1" xmlns:xsi="http://www.w3.org/2001/XMLSchema-instance" xsi:schemaLocation="http://www.topografix.com/GPX/1/1 http://www.topografix.com/GPX/1/1/gpx.xsd" version="1.1" creator="gpx.py -- https://github.com/tkrajina/gpxpy">
  <trk>
    <name>gpx from keep</name>
    <type>Run</type>
    <trkseg>
      <trkpt lat="37.84624489115174" lon="112.03074302102678">
        <ele>976.3</ele>
        <time>2017-05-10T09:42:48.400000Z</time>
      </trkpt>
      <trkpt lat="37.846876424419" lon="112.02958288222199">
        <ele>1132.3</ele>
        <time>2017-05-10T09:43:01.400000Z</time>
      </trkpt>
      <trkpt lat="37.84691275892092" lon="112.02945820883339">
        <ele>1141.7</ele>
        <time>2017-05-10T09:43:04.400000Z</time>
      </trkpt>
      <trkpt lat="37.846986186981816" lon="112.02946945137234">
        <ele>1141.5</ele>
        <time>2017-05-10T09:43:07.400000Z</time>
      </trkpt>
      <trkpt lat="37.847061805509206" lon="112.02945319551442">
        <ele>1136.4</ele>
        <time>2017-05-10T09:43:10.400000Z</time>
      </trkpt>
      <trkpt lat="37.847154712680485" lon="112.02942795803747">
        <ele>1133.2</ele>
        <time>2017-05-10T09:43:13.400000Z</time>
      </trkpt>
      <trkpt lat="37.84723401595513" lon="112.02938154640493">
        <ele>1131.9</ele>
        <time>2017-05-10T09:43:16.400000Z</time>
      </trkpt>
      <trkpt lat="37.847299361902486" lon="112.02929584934466">
        <ele>1135.59</ele>
        <time>2017-05-10T09:43:19.400000Z</time>
      </trkpt>
      <trkpt lat="37.84734348609229" lon="112.02919485137635">
        <ele>1133.4</ele>
        <time>2017-05-10T09:43:22.400000Z</time>
      </trkpt>
      <trkpt lat="37.84738933487429" lon="112.02899428766187">
        <ele>1130.09</ele>
        <time>2017-05-10T09:43:31.400000Z</time>
      </trkpt>
      <trkpt lat="37.84741110718211" lon="112.02864755405011">
        <ele>1129.7</ele>
        <time>2017-05-10T09:43:55.400000Z</time>
      </trkpt>
      <trkpt lat="37.84745606391401" lon="112.02825403298868">
        <ele>1124.5</ele>
        <time>2017-05-10T09:44:25.400000Z</time>
      </trkpt>
      <trkpt lat="37.84749453197466" lon="112.02817072814325">
        <ele>1123.7</ele>
        <time>2017-05-10T09:44:31.400000Z</time>
      </trkpt>
      <trkpt lat="37.84748778059077" lon="112.02805254042033">
        <ele>1124.0</ele>
        <time>2017-05-10T09:44:37.400000Z</time>
      </trkpt>
      <trkpt lat="37.84746115583686" lon="112.02796085994184">
        <ele>1124.8</ele>
        <time>2017-05-10T09:44:40.400000Z</time>
      </trkpt>
      <trkpt lat="37.8474659395684" lon="112.0278940575747">
        <ele>1124.9</ele>
        <time>2017-05-10T09:44:43.400000Z</time>
      </trkpt>
      <trkpt lat="37.84756093365456" lon="112.02766930116492">
        <ele>1123.5</ele>
        <time>2017-05-10T09:44:52.400000Z</time>
      </trkpt>
      <trkpt lat="37.847602607931435" lon="112.02760574042382">
        <ele>1121.3</ele>
        <time>2017-05-10T09:44:55.400000Z</time>
      </trkpt>
      <trkpt lat="37.847574270684866" lon="112.02754732677174">
        <ele>1120.5</ele>
        <time>2017-05-10T09:44:58.400000Z</time>
      </trkpt>
      <trkpt lat="37.84759584649643" lon="112.02749215261633">
        <ele>1116.7</ele>
        <time>2017-05-10T09:45:01.400000Z</time>
      </trkpt>
      <trkpt lat="37.84774415376493" lon="112.02732067088633">
        <ele>1110.09</ele>
        <time>2017-05-10T09:45:10.400000Z</time>
      </trkpt>
      <trkpt lat="37.84781262769104" lon="112.02728063652404">
        <ele>1107.2</ele>
        <time>2017-05-10T09:45:13.400000Z</time>
      </trkpt>
      <trkpt lat="37.84780774403678" lon="112.02717570400364">
        <ele>1104.7</ele>
        <time>2017-05-10T09:45:19.400000Z</time>
      </trkpt>
      <trkpt lat="37.847855849089655" lon="112.02703885302378">
        <ele>1100.0</ele>
        <time>2017-05-10T09:45:25.400000Z</time>
      </trkpt>
      <trkpt lat="37.847974155152045" lon="112.0268241066976">
        <ele>1094.09</ele>
        <time>2017-05-10T09:45:34.400000Z</time>
      </trkpt>
      <trkpt lat="37.848024241529245" lon="112.02676054676051">
        <ele>1092.5</ele>
        <time>2017-05-10T09:45:37.400000Z</time>
      </trkpt>
      <trkpt lat="37.84804911289917" lon="112.02669049939846">
        <ele>1090.09</ele>
        <time>2017-05-10T09:45:40.400000Z</time>
      </trkpt>
      <trkpt lat="37.84808232542534" lon="112.0266472248329">
        <ele>1088.9</ele>
        <time>2017-05-10T09:45:43.400000Z</time>
      </trkpt>
      <trkpt lat="37.848128981892486" lon="112.02665073495572">
        <ele>1088.7</ele>
        <time>2017-05-10T09:45:46.400000Z</time>
      </trkpt>
      <trkpt lat="37.848195862295626" lon="112.02670211073345">
        <ele>1087.0</ele>
        <time>2017-05-10T09:45:52.400000Z</time>
      </trkpt>
      <trkpt lat="37.848367558332164" lon="112.0267191279037">
        <ele>1086.0</ele>
        <time>2017-05-10T09:45:58.400000Z</time>
      </trkpt>
      <trkpt lat="37.848504262269145" lon="112.02662905457511">
        <ele>1087.09</ele>
        <time>2017-05-10T09:46:04.400000Z</time>
      </trkpt>
      <trkpt lat="37.84870246339758" lon="112.02657386089234">
        <ele>1088.59</ele>
        <time>2017-05-10T09:46:16.400000Z</time>
      </trkpt>
      <trkpt lat="37.84878410408933" lon="112.02647892671052">
        <ele>1090.0</ele>
        <time>2017-05-10T09:46:22.400000Z</time>
      </trkpt>
      <trkpt lat="37.84893256248401" lon="112.02635531832647">
        <ele>1089.3</ele>
        <time>2017-05-10T09:46:28.400000Z</time>
      </trkpt>
      <trkpt lat="37.849042278785824" lon="112.02621062101412">
        <ele>1087.0</ele>
        <time>2017-05-10T09:46:34.400000Z</time>
      </trkpt>
      <trkpt lat="37.84908570148009" lon="112.02610190032713">
        <ele>1087.59</ele>
        <time>2017-05-10T09:46:37.400000Z</time>
      </trkpt>
      <trkpt lat="37.849145776829424" lon="112.02574708312814">
        <ele>1085.2</ele>
        <time>2017-05-10T09:46:49.400000Z</time>
      </trkpt>
      <trkpt lat="37.8491457333916" lon="112.02566027430412">
        <ele>1084.9</ele>
        <time>2017-05-10T09:46:52.400000Z</time>
      </trkpt>
      <trkpt lat="37.84918423385133" lon="112.0254636661594">
        <ele>1083.09</ele>
        <time>2017-05-10T09:46:58.400000Z</time>
      </trkpt>
      <trkpt lat="37.84916572487102" lon="112.0252803171201">
        <ele>1083.09</ele>
        <time>2017-05-10T09:47:04.400000Z</time>
      </trkpt>
      <trkpt lat="37.8491888845434" lon="112.02514023253552">
        <ele>1081.4</ele>
        <time>2017-05-10T09:47:10.400000Z</time>
      </trkpt>
      <trkpt lat="37.84924734010257" lon="112.02509344157492">
        <ele>1079.9</ele>
        <time>2017-05-10T09:47:13.400000Z</time>
      </trkpt>
      <trkpt lat="37.84923893103047" lon="112.02499013957355">
        <ele>1076.8</ele>
        <time>2017-05-10T09:47:19.400000Z</time>
      </trkpt>
      <trkpt lat="37.84921387992124" lon="112.02492172480713">
        <ele>1075.0</ele>
        <time>2017-05-10T09:47:22.400000Z</time>
      </trkpt>
      <trkpt lat="37.84925214354155" lon="112.02471349310889">
        <ele>1068.59</ele>
        <time>2017-05-10T09:47:31.400000Z</time>
      </trkpt>
      <trkpt lat="37.849293879372716" lon="112.02462857509921">
        <ele>1065.8</ele>
        <time>2017-05-10T09:47:34.400000Z</time>
      </trkpt>
      <trkpt lat="37.84932390348056" lon="112.02435652692574">
        <ele>1055.5</ele>
        <time>2017-05-10T09:47:46.400000Z</time>
      </trkpt>
      <trkpt lat="37.849270436214546" lon="112.02426161575966">
        <ele>1051.59</ele>
        <time>2017-05-10T09:47:52.400000Z</time>
      </trkpt>
      <trkpt lat="37.84927374827287" lon="112.02413857446103">
        <ele>1047.7</ele>
        <time>2017-05-10T09:47:58.400000Z</time>
      </trkpt>
      <trkpt lat="37.84936042991734" lon="112.02398685932282">
        <ele>1044.3</ele>
        <time>2017-05-10T09:48:04.400000Z</time>
      </trkpt>
      <trkpt lat="37.84940206568041" lon="112.02383839530611">
        <ele>1037.3</ele>
        <time>2017-05-10T09:48:16.400000Z</time>
      </trkpt>
      <trkpt lat="37.849405482449015" lon="112.02367668621197">
        <ele>1033.59</ele>
        <time>2017-05-10T09:48:25.400000Z</time>
      </trkpt>
      <trkpt lat="37.849433838808054" lon="112.02352308734123">
        <ele>1030.4</ele>
        <time>2017-05-10T09:48:31.400000Z</time>
      </trkpt>
      <trkpt lat="37.84947369677317" lon="112.0231280101962">
        <ele>1023.6</ele>
        <time>2017-05-10T09:48:46.400000Z</time>
      </trkpt>
      <trkpt lat="37.849505133182035" lon="112.02273834692254">
        <ele>1016.9</ele>
        <time>2017-05-10T09:49:01.400000Z</time>
      </trkpt>
      <trkpt lat="37.849520246128414" lon="112.02236653683146">
        <ele>1014.7</ele>
        <time>2017-05-10T09:49:13.400000Z</time>
      </trkpt>
      <trkpt lat="37.84953848256562" lon="112.0219447061852">
        <ele>1011.3</ele>
        <time>2017-05-10T09:49:28.500000Z</time>
      </trkpt>
      <trkpt lat="37.849548533596575" lon="112.02154126876152">
        <ele>1007.8</ele>
        <time>2017-05-10T09:49:43.400000Z</time>
      </trkpt>
      <trkpt lat="37.84957501117235" lon="112.02118434200086">
        <ele>1008.6</ele>
        <time>2017-05-10T09:49:55.400000Z</time>
      </trkpt>
      <trkpt lat="37.84959171843204" lon="112.02082958317233">
        <ele>1007.4</ele>
        <time>2017-05-10T09:50:07.400000Z</time>
      </trkpt>
      <trkpt lat="37.84960500773341" lon="112.02043616255442">
        <ele>1007.4</ele>
        <time>2017-05-10T09:50:19.700000Z</time>
      </trkpt>
      <trkpt lat="37.84960325391133" lon="112.01998948189528">
        <ele>1007.9</ele>
        <time>2017-05-10T09:50:32.400000Z</time>
      </trkpt>
      <trkpt lat="37.84961811386114" lon="112.01961932316053">
        <ele>1012.1</ele>
        <time>2017-05-10T09:50:44.400000Z</time>
      </trkpt>
      <trkpt lat="37.84965633205281" lon="112.01924105389344">
        <ele>1006.5</ele>
        <time>2017-05-10T09:50:56.500000Z</time>
      </trkpt>
      <trkpt lat="37.84970809550054" lon="112.01887116853283">
        <ele>1003.8</ele>
        <time>2017-05-10T09:51:08.400000Z</time>
      </trkpt>
      <trkpt lat="37.849766379293406" lon="112.01849912297983">
        <ele>1003.0</ele>
        <time>2017-05-10T09:51:20.400000Z</time>
      </trkpt>
      <trkpt lat="37.84978134193186" lon="112.0183874562431">
        <ele>1005.1</ele>
        <time>2017-05-10T09:51:23.400000Z</time>
      </trkpt>
      <trkpt lat="37.84975792694113" lon="112.01812573714776">
        <ele>1012.0</ele>
        <time>2017-05-10T09:51:29.400000Z</time>
      </trkpt>
      <trkpt lat="37.84975141374489" lon="112.01773910649811">
        <ele>1021.5</ele>
        <time>2017-05-10T09:51:38.400000Z</time>
      </trkpt>
      <trkpt lat="37.849764652979154" lon="112.01737248446061">
        <ele>1027.0</ele>
        <time>2017-05-10T09:51:47.400000Z</time>
      </trkpt>
      <trkpt lat="37.84977787652894" lon="112.01701235453329">
        <ele>1035.09</ele>
        <time>2017-05-10T09:51:56.500000Z</time>
      </trkpt>
      <trkpt lat="37.84977793978715" lon="112.01660572693923">
        <ele>1045.3</ele>
        <time>2017-05-10T09:52:11.400000Z</time>
      </trkpt>
      <trkpt lat="37.84978635550533" lon="112.01622073114568">
        <ele>1055.2</ele>
        <time>2017-05-10T09:52:29.400000Z</time>
      </trkpt>
      <trkpt lat="37.849786168090056" lon="112.01580897448484">
        <ele>1068.3</ele>
        <time>2017-05-10T09:52:44.400000Z</time>
      </trkpt>
      <trkpt lat="37.84978946844318" lon="112.01541209089393">
        <ele>1077.7</ele>
        <time>2017-05-10T09:53:02.400000Z</time>
      </trkpt>
      <trkpt lat="37.84980113951454" lon="112.01531530245596">
        <ele>1079.09</ele>
        <time>2017-05-10T09:53:05.400000Z</time>
      </trkpt>
      <trkpt lat="37.849787739708354" lon="112.01506711927284">
        <ele>1083.8</ele>
        <time>2017-05-10T09:53:11.400000Z</time>
      </trkpt>
      <trkpt lat="37.84980449634881" lon="112.01471025269046">
        <ele>1087.9</ele>
        <time>2017-05-10T09:53:20.400000Z</time>
      </trkpt>
      <trkpt lat="37.8498345370734" lon="112.0145469574645">
        <ele>1086.2</ele>
        <time>2017-05-10T09:53:26.500000Z</time>
      </trkpt>
      <trkpt lat="37.849844498610686" lon="112.01419550277078">
        <ele>1092.59</ele>
        <time>2017-05-10T09:53:35.400000Z</time>
      </trkpt>
      <trkpt lat="37.8498576832485" lon="112.01376186534236">
        <ele>1097.4</ele>
        <time>2017-05-10T09:53:47.400000Z</time>
      </trkpt>
      <trkpt lat="37.849877899387245" lon="112.01333715239912">
        <ele>1103.09</ele>
        <time>2017-05-10T09:53:59.400000Z</time>
      </trkpt>
      <trkpt lat="37.849889476382785" lon="112.01289865690116">
        <ele>1107.8</ele>
        <time>2017-05-10T09:54:11.400000Z</time>
      </trkpt>
      <trkpt lat="37.849899109448174" lon="112.0124766561959">
        <ele>1109.7</ele>
        <time>2017-05-10T09:54:23.400000Z</time>
      </trkpt>
      <trkpt lat="37.84992585603378" lon="112.0120484392953">
        <ele>1113.09</ele>
        <time>2017-05-10T09:54:35.400000Z</time>
      </trkpt>
      <trkpt lat="37.84993092567518" lon="112.01161157791663">
        <ele>1119.3</ele>
        <time>2017-05-10T09:54:47.400000Z</time>
      </trkpt>
      <trkpt lat="37.84993918920128" lon="112.01119688698944">
        <ele>1123.7</ele>
        <time>2017-05-10T09:54:59.500000Z</time>
      </trkpt>
      <trkpt lat="37.8499607708904" lon="112.01077489881287">
        <ele>1125.09</ele>
        <time>2017-05-10T09:55:11.400000Z</time>
      </trkpt>
      <trkpt lat="37.84998060918753" lon="112.01039319287996">
        <ele>1126.0</ele>
        <time>2017-05-10T09:55:23.400000Z</time>
      </trkpt>
      <trkpt lat="37.84998586218554" lon="112.00998986527262">
        <ele>1127.3</ele>
        <time>2017-05-10T09:55:35.400000Z</time>
      </trkpt>
      <trkpt lat="37.849952314229114" lon="112.00958843742492">
        <ele>1128.7</ele>
        <time>2017-05-10T09:55:47.400000Z</time>
      </trkpt>
      <trkpt lat="37.84991057916578" lon="112.00938813300782">
        <ele>1130.9</ele>
        <time>2017-05-10T09:55:53.400000Z</time>
      </trkpt>
      <trkpt lat="37.84972223988361" lon="112.0090364668149">
        <ele>1134.0</ele>
        <time>2017-05-10T09:56:05.400000Z</time>
      </trkpt>
      <trkpt lat="37.84951075208119" lon="112.00871481090248">
        <ele>1137.3</ele>
        <time>2017-05-10T09:56:17.400000Z</time>
      </trkpt>
      <trkpt lat="37.849320640096586" lon="112.0084131576667">
        <ele>1137.4</ele>
        <time>2017-05-10T09:56:29.400000Z</time>
      </trkpt>
      <trkpt lat="37.84912728793137" lon="112.00810664056092">
        <ele>1137.7</ele>
        <time>2017-05-10T09:56:41.400000Z</time>
      </trkpt>
      <trkpt lat="37.848913860661014" lon="112.00779985700215">
        <ele>1139.7</ele>
        <time>2017-05-10T09:56:53.500000Z</time>
      </trkpt>
      <trkpt lat="37.84871239232155" lon="112.0074863155949">
        <ele>1140.5</ele>
        <time>2017-05-10T09:57:05.400000Z</time>
      </trkpt>
      <trkpt lat="37.84850709626144" lon="112.00718304801696">
        <ele>1143.09</ele>
        <time>2017-05-10T09:57:17.400000Z</time>
      </trkpt>
      <trkpt lat="37.84836057572386" lon="112.00700465902906">
        <ele>1142.0</ele>
        <time>2017-05-10T09:57:26.400000Z</time>
      </trkpt>
      <trkpt lat="37.84820730116148" lon="112.00690790551512">
        <ele>1144.7</ele>
        <time>2017-05-10T09:57:32.400000Z</time>
      </trkpt>
      <trkpt lat="37.84790903125526" lon="112.00684982402169">
        <ele>1143.7</ele>
        <time>2017-05-10T09:57:44.400000Z</time>
      </trkpt>
      <trkpt lat="37.847579018791556" lon="112.00679147604988">
        <ele>1142.5</ele>
        <time>2017-05-10T09:57:59.400000Z</time>
      </trkpt>
      <trkpt lat="37.847258783307" lon="112.00672988322093">
        <ele>1143.5</ele>
        <time>2017-05-10T09:58:11.400000Z</time>
      </trkpt>
      <trkpt lat="37.84694392988767" lon="112.00668315691891">
        <ele>1145.9</ele>
        <time>2017-05-10T09:58:23.400000Z</time>
      </trkpt>
      <trkpt lat="37.84665542355114" lon="112.00662642599409">
        <ele>1151.3</ele>
        <time>2017-05-10T09:58:35.400000Z</time>
      </trkpt>
      <trkpt lat="37.84635709614351" lon="112.00658780711188">
        <ele>1156.0</ele>
        <time>2017-05-10T09:58:47.400000Z</time>
      </trkpt>
      <trkpt lat="37.8460254756351" lon="112.00652297208238">
        <ele>1158.2</ele>
        <time>2017-05-10T09:58:59.400000Z</time>
      </trkpt>
      <trkpt lat="37.84568066088863" lon="112.00642462020011">
        <ele>1158.3</ele>
        <time>2017-05-10T09:59:11.400000Z</time>
      </trkpt>
      <trkpt lat="37.84548226975576" lon="112.00635463353248">
        <ele>1152.2</ele>
        <time>2017-05-10T09:59:20.400000Z</time>
      </trkpt>
      <trkpt lat="37.84515555818618" lon="112.00628141851797">
        <ele>1149.3</ele>
        <time>2017-05-10T09:59:32.400000Z</time>
      </trkpt>
      <trkpt lat="37.84482886206235" lon="112.00620306769277">
        <ele>1151.7</ele>
        <time>2017-05-10T09:59:44.400000Z</time>
      </trkpt>
      <trkpt lat="37.84462407701841" lon="112.006184711073">
        <ele>1148.59</ele>
        <time>2017-05-10T09:59:53.400000Z</time>
      </trkpt>
      <trkpt lat="37.84432725105365" lon="112.00627962513315">
        <ele>1145.4</ele>
        <time>2017-05-10T10:00:05.400000Z</time>
      </trkpt>
      <trkpt lat="37.84406891594483" lon="112.00638642837542">
        <ele>1145.09</ele>
        <time>2017-05-10T10:00:17.400000Z</time>
      </trkpt>
      <trkpt lat="37.84377369148388" lon="112.0065813574776">
        <ele>1146.9</ele>
        <time>2017-05-10T10:00:29.400000Z</time>
      </trkpt>
      <trkpt lat="37.84350234204694" lon="112.00677655458479">
        <ele>1149.59</ele>
        <time>2017-05-10T10:00:41.400000Z</time>
      </trkpt>
      <trkpt lat="37.843232064654735" lon="112.00697634742521">
        <ele>1150.3</ele>
        <time>2017-05-10T10:00:53.400000Z</time>
      </trkpt>
      <trkpt lat="37.84312377586808" lon="112.0070796197715">
        <ele>1151.4</ele>
        <time>2017-05-10T10:00:59.400000Z</time>
      </trkpt>
      <trkpt lat="37.84283726394861" lon="112.00726481850245">
        <ele>1154.4</ele>
        <time>2017-05-10T10:01:11.400000Z</time>
      </trkpt>
      <trkpt lat="37.84259070979365" lon="112.00742487375038">
        <ele>1156.7</ele>
        <time>2017-05-10T10:01:23.400000Z</time>
      </trkpt>
      <trkpt lat="37.842307420754196" lon="112.00762142628807">
        <ele>1157.2</ele>
        <time>2017-05-10T10:01:35.400000Z</time>
      </trkpt>
      <trkpt lat="37.84202382084278" lon="112.0078314952479">
        <ele>1160.09</ele>
        <time>2017-05-10T10:01:47.400000Z</time>
      </trkpt>
      <trkpt lat="37.84175738854253" lon="112.00801642338668">
        <ele>1162.5</ele>
        <time>2017-05-10T10:01:59.400000Z</time>
      </trkpt>
      <trkpt lat="37.8414604906722" lon="112.00813647953767">
        <ele>1164.5</ele>
        <time>2017-05-10T10:02:11.400000Z</time>
      </trkpt>
      <trkpt lat="37.84114223306189" lon="112.00814003163978">
        <ele>1168.0</ele>
        <time>2017-05-10T10:02:23.400000Z</time>
      </trkpt>
      <trkpt lat="37.84084232220473" lon="112.00808654464129">
        <ele>1172.8</ele>
        <time>2017-05-10T10:02:35.400000Z</time>
      </trkpt>
      <trkpt lat="37.8405505507522" lon="112.00803305671434">
        <ele>1172.0</ele>
        <time>2017-05-10T10:02:47.400000Z</time>
      </trkpt>
      <trkpt lat="37.840228860780286" lon="112.00800471184407">
        <ele>1169.7</ele>
        <time>2017-05-10T10:02:59.400000Z</time>
      </trkpt>
      <trkpt lat="37.839917302101675" lon="112.0080366463929">
        <ele>1170.2</ele>
        <time>2017-05-10T10:03:11.400000Z</time>
      </trkpt>
      <trkpt lat="37.83960876393833" lon="112.00805641633683">
        <ele>1171.4</ele>
        <time>2017-05-10T10:03:23.400000Z</time>
      </trkpt>
      <trkpt lat="37.83938080895713" lon="112.00807482508701">
        <ele>1172.2</ele>
        <time>2017-05-10T10:03:32.400000Z</time>
      </trkpt>
      <trkpt lat="37.83968386722596" lon="112.00807316702432">
        <ele>1171.2</ele>
        <time>2017-05-10T10:03:53.400000Z</time>
      </trkpt>
      <trkpt lat="37.83998240695352" lon="112.00803988242617">
        <ele>1173.5</ele>
        <time>2017-05-10T10:04:05.400000Z</time>
      </trkpt>
      <trkpt lat="37.84032911667949" lon="112.00804822087761">
        <ele>1167.09</ele>
        <time>2017-05-10T10:04:17.400000Z</time>
      </trkpt>
      <trkpt lat="37.84038897858901" lon="112.00808119239734">
        <ele>1165.9</ele>
        <time>2017-05-10T10:04:20.400000Z</time>
      </trkpt>
      <trkpt lat="37.84068376406994" lon="112.00812467826928">
        <ele>1165.3</ele>
        <time>2017-05-10T10:04:32.400000Z</time>
      </trkpt>
      <trkpt lat="37.840979101855005" lon="112.00816492029539">
        <ele>1162.09</ele>
        <time>2017-05-10T10:04:44.400000Z</time>
      </trkpt>
      <trkpt lat="37.84131393818054" lon="112.00815163479112">
        <ele>1159.9</ele>
        <time>2017-05-10T10:04:56.400000Z</time>
      </trkpt>
      <trkpt lat="37.84163900826037" lon="112.00804644267215">
        <ele>1158.8</ele>
        <time>2017-05-10T10:05:08.400000Z</time>
      </trkpt>
      <trkpt lat="37.841898796023365" lon="112.0079063877163">
        <ele>1161.8</ele>
        <time>2017-05-10T10:05:17.400000Z</time>
      </trkpt>
      <trkpt lat="37.84214206377498" lon="112.00775633336023">
        <ele>1162.0</ele>
        <time>2017-05-10T10:05:26.400000Z</time>
      </trkpt>
      <trkpt lat="37.84242882014958" lon="112.00757978330124">
        <ele>1159.7</ele>
        <time>2017-05-10T10:05:38.400000Z</time>
      </trkpt>
      <trkpt lat="37.84272737255303" lon="112.00735971174797">
        <ele>1159.2</ele>
        <time>2017-05-10T10:05:50.400000Z</time>
      </trkpt>
      <trkpt lat="37.84301893577879" lon="112.00711801671282">
        <ele>1159.3</ele>
        <time>2017-05-10T10:06:02.400000Z</time>
      </trkpt>
      <trkpt lat="37.84329238973772" lon="112.00694471368152">
        <ele>1153.09</ele>
        <time>2017-05-10T10:06:14.400000Z</time>
      </trkpt>
      <trkpt lat="37.84359558596364" lon="112.00671464212151">
        <ele>1154.2</ele>
        <time>2017-05-10T10:06:26.400000Z</time>
      </trkpt>
      <trkpt lat="37.84387883215694" lon="112.00653322961354">
        <ele>1151.59</ele>
        <time>2017-05-10T10:06:38.400000Z</time>
      </trkpt>
      <trkpt lat="37.8441803871611" lon="112.00630802517789">
        <ele>1151.4</ele>
        <time>2017-05-10T10:06:50.400000Z</time>
      </trkpt>
      <trkpt lat="37.84447219765863" lon="112.00616634814814">
        <ele>1153.0</ele>
        <time>2017-05-10T10:07:02.400000Z</time>
      </trkpt>
      <trkpt lat="37.844538752739076" lon="112.00613822804603">
        <ele>1152.8</ele>
        <time>2017-05-10T10:07:05.400000Z</time>
      </trkpt>
      <trkpt lat="37.84481536665936" lon="112.00617955238246">
        <ele>1151.59</ele>
        <time>2017-05-10T10:07:17.400000Z</time>
      </trkpt>
      <trkpt lat="37.845090553142846" lon="112.00624466415339">
        <ele>1149.5</ele>
        <time>2017-05-10T10:07:29.400000Z</time>
      </trkpt>
      <trkpt lat="37.84540554267671" lon="112.00633653191417">
        <ele>1150.0</ele>
        <time>2017-05-10T10:07:41.400000Z</time>
      </trkpt>
      <trkpt lat="37.84572045905273" lon="112.00645299803863">
        <ele>1150.3</ele>
        <time>2017-05-10T10:07:53.400000Z</time>
      </trkpt>
      <trkpt lat="37.846065520185626" lon="112.0065597295639">
        <ele>1150.2</ele>
        <time>2017-05-10T10:08:05.400000Z</time>
      </trkpt>
      <trkpt lat="37.84635913217809" lon="112.00663294880263">
        <ele>1148.09</ele>
        <time>2017-05-10T10:08:17.400000Z</time>
      </trkpt>
      <trkpt lat="37.84658395513881" lon="112.00666454838596">
        <ele>1146.8</ele>
        <time>2017-05-10T10:08:26.400000Z</time>
      </trkpt>
      <trkpt lat="37.8468721499357" lon="112.0067347949497">
        <ele>1142.59</ele>
        <time>2017-05-10T10:08:38.400000Z</time>
      </trkpt>
      <trkpt lat="37.847222062902446" lon="112.00676124373406">
        <ele>1139.09</ele>
        <time>2017-05-10T10:08:50.400000Z</time>
      </trkpt>
      <trkpt lat="37.84757572362868" lon="112.00680472171562">
        <ele>1139.3</ele>
        <time>2017-05-10T10:09:02.400000Z</time>
      </trkpt>
      <trkpt lat="37.84785047781647" lon="112.00683307167253">
        <ele>1142.2</ele>
        <time>2017-05-10T10:09:11.400000Z</time>
      </trkpt>
      <trkpt lat="37.848129000663086" lon="112.00687142273219">
        <ele>1143.4</ele>
        <time>2017-05-10T10:09:20.400000Z</time>
      </trkpt>
      <trkpt lat="37.84831059005523" lon="112.00702628999511">
        <ele>1143.0</ele>
        <time>2017-05-10T10:09:29.400000Z</time>
      </trkpt>
      <trkpt lat="37.84852729509015" lon="112.0073246898647">
        <ele>1141.4</ele>
        <time>2017-05-10T10:09:41.400000Z</time>
      </trkpt>
      <trkpt lat="37.848730470080845" lon="112.00761146912467">
        <ele>1139.59</ele>
        <time>2017-05-10T10:09:53.400000Z</time>
      </trkpt>
      <trkpt lat="37.84893551560776" lon="112.00790825109948">
        <ele>1137.7</ele>
        <time>2017-05-10T10:10:05.400000Z</time>
      </trkpt>
      <trkpt lat="37.84914403086729" lon="112.00822476718936">
        <ele>1137.59</ele>
        <time>2017-05-10T10:10:17.400000Z</time>
      </trkpt>
      <trkpt lat="37.849332187806525" lon="112.00854507174944">
        <ele>1135.8</ele>
        <time>2017-05-10T10:10:29.400000Z</time>
      </trkpt>
      <trkpt lat="37.84953090408066" lon="112.0088732159846">
        <ele>1133.3</ele>
        <time>2017-05-10T10:10:41.400000Z</time>
      </trkpt>
      <trkpt lat="37.849697226076266" lon="112.00914649055983">
        <ele>1133.3</ele>
        <time>2017-05-10T10:10:50.400000Z</time>
      </trkpt>
      <trkpt lat="37.84980742170952" lon="112.00940814920592">
        <ele>1130.3</ele>
        <time>2017-05-10T10:10:59.400000Z</time>
      </trkpt>
      <trkpt lat="37.8498457216383" lon="112.0097617278075">
        <ele>1124.0</ele>
        <time>2017-05-10T10:11:11.400000Z</time>
      </trkpt>
      <trkpt lat="37.849852415412386" lon="112.01016153812283">
        <ele>1118.3</ele>
        <time>2017-05-10T10:11:23.400000Z</time>
      </trkpt>
      <trkpt lat="37.849832482448804" lon="112.01057514119711">
        <ele>1111.8</ele>
        <time>2017-05-10T10:11:35.400000Z</time>
      </trkpt>
      <trkpt lat="37.849800774897176" lon="112.01102659504498">
        <ele>1106.59</ele>
        <time>2017-05-10T10:11:47.400000Z</time>
      </trkpt>
      <trkpt lat="37.84978076509424" lon="112.01146831931143">
        <ele>1104.4</ele>
        <time>2017-05-10T10:11:59.400000Z</time>
      </trkpt>
      <trkpt lat="37.849779226281186" lon="112.01190355704944">
        <ele>1104.2</ele>
        <time>2017-05-10T10:12:11.400000Z</time>
      </trkpt>
      <trkpt lat="37.84974264795999" lon="112.01235367122742">
        <ele>1105.0</ele>
        <time>2017-05-10T10:12:23.400000Z</time>
      </trkpt>
      <trkpt lat="37.84971615941903" lon="112.01269348969495">
        <ele>1109.4</ele>
        <time>2017-05-10T10:12:32.400000Z</time>
      </trkpt>
      <trkpt lat="37.84967101016575" lon="112.01310711592821">
        <ele>1108.0</ele>
        <time>2017-05-10T10:12:44.400000Z</time>
      </trkpt>
      <trkpt lat="37.84963448250557" lon="112.01344856290551">
        <ele>1108.9</ele>
        <time>2017-05-10T10:12:53.400000Z</time>
      </trkpt>
      <trkpt lat="37.84959095766336" lon="112.01386516926756">
        <ele>1106.09</ele>
        <time>2017-05-10T10:13:05.400000Z</time>
      </trkpt>
      <trkpt lat="37.849572552134326" lon="112.01432205826373">
        <ele>1103.9</ele>
        <time>2017-05-10T10:13:17.400000Z</time>
      </trkpt>
      <trkpt lat="37.849531303794784" lon="112.01470379696828">
        <ele>1106.4</ele>
        <time>2017-05-10T10:13:26.400000Z</time>
      </trkpt>
      <trkpt lat="37.84948771147155" lon="112.01514717976083">
        <ele>1106.3</ele>
        <time>2017-05-10T10:13:38.400000Z</time>
      </trkpt>
      <trkpt lat="37.84943114277958" lon="112.01557542862092">
        <ele>1110.8</ele>
        <time>2017-05-10T10:13:50.400000Z</time>
      </trkpt>
      <trkpt lat="37.849374618867685" lon="112.01598908233854">
        <ele>1112.7</ele>
        <time>2017-05-10T10:14:03.300000Z</time>
      </trkpt>
      <trkpt lat="37.84934131661956" lon="112.01634731324046">
        <ele>1110.2</ele>
        <time>2017-05-10T10:14:12.400000Z</time>
      </trkpt>
      <trkpt lat="37.849286094852644" lon="112.01678233311056">
        <ele>1109.7</ele>
        <time>2017-05-10T10:14:24.400000Z</time>
      </trkpt>
      <trkpt lat="37.849237917089916" lon="112.01722222333461">
        <ele>1109.09</ele>
        <time>2017-05-10T10:14:36.400000Z</time>
      </trkpt>
      <trkpt lat="37.849194882817635" lon="112.0176675251184">
        <ele>1108.09</ele>
        <time>2017-05-10T10:14:48.400000Z</time>
      </trkpt>
      <trkpt lat="37.849154856559316" lon="112.01810580182965">
        <ele>1106.9</ele>
        <time>2017-05-10T10:14:57.400000Z</time>
      </trkpt>
      <trkpt lat="37.8491314996123" lon="112.01850271396167">
        <ele>1107.5</ele>
        <time>2017-05-10T10:15:06.400000Z</time>
      </trkpt>
      <trkpt lat="37.84911990182707" lon="112.01886745375162">
        <ele>1109.0</ele>
        <time>2017-05-10T10:15:15.400000Z</time>
      </trkpt>
      <trkpt lat="37.84911321216321" lon="112.01922435540449">
        <ele>1109.4</ele>
        <time>2017-05-10T10:15:24.400000Z</time>
      </trkpt>
      <trkpt lat="37.84909666137835" lon="112.01961614108764">
        <ele>1110.09</ele>
        <time>2017-05-10T10:15:36.400000Z</time>
      </trkpt>
      <trkpt lat="37.84908811146383" lon="112.01986273272864">
        <ele>1111.3</ele>
        <time>2017-05-10T10:15:52.400000Z</time>
      </trkpt>
      <trkpt lat="37.84913482772173" lon="112.02013933238261">
        <ele>1111.5</ele>
        <time>2017-05-10T10:16:10.400000Z</time>
      </trkpt>
      <trkpt lat="37.84912156337069" lon="112.02052274532237">
        <ele>1109.4</ele>
        <time>2017-05-10T10:16:31.400000Z</time>
      </trkpt>
      <trkpt lat="37.84913484076003" lon="112.02062765530214">
        <ele>1108.5</ele>
        <time>2017-05-10T10:16:37.400000Z</time>
      </trkpt>
      <trkpt lat="37.849105199288054" lon="112.02094942565188">
        <ele>1104.8</ele>
        <time>2017-05-10T10:16:55.400000Z</time>
      </trkpt>
      <trkpt lat="37.84912509105714" lon="112.02111625643903">
        <ele>1103.5</ele>
        <time>2017-05-10T10:17:04.500000Z</time>
      </trkpt>
      <trkpt lat="37.849106969784714" lon="112.02149292053389">
        <ele>1104.5</ele>
        <time>2017-05-10T10:17:28.400000Z</time>
      </trkpt>
      <trkpt lat="37.84909850127138" lon="112.02181307386098">
        <ele>1103.4</ele>
        <time>2017-05-10T10:17:46.400000Z</time>
      </trkpt>
      <trkpt lat="37.84906686144767" lon="112.02207455560801">
        <ele>1104.0</ele>
        <time>2017-05-10T10:17:58.400000Z</time>
      </trkpt>
      <trkpt lat="37.84905363127231" lon="112.0224514999737">
        <ele>1100.8</ele>
        <time>2017-05-10T10:18:10.400000Z</time>
      </trkpt>
      <trkpt lat="37.849040217112446" lon="112.02289794355349">
        <ele>1096.7</ele>
        <time>2017-05-10T10:18:23.400000Z</time>
      </trkpt>
      <trkpt lat="37.84902205686056" lon="112.0232949082347">
        <ele>1095.4</ele>
        <time>2017-05-10T10:18:35.400000Z</time>
      </trkpt>
      <trkpt lat="37.849007075822016" lon="112.02372189342682">
        <ele>1095.09</ele>
        <time>2017-05-10T10:18:47.400000Z</time>
      </trkpt>
      <trkpt lat="37.84900543930383" lon="112.02402989841498">
        <ele>1095.09</ele>
        <time>2017-05-10T10:18:56.400000Z</time>
      </trkpt>
      <trkpt lat="37.84897731315016" lon="112.02440362182817">
        <ele>1097.5</ele>
        <time>2017-05-10T10:19:08.400000Z</time>
      </trkpt>
      <trkpt lat="37.84896896185445" lon="112.02448339720969">
        <ele>1099.9</ele>
        <time>2017-05-10T10:19:11.400000Z</time>
      </trkpt>
      <trkpt lat="37.84894219596059" lon="112.0245501947192">
        <ele>1101.09</ele>
        <time>2017-05-10T10:19:14.400000Z</time>
      </trkpt>
      <trkpt lat="37.8489424019184" lon="112.02488200487144">
        <ele>1100.8</ele>
        <time>2017-05-10T10:19:23.400000Z</time>
      </trkpt>
      <trkpt lat="37.84895717212492" lon="112.02504209531789">
        <ele>1103.0</ele>
        <time>2017-05-10T10:19:26.400000Z</time>
      </trkpt>
      <trkpt lat="37.848947229922004" lon="112.02510835113328">
        <ele>1102.8</ele>
        <time>2017-05-10T10:19:29.400000Z</time>
      </trkpt>
      <trkpt lat="37.848960557150974" lon="112.02519867238365">
        <ele>1102.9</ele>
        <time>2017-05-10T10:19:32.500000Z</time>
      </trkpt>
      <trkpt lat="37.84899398874662" lon="112.02527871518376">
        <ele>1103.4</ele>
        <time>2017-05-10T10:19:35.400000Z</time>
      </trkpt>
      <trkpt lat="37.84905053116175" lon="112.02534009578363">
        <ele>1103.9</ele>
        <time>2017-05-10T10:19:38.400000Z</time>
      </trkpt>
      <trkpt lat="37.84906393366592" lon="112.02540202254805">
        <ele>1102.09</ele>
        <time>2017-05-10T10:19:44.400000Z</time>
      </trkpt>
      <trkpt lat="37.849059180649014" lon="112.02566190729871">
        <ele>1095.9</ele>
        <time>2017-05-10T10:19:59.400000Z</time>
      </trkpt>
      <trkpt lat="37.84907246161082" lon="112.02577034917519">
        <ele>1093.8</ele>
        <time>2017-05-10T10:20:05.400000Z</time>
      </trkpt>
      <trkpt lat="37.84902895154484" lon="112.02591206166338">
        <ele>1091.3</ele>
        <time>2017-05-10T10:20:14.400000Z</time>
      </trkpt>
      <trkpt lat="37.84900733973838" lon="112.02608379053918">
        <ele>1088.9</ele>
        <time>2017-05-10T10:20:23.400000Z</time>
      </trkpt>
      <trkpt lat="37.848880669597754" lon="112.0262790610708">
        <ele>1087.9</ele>
        <time>2017-05-10T10:20:38.400000Z</time>
      </trkpt>
      <trkpt lat="37.848775752720876" lon="112.0263520919173">
        <ele>1090.3</ele>
        <time>2017-05-10T10:20:47.400000Z</time>
      </trkpt>
      <trkpt lat="37.84864916704333" lon="112.02651545226853">
        <ele>1100.59</ele>
        <time>2017-05-10T10:20:56.400000Z</time>
      </trkpt>
      <trkpt lat="37.84852928415503" lon="112.02660552323383">
        <ele>1103.3</ele>
        <time>2017-05-10T10:21:05.400000Z</time>
      </trkpt>
      <trkpt lat="37.84831763989216" lon="112.02661366189332">
        <ele>1101.7</ele>
        <time>2017-05-10T10:21:23.400000Z</time>
      </trkpt>
      <trkpt lat="37.84823769370723" lon="112.02657878468929">
        <ele>1101.7</ele>
        <time>2017-05-10T10:21:29.400000Z</time>
      </trkpt>
      <trkpt lat="37.84809091408052" lon="112.02657880233429">
        <ele>1099.9</ele>
        <time>2017-05-10T10:21:41.400000Z</time>
      </trkpt>
      <trkpt lat="37.847879358281006" lon="112.02665725554732">
        <ele>1101.9</ele>
        <time>2017-05-10T10:21:59.900000Z</time>
      </trkpt>
      <trkpt lat="37.847707645699614" lon="112.02685551008275">
        <ele>1100.5</ele>
        <time>2017-05-10T10:22:16.900000Z</time>
      </trkpt>
      <trkpt lat="37.84765419646715" lon="112.02696044848709">
        <ele>1098.8</ele>
        <time>2017-05-10T10:22:25.200000Z</time>
      </trkpt>
      <trkpt lat="37.84765416440099" lon="112.02707755085137">
        <ele>1097.59</ele>
        <time>2017-05-10T10:22:31.400000Z</time>
      </trkpt>
    </trkseg>
  </trk>
</gpx>