<?xml version="1.0" encoding="UTF-8"?>
<gpx xmlns="http://www.topografix.com/GPX/1/1" xmlns:gpxtpx="http://www.garmin.com/xmlschemas/TrackPointExtension/v1" xmlns:xsi="http://www.w3.org/2001/XMLSchema-instance" xsi:schemaLocation="http://www.topografix.com/GPX/1/1 http://www.topografix.com/GPX/1/1/gpx.xsd" version="1.1" creator="gpx.py -- https://github.com/tkrajina/gpxpy">
  <trk>
    <name>gpx from keep</name>
    <type>Run</type>
    <trkseg>
      <trkpt lat="37.856549756293276" lon="112.03834337301636">
        <ele>1125.5</ele>
        <time>2017-01-30T23:56:28.900000Z</time>
      </trkpt>
      <trkpt lat="37.85668288743025" lon="112.0385013651335">
        <ele>1077.7</ele>
        <time>2017-01-30T23:56:31.900000Z</time>
      </trkpt>
      <trkpt lat="37.85652641755123" lon="112.03866156270168">
        <ele>1087.3</ele>
        <time>2017-01-30T23:56:47.100000Z</time>
      </trkpt>
      <trkpt lat="37.8563079633245" lon="112.03873003714538">
        <ele>1104.0</ele>
        <time>2017-01-30T23:57:02Z</time>
      </trkpt>
      <trkpt lat="37.856307898251515" lon="112.03880719991078">
        <ele>1106.6</ele>
        <time>2017-01-30T23:57:08.100000Z</time>
      </trkpt>
      <trkpt lat="37.85643806385852" lon="112.03915346031074">
        <ele>1112.5</ele>
        <time>2017-01-30T23:57:32.100000Z</time>
      </trkpt>
      <trkpt lat="37.85655307036925" lon="112.03941184262001">
        <ele>1114.1</ele>
        <time>2017-01-30T23:57:50.500000Z</time>
      </trkpt>
      <trkpt lat="37.856588944711184" lon="112.03946493178604">
        <ele>1111.9</ele>
        <time>2017-01-30T23:57:54.100000Z</time>
      </trkpt>
      <trkpt lat="37.856653542259416" lon="112.03951988235825">
        <ele>1109.8</ele>
        <time>2017-01-30T23:58:00.100000Z</time>
      </trkpt>
      <trkpt lat="37.856725350467315" lon="112.03965282264033">
        <ele>1108.2</ele>
        <time>2017-01-30T23:58:09.100000Z</time>
      </trkpt>
      <trkpt lat="37.856672999044086" lon="112.03977921236607">
        <ele>1095.9</ele>
        <time>2017-01-30T23:58:21Z</time>
      </trkpt>
      <trkpt lat="37.8566693672407" lon="112.03985227400499">
        <ele>1090.8</ele>
        <time>2017-01-30T23:58:27.100000Z</time>
      </trkpt>
      <trkpt lat="37.85672679568238" lon="112.04023708540596">
        <ele>1091.4</ele>
        <time>2017-01-30T23:58:57.100000Z</time>
      </trkpt>
      <trkpt lat="37.85679357283767" lon="112.0404703212052">
        <ele>1093.0</ele>
        <time>2017-01-30T23:59:09.100000Z</time>
      </trkpt>
      <trkpt lat="37.85676219488284" lon="112.04056451022426">
        <ele>1093.4</ele>
        <time>2017-01-30T23:59:15.100000Z</time>
      </trkpt>
      <trkpt lat="37.856618014749124" lon="112.04074511736013">
        <ele>1091.8</ele>
        <time>2017-01-30T23:59:30.100000Z</time>
      </trkpt>
      <trkpt lat="37.85648017434253" lon="112.0409418572828">
        <ele>1090.6</ele>
        <time>2017-01-30T23:59:45.100000Z</time>
      </trkpt>
      <trkpt lat="37.85637671639106" lon="112.04103462401451">
        <ele>1088.6</ele>
        <time>2017-01-30T23:59:57.100000Z</time>
      </trkpt>
      <trkpt lat="37.85609702503574" lon="112.04076047530539">
        <ele>1082.8</ele>
        <time>2017-01-31T00:00:28.100000Z</time>
      </trkpt>
      <trkpt lat="37.85586517605051" lon="112.04045365703267">
        <ele>1077.5</ele>
        <time>2017-01-31T00:00:49.100000Z</time>
      </trkpt>
      <trkpt lat="37.855645107244094" lon="112.04022043991247">
        <ele>1072.6</ele>
        <time>2017-01-31T00:01:13.100000Z</time>
      </trkpt>
      <trkpt lat="37.8555497422757" lon="112.0400337499496">
        <ele>1072.5</ele>
        <time>2017-01-31T00:01:25.100000Z</time>
      </trkpt>
      <trkpt lat="37.85548603007644" lon="112.03984033281746">
        <ele>1075.6</ele>
        <time>2017-01-31T00:01:37.100000Z</time>
      </trkpt>
      <trkpt lat="37.8554155197099" lon="112.03975490991866">
        <ele>1081.0</ele>
        <time>2017-01-31T00:01:46.100000Z</time>
      </trkpt>
      <trkpt lat="37.85528489771824" lon="112.03955963232248">
        <ele>1086.8</ele>
        <time>2017-01-31T00:02:01.100000Z</time>
      </trkpt>
      <trkpt lat="37.855135463272966" lon="112.03940849572191">
        <ele>1087.8</ele>
        <time>2017-01-31T00:02:13.100000Z</time>
      </trkpt>
      <trkpt lat="37.85505973845901" lon="112.03930432437272">
        <ele>1085.6</ele>
        <time>2017-01-31T00:02:19.100000Z</time>
      </trkpt>
      <trkpt lat="37.854955380057326" lon="112.03921671702484">
        <ele>1085.1</ele>
        <time>2017-01-31T00:02:31.100000Z</time>
      </trkpt>
      <trkpt lat="37.85489466009414" lon="112.03919043401703">
        <ele>1084.7</ele>
        <time>2017-01-31T00:02:37.100000Z</time>
      </trkpt>
      <trkpt lat="37.85484321254885" lon="112.03912560665142">
        <ele>1084.9</ele>
        <time>2017-01-31T00:02:43.100000Z</time>
      </trkpt>
      <trkpt lat="37.85475139181977" lon="112.038948977289">
        <ele>1085.5</ele>
        <time>2017-01-31T00:02:52.100000Z</time>
      </trkpt>
      <trkpt lat="37.85456579732223" lon="112.03868777746966">
        <ele>1085.4</ele>
        <time>2017-01-31T00:03:13.100000Z</time>
      </trkpt>
      <trkpt lat="37.854495316858966" lon="112.0386291929213">
        <ele>1085.4</ele>
        <time>2017-01-31T00:03:19.100000Z</time>
      </trkpt>
      <trkpt lat="37.8544197158067" lon="112.0385016045414">
        <ele>1084.8</ele>
        <time>2017-01-31T00:03:31.100000Z</time>
      </trkpt>
      <trkpt lat="37.85426399100295" lon="112.0383067994741">
        <ele>1083.1</ele>
        <time>2017-01-31T00:03:46.100000Z</time>
      </trkpt>
      <trkpt lat="37.8540544829528" lon="112.03798653630643">
        <ele>1082.2</ele>
        <time>2017-01-31T00:04:13.100000Z</time>
      </trkpt>
      <trkpt lat="37.85396949459295" lon="112.03789645125559">
        <ele>1080.6</ele>
        <time>2017-01-31T00:04:22.100000Z</time>
      </trkpt>
      <trkpt lat="37.853899899498316" lon="112.03779425941033">
        <ele>1081.1</ele>
        <time>2017-01-31T00:04:28.100000Z</time>
      </trkpt>
      <trkpt lat="37.85389370578297" lon="112.03768726152721">
        <ele>1085.4</ele>
        <time>2017-01-31T00:04:31.100000Z</time>
      </trkpt>
      <trkpt lat="37.85383923144426" lon="112.03761030562711">
        <ele>1086.5</ele>
        <time>2017-01-31T00:04:37.100000Z</time>
      </trkpt>
      <trkpt lat="37.85371563231069" lon="112.03753679772224">
        <ele>1085.9</ele>
        <time>2017-01-31T00:04:46.100000Z</time>
      </trkpt>
      <trkpt lat="37.85359949189793" lon="112.0374247897062">
        <ele>1084.4</ele>
        <time>2017-01-31T00:04:58.100000Z</time>
      </trkpt>
      <trkpt lat="37.85352769897799" lon="112.03721921729166">
        <ele>1092.2</ele>
        <time>2017-01-31T00:05:04.100000Z</time>
      </trkpt>
      <trkpt lat="37.85341107861809" lon="112.03703845531138">
        <ele>1093.1</ele>
        <time>2017-01-31T00:05:16.100000Z</time>
      </trkpt>
      <trkpt lat="37.85338108546351" lon="112.03696362636691">
        <ele>1093.2</ele>
        <time>2017-01-31T00:05:22.100000Z</time>
      </trkpt>
      <trkpt lat="37.85330621287765" lon="112.03691337598384">
        <ele>1092.9</ele>
        <time>2017-01-31T00:05:28.100000Z</time>
      </trkpt>
      <trkpt lat="37.853197847334734" lon="112.03672059720013">
        <ele>1092.4</ele>
        <time>2017-01-31T00:05:40.100000Z</time>
      </trkpt>
      <trkpt lat="37.85315509605913" lon="112.03667678757827">
        <ele>1092.3</ele>
        <time>2017-01-31T00:05:43.100000Z</time>
      </trkpt>
      <trkpt lat="37.852953009170655" lon="112.03630837392502">
        <ele>1102.8</ele>
        <time>2017-01-31T00:06:04.100000Z</time>
      </trkpt>
      <trkpt lat="37.85292632348918" lon="112.03620094920414">
        <ele>1103.2</ele>
        <time>2017-01-31T00:06:10Z</time>
      </trkpt>
      <trkpt lat="37.8528102675606" lon="112.0359964363697">
        <ele>1104.4</ele>
        <time>2017-01-31T00:06:25Z</time>
      </trkpt>
      <trkpt lat="37.8526783723866" lon="112.03588819960937">
        <ele>1104.3</ele>
        <time>2017-01-31T00:06:37.100000Z</time>
      </trkpt>
      <trkpt lat="37.852595436384114" lon="112.03577333949032">
        <ele>1103.9</ele>
        <time>2017-01-31T00:06:46Z</time>
      </trkpt>
      <trkpt lat="37.852519551630074" lon="112.03573049757351">
        <ele>1103.1</ele>
        <time>2017-01-31T00:06:52.100000Z</time>
      </trkpt>
      <trkpt lat="37.85234432102522" lon="112.03548710102342">
        <ele>1101.3</ele>
        <time>2017-01-31T00:07:07.100000Z</time>
      </trkpt>
      <trkpt lat="37.852309226841705" lon="112.03541415007003">
        <ele>1101.8</ele>
        <time>2017-01-31T00:07:13.100000Z</time>
      </trkpt>
      <trkpt lat="37.85217635245759" lon="112.03525596582742">
        <ele>1102.3</ele>
        <time>2017-01-31T00:07:31.100000Z</time>
      </trkpt>
      <trkpt lat="37.8521353155486" lon="112.03523079500226">
        <ele>1102.0</ele>
        <time>2017-01-31T00:07:34.100000Z</time>
      </trkpt>
      <trkpt lat="37.851936360508034" lon="112.03495103165639">
        <ele>1100.2</ele>
        <time>2017-01-31T00:07:52Z</time>
      </trkpt>
      <trkpt lat="37.85179888318648" lon="112.03466567890239">
        <ele>1099.1</ele>
        <time>2017-01-31T00:08:07Z</time>
      </trkpt>
      <trkpt lat="37.851597351347905" lon="112.03452882035555">
        <ele>1098.2</ele>
        <time>2017-01-31T00:08:25.100000Z</time>
      </trkpt>
      <trkpt lat="37.85150358968702" lon="112.03440528392439">
        <ele>1097.1</ele>
        <time>2017-01-31T00:08:34.100000Z</time>
      </trkpt>
      <trkpt lat="37.85129420584867" lon="112.03409785826028">
        <ele>1095.2</ele>
        <time>2017-01-31T00:08:52Z</time>
      </trkpt>
      <trkpt lat="37.851200121986665" lon="112.03396500290538">
        <ele>1092.8</ele>
        <time>2017-01-31T00:09:01Z</time>
      </trkpt>
      <trkpt lat="37.8511580682665" lon="112.0338690942257">
        <ele>1092.2</ele>
        <time>2017-01-31T00:09:07Z</time>
      </trkpt>
      <trkpt lat="37.85108580548692" lon="112.03376084738274">
        <ele>1090.9</ele>
        <time>2017-01-31T00:09:13.100000Z</time>
      </trkpt>
      <trkpt lat="37.851032961019854" lon="112.03358087904046">
        <ele>1093.4</ele>
        <time>2017-01-31T00:09:22.100000Z</time>
      </trkpt>
      <trkpt lat="37.85095523962165" lon="112.03344765780868">
        <ele>1094.7</ele>
        <time>2017-01-31T00:09:31.100000Z</time>
      </trkpt>
      <trkpt lat="37.85074102010883" lon="112.03318518971908">
        <ele>1095.4</ele>
        <time>2017-01-31T00:09:49.100000Z</time>
      </trkpt>
      <trkpt lat="37.850541945737945" lon="112.03294510965758">
        <ele>1096.3</ele>
        <time>2017-01-31T00:10:10Z</time>
      </trkpt>
      <trkpt lat="37.8503417935401" lon="112.03269005163412">
        <ele>1094.4</ele>
        <time>2017-01-31T00:10:28.100000Z</time>
      </trkpt>
      <trkpt lat="37.85029586415173" lon="112.03266150014">
        <ele>1093.9</ele>
        <time>2017-01-31T00:10:31.100000Z</time>
      </trkpt>
      <trkpt lat="37.85021200952525" lon="112.03252153065479">
        <ele>1093.7</ele>
        <time>2017-01-31T00:10:40.100000Z</time>
      </trkpt>
      <trkpt lat="37.85003343803758" lon="112.03233235195071">
        <ele>1097.0</ele>
        <time>2017-01-31T00:10:58.100000Z</time>
      </trkpt>
      <trkpt lat="37.849978326633185" lon="112.03223129729267">
        <ele>1097.5</ele>
        <time>2017-01-31T00:11:04.100000Z</time>
      </trkpt>
      <trkpt lat="37.84992002210108" lon="112.03217032427042">
        <ele>1098.1</ele>
        <time>2017-01-31T00:11:10Z</time>
      </trkpt>
      <trkpt lat="37.849730017090394" lon="112.03183471172986">
        <ele>1100.4</ele>
        <time>2017-01-31T00:11:31.100000Z</time>
      </trkpt>
      <trkpt lat="37.849620069383164" lon="112.03159490941917">
        <ele>1102.5</ele>
        <time>2017-01-31T00:11:43.100000Z</time>
      </trkpt>
      <trkpt lat="37.84948875602719" lon="112.03141057787221">
        <ele>1102.7</ele>
        <time>2017-01-31T00:11:55.100000Z</time>
      </trkpt>
      <trkpt lat="37.84932622629678" lon="112.03108860245561">
        <ele>1102.9</ele>
        <time>2017-01-31T00:12:13Z</time>
      </trkpt>
      <trkpt lat="37.84929966845748" lon="112.03103033240652">
        <ele>1103.0</ele>
        <time>2017-01-31T00:12:16.100000Z</time>
      </trkpt>
      <trkpt lat="37.849228552961954" lon="112.0309375854905">
        <ele>1102.5</ele>
        <time>2017-01-31T00:12:22.100000Z</time>
      </trkpt>
      <trkpt lat="37.849104941591854" lon="112.03058321414605">
        <ele>1103.1</ele>
        <time>2017-01-31T00:12:43.100000Z</time>
      </trkpt>
      <trkpt lat="37.849069783177924" lon="112.03041783684478">
        <ele>1103.4</ele>
        <time>2017-01-31T00:12:52.100000Z</time>
      </trkpt>
      <trkpt lat="37.84895717890766" lon="112.03014860033969">
        <ele>1100.5</ele>
        <time>2017-01-31T00:13:10.100000Z</time>
      </trkpt>
      <trkpt lat="37.84893803754276" lon="112.02993965453594">
        <ele>1096.1</ele>
        <time>2017-01-31T00:13:22.200000Z</time>
      </trkpt>
      <trkpt lat="37.84896041745711" lon="112.02981670006093">
        <ele>1096.9</ele>
        <time>2017-01-31T00:13:28.100000Z</time>
      </trkpt>
      <trkpt lat="37.848941004047695" lon="112.029573196874">
        <ele>1091.4</ele>
        <time>2017-01-31T00:13:43.100000Z</time>
      </trkpt>
      <trkpt lat="37.84890843661835" lon="112.02938890597284">
        <ele>1086.6</ele>
        <time>2017-01-31T00:13:55.100000Z</time>
      </trkpt>
      <trkpt lat="37.848905398782705" lon="112.02918497909197">
        <ele>1081.5</ele>
        <time>2017-01-31T00:14:07.100000Z</time>
      </trkpt>
      <trkpt lat="37.84887001408639" lon="112.02898106778375">
        <ele>1076.0</ele>
        <time>2017-01-31T00:14:19.100000Z</time>
      </trkpt>
      <trkpt lat="37.84890804402498" lon="112.02860410050685">
        <ele>1070.3</ele>
        <time>2017-01-31T00:14:37.100000Z</time>
      </trkpt>
      <trkpt lat="37.84894782834945" lon="112.0282176125207">
        <ele>1060.7</ele>
        <time>2017-01-31T00:14:58.100000Z</time>
      </trkpt>
      <trkpt lat="37.84894157824159" lon="112.02803417514289">
        <ele>1055.8</ele>
        <time>2017-01-31T00:15:07.100000Z</time>
      </trkpt>
      <trkpt lat="37.84897036166642" lon="112.02767864394812">
        <ele>1048.2</ele>
        <time>2017-01-31T00:15:25.100000Z</time>
      </trkpt>
      <trkpt lat="37.84902445683731" lon="112.0274322117504">
        <ele>1041.7</ele>
        <time>2017-01-31T00:15:40.200000Z</time>
      </trkpt>
      <trkpt lat="37.849044193825236" lon="112.02703898058746">
        <ele>1031.9</ele>
        <time>2017-01-31T00:16:01.100000Z</time>
      </trkpt>
      <trkpt lat="37.84899155290834" lon="112.02698158591411">
        <ele>1029.8</ele>
        <time>2017-01-31T00:16:07.100000Z</time>
      </trkpt>
      <trkpt lat="37.84888351594312" lon="112.02682390627612">
        <ele>1036.4</ele>
        <time>2017-01-31T00:16:10.100000Z</time>
      </trkpt>
      <trkpt lat="37.848818537318294" lon="112.02667845218943">
        <ele>1046.7</ele>
        <time>2017-01-31T00:16:13.100000Z</time>
      </trkpt>
      <trkpt lat="37.84871619429444" lon="112.02656542063778">
        <ele>1061.2</ele>
        <time>2017-01-31T00:16:25.100000Z</time>
      </trkpt>
      <trkpt lat="37.84860273472731" lon="112.02653040568583">
        <ele>1062.4</ele>
        <time>2017-01-31T00:16:31.100000Z</time>
      </trkpt>
      <trkpt lat="37.84854007436154" lon="112.02655751916326">
        <ele>1063.9</ele>
        <time>2017-01-31T00:16:34.100000Z</time>
      </trkpt>
      <trkpt lat="37.84847130008191" lon="112.0266192627765">
        <ele>1064.7</ele>
        <time>2017-01-31T00:16:40.100000Z</time>
      </trkpt>
      <trkpt lat="37.84838794595548" lon="112.02661081238104">
        <ele>1063.2</ele>
        <time>2017-01-31T00:16:46.200000Z</time>
      </trkpt>
      <trkpt lat="37.848352104431264" lon="112.02649768947582">
        <ele>1068.1</ele>
        <time>2017-01-31T00:16:49.100000Z</time>
      </trkpt>
      <trkpt lat="37.848289316091865" lon="112.02649054438416">
        <ele>1070.0</ele>
        <time>2017-01-31T00:16:52.100000Z</time>
      </trkpt>
      <trkpt lat="37.848223773427954" lon="112.02650796671645">
        <ele>1070.3</ele>
        <time>2017-01-31T00:16:55.100000Z</time>
      </trkpt>
      <trkpt lat="37.84809256615547" lon="112.0264666548122">
        <ele>1079.5</ele>
        <time>2017-01-31T00:17:01.100000Z</time>
      </trkpt>
      <trkpt lat="37.84800836110941" lon="112.02648567979308">
        <ele>1085.8</ele>
        <time>2017-01-31T00:17:05.300000Z</time>
      </trkpt>
      <trkpt lat="37.84796148790694" lon="112.02651475442728">
        <ele>1088.1</ele>
        <time>2017-01-31T00:17:12.100000Z</time>
      </trkpt>
      <trkpt lat="37.84791897678052" lon="112.02648706912063">
        <ele>1092.2</ele>
        <time>2017-01-31T00:17:27.100000Z</time>
      </trkpt>
      <trkpt lat="37.84774584978911" lon="112.02677058658122">
        <ele>1102.9</ele>
        <time>2017-01-31T00:17:48.100000Z</time>
      </trkpt>
      <trkpt lat="37.84761750421036" lon="112.02698560417501">
        <ele>1104.0</ele>
        <time>2017-01-31T00:18:03.100000Z</time>
      </trkpt>
      <trkpt lat="37.84757505720265" lon="112.02716117398599">
        <ele>1103.8</ele>
        <time>2017-01-31T00:18:12.100000Z</time>
      </trkpt>
      <trkpt lat="37.84757960465113" lon="112.02724897271233">
        <ele>1103.3</ele>
        <time>2017-01-31T00:18:18.200000Z</time>
      </trkpt>
      <trkpt lat="37.84753760696732" lon="112.02749156202867">
        <ele>1101.7</ele>
        <time>2017-01-31T00:18:30.100000Z</time>
      </trkpt>
      <trkpt lat="37.84749498666492" lon="112.02753135600351">
        <ele>1103.1</ele>
        <time>2017-01-31T00:18:33.100000Z</time>
      </trkpt>
      <trkpt lat="37.84745791132908" lon="112.02771425037805">
        <ele>1103.1</ele>
        <time>2017-01-31T00:18:42.100000Z</time>
      </trkpt>
      <trkpt lat="37.847330292559406" lon="112.02795551064972">
        <ele>1103.2</ele>
        <time>2017-01-31T00:18:54.100000Z</time>
      </trkpt>
      <trkpt lat="37.84729413392165" lon="112.0280545689626">
        <ele>1102.6</ele>
        <time>2017-01-31T00:19:00.100000Z</time>
      </trkpt>
      <trkpt lat="37.84726839645625" lon="112.02844484592313">
        <ele>1103.5</ele>
        <time>2017-01-31T00:19:18.100000Z</time>
      </trkpt>
      <trkpt lat="37.84720956064249" lon="112.02873926416248">
        <ele>1113.7</ele>
        <time>2017-01-31T00:19:33.100000Z</time>
      </trkpt>
      <trkpt lat="37.847232875570306" lon="112.02887704315944">
        <ele>1114.7</ele>
        <time>2017-01-31T00:19:39.100000Z</time>
      </trkpt>
      <trkpt lat="37.84723838424824" lon="112.02901336539644">
        <ele>1116.0</ele>
        <time>2017-01-31T00:19:45.100000Z</time>
      </trkpt>
      <trkpt lat="37.84728865132572" lon="112.02914156508365">
        <ele>1116.5</ele>
        <time>2017-01-31T00:19:51.100000Z</time>
      </trkpt>
      <trkpt lat="37.84728240132592" lon="112.02922566056235">
        <ele>1116.2</ele>
        <time>2017-01-31T00:19:57.100000Z</time>
      </trkpt>
      <trkpt lat="37.84726150221594" lon="112.02928038753105">
        <ele>1116.2</ele>
        <time>2017-01-31T00:20:00.100000Z</time>
      </trkpt>
      <trkpt lat="37.847298206993024" lon="112.02956095480728">
        <ele>1125.2</ele>
        <time>2017-01-31T00:20:15.100000Z</time>
      </trkpt>
      <trkpt lat="37.84738129497213" lon="112.02976522656219">
        <ele>1126.5</ele>
        <time>2017-01-31T00:20:24.100000Z</time>
      </trkpt>
      <trkpt lat="37.84741657177936" lon="112.03013620084077">
        <ele>1130.2</ele>
        <time>2017-01-31T00:20:48.100000Z</time>
      </trkpt>
      <trkpt lat="37.84739813458992" lon="112.03023979467106">
        <ele>1130.5</ele>
        <time>2017-01-31T00:20:54.100000Z</time>
      </trkpt>
      <trkpt lat="37.847432228397956" lon="112.03028147955942">
        <ele>1131.0</ele>
        <time>2017-01-31T00:20:57.100000Z</time>
      </trkpt>
      <trkpt lat="37.84745859818037" lon="112.03039398472771">
        <ele>1131.5</ele>
        <time>2017-01-31T00:21:03.100000Z</time>
      </trkpt>
      <trkpt lat="37.84746173602467" lon="112.03050916507343">
        <ele>1131.1</ele>
        <time>2017-01-31T00:21:09.100000Z</time>
      </trkpt>
      <trkpt lat="37.847523291368105" lon="112.03074100087133">
        <ele>1130.4</ele>
        <time>2017-01-31T00:21:21.100000Z</time>
      </trkpt>
      <trkpt lat="37.847552201334686" lon="112.03078724102939">
        <ele>1130.4</ele>
        <time>2017-01-31T00:21:24.100000Z</time>
      </trkpt>
      <trkpt lat="37.84753789573814" lon="112.03099244596723">
        <ele>1129.9</ele>
        <time>2017-01-31T00:21:33.100000Z</time>
      </trkpt>
      <trkpt lat="37.84769374171358" lon="112.03120216307597">
        <ele>1126.9</ele>
        <time>2017-01-31T00:21:48.100000Z</time>
      </trkpt>
      <trkpt lat="37.84776228657151" lon="112.03122798238411">
        <ele>1126.7</ele>
        <time>2017-01-31T00:21:51.100000Z</time>
      </trkpt>
      <trkpt lat="37.84782791168865" lon="112.03130021318691">
        <ele>1126.4</ele>
        <time>2017-01-31T00:21:57.100000Z</time>
      </trkpt>
      <trkpt lat="37.847865742494044" lon="112.0314155276576">
        <ele>1126.9</ele>
        <time>2017-01-31T00:22:03.100000Z</time>
      </trkpt>
      <trkpt lat="37.84804748665674" lon="112.0316992753374">
        <ele>1129.2</ele>
        <time>2017-01-31T00:22:21.100000Z</time>
      </trkpt>
      <trkpt lat="37.84823003181005" lon="112.03196997606425">
        <ele>1129.9</ele>
        <time>2017-01-31T00:22:39.100000Z</time>
      </trkpt>
      <trkpt lat="37.84836013665094" lon="112.03213171509374">
        <ele>1130.2</ele>
        <time>2017-01-31T00:22:51.100000Z</time>
      </trkpt>
      <trkpt lat="37.8484055158775" lon="112.03222772474207">
        <ele>1130.6</ele>
        <time>2017-01-31T00:22:57.100000Z</time>
      </trkpt>
      <trkpt lat="37.84861788584212" lon="112.03254715550604">
        <ele>1133.5</ele>
        <time>2017-01-31T00:23:18.100000Z</time>
      </trkpt>
      <trkpt lat="37.84868824492373" lon="112.03260456503047">
        <ele>1134.2</ele>
        <time>2017-01-31T00:23:24.100000Z</time>
      </trkpt>
      <trkpt lat="37.848883609144416" lon="112.03285732888907">
        <ele>1130.7</ele>
        <time>2017-01-31T00:23:42.100000Z</time>
      </trkpt>
      <trkpt lat="37.84906189741942" lon="112.03318684740138">
        <ele>1126.8</ele>
        <time>2017-01-31T00:24:03.100000Z</time>
      </trkpt>
      <trkpt lat="37.84923025383888" lon="112.03346517777769">
        <ele>1124.0</ele>
        <time>2017-01-31T00:24:21.100000Z</time>
      </trkpt>
      <trkpt lat="37.849435390919616" lon="112.03368047788649">
        <ele>1124.3</ele>
        <time>2017-01-31T00:24:39.100000Z</time>
      </trkpt>
      <trkpt lat="37.849505171583" lon="112.0337311240056">
        <ele>1122.0</ele>
        <time>2017-01-31T00:24:45.100000Z</time>
      </trkpt>
      <trkpt lat="37.84956426903081" lon="112.03371604746071">
        <ele>1121.6</ele>
        <time>2017-01-31T00:24:48.200000Z</time>
      </trkpt>
      <trkpt lat="37.849574981709694" lon="112.03365793071602">
        <ele>1122.0</ele>
        <time>2017-01-31T00:24:54.100000Z</time>
      </trkpt>
      <trkpt lat="37.849468262358656" lon="112.03358091878421">
        <ele>1121.6</ele>
        <time>2017-01-31T00:25:06Z</time>
      </trkpt>
      <trkpt lat="37.84941736474674" lon="112.03351278071382">
        <ele>1121.5</ele>
        <time>2017-01-31T00:25:12.100000Z</time>
      </trkpt>
      <trkpt lat="37.84928159400401" lon="112.03315664110804">
        <ele>1118.3</ele>
        <time>2017-01-31T00:25:33.200000Z</time>
      </trkpt>
      <trkpt lat="37.84912679040901" lon="112.0328300465572">
        <ele>1114.4</ele>
        <time>2017-01-31T00:25:54.200000Z</time>
      </trkpt>
      <trkpt lat="37.84897191544839" lon="112.03258850910086">
        <ele>1109.9</ele>
        <time>2017-01-31T00:26:12.100000Z</time>
      </trkpt>
      <trkpt lat="37.84886916248739" lon="112.0325200947427">
        <ele>1111.6</ele>
        <time>2017-01-31T00:26:21.100000Z</time>
      </trkpt>
      <trkpt lat="37.84871790543709" lon="112.03234768768333">
        <ele>1111.6</ele>
        <time>2017-01-31T00:26:36.100000Z</time>
      </trkpt>
      <trkpt lat="37.84867607850615" lon="112.03226425756897">
        <ele>1110.7</ele>
        <time>2017-01-31T00:26:42.100000Z</time>
      </trkpt>
      <trkpt lat="37.848521340024185" lon="112.03213424947363">
        <ele>1110.0</ele>
        <time>2017-01-31T00:26:54.100000Z</time>
      </trkpt>
      <trkpt lat="37.84842826906879" lon="112.03210138852224">
        <ele>1112.6</ele>
        <time>2017-01-31T00:26:57.100000Z</time>
      </trkpt>
      <trkpt lat="37.848273578117606" lon="112.03178085236293">
        <ele>1105.5</ele>
        <time>2017-01-31T00:27:21.100000Z</time>
      </trkpt>
      <trkpt lat="37.84823813524888" lon="112.03169015953553">
        <ele>1104.9</ele>
        <time>2017-01-31T00:27:27.100000Z</time>
      </trkpt>
      <trkpt lat="37.84811767201635" lon="112.03156030209816">
        <ele>1102.8</ele>
        <time>2017-01-31T00:27:39.100000Z</time>
      </trkpt>
      <trkpt lat="37.84802281632836" lon="112.03139075644341">
        <ele>1101.1</ele>
        <time>2017-01-31T00:27:51.100000Z</time>
      </trkpt>
      <trkpt lat="37.847797987949605" lon="112.03112380389119">
        <ele>1100.9</ele>
        <time>2017-01-31T00:28:06.100000Z</time>
      </trkpt>
      <trkpt lat="37.84767145382641" lon="112.03099100258856">
        <ele>1100.2</ele>
        <time>2017-01-31T00:28:15.100000Z</time>
      </trkpt>
      <trkpt lat="37.8475729628458" lon="112.03063304663601">
        <ele>1097.3</ele>
        <time>2017-01-31T00:28:39.100000Z</time>
      </trkpt>
      <trkpt lat="37.847478176372995" lon="112.0303463522701">
        <ele>1093.1</ele>
        <time>2017-01-31T00:28:57.100000Z</time>
      </trkpt>
      <trkpt lat="37.8474743854089" lon="112.03028703802113">
        <ele>1092.3</ele>
        <time>2017-01-31T00:29:00.100000Z</time>
      </trkpt>
      <trkpt lat="37.847440581159255" lon="112.03024295155242">
        <ele>1092.6</ele>
        <time>2017-01-31T00:29:03.100000Z</time>
      </trkpt>
      <trkpt lat="37.84740833420107" lon="112.03008459214598">
        <ele>1092.6</ele>
        <time>2017-01-31T00:29:09.100000Z</time>
      </trkpt>
      <trkpt lat="37.8472229920283" lon="112.0298091223517">
        <ele>1092.5</ele>
        <time>2017-01-31T00:29:24.100000Z</time>
      </trkpt>
      <trkpt lat="37.84715323128568" lon="112.02966177623031">
        <ele>1093.2</ele>
        <time>2017-01-31T00:29:30.100000Z</time>
      </trkpt>
      <trkpt lat="37.847183188666015" lon="112.02959831548496">
        <ele>1094.1</ele>
        <time>2017-01-31T00:29:33.100000Z</time>
      </trkpt>
      <trkpt lat="37.84711792901902" lon="112.02954742476106">
        <ele>1097.2</ele>
        <time>2017-01-31T00:29:36.100000Z</time>
      </trkpt>
      <trkpt lat="37.84706443662652" lon="112.02947791809632">
        <ele>1101.7</ele>
        <time>2017-01-31T00:29:48.100000Z</time>
      </trkpt>
      <trkpt lat="37.84705652696403" lon="112.02949441755707">
        <ele>1105.3</ele>
        <time>2017-01-31T00:29:57Z</time>
      </trkpt>
    </trkseg>
  </trk>
</gpx>