<?xml version="1.0" encoding="UTF-8"?>
<gpx xmlns="http://www.topografix.com/GPX/1/1" xmlns:gpxtpx="http://www.garmin.com/xmlschemas/TrackPointExtension/v1" xmlns:xsi="http://www.w3.org/2001/XMLSchema-instance" xsi:schemaLocation="http://www.topografix.com/GPX/1/1 http://www.topografix.com/GPX/1/1/gpx.xsd" version="1.1" creator="gpx.py -- https://github.com/tkrajina/gpxpy">
  <trk>
    <name>gpx from keep</name>
    <type>Run</type>
    <trkseg>
      <trkpt lat="37.84683791865808" lon="112.02951692123025">
        <ele>0.0</ele>
        <time>2016-07-11T09:05:23.200000Z</time>
      </trkpt>
      <trkpt lat="37.846873560147884" lon="112.02966148985179">
        <ele>0.0</ele>
        <time>2016-07-11T09:06:14.400000Z</time>
      </trkpt>
      <trkpt lat="37.84657839906872" lon="112.02952503792771">
        <ele>1194.9790068329146</ele>
        <time>2016-07-11T09:06:58.100000Z</time>
      </trkpt>
      <trkpt lat="37.84657372770948" lon="112.02944092314864">
        <ele>1174.7815629571496</ele>
        <time>2016-07-11T09:07:02Z</time>
      </trkpt>
      <trkpt lat="37.846660930956986" lon="112.02950393152096">
        <ele>1159.0294756300225</ele>
        <time>2016-07-11T09:07:06.100000Z</time>
      </trkpt>
      <trkpt lat="37.84701273188401" lon="112.02953959092596">
        <ele>1144.8961243380888</ele>
        <time>2016-07-11T09:07:17Z</time>
      </trkpt>
      <trkpt lat="37.84708658450491" lon="112.0296250500184">
        <ele>1136.5426882901959</ele>
        <time>2016-07-11T09:07:23.100000Z</time>
      </trkpt>
      <trkpt lat="37.847059779290234" lon="112.02949576950296">
        <ele>1112.6138797341082</ele>
        <time>2016-07-11T09:07:30.100000Z</time>
      </trkpt>
      <trkpt lat="37.847063843247405" lon="112.02939055737184">
        <ele>1112.0419308287633</ele>
        <time>2016-07-11T09:07:33.100000Z</time>
      </trkpt>
      <trkpt lat="37.84703456629623" lon="112.02927344916984">
        <ele>1110.5745708481936</ele>
        <time>2016-07-11T09:07:41.100000Z</time>
      </trkpt>
      <trkpt lat="37.84713822551867" lon="112.02915903010181">
        <ele>1110.787316160715</ele>
        <time>2016-07-11T09:07:45.100000Z</time>
      </trkpt>
      <trkpt lat="37.847169874431515" lon="112.0290892466121">
        <ele>1110.86001810255</ele>
        <time>2016-07-11T09:07:49.100000Z</time>
      </trkpt>
      <trkpt lat="37.847161409850195" lon="112.02900351081506">
        <ele>1111.02151689118</ele>
        <time>2016-07-11T09:07:55.100000Z</time>
      </trkpt>
      <trkpt lat="37.847199611055565" lon="112.0289177696629">
        <ele>1111.8702147609858</ele>
        <time>2016-07-11T09:07:59.200000Z</time>
      </trkpt>
      <trkpt lat="37.84721966552666" lon="112.0288198602059">
        <ele>1111.4905349985709</ele>
        <time>2016-07-11T09:08:07.100000Z</time>
      </trkpt>
      <trkpt lat="37.84721032641739" lon="112.02875819629195">
        <ele>1111.3839576093349</ele>
        <time>2016-07-11T09:08:11.100000Z</time>
      </trkpt>
      <trkpt lat="37.84725483053535" lon="112.02832897350463">
        <ele>1107.3967098348585</ele>
        <time>2016-07-11T09:08:37.200000Z</time>
      </trkpt>
      <trkpt lat="37.84728620706562" lon="112.02794249019051">
        <ele>1105.1521728306054</ele>
        <time>2016-07-11T09:08:58.100000Z</time>
      </trkpt>
      <trkpt lat="37.8472946748754" lon="112.0278145653071">
        <ele>1104.711930181195</ele>
        <time>2016-07-11T09:09:05.100000Z</time>
      </trkpt>
      <trkpt lat="37.84727335815996" lon="112.02745297637755">
        <ele>1104.2790278700118</ele>
        <time>2016-07-11T09:09:13.100000Z</time>
      </trkpt>
      <trkpt lat="37.84733480255933" lon="112.0272982730148">
        <ele>1103.9000712323298</ele>
        <time>2016-07-11T09:09:20.100000Z</time>
      </trkpt>
      <trkpt lat="37.8476303387348" lon="112.0268490287511">
        <ele>1103.9488886490828</ele>
        <time>2016-07-11T09:09:28.100000Z</time>
      </trkpt>
      <trkpt lat="37.847708486765235" lon="112.02674057202596">
        <ele>1104.0507444340765</ele>
        <time>2016-07-11T09:09:31.100000Z</time>
      </trkpt>
      <trkpt lat="37.8478189778707" lon="112.02650608667885">
        <ele>1103.8728768302815</ele>
        <time>2016-07-11T09:09:42.100000Z</time>
      </trkpt>
      <trkpt lat="37.8479145733334" lon="112.02636598778928">
        <ele>1103.8985596113039</ele>
        <time>2016-07-11T09:09:46.200000Z</time>
      </trkpt>
      <trkpt lat="37.847981963025624" lon="112.02632595483712">
        <ele>1103.6166459967023</ele>
        <time>2016-07-11T09:09:50.100000Z</time>
      </trkpt>
      <trkpt lat="37.84804646183544" lon="112.02635407265002">
        <ele>1102.80382167649</ele>
        <time>2016-07-11T09:09:54.200000Z</time>
      </trkpt>
      <trkpt lat="37.84839103686895" lon="112.02635051553332">
        <ele>1099.4531618652813</ele>
        <time>2016-07-11T09:10:09.100000Z</time>
      </trkpt>
      <trkpt lat="37.8486756773136" lon="112.02644134869598">
        <ele>1097.9300402983758</ele>
        <time>2016-07-11T09:10:17.100000Z</time>
      </trkpt>
      <trkpt lat="37.848742317141344" lon="112.02648082480948">
        <ele>1098.0460331926008</ele>
        <time>2016-07-11T09:10:20.200000Z</time>
      </trkpt>
      <trkpt lat="37.84884752554377" lon="112.02650406995798">
        <ele>1097.933857875195</ele>
        <time>2016-07-11T09:10:24.100000Z</time>
      </trkpt>
      <trkpt lat="37.848971365783854" lon="112.02542123419744">
        <ele>1098.4175272356886</ele>
        <time>2016-07-11T09:10:55.100000Z</time>
      </trkpt>
      <trkpt lat="37.84900655014941" lon="112.02535091824319">
        <ele>1098.9001757961796</ele>
        <time>2016-07-11T09:10:59.100000Z</time>
      </trkpt>
      <trkpt lat="37.848939996619734" lon="112.02507346689889">
        <ele>1100.0048513010427</ele>
        <time>2016-07-11T09:11:10.100000Z</time>
      </trkpt>
      <trkpt lat="37.84900534125498" lon="112.02488389028714">
        <ele>1100.8480365304817</ele>
        <time>2016-07-11T09:11:17.100000Z</time>
      </trkpt>
      <trkpt lat="37.84898492257487" lon="112.02450097272458">
        <ele>1099.824996474631</ele>
        <time>2016-07-11T09:11:27.100000Z</time>
      </trkpt>
      <trkpt lat="37.84895796000526" lon="112.02413158149719">
        <ele>1097.639306889838</ele>
        <time>2016-07-11T09:11:38.100000Z</time>
      </trkpt>
      <trkpt lat="37.848968776741124" lon="112.02373839338017">
        <ele>1094.1292167954705</ele>
        <time>2016-07-11T09:11:51.200000Z</time>
      </trkpt>
      <trkpt lat="37.848933728154094" lon="112.02345283985387">
        <ele>1092.3626674489824</ele>
        <time>2016-07-11T09:11:58.200000Z</time>
      </trkpt>
      <trkpt lat="37.84895258537114" lon="112.02319973167408">
        <ele>1091.8475382064037</ele>
        <time>2016-07-11T09:12:02.100000Z</time>
      </trkpt>
      <trkpt lat="37.84902402802317" lon="112.02286468523027">
        <ele>1091.9378928550882</ele>
        <time>2016-07-11T09:12:09.100000Z</time>
      </trkpt>
      <trkpt lat="37.84903898335816" lon="112.02245042011118">
        <ele>1091.8731683478327</ele>
        <time>2016-07-11T09:12:21.200000Z</time>
      </trkpt>
      <trkpt lat="37.84906243319078" lon="112.02220678308053">
        <ele>1091.3730890295615</ele>
        <time>2016-07-11T09:12:28.100000Z</time>
      </trkpt>
      <trkpt lat="37.84907060468554" lon="112.02179523080284">
        <ele>1090.7500360340057</ele>
        <time>2016-07-11T09:12:38.100000Z</time>
      </trkpt>
      <trkpt lat="37.84910872965556" lon="112.02144451917424">
        <ele>1090.3669474637181</ele>
        <time>2016-07-11T09:12:45.100000Z</time>
      </trkpt>
      <trkpt lat="37.84911517016283" lon="112.02127173495995">
        <ele>1089.7437095729688</ele>
        <time>2016-07-11T09:12:49.200000Z</time>
      </trkpt>
      <trkpt lat="37.84907785858787" lon="112.02102595037123">
        <ele>1090.4161577006219</ele>
        <time>2016-07-11T09:12:57.100000Z</time>
      </trkpt>
      <trkpt lat="37.849066650914224" lon="112.02066065120499">
        <ele>1092.1916402359498</ele>
        <time>2016-07-11T09:13:07.100000Z</time>
      </trkpt>
      <trkpt lat="37.84905585075991" lon="112.02024695619666">
        <ele>1091.8943637938505</ele>
        <time>2016-07-11T09:13:18.100000Z</time>
      </trkpt>
      <trkpt lat="37.84907104122676" lon="112.01985462321615">
        <ele>1092.4643274132359</ele>
        <time>2016-07-11T09:13:37.100000Z</time>
      </trkpt>
      <trkpt lat="37.849103299901074" lon="112.01937441818687">
        <ele>1091.8077980669493</ele>
        <time>2016-07-11T09:13:48.200000Z</time>
      </trkpt>
      <trkpt lat="37.84913026931166" lon="112.01894423998377">
        <ele>1091.9119635560903</ele>
        <time>2016-07-11T09:13:59.200000Z</time>
      </trkpt>
      <trkpt lat="37.84917992897905" lon="112.01845404058166">
        <ele>1093.569460332761</ele>
        <time>2016-07-11T09:14:11.100000Z</time>
      </trkpt>
      <trkpt lat="37.84920968247217" lon="112.01800143148661">
        <ele>1093.3360132034256</ele>
        <time>2016-07-11T09:14:25.100000Z</time>
      </trkpt>
      <trkpt lat="37.84920525603049" lon="112.01774160527683">
        <ele>1093.3469811043556</ele>
        <time>2016-07-11T09:14:33.100000Z</time>
      </trkpt>
      <trkpt lat="37.84922621339662" lon="112.01752476635149">
        <ele>1093.1810870302297</ele>
        <time>2016-07-11T09:14:41.100000Z</time>
      </trkpt>
      <trkpt lat="37.84923038307407" lon="112.01729630481582">
        <ele>1091.6003960588025</ele>
        <time>2016-07-11T09:14:48.200000Z</time>
      </trkpt>
      <trkpt lat="37.84933128209097" lon="112.01692156534966">
        <ele>1091.3761077652985</ele>
        <time>2016-07-11T09:14:58.100000Z</time>
      </trkpt>
      <trkpt lat="37.84935425379689" lon="112.01656927873078">
        <ele>1092.0592486195321</ele>
        <time>2016-07-11T09:15:12.100000Z</time>
      </trkpt>
      <trkpt lat="37.84938632529083" lon="112.01616616631405">
        <ele>1093.9916721058096</ele>
        <time>2016-07-11T09:15:23.100000Z</time>
      </trkpt>
      <trkpt lat="37.84946238616294" lon="112.01575115675683">
        <ele>1095.4676221498792</ele>
        <time>2016-07-11T09:15:33.100000Z</time>
      </trkpt>
      <trkpt lat="37.849523158805646" lon="112.01537048810161">
        <ele>1096.340957162452</ele>
        <time>2016-07-11T09:15:41.100000Z</time>
      </trkpt>
      <trkpt lat="37.84956580019487" lon="112.01497441484476">
        <ele>1098.5445167375467</ele>
        <time>2016-07-11T09:15:54.200000Z</time>
      </trkpt>
      <trkpt lat="37.84958747571185" lon="112.01451076016191">
        <ele>1100.8545400720332</ele>
        <time>2016-07-11T09:16:08.100000Z</time>
      </trkpt>
      <trkpt lat="37.84960219651388" lon="112.01429718265564">
        <ele>1101.5536581904335</ele>
        <time>2016-07-11T09:16:15.100000Z</time>
      </trkpt>
      <trkpt lat="37.84967397522758" lon="112.01386651106394">
        <ele>1101.7612592412127</ele>
        <time>2016-07-11T09:16:27.100000Z</time>
      </trkpt>
      <trkpt lat="37.84969166928772" lon="112.01346937251743">
        <ele>1102.5954065948802</ele>
        <time>2016-07-11T09:16:39.100000Z</time>
      </trkpt>
      <trkpt lat="37.84973041327282" lon="112.01301816653034">
        <ele>1101.8661275066313</ele>
        <time>2016-07-11T09:16:53.100000Z</time>
      </trkpt>
      <trkpt lat="37.84979111878448" lon="112.01257317990111">
        <ele>1102.384808341294</ele>
        <time>2016-07-11T09:17:06.100000Z</time>
      </trkpt>
      <trkpt lat="37.84977270864452" lon="112.01246612812722">
        <ele>1101.9308317364723</ele>
        <time>2016-07-11T09:17:10.200000Z</time>
      </trkpt>
      <trkpt lat="37.84981857701781" lon="112.01208656948268">
        <ele>1100.268057260036</ele>
        <time>2016-07-11T09:17:21.100000Z</time>
      </trkpt>
      <trkpt lat="37.84985877052232" lon="112.01169998567025">
        <ele>1099.1540599073182</ele>
        <time>2016-07-11T09:17:32.100000Z</time>
      </trkpt>
      <trkpt lat="37.849839388857426" lon="112.0113682892801">
        <ele>1099.2846933803708</ele>
        <time>2016-07-11T09:17:40.100000Z</time>
      </trkpt>
      <trkpt lat="37.8498342787377" lon="112.01088845233073">
        <ele>1099.2832260347927</ele>
        <time>2016-07-11T09:17:52.200000Z</time>
      </trkpt>
      <trkpt lat="37.849843793891445" lon="112.01051107208554">
        <ele>1101.6478113396902</ele>
        <time>2016-07-11T09:18:03.100000Z</time>
      </trkpt>
      <trkpt lat="37.84989206828145" lon="112.01023992805221">
        <ele>1103.9254568360116</ele>
        <time>2016-07-11T09:18:11.200000Z</time>
      </trkpt>
      <trkpt lat="37.84989430851827" lon="112.01012368745549">
        <ele>1104.1845801023685</ele>
        <time>2016-07-11T09:18:14.100000Z</time>
      </trkpt>
      <trkpt lat="37.84992370339542" lon="112.00990715317735">
        <ele>1105.1103759139635</ele>
        <time>2016-07-11T09:18:21.200000Z</time>
      </trkpt>
      <trkpt lat="37.849916470492396" lon="112.00978334530836">
        <ele>1105.2551240833425</ele>
        <time>2016-07-11T09:18:25.100000Z</time>
      </trkpt>
      <trkpt lat="37.84981410037357" lon="112.00935138066615">
        <ele>1105.7835474238293</ele>
        <time>2016-07-11T09:18:41.100000Z</time>
      </trkpt>
      <trkpt lat="37.84971930568345" lon="112.00901943694318">
        <ele>1105.3881185885375</ele>
        <time>2016-07-11T09:18:52.100000Z</time>
      </trkpt>
      <trkpt lat="37.849616797442756" lon="112.0088194120129">
        <ele>1105.732769889721</ele>
        <time>2016-07-11T09:18:59.200000Z</time>
      </trkpt>
      <trkpt lat="37.84939475495111" lon="112.00848910830172">
        <ele>1104.6582403134084</ele>
        <time>2016-07-11T09:19:11.200000Z</time>
      </trkpt>
      <trkpt lat="37.849142661461656" lon="112.00813745486819">
        <ele>1104.3839409651948</ele>
        <time>2016-07-11T09:19:23.100000Z</time>
      </trkpt>
      <trkpt lat="37.849064390919935" lon="112.0079990620036">
        <ele>1103.0925901764836</ele>
        <time>2016-07-11T09:19:27.100000Z</time>
      </trkpt>
      <trkpt lat="37.84897052925273" lon="112.00790338122987">
        <ele>1102.1198463344742</ele>
        <time>2016-07-11T09:19:31.100000Z</time>
      </trkpt>
      <trkpt lat="37.84874753866218" lon="112.00761957653556">
        <ele>1100.0333585952746</ele>
        <time>2016-07-11T09:19:43.200000Z</time>
      </trkpt>
      <trkpt lat="37.84854319810636" lon="112.00735982876407">
        <ele>1101.893967240033</ele>
        <time>2016-07-11T09:19:54.100000Z</time>
      </trkpt>
      <trkpt lat="37.84833276928925" lon="112.00704926392096">
        <ele>1105.5582760738916</ele>
        <time>2016-07-11T09:20:07.100000Z</time>
      </trkpt>
      <trkpt lat="37.84822083618585" lon="112.00691817576106">
        <ele>1105.3942679112686</ele>
        <time>2016-07-11T09:20:12.100000Z</time>
      </trkpt>
      <trkpt lat="37.847959396073" lon="112.00679197129416">
        <ele>1105.6264805559558</ele>
        <time>2016-07-11T09:20:22.100000Z</time>
      </trkpt>
      <trkpt lat="37.84785699235311" lon="112.00674089462606">
        <ele>1106.4105028719632</ele>
        <time>2016-07-11T09:20:26.100000Z</time>
      </trkpt>
      <trkpt lat="37.847532867533374" lon="112.00670984748153">
        <ele>1108.4321307966588</ele>
        <time>2016-07-11T09:20:38.100000Z</time>
      </trkpt>
      <trkpt lat="37.84718187892564" lon="112.00668015511005">
        <ele>1111.5792660217512</ele>
        <time>2016-07-11T09:20:52.100000Z</time>
      </trkpt>
      <trkpt lat="37.84698728013287" lon="112.00661205992459">
        <ele>1111.6634283357243</ele>
        <time>2016-07-11T09:21:00.100000Z</time>
      </trkpt>
      <trkpt lat="37.846632150346686" lon="112.0066064257563">
        <ele>1114.1283227555036</ele>
        <time>2016-07-11T09:21:12.100000Z</time>
      </trkpt>
      <trkpt lat="37.846349186244545" lon="112.00660186422326">
        <ele>1117.2245443435318</ele>
        <time>2016-07-11T09:21:23.100000Z</time>
      </trkpt>
      <trkpt lat="37.84600539779224" lon="112.00652324478789">
        <ele>1118.5303191963005</ele>
        <time>2016-07-11T09:21:37.100000Z</time>
      </trkpt>
      <trkpt lat="37.84579701072348" lon="112.00643893276923">
        <ele>1119.2072866696137</ele>
        <time>2016-07-11T09:21:48.100000Z</time>
      </trkpt>
      <trkpt lat="37.84550278223404" lon="112.00639058232797">
        <ele>1120.15107517354</ele>
        <time>2016-07-11T09:21:59.200000Z</time>
      </trkpt>
      <trkpt lat="37.84523968480301" lon="112.0062746507414">
        <ele>1120.7907977153334</ele>
        <time>2016-07-11T09:22:09.100000Z</time>
      </trkpt>
      <trkpt lat="37.84493966102088" lon="112.00616818456676">
        <ele>1120.8745093909076</ele>
        <time>2016-07-11T09:22:19.100000Z</time>
      </trkpt>
      <trkpt lat="37.84458333808674" lon="112.00610794810179">
        <ele>1121.9114994952188</ele>
        <time>2016-07-11T09:22:31.100000Z</time>
      </trkpt>
      <trkpt lat="37.84446263451046" lon="112.00609796105896">
        <ele>1122.2800449284566</ele>
        <time>2016-07-11T09:22:35.100000Z</time>
      </trkpt>
      <trkpt lat="37.84420393433453" lon="112.00623611998147">
        <ele>1122.4538973723897</ele>
        <time>2016-07-11T09:22:42.100000Z</time>
      </trkpt>
      <trkpt lat="37.84389077883988" lon="112.00643916012118">
        <ele>1124.7229908985546</ele>
        <time>2016-07-11T09:22:54.200000Z</time>
      </trkpt>
      <trkpt lat="37.84362780429462" lon="112.00664624952405">
        <ele>1126.6997492717421</ele>
        <time>2016-07-11T09:23:02.100000Z</time>
      </trkpt>
      <trkpt lat="37.84357222183948" lon="112.00672518705426">
        <ele>1127.7713417266123</ele>
        <time>2016-07-11T09:23:06.100000Z</time>
      </trkpt>
      <trkpt lat="37.84342085706238" lon="112.00680737983969">
        <ele>1128.7794483787602</ele>
        <time>2016-07-11T09:23:13.100000Z</time>
      </trkpt>
      <trkpt lat="37.84323896643103" lon="112.00693634037289">
        <ele>1129.5467305380018</ele>
        <time>2016-07-11T09:23:20.100000Z</time>
      </trkpt>
      <trkpt lat="37.84315570571763" lon="112.00701690341135">
        <ele>1129.6314730196325</ele>
        <time>2016-07-11T09:23:24.100000Z</time>
      </trkpt>
      <trkpt lat="37.842982358192224" lon="112.00728399346012">
        <ele>1127.800817575619</ele>
        <time>2016-07-11T09:23:32.100000Z</time>
      </trkpt>
      <trkpt lat="37.84282150694712" lon="112.00745458078704">
        <ele>1128.6919883311473</ele>
        <time>2016-07-11T09:23:44.100000Z</time>
      </trkpt>
      <trkpt lat="37.842560394609976" lon="112.0075835520111">
        <ele>1127.3297479281769</ele>
        <time>2016-07-11T09:23:54.100000Z</time>
      </trkpt>
      <trkpt lat="37.84239062812235" lon="112.00765006976044">
        <ele>1126.738930942359</ele>
        <time>2016-07-11T09:24:02.100000Z</time>
      </trkpt>
      <trkpt lat="37.84227881845391" lon="112.00766008476239">
        <ele>1126.6268686396465</ele>
        <time>2016-07-11T09:24:06.100000Z</time>
      </trkpt>
      <trkpt lat="37.84205579703245" lon="112.00784446659735">
        <ele>1126.1711064386525</ele>
        <time>2016-07-11T09:24:17.100000Z</time>
      </trkpt>
      <trkpt lat="37.84198214846421" lon="112.00788610405691">
        <ele>1125.5715140414961</ele>
        <time>2016-07-11T09:24:21.100000Z</time>
      </trkpt>
      <trkpt lat="37.84157118024437" lon="112.00786344654273">
        <ele>1125.577322385158</ele>
        <time>2016-07-11T09:24:36.200000Z</time>
      </trkpt>
      <trkpt lat="37.841468616050555" lon="112.0078664322573">
        <ele>1126.5853387877241</ele>
        <time>2016-07-11T09:24:40.100000Z</time>
      </trkpt>
      <trkpt lat="37.8413716228016" lon="112.00791212726116">
        <ele>1127.4944390790783</ele>
        <time>2016-07-11T09:24:44.100000Z</time>
      </trkpt>
      <trkpt lat="37.84113561598997" lon="112.0080840767902">
        <ele>1128.508572938267</ele>
        <time>2016-07-11T09:24:52.100000Z</time>
      </trkpt>
      <trkpt lat="37.84099096109307" lon="112.00819140998345">
        <ele>1129.1521160323628</ele>
        <time>2016-07-11T09:24:56.100000Z</time>
      </trkpt>
      <trkpt lat="37.840902393878004" lon="112.0082319681811">
        <ele>1129.5378173537345</ele>
        <time>2016-07-11T09:24:59.100000Z</time>
      </trkpt>
      <trkpt lat="37.84085313299746" lon="112.00819223738321">
        <ele>1129.6784340920165</ele>
        <time>2016-07-11T09:25:02.100000Z</time>
      </trkpt>
      <trkpt lat="37.840443682416" lon="112.00811524581783">
        <ele>1127.7289639766052</ele>
        <time>2016-07-11T09:25:21.200000Z</time>
      </trkpt>
      <trkpt lat="37.840253228173566" lon="112.0081133763242">
        <ele>1127.7983970262774</ele>
        <time>2016-07-11T09:25:28.100000Z</time>
      </trkpt>
      <trkpt lat="37.839896607221846" lon="112.0081536961414">
        <ele>1128.004578983632</ele>
        <time>2016-07-11T09:25:39.200000Z</time>
      </trkpt>
      <trkpt lat="37.83954967269412" lon="112.00812967930469">
        <ele>1129.6191403099144</ele>
        <time>2016-07-11T09:25:50.100000Z</time>
      </trkpt>
      <trkpt lat="37.83923664561429" lon="112.00810782096659">
        <ele>1133.0957499696233</ele>
        <time>2016-07-11T09:25:57.200000Z</time>
      </trkpt>
      <trkpt lat="37.83958251003021" lon="112.0081267018974">
        <ele>1138.647591216811</ele>
        <time>2016-07-11T09:26:15.100000Z</time>
      </trkpt>
      <trkpt lat="37.83964502743904" lon="112.00808749845878">
        <ele>1138.5839378992214</ele>
        <time>2016-07-11T09:26:19.100000Z</time>
      </trkpt>
      <trkpt lat="37.839916761082556" lon="112.00803610582388">
        <ele>1137.947405698784</ele>
        <time>2016-07-11T09:26:30.100000Z</time>
      </trkpt>
      <trkpt lat="37.84014365333304" lon="112.0080101283444">
        <ele>1137.0214103342528</ele>
        <time>2016-07-11T09:26:38.100000Z</time>
      </trkpt>
      <trkpt lat="37.84044147918839" lon="112.00803469162975">
        <ele>1135.695512246538</ele>
        <time>2016-07-11T09:26:50.100000Z</time>
      </trkpt>
      <trkpt lat="37.84067079159815" lon="112.00810764983866">
        <ele>1132.849630703607</ele>
        <time>2016-07-11T09:27:01.200000Z</time>
      </trkpt>
      <trkpt lat="37.841050773427355" lon="112.00814950365711">
        <ele>1132.0279309211548</ele>
        <time>2016-07-11T09:27:12.100000Z</time>
      </trkpt>
      <trkpt lat="37.84134865632049" lon="112.00815487445534">
        <ele>1131.5781339936257</ele>
        <time>2016-07-11T09:27:20.100000Z</time>
      </trkpt>
      <trkpt lat="37.84163558281624" lon="112.00810375027112">
        <ele>1130.7409834921011</ele>
        <time>2016-07-11T09:27:28.100000Z</time>
      </trkpt>
      <trkpt lat="37.84193898982008" lon="112.0079845043556">
        <ele>1129.6978968431133</ele>
        <time>2016-07-11T09:27:35.100000Z</time>
      </trkpt>
      <trkpt lat="37.842262184658054" lon="112.00777983648848">
        <ele>1129.6980386946652</ele>
        <time>2016-07-11T09:27:46.100000Z</time>
      </trkpt>
      <trkpt lat="37.84245517841462" lon="112.00765736056819">
        <ele>1130.1743647991516</ele>
        <time>2016-07-11T09:27:54.100000Z</time>
      </trkpt>
      <trkpt lat="37.842508007579255" lon="112.00759166770837">
        <ele>1130.1302048544371</ele>
        <time>2016-07-11T09:27:57.200000Z</time>
      </trkpt>
      <trkpt lat="37.84277104956904" lon="112.00736105810707">
        <ele>1128.398535115673</ele>
        <time>2016-07-11T09:28:09.100000Z</time>
      </trkpt>
      <trkpt lat="37.84309847404265" lon="112.00710314001135">
        <ele>1127.8373449334038</ele>
        <time>2016-07-11T09:28:20.100000Z</time>
      </trkpt>
      <trkpt lat="37.8434154921984" lon="112.0068779318888">
        <ele>1129.397977636889</ele>
        <time>2016-07-11T09:28:32.200000Z</time>
      </trkpt>
      <trkpt lat="37.84366124320174" lon="112.00671463429025">
        <ele>1130.4410504523908</ele>
        <time>2016-07-11T09:28:39.100000Z</time>
      </trkpt>
      <trkpt lat="37.84390713950588" lon="112.00650268113293">
        <ele>1131.9397234493656</ele>
        <time>2016-07-11T09:28:49.100000Z</time>
      </trkpt>
      <trkpt lat="37.844092078107636" lon="112.00635263685105">
        <ele>1131.229934249203</ele>
        <time>2016-07-11T09:28:56.100000Z</time>
      </trkpt>
      <trkpt lat="37.84421336411204" lon="112.0062582842472">
        <ele>1130.9490084468327</ele>
        <time>2016-07-11T09:29:02.300000Z</time>
      </trkpt>
      <trkpt lat="37.84449471163731" lon="112.00616796731933">
        <ele>1132.2242491767408</ele>
        <time>2016-07-11T09:29:14.300000Z</time>
      </trkpt>
      <trkpt lat="37.84464810275758" lon="112.00622525462909">
        <ele>1131.6819932431072</ele>
        <time>2016-07-11T09:29:21.300000Z</time>
      </trkpt>
      <trkpt lat="37.84487631731833" lon="112.00621117131784">
        <ele>1131.992478296858</ele>
        <time>2016-07-11T09:29:29.100000Z</time>
      </trkpt>
      <trkpt lat="37.84525362936022" lon="112.00632952197358">
        <ele>1131.138750611464</ele>
        <time>2016-07-11T09:29:42.100000Z</time>
      </trkpt>
      <trkpt lat="37.845363395956745" lon="112.00636789290255">
        <ele>1131.0511894237488</ele>
        <time>2016-07-11T09:29:46.100000Z</time>
      </trkpt>
      <trkpt lat="37.845740327613846" lon="112.00643191146156">
        <ele>1130.8800573875885</ele>
        <time>2016-07-11T09:29:58.100000Z</time>
      </trkpt>
      <trkpt lat="37.84618529975585" lon="112.00651565463168">
        <ele>1131.3070263722639</ele>
        <time>2016-07-11T09:30:06.100000Z</time>
      </trkpt>
      <trkpt lat="37.84655475815877" lon="112.00662941142355">
        <ele>1130.8520165775801</ele>
        <time>2016-07-11T09:30:17.100000Z</time>
      </trkpt>
      <trkpt lat="37.84675864347744" lon="112.00667669155195">
        <ele>1129.998534412498</ele>
        <time>2016-07-11T09:30:24.100000Z</time>
      </trkpt>
      <trkpt lat="37.84690173409394" lon="112.00663991216547">
        <ele>1127.8592101808053</ele>
        <time>2016-07-11T09:30:28.100000Z</time>
      </trkpt>
      <trkpt lat="37.847309522588155" lon="112.00672852561088">
        <ele>1127.2870536250743</ele>
        <time>2016-07-11T09:30:40.100000Z</time>
      </trkpt>
      <trkpt lat="37.847485943632954" lon="112.0067966230754">
        <ele>1127.1645303132318</ele>
        <time>2016-07-11T09:30:47.100000Z</time>
      </trkpt>
      <trkpt lat="37.84778686761881" lon="112.00678334190432">
        <ele>1124.907933917248</ele>
        <time>2016-07-11T09:30:59.100000Z</time>
      </trkpt>
      <trkpt lat="37.84810512362662" lon="112.00687196620478">
        <ele>1122.0962642349482</ele>
        <time>2016-07-11T09:31:09.100000Z</time>
      </trkpt>
      <trkpt lat="37.84825236463942" lon="112.00689925015186">
        <ele>1119.9686698225175</ele>
        <time>2016-07-11T09:31:13.100000Z</time>
      </trkpt>
      <trkpt lat="37.84840983591009" lon="112.00695329379921">
        <ele>1119.184823133075</ele>
        <time>2016-07-11T09:31:17.200000Z</time>
      </trkpt>
      <trkpt lat="37.84853112388837" lon="112.00704059024962">
        <ele>1119.4248540291342</ele>
        <time>2016-07-11T09:31:21.100000Z</time>
      </trkpt>
      <trkpt lat="37.848680274095386" lon="112.00724709160775">
        <ele>1119.3547799119067</ele>
        <time>2016-07-11T09:31:28.100000Z</time>
      </trkpt>
      <trkpt lat="37.84881192683662" lon="112.00749873818025">
        <ele>1120.2507184837377</ele>
        <time>2016-07-11T09:31:35.100000Z</time>
      </trkpt>
      <trkpt lat="37.84882112431257" lon="112.00759929413553">
        <ele>1120.5125261743842</ele>
        <time>2016-07-11T09:31:39.100000Z</time>
      </trkpt>
      <trkpt lat="37.848918624451144" lon="112.00774876678824">
        <ele>1119.6188111277395</ele>
        <time>2016-07-11T09:31:47.100000Z</time>
      </trkpt>
      <trkpt lat="37.84899739771768" lon="112.0079920417711">
        <ele>1118.2598524366392</ele>
        <time>2016-07-11T09:31:58.100000Z</time>
      </trkpt>
      <trkpt lat="37.8491942484978" lon="112.00830801903172">
        <ele>1117.1682553157384</ele>
        <time>2016-07-11T09:32:09.100000Z</time>
      </trkpt>
      <trkpt lat="37.84931539043956" lon="112.00853696418982">
        <ele>1116.1749960089446</ele>
        <time>2016-07-11T09:32:17.100000Z</time>
      </trkpt>
      <trkpt lat="37.8494935229166" lon="112.0087610376281">
        <ele>1114.7399234647035</ele>
        <time>2016-07-11T09:32:25.100000Z</time>
      </trkpt>
      <trkpt lat="37.84961366308518" lon="112.00896214154483">
        <ele>1113.6046368816424</ele>
        <time>2016-07-11T09:32:32.100000Z</time>
      </trkpt>
      <trkpt lat="37.849660310119866" lon="112.00915244204226">
        <ele>1112.5380964029248</ele>
        <time>2016-07-11T09:32:39.100000Z</time>
      </trkpt>
      <trkpt lat="37.84977676920445" lon="112.00931408063822">
        <ele>1112.3470665293553</ele>
        <time>2016-07-11T09:32:43.100000Z</time>
      </trkpt>
      <trkpt lat="37.84981468345748" lon="112.0094297741595">
        <ele>1112.1414395773038</ele>
        <time>2016-07-11T09:32:46.100000Z</time>
      </trkpt>
      <trkpt lat="37.84984162768861" lon="112.00958547708719">
        <ele>1111.7939714619365</ele>
        <time>2016-07-11T09:32:50.100000Z</time>
      </trkpt>
      <trkpt lat="37.84986171165141" lon="112.00995230488212">
        <ele>1111.734409752449</ele>
        <time>2016-07-11T09:33:00.100000Z</time>
      </trkpt>
      <trkpt lat="37.8498712078637" lon="112.0104145618181">
        <ele>1112.0190882182328</ele>
        <time>2016-07-11T09:33:11.100000Z</time>
      </trkpt>
      <trkpt lat="37.84983367841399" lon="112.01090818648225">
        <ele>1112.313792402387</ele>
        <time>2016-07-11T09:33:22.100000Z</time>
      </trkpt>
      <trkpt lat="37.84979039968568" lon="112.01132774531546">
        <ele>1112.5728946437655</ele>
        <time>2016-07-11T09:33:33.100000Z</time>
      </trkpt>
      <trkpt lat="37.84977560973999" lon="112.01174784474422">
        <ele>1112.8339174225218</ele>
        <time>2016-07-11T09:33:44.100000Z</time>
      </trkpt>
      <trkpt lat="37.849748994416196" lon="112.01203683600406">
        <ele>1112.8255977332187</ele>
        <time>2016-07-11T09:33:51.100000Z</time>
      </trkpt>
      <trkpt lat="37.8496942493135" lon="112.01248343914679">
        <ele>1113.5018674749645</ele>
        <time>2016-07-11T09:34:02.100000Z</time>
      </trkpt>
      <trkpt lat="37.849660630529065" lon="112.01266240732936">
        <ele>1113.5435311726483</ele>
        <time>2016-07-11T09:34:08.200000Z</time>
      </trkpt>
      <trkpt lat="37.84964709861841" lon="112.0130257460461">
        <ele>1113.923128152245</ele>
        <time>2016-07-11T09:34:19.100000Z</time>
      </trkpt>
      <trkpt lat="37.84964782357872" lon="112.0134323407029">
        <ele>1112.991938295413</ele>
        <time>2016-07-11T09:34:29.200000Z</time>
      </trkpt>
      <trkpt lat="37.849652527961375" lon="112.01358859888089">
        <ele>1113.0576830105717</ele>
        <time>2016-07-11T09:34:33.100000Z</time>
      </trkpt>
      <trkpt lat="37.84960892726445" lon="112.01384326910623">
        <ele>1112.619602792946</ele>
        <time>2016-07-11T09:34:40.100000Z</time>
      </trkpt>
      <trkpt lat="37.849601648497945" lon="112.01411010200272">
        <ele>1111.7485214120761</ele>
        <time>2016-07-11T09:34:47.100000Z</time>
      </trkpt>
      <trkpt lat="37.849536625706556" lon="112.01455077801789">
        <ele>1110.150198542469</ele>
        <time>2016-07-11T09:34:58.100000Z</time>
      </trkpt>
      <trkpt lat="37.84949911863757" lon="112.01504795876087">
        <ele>1109.4311452892696</ele>
        <time>2016-07-11T09:35:11.200000Z</time>
      </trkpt>
      <trkpt lat="37.84943340315894" lon="112.01544863148571">
        <ele>1109.0814222397269</ele>
        <time>2016-07-11T09:35:21.100000Z</time>
      </trkpt>
      <trkpt lat="37.84935609418777" lon="112.01572927054931">
        <ele>1108.9581596918435</ele>
        <time>2016-07-11T09:35:29.100000Z</time>
      </trkpt>
      <trkpt lat="37.84931712336554" lon="112.01607668556224">
        <ele>1109.5506104277931</ele>
        <time>2016-07-11T09:35:40.100000Z</time>
      </trkpt>
      <trkpt lat="37.84926759081944" lon="112.01651386483044">
        <ele>1107.7048483177384</ele>
        <time>2016-07-11T09:35:54.100000Z</time>
      </trkpt>
      <trkpt lat="37.849250731458746" lon="112.01691130113656">
        <ele>1106.3958003995365</ele>
        <time>2016-07-11T09:36:05.100000Z</time>
      </trkpt>
      <trkpt lat="37.84919619473403" lon="112.01729739038116">
        <ele>1105.6536661582147</ele>
        <time>2016-07-11T09:36:16.100000Z</time>
      </trkpt>
      <trkpt lat="37.849158380930184" lon="112.01742987512148">
        <ele>1105.686126912147</ele>
        <time>2016-07-11T09:36:20.100000Z</time>
      </trkpt>
      <trkpt lat="37.84914340830688" lon="112.01773755713317">
        <ele>1105.013969000592</ele>
        <time>2016-07-11T09:36:27.100000Z</time>
      </trkpt>
      <trkpt lat="37.84917980399956" lon="112.01762670110229">
        <ele>1103.6796378711256</ele>
        <time>2016-07-11T09:36:38.100000Z</time>
      </trkpt>
      <trkpt lat="37.84919473824076" lon="112.01742933002893">
        <ele>1102.5595677611977</ele>
        <time>2016-07-11T09:36:45.100000Z</time>
      </trkpt>
      <trkpt lat="37.849185900105326" lon="112.01729198426828">
        <ele>1102.016607379482</ele>
        <time>2016-07-11T09:36:49.100000Z</time>
      </trkpt>
      <trkpt lat="37.84924607184683" lon="112.01692806431355">
        <ele>1100.454956317113</ele>
        <time>2016-07-11T09:37:00.100000Z</time>
      </trkpt>
      <trkpt lat="37.84930787997421" lon="112.01665796328749">
        <ele>1099.7601352063466</ele>
        <time>2016-07-11T09:37:07.100000Z</time>
      </trkpt>
      <trkpt lat="37.84933186816212" lon="112.01623484431141">
        <ele>1099.4251402725477</ele>
        <time>2016-07-11T09:37:18.100000Z</time>
      </trkpt>
      <trkpt lat="37.84942724493101" lon="112.01599204998345">
        <ele>1100.078081705647</ele>
        <time>2016-07-11T09:37:26.100000Z</time>
      </trkpt>
      <trkpt lat="37.849480738974314" lon="112.01559434761975">
        <ele>1100.1414031290058</ele>
        <time>2016-07-11T09:37:37.100000Z</time>
      </trkpt>
      <trkpt lat="37.849500477026204" lon="112.0151423118694">
        <ele>1100.8123623802915</ele>
        <time>2016-07-11T09:37:48.100000Z</time>
      </trkpt>
      <trkpt lat="37.849550375798145" lon="112.01477057139182">
        <ele>1102.3042860581456</ele>
        <time>2016-07-11T09:37:59.100000Z</time>
      </trkpt>
      <trkpt lat="37.8495617375012" lon="112.01449805680909">
        <ele>1103.9324889181908</ele>
        <time>2016-07-11T09:38:06.200000Z</time>
      </trkpt>
      <trkpt lat="37.84960976688349" lon="112.01411740040918">
        <ele>1105.5595466895757</ele>
        <time>2016-07-11T09:38:17.100000Z</time>
      </trkpt>
      <trkpt lat="37.849647540731546" lon="112.01362455528157">
        <ele>1106.0583871290019</ele>
        <time>2016-07-11T09:38:28.100000Z</time>
      </trkpt>
      <trkpt lat="37.84969289614456" lon="112.01323228161652">
        <ele>1105.1065720852118</ele>
        <time>2016-07-11T09:38:39.100000Z</time>
      </trkpt>
      <trkpt lat="37.849680472332544" lon="112.01302493103094">
        <ele>1105.8268561277318</ele>
        <time>2016-07-11T09:38:46.100000Z</time>
      </trkpt>
      <trkpt lat="37.84970069463773" lon="112.01269349154447">
        <ele>1106.778344487716</ele>
        <time>2016-07-11T09:38:54.100000Z</time>
      </trkpt>
      <trkpt lat="37.849751758178265" lon="112.01229960268245">
        <ele>1107.893597641874</ele>
        <time>2016-07-11T09:39:05.100000Z</time>
      </trkpt>
      <trkpt lat="37.8497708979119" lon="112.01215524057206">
        <ele>1108.3127119484968</ele>
        <time>2016-07-11T09:39:09.100000Z</time>
      </trkpt>
      <trkpt lat="37.84979868772775" lon="112.01202196159969">
        <ele>1108.629338482907</ele>
        <time>2016-07-11T09:39:13.100000Z</time>
      </trkpt>
      <trkpt lat="37.84982569128078" lon="112.01159969582436">
        <ele>1109.0548293153533</ele>
        <time>2016-07-11T09:39:24.300000Z</time>
      </trkpt>
      <trkpt lat="37.849830228170106" lon="112.01125339929821">
        <ele>1110.3081286081824</ele>
        <time>2016-07-11T09:39:36.100000Z</time>
      </trkpt>
      <trkpt lat="37.849862571070865" lon="112.01086249729399">
        <ele>1109.5688727324637</ele>
        <time>2016-07-11T09:39:47.100000Z</time>
      </trkpt>
      <trkpt lat="37.84986575194807" lon="112.01051728700479">
        <ele>1109.0808678471733</ele>
        <time>2016-07-11T09:39:55.100000Z</time>
      </trkpt>
      <trkpt lat="37.849867887366344" lon="112.01006665184055">
        <ele>1107.0838989122376</ele>
        <time>2016-07-11T09:40:06.100000Z</time>
      </trkpt>
      <trkpt lat="37.849858126203365" lon="112.00969522657331">
        <ele>1105.5249280245666</ele>
        <time>2016-07-11T09:40:17.100000Z</time>
      </trkpt>
      <trkpt lat="37.849825259053034" lon="112.00943166515607">
        <ele>1100.810304664615</ele>
        <time>2016-07-11T09:40:24.200000Z</time>
      </trkpt>
      <trkpt lat="37.8496945660646" lon="112.0090364701197">
        <ele>1100.1273492863727</ele>
        <time>2016-07-11T09:40:35.100000Z</time>
      </trkpt>
      <trkpt lat="37.84952195080194" lon="112.00878130822203">
        <ele>1100.841776938404</ele>
        <time>2016-07-11T09:40:46.100000Z</time>
      </trkpt>
      <trkpt lat="37.84939126545861" lon="112.00847640374491">
        <ele>1102.1114897921304</ele>
        <time>2016-07-11T09:40:56.100000Z</time>
      </trkpt>
      <trkpt lat="37.84922059359731" lon="112.0081152795666">
        <ele>1104.258647833752</ele>
        <time>2016-07-11T09:41:07.100000Z</time>
      </trkpt>
      <trkpt lat="37.84902028507212" lon="112.00786769357302">
        <ele>1107.0954645384209</ele>
        <time>2016-07-11T09:41:17.100000Z</time>
      </trkpt>
      <trkpt lat="37.84879916089051" lon="112.00759497171907">
        <ele>1110.5496875762665</ele>
        <time>2016-07-11T09:41:27.100000Z</time>
      </trkpt>
      <trkpt lat="37.84856290759309" lon="112.00730089800902">
        <ele>1113.8371388805201</ele>
        <time>2016-07-11T09:41:38.100000Z</time>
      </trkpt>
      <trkpt lat="37.84830943449161" lon="112.00695871202406">
        <ele>1116.135747927891</ele>
        <time>2016-07-11T09:41:49.100000Z</time>
      </trkpt>
      <trkpt lat="37.848186512305794" lon="112.00687357836645">
        <ele>1116.775732248907</ele>
        <time>2016-07-11T09:41:53.100000Z</time>
      </trkpt>
      <trkpt lat="37.847907875020944" lon="112.00678251653326">
        <ele>1118.2386212268893</ele>
        <time>2016-07-11T09:42:03.100000Z</time>
      </trkpt>
      <trkpt lat="37.84755979579358" lon="112.0066868678085">
        <ele>1118.4072715495531</ele>
        <time>2016-07-11T09:42:16.100000Z</time>
      </trkpt>
      <trkpt lat="37.84734293897676" lon="112.00671338418657">
        <ele>1119.1570088945143</ele>
        <time>2016-07-11T09:42:24.200000Z</time>
      </trkpt>
      <trkpt lat="37.84722391691824" lon="112.00668528600893">
        <ele>1118.998360736064</ele>
        <time>2016-07-11T09:42:28.100000Z</time>
      </trkpt>
      <trkpt lat="37.84692762383255" lon="112.0066923494472">
        <ele>1120.9183423611546</ele>
        <time>2016-07-11T09:42:39.200000Z</time>
      </trkpt>
      <trkpt lat="37.84683941863036" lon="112.00670209117631">
        <ele>1121.1063040836032</ele>
        <time>2016-07-11T09:42:43.100000Z</time>
      </trkpt>
      <trkpt lat="37.846627315059465" lon="112.00668130250904">
        <ele>1122.2457163094723</ele>
        <time>2016-07-11T09:42:50.200000Z</time>
      </trkpt>
      <trkpt lat="37.846336445882194" lon="112.00659808138982">
        <ele>1123.330981663511</ele>
        <time>2016-07-11T09:42:58.100000Z</time>
      </trkpt>
      <trkpt lat="37.84605417745475" lon="112.00654216071766">
        <ele>1125.1608321171232</ele>
        <time>2016-07-11T09:43:09.100000Z</time>
      </trkpt>
      <trkpt lat="37.84578765885986" lon="112.00648164293047">
        <ele>1127.300471579383</ele>
        <time>2016-07-11T09:43:19.200000Z</time>
      </trkpt>
      <trkpt lat="37.845447811618854" lon="112.00635517826224">
        <ele>1127.7743513778878</ele>
        <time>2016-07-11T09:43:33.100000Z</time>
      </trkpt>
      <trkpt lat="37.845377407714054" lon="112.0063092339693">
        <ele>1127.940357276715</ele>
        <time>2016-07-11T09:43:36.100000Z</time>
      </trkpt>
      <trkpt lat="37.84506051258446" lon="112.00621952894596">
        <ele>1127.6749635060555</ele>
        <time>2016-07-11T09:43:47.100000Z</time>
      </trkpt>
      <trkpt lat="37.84477692031827" lon="112.00615279634373">
        <ele>1126.6046355162998</ele>
        <time>2016-07-11T09:43:57.100000Z</time>
      </trkpt>
      <trkpt lat="37.84469827155328" lon="112.00614226366163">
        <ele>1126.7842395344362</ele>
        <time>2016-07-11T09:44:00.100000Z</time>
      </trkpt>
      <trkpt lat="37.844557684834335" lon="112.00615822867404">
        <ele>1126.8416107342819</ele>
        <time>2016-07-11T09:44:04.100000Z</time>
      </trkpt>
      <trkpt lat="37.844422358249695" lon="112.00622987681294">
        <ele>1127.1584606883641</ele>
        <time>2016-07-11T09:44:08.100000Z</time>
      </trkpt>
      <trkpt lat="37.84435435071906" lon="112.00629016398257">
        <ele>1127.571259777929</ele>
        <time>2016-07-11T09:44:11.100000Z</time>
      </trkpt>
      <trkpt lat="37.84416033082585" lon="112.0063920939867">
        <ele>1127.74925149074</ele>
        <time>2016-07-11T09:44:18.100000Z</time>
      </trkpt>
      <trkpt lat="37.843898112146825" lon="112.00652755078924">
        <ele>1128.0405074545015</ele>
        <time>2016-07-11T09:44:26.100000Z</time>
      </trkpt>
      <trkpt lat="37.843610540256364" lon="112.00670382788208">
        <ele>1129.3532572556194</ele>
        <time>2016-07-11T09:44:36.100000Z</time>
      </trkpt>
      <trkpt lat="37.84333154671493" lon="112.0068238795128">
        <ele>1132.4054374040027</ele>
        <time>2016-07-11T09:44:47.100000Z</time>
      </trkpt>
      <trkpt lat="37.84314680116989" lon="112.00690932014383">
        <ele>1133.1434126613883</ele>
        <time>2016-07-11T09:44:54.100000Z</time>
      </trkpt>
      <trkpt lat="37.843069433703285" lon="112.00701529182693">
        <ele>1133.205106389842</ele>
        <time>2016-07-11T09:44:58.100000Z</time>
      </trkpt>
      <trkpt lat="37.84292604945729" lon="112.00715100598727">
        <ele>1133.3080472985098</ele>
        <time>2016-07-11T09:45:02.200000Z</time>
      </trkpt>
      <trkpt lat="37.842715596269834" lon="112.00730538006731">
        <ele>1134.1447706144068</ele>
        <time>2016-07-11T09:45:10.100000Z</time>
      </trkpt>
      <trkpt lat="37.84232471947443" lon="112.00755195329617">
        <ele>1136.0300648291015</ele>
        <time>2016-07-11T09:45:21.100000Z</time>
      </trkpt>
      <trkpt lat="37.84206512189967" lon="112.00762767244339">
        <ele>1137.589806263121</ele>
        <time>2016-07-11T09:45:29.100000Z</time>
      </trkpt>
      <trkpt lat="37.84180432816379" lon="112.00783233238565">
        <ele>1135.8016729884284</ele>
        <time>2016-07-11T09:45:40.100000Z</time>
      </trkpt>
      <trkpt lat="37.841532590615266" lon="112.00797644335393">
        <ele>1134.7151723869722</ele>
        <time>2016-07-11T09:45:48.100000Z</time>
      </trkpt>
      <trkpt lat="37.84143009354602" lon="112.0080483598195">
        <ele>1132.38662374888</ele>
        <time>2016-07-11T09:45:51.100000Z</time>
      </trkpt>
      <trkpt lat="37.841312652127904" lon="112.00803620957757">
        <ele>1133.7738700135496</ele>
        <time>2016-07-11T09:45:55.100000Z</time>
      </trkpt>
      <trkpt lat="37.84105702882508" lon="112.00805272940586">
        <ele>1134.6312350240019</ele>
        <time>2016-07-11T09:46:03.100000Z</time>
      </trkpt>
      <trkpt lat="37.84078827789731" lon="112.00801302491007">
        <ele>1135.866870717277</ele>
        <time>2016-07-11T09:46:10.100000Z</time>
      </trkpt>
      <trkpt lat="37.84044329749586" lon="112.00806199341334">
        <ele>1137.685018499884</ele>
        <time>2016-07-11T09:46:21.100000Z</time>
      </trkpt>
      <trkpt lat="37.840142990607255" lon="112.00805067593825">
        <ele>1138.3926247556494</ele>
        <time>2016-07-11T09:46:34.100000Z</time>
      </trkpt>
      <trkpt lat="37.83978658092576" lon="112.00811126946975">
        <ele>1139.6600683261927</ele>
        <time>2016-07-11T09:46:46.100000Z</time>
      </trkpt>
      <trkpt lat="37.839489737958004" lon="112.00812130662382">
        <ele>1140.1387416001114</ele>
        <time>2016-07-11T09:46:53.100000Z</time>
      </trkpt>
      <trkpt lat="37.83938208065393" lon="112.0081034785397">
        <ele>1141.407116746991</ele>
        <time>2016-07-11T09:46:57.100000Z</time>
      </trkpt>
      <trkpt lat="37.839334431700884" lon="112.00816079147279">
        <ele>1142.1519379854858</ele>
        <time>2016-07-11T09:47:05.100000Z</time>
      </trkpt>
      <trkpt lat="37.839290168136266" lon="112.00817431262229">
        <ele>1142.4917396181036</ele>
        <time>2016-07-11T09:47:08.100000Z</time>
      </trkpt>
      <trkpt lat="37.83929363194733" lon="112.00810402972762">
        <ele>1142.9672320383352</ele>
        <time>2016-07-11T09:47:12.100000Z</time>
      </trkpt>
      <trkpt lat="37.839482636731205" lon="112.00804561871183">
        <ele>1144.0217565999938</ele>
        <time>2016-07-11T09:47:22.100000Z</time>
      </trkpt>
      <trkpt lat="37.83962504975533" lon="112.00805398154174">
        <ele>1143.7491609089152</ele>
        <time>2016-07-11T09:47:30.100000Z</time>
      </trkpt>
      <trkpt lat="37.83970758330102" lon="112.00803531983252">
        <ele>1143.1892464257294</ele>
        <time>2016-07-11T09:47:34.200000Z</time>
      </trkpt>
      <trkpt lat="37.84006561273704" lon="112.00806906671968">
        <ele>1139.9703577133714</ele>
        <time>2016-07-11T09:47:45.100000Z</time>
      </trkpt>
      <trkpt lat="37.840334931799376" lon="112.00810012103766">
        <ele>1135.9183380971983</ele>
        <time>2016-07-11T09:47:55.100000Z</time>
      </trkpt>
      <trkpt lat="37.840586437286085" lon="112.00809982070942">
        <ele>1135.412543915943</ele>
        <time>2016-07-11T09:48:02.100000Z</time>
      </trkpt>
      <trkpt lat="37.840915430337596" lon="112.00813573362902">
        <ele>1136.005323652162</ele>
        <time>2016-07-11T09:48:13.100000Z</time>
      </trkpt>
      <trkpt lat="37.8412670534875" lon="112.00813406976627">
        <ele>1136.9120538042353</ele>
        <time>2016-07-11T09:48:24.200000Z</time>
      </trkpt>
      <trkpt lat="37.84147278368753" lon="112.00810809477134">
        <ele>1138.271337153046</ele>
        <time>2016-07-11T09:48:32.100000Z</time>
      </trkpt>
      <trkpt lat="37.84180176352329" lon="112.00796532825827">
        <ele>1138.6666762481907</ele>
        <time>2016-07-11T09:48:43.100000Z</time>
      </trkpt>
      <trkpt lat="37.842060294273736" lon="112.00779175446951">
        <ele>1136.7698962506847</ele>
        <time>2016-07-11T09:48:53.100000Z</time>
      </trkpt>
      <trkpt lat="37.84234181465446" lon="112.00764250676069">
        <ele>1134.1492543798222</ele>
        <time>2016-07-11T09:49:04.100000Z</time>
      </trkpt>
      <trkpt lat="37.84251075437595" lon="112.00758031415529">
        <ele>1132.6022547406294</ele>
        <time>2016-07-11T09:49:10.100000Z</time>
      </trkpt>
      <trkpt lat="37.84268442921337" lon="112.00747676292185">
        <ele>1131.0020908553902</ele>
        <time>2016-07-11T09:49:18.100000Z</time>
      </trkpt>
      <trkpt lat="37.84282350889212" lon="112.00732861417974">
        <ele>1130.1178818438868</ele>
        <time>2016-07-11T09:49:25.100000Z</time>
      </trkpt>
      <trkpt lat="37.843049012705535" lon="112.00713098815004">
        <ele>1129.6525810015469</ele>
        <time>2016-07-11T09:49:35.100000Z</time>
      </trkpt>
      <trkpt lat="37.843229437582366" lon="112.0069474243139">
        <ele>1129.9418542578874</ele>
        <time>2016-07-11T09:49:43.100000Z</time>
      </trkpt>
      <trkpt lat="37.843465757725426" lon="112.0067622324322">
        <ele>1130.7610757067048</ele>
        <time>2016-07-11T09:49:50.100000Z</time>
      </trkpt>
      <trkpt lat="37.84363760614261" lon="112.00654353019192">
        <ele>1130.7828618128758</ele>
        <time>2016-07-11T09:49:58.100000Z</time>
      </trkpt>
      <trkpt lat="37.84381324111288" lon="112.00641997733541">
        <ele>1130.8379265406968</ele>
        <time>2016-07-11T09:50:05.100000Z</time>
      </trkpt>
      <trkpt lat="37.843928715864266" lon="112.00636373904578">
        <ele>1130.8267238702392</ele>
        <time>2016-07-11T09:50:08.200000Z</time>
      </trkpt>
      <trkpt lat="37.844220659681845" lon="112.00626828483595">
        <ele>1131.3776911234213</ele>
        <time>2016-07-11T09:50:19.100000Z</time>
      </trkpt>
      <trkpt lat="37.84452552301986" lon="112.00611660488852">
        <ele>1131.7542566961704</ele>
        <time>2016-07-11T09:50:30.100000Z</time>
      </trkpt>
      <trkpt lat="37.84472222193622" lon="112.00611712205031">
        <ele>1132.263853070739</ele>
        <time>2016-07-11T09:50:37.100000Z</time>
      </trkpt>
      <trkpt lat="37.84507868317531" lon="112.00622195956473">
        <ele>1131.0636175293935</ele>
        <time>2016-07-11T09:50:52.100000Z</time>
      </trkpt>
      <trkpt lat="37.84525057191382" lon="112.0062630261257">
        <ele>1130.904574987409</ele>
        <time>2016-07-11T09:50:58.100000Z</time>
      </trkpt>
      <trkpt lat="37.84541686763456" lon="112.00636004753345">
        <ele>1129.9239877861116</ele>
        <time>2016-07-11T09:51:05.100000Z</time>
      </trkpt>
      <trkpt lat="37.84554083972668" lon="112.00645680380785">
        <ele>1129.3826433955635</ele>
        <time>2016-07-11T09:51:11.100000Z</time>
      </trkpt>
      <trkpt lat="37.84588664711862" lon="112.00658624136241">
        <ele>1128.1489710214414</ele>
        <time>2016-07-11T09:51:23.100000Z</time>
      </trkpt>
      <trkpt lat="37.84616278006849" lon="112.00669811722206">
        <ele>1127.2310106399095</ele>
        <time>2016-07-11T09:51:30.100000Z</time>
      </trkpt>
      <trkpt lat="37.84635728697253" lon="112.00670593304837">
        <ele>1127.4544990268218</ele>
        <time>2016-07-11T09:51:37.100000Z</time>
      </trkpt>
      <trkpt lat="37.8464616670089" lon="112.00673105955656">
        <ele>1127.764987467246</ele>
        <time>2016-07-11T09:51:41.100000Z</time>
      </trkpt>
      <trkpt lat="37.846544963633086" lon="112.00672969806288">
        <ele>1127.664916839102</ele>
        <time>2016-07-11T09:51:44.100000Z</time>
      </trkpt>
      <trkpt lat="37.84671713211751" lon="112.00676806175872">
        <ele>1127.6581974271141</ele>
        <time>2016-07-11T09:51:51.100000Z</time>
      </trkpt>
      <trkpt lat="37.84683195077416" lon="112.00674993718806">
        <ele>1127.839076785254</ele>
        <time>2016-07-11T09:51:57.200000Z</time>
      </trkpt>
      <trkpt lat="37.84717723373888" lon="112.00678233338598">
        <ele>1128.0193802100596</ele>
        <time>2016-07-11T09:52:08.100000Z</time>
      </trkpt>
      <trkpt lat="37.847401608380125" lon="112.00678230661875">
        <ele>1127.7329066757086</ele>
        <time>2016-07-11T09:52:16.100000Z</time>
      </trkpt>
      <trkpt lat="37.847579802957114" lon="112.0068014774885">
        <ele>1127.4092591078615</ele>
        <time>2016-07-11T09:52:23.100000Z</time>
      </trkpt>
      <trkpt lat="37.847884015081746" lon="112.00686847852866">
        <ele>1126.541924692771</ele>
        <time>2016-07-11T09:52:31.100000Z</time>
      </trkpt>
      <trkpt lat="37.848198923473355" lon="112.00689682371919">
        <ele>1123.7327220728391</ele>
        <time>2016-07-11T09:52:42.100000Z</time>
      </trkpt>
      <trkpt lat="37.84836975334273" lon="112.00692924079267">
        <ele>1122.708780514431</ele>
        <time>2016-07-11T09:52:49.100000Z</time>
      </trkpt>
      <trkpt lat="37.84843903948315" lon="112.00698626842096">
        <ele>1122.6642561234507</ele>
        <time>2016-07-11T09:52:53.100000Z</time>
      </trkpt>
      <trkpt lat="37.84866422402673" lon="112.00735278616095">
        <ele>1122.746187609123</ele>
        <time>2016-07-11T09:53:08.100000Z</time>
      </trkpt>
      <trkpt lat="37.848842534947515" lon="112.00769849720996">
        <ele>1122.3003349242774</ele>
        <time>2016-07-11T09:53:19.100000Z</time>
      </trkpt>
      <trkpt lat="37.848953960005005" lon="112.0079098707948">
        <ele>1121.8981656054643</ele>
        <time>2016-07-11T09:53:26.100000Z</time>
      </trkpt>
      <trkpt lat="37.84910252331479" lon="112.00813205331772">
        <ele>1120.9976263930994</ele>
        <time>2016-07-11T09:53:33.100000Z</time>
      </trkpt>
      <trkpt lat="37.849145806052036" lon="112.00826666620007">
        <ele>1120.8787042525826</ele>
        <time>2016-07-11T09:53:37.100000Z</time>
      </trkpt>
      <trkpt lat="37.84929451540503" lon="112.00853156030597">
        <ele>1120.5515494071385</ele>
        <time>2016-07-11T09:53:48.100000Z</time>
      </trkpt>
      <trkpt lat="37.84949094382458" lon="112.0088075329594">
        <ele>1120.0239817114502</ele>
        <time>2016-07-11T09:53:59.200000Z</time>
      </trkpt>
      <trkpt lat="37.849646831108366" lon="112.0090310693999">
        <ele>1119.4267976573562</ele>
        <time>2016-07-11T09:54:07.100000Z</time>
      </trkpt>
      <trkpt lat="37.84978350263391" lon="112.00933083981782">
        <ele>1118.0604734920516</ele>
        <time>2016-07-11T09:54:17.100000Z</time>
      </trkpt>
      <trkpt lat="37.84981607105822" lon="112.00941923140509">
        <ele>1117.5944991147655</ele>
        <time>2016-07-11T09:54:20.100000Z</time>
      </trkpt>
      <trkpt lat="37.849838309911306" lon="112.00960656272267">
        <ele>1116.2063878587173</ele>
        <time>2016-07-11T09:54:27.100000Z</time>
      </trkpt>
      <trkpt lat="37.84982501149107" lon="112.00997717919508">
        <ele>1114.1166705834037</ele>
        <time>2016-07-11T09:54:38.100000Z</time>
      </trkpt>
      <trkpt lat="37.84980198715523" lon="112.01024183110135">
        <ele>1113.7332389987141</ele>
        <time>2016-07-11T09:54:46.100000Z</time>
      </trkpt>
      <trkpt lat="37.8498062617775" lon="112.01054216429264">
        <ele>1113.6142916358924</ele>
        <time>2016-07-11T09:54:54.100000Z</time>
      </trkpt>
      <trkpt lat="37.84976996067073" lon="112.01098713048863">
        <ele>1113.1788440794887</ele>
        <time>2016-07-11T09:55:04.100000Z</time>
      </trkpt>
      <trkpt lat="37.84976743047062" lon="112.01138911346806">
        <ele>1113.5325982210645</ele>
        <time>2016-07-11T09:55:15.100000Z</time>
      </trkpt>
      <trkpt lat="37.84977876030816" lon="112.01150454415269">
        <ele>1113.5844621802648</ele>
        <time>2016-07-11T09:55:19.200000Z</time>
      </trkpt>
      <trkpt lat="37.849754424451866" lon="112.011848952369">
        <ele>1113.9380811851454</ele>
        <time>2016-07-11T09:55:30.200000Z</time>
      </trkpt>
      <trkpt lat="37.84973727250652" lon="112.01214929719308">
        <ele>1114.1811360917825</ele>
        <time>2016-07-11T09:55:37.100000Z</time>
      </trkpt>
      <trkpt lat="37.84971631519714" lon="112.01226554445338">
        <ele>1114.0300425393925</ele>
        <time>2016-07-11T09:55:41.100000Z</time>
      </trkpt>
      <trkpt lat="37.849716355220316" lon="112.01262590489983">
        <ele>1112.1628488394335</ele>
        <time>2016-07-11T09:55:55.100000Z</time>
      </trkpt>
      <trkpt lat="37.84967826663045" lon="112.01294328834979">
        <ele>1111.2229941484181</ele>
        <time>2016-07-11T09:56:02.100000Z</time>
      </trkpt>
      <trkpt lat="37.84958690552207" lon="112.013388282037">
        <ele>1110.4819555751624</ele>
        <time>2016-07-11T09:56:16.100000Z</time>
      </trkpt>
      <trkpt lat="37.849560256856925" lon="112.01378569131917">
        <ele>1108.646111269472</ele>
        <time>2016-07-11T09:56:27.100000Z</time>
      </trkpt>
      <trkpt lat="37.84951815536898" lon="112.01417986165245">
        <ele>1105.439545881858</ele>
        <time>2016-07-11T09:56:39.100000Z</time>
      </trkpt>
      <trkpt lat="37.84948867641021" lon="112.01433612642845">
        <ele>1104.6773754305605</ele>
        <time>2016-07-11T09:56:43.100000Z</time>
      </trkpt>
      <trkpt lat="37.84947504642314" lon="112.01454781153878">
        <ele>1103.979310321079</ele>
        <time>2016-07-11T09:56:47.100000Z</time>
      </trkpt>
      <trkpt lat="37.84947346069349" lon="112.01481735138684">
        <ele>1102.8591300664805</ele>
        <time>2016-07-11T09:56:54.100000Z</time>
      </trkpt>
      <trkpt lat="37.84942937555115" lon="112.01514853851187">
        <ele>1102.4566759010597</ele>
        <time>2016-07-11T09:57:04.100000Z</time>
      </trkpt>
      <trkpt lat="37.84943907612384" lon="112.01526695236063">
        <ele>1102.2079848953683</ele>
        <time>2016-07-11T09:57:08.100000Z</time>
      </trkpt>
      <trkpt lat="37.84936827038855" lon="112.01564545845699">
        <ele>1099.8426021353105</ele>
        <time>2016-07-11T09:57:20.100000Z</time>
      </trkpt>
      <trkpt lat="37.84931266805491" lon="112.01611696965796">
        <ele>1097.6267870840138</ele>
        <time>2016-07-11T09:57:31.100000Z</time>
      </trkpt>
      <trkpt lat="37.84924943893944" lon="112.01650467469199">
        <ele>1096.4446000751216</ele>
        <time>2016-07-11T09:57:38.100000Z</time>
      </trkpt>
      <trkpt lat="37.84921005421155" lon="112.01680829716318">
        <ele>1096.6287974282207</ele>
        <time>2016-07-11T09:57:46.100000Z</time>
      </trkpt>
      <trkpt lat="37.84919490797632" lon="112.01717626615256">
        <ele>1098.1219584223911</ele>
        <time>2016-07-11T09:57:56.200000Z</time>
      </trkpt>
      <trkpt lat="37.84917716378575" lon="112.01760074595032">
        <ele>1099.539728279554</ele>
        <time>2016-07-11T09:58:07.100000Z</time>
      </trkpt>
      <trkpt lat="37.84917074479768" lon="112.01776107608083">
        <ele>1099.7062001383676</ele>
        <time>2016-07-11T09:58:11.100000Z</time>
      </trkpt>
      <trkpt lat="37.849184387174724" lon="112.01812093917182">
        <ele>1100.4749374792732</ele>
        <time>2016-07-11T09:58:18.100000Z</time>
      </trkpt>
      <trkpt lat="37.84917893270995" lon="112.01822800765328">
        <ele>1101.0922233473661</ele>
        <time>2016-07-11T09:58:21.100000Z</time>
      </trkpt>
      <trkpt lat="37.84920876051293" lon="112.0184280811109">
        <ele>1107.736070520335</ele>
        <time>2016-07-11T09:58:25.100000Z</time>
      </trkpt>
      <trkpt lat="37.849253082517684" lon="112.01858732703992">
        <ele>1108.096265885927</ele>
        <time>2016-07-11T09:58:28.100000Z</time>
      </trkpt>
      <trkpt lat="37.84926091731794" lon="112.01869655823295">
        <ele>1108.9573577674632</ele>
        <time>2016-07-11T09:58:35.100000Z</time>
      </trkpt>
      <trkpt lat="37.849215087594146" lon="112.01907860826994">
        <ele>1109.767370540995</ele>
        <time>2016-07-11T09:58:46.100000Z</time>
      </trkpt>
      <trkpt lat="37.84920737795619" lon="112.01941252955952">
        <ele>1110.1788829236073</ele>
        <time>2016-07-11T09:58:56.100000Z</time>
      </trkpt>
      <trkpt lat="37.84917957542587" lon="112.01955691719604">
        <ele>1110.0343968118527</ele>
        <time>2016-07-11T09:59:06.100000Z</time>
      </trkpt>
      <trkpt lat="37.84916512549081" lon="112.01997493358428">
        <ele>1110.6111943446506</ele>
        <time>2016-07-11T09:59:26.100000Z</time>
      </trkpt>
      <trkpt lat="37.84917652385804" lon="112.02036753505718">
        <ele>1111.5486186755563</ele>
        <time>2016-07-11T09:59:37.100000Z</time>
      </trkpt>
      <trkpt lat="37.84914401310537" lon="112.02074554489185">
        <ele>1111.2398900102337</ele>
        <time>2016-07-11T09:59:47.100000Z</time>
      </trkpt>
      <trkpt lat="37.849110462639956" lon="112.0210089116372">
        <ele>1110.771434545042</ele>
        <time>2016-07-11T09:59:54.100000Z</time>
      </trkpt>
      <trkpt lat="37.849135037902506" lon="112.02114978421184">
        <ele>1111.0582645592854</ele>
        <time>2016-07-11T09:59:58.100000Z</time>
      </trkpt>
      <trkpt lat="37.84913273641348" lon="112.02139638560914">
        <ele>1111.3731432734223</ele>
        <time>2016-07-11T10:00:05.100000Z</time>
      </trkpt>
      <trkpt lat="37.84911475378915" lon="112.02152374494727">
        <ele>1111.1004051993632</ele>
        <time>2016-07-11T10:00:09.100000Z</time>
      </trkpt>
      <trkpt lat="37.84911331993927" lon="112.02195097644076">
        <ele>1111.0910973434875</ele>
        <time>2016-07-11T10:00:20.100000Z</time>
      </trkpt>
      <trkpt lat="37.849069854492456" lon="112.02237172858186">
        <ele>1110.7398267793824</ele>
        <time>2016-07-11T10:00:32.100000Z</time>
      </trkpt>
      <trkpt lat="37.849065322756665" lon="112.02274353746665">
        <ele>1109.3412728980327</ele>
        <time>2016-07-11T10:00:43.100000Z</time>
      </trkpt>
      <trkpt lat="37.849063218618916" lon="112.0231218400376">
        <ele>1107.274101186348</ele>
        <time>2016-07-11T10:00:53.100000Z</time>
      </trkpt>
      <trkpt lat="37.84902414048925" lon="112.02352962647579">
        <ele>1105.631214205724</ele>
        <time>2016-07-11T10:01:09.100000Z</time>
      </trkpt>
      <trkpt lat="37.8490680956668" lon="112.02362994493569">
        <ele>1105.8865809349313</ele>
        <time>2016-07-11T10:01:13.100000Z</time>
      </trkpt>
      <trkpt lat="37.84907544857612" lon="112.02372107396886">
        <ele>1106.5961823065363</ele>
        <time>2016-07-11T10:01:20.100000Z</time>
      </trkpt>
      <trkpt lat="37.84901198640425" lon="112.02381329342711">
        <ele>1106.4535499164124</ele>
        <time>2016-07-11T10:01:27.100000Z</time>
      </trkpt>
      <trkpt lat="37.84897348076525" lon="112.02400880964575">
        <ele>1105.8242774384219</ele>
        <time>2016-07-11T10:01:42.100000Z</time>
      </trkpt>
      <trkpt lat="37.84902404762489" lon="112.0242757072032">
        <ele>1105.350183235992</ele>
        <time>2016-07-11T10:01:57.100000Z</time>
      </trkpt>
      <trkpt lat="37.84902079348609" lon="112.02437711533037">
        <ele>1105.313234002915</ele>
        <time>2016-07-11T10:02:05.100000Z</time>
      </trkpt>
      <trkpt lat="37.84899650945822" lon="112.02442876871146">
        <ele>1105.510208780274</ele>
        <time>2016-07-11T10:02:09.100000Z</time>
      </trkpt>
      <trkpt lat="37.84904661458927" lon="112.02466619365072">
        <ele>1106.2574393502086</ele>
        <time>2016-07-11T10:02:31Z</time>
      </trkpt>
      <trkpt lat="37.84903858282232" lon="112.02503559529518">
        <ele>1105.4611769511923</ele>
        <time>2016-07-11T10:02:57.100000Z</time>
      </trkpt>
      <trkpt lat="37.84904489004576" lon="112.02511293666346">
        <ele>1105.1726888560172</ele>
        <time>2016-07-11T10:03:01.100000Z</time>
      </trkpt>
      <trkpt lat="37.84907106026307" lon="112.02516864160218">
        <ele>1105.2257607178483</ele>
        <time>2016-07-11T10:03:04.100000Z</time>
      </trkpt>
      <trkpt lat="37.849084117031346" lon="112.02525869263017">
        <ele>1105.2901947295018</ele>
        <time>2016-07-11T10:03:08.100000Z</time>
      </trkpt>
      <trkpt lat="37.8490495563566" lon="112.02529817938505">
        <ele>1105.4193148846016</ele>
        <time>2016-07-11T10:03:11.100000Z</time>
      </trkpt>
    </trkseg>
  </trk>
</gpx>