<?xml version="1.0" encoding="UTF-8"?>
<gpx xmlns="http://www.topografix.com/GPX/1/1" xmlns:gpxtpx="http://www.garmin.com/xmlschemas/TrackPointExtension/v1" xmlns:xsi="http://www.w3.org/2001/XMLSchema-instance" xsi:schemaLocation="http://www.topografix.com/GPX/1/1 http://www.topografix.com/GPX/1/1/gpx.xsd" version="1.1" creator="gpx.py -- https://github.com/tkrajina/gpxpy">
  <trk>
    <name>gpx from keep</name>
    <type>Run</type>
    <trkseg>
      <trkpt lat="37.847304061705636" lon="112.02785702510286">
        <ele>1116.0</ele>
        <time>2018-05-15T11:10:29.600000Z</time>
      </trkpt>
      <trkpt lat="37.84732979361601" lon="112.02776804345373">
        <ele>1113.0</ele>
        <time>2018-05-15T11:10:32.500000Z</time>
      </trkpt>
      <trkpt lat="37.84731620251943" lon="112.02766690328994">
        <ele>1108.0</ele>
        <time>2018-05-15T11:10:35.500000Z</time>
      </trkpt>
      <trkpt lat="37.84740061015592" lon="112.02744539311215">
        <ele>1105.0</ele>
        <time>2018-05-15T11:10:44.600000Z</time>
      </trkpt>
      <trkpt lat="37.84748711862012" lon="112.02731159906911">
        <ele>1104.0</ele>
        <time>2018-05-15T11:10:50.600000Z</time>
      </trkpt>
      <trkpt lat="37.84747346435956" lon="112.02722223635342">
        <ele>1105.0</ele>
        <time>2018-05-15T11:10:53.600000Z</time>
      </trkpt>
      <trkpt lat="37.847623593981076" lon="112.02689183519085">
        <ele>1103.0</ele>
        <time>2018-05-15T11:11:02.600000Z</time>
      </trkpt>
      <trkpt lat="37.84766275820304" lon="112.0267976407828">
        <ele>1101.0</ele>
        <time>2018-05-15T11:11:05.600000Z</time>
      </trkpt>
      <trkpt lat="37.84778171562835" lon="112.02664590876654">
        <ele>1101.0</ele>
        <time>2018-05-15T11:11:11.600000Z</time>
      </trkpt>
      <trkpt lat="37.84780523768483" lon="112.02657315743109">
        <ele>1102.0</ele>
        <time>2018-05-15T11:11:14.600000Z</time>
      </trkpt>
      <trkpt lat="37.847878898306234" lon="112.02652122409837">
        <ele>1104.0</ele>
        <time>2018-05-15T11:11:17.600000Z</time>
      </trkpt>
      <trkpt lat="37.848146900722675" lon="112.02654174530976">
        <ele>1101.0</ele>
        <time>2018-05-15T11:11:26.600000Z</time>
      </trkpt>
      <trkpt lat="37.84832852050356" lon="112.02660284296401">
        <ele>1099.0</ele>
        <time>2018-05-15T11:11:32.700000Z</time>
      </trkpt>
      <trkpt lat="37.84863443072577" lon="112.02665256727796">
        <ele>1099.0</ele>
        <time>2018-05-15T11:11:44.600000Z</time>
      </trkpt>
      <trkpt lat="37.848872986942" lon="112.02662441275564">
        <ele>1109.0</ele>
        <time>2018-05-15T11:11:53.600000Z</time>
      </trkpt>
      <trkpt lat="37.84891638029501" lon="112.02652650817502">
        <ele>1106.0</ele>
        <time>2018-05-15T11:11:56.600000Z</time>
      </trkpt>
      <trkpt lat="37.84891724420523" lon="112.02640318777779">
        <ele>1104.0</ele>
        <time>2018-05-15T11:11:59.600000Z</time>
      </trkpt>
      <trkpt lat="37.848938973886604" lon="112.02629895335347">
        <ele>1107.0</ele>
        <time>2018-05-15T11:12:02.600000Z</time>
      </trkpt>
      <trkpt lat="37.8489446859459" lon="112.02620127856103">
        <ele>1105.0</ele>
        <time>2018-05-15T11:12:05.600000Z</time>
      </trkpt>
      <trkpt lat="37.84893099774615" lon="112.02611161572386">
        <ele>1107.0</ele>
        <time>2018-05-15T11:12:08.600000Z</time>
      </trkpt>
      <trkpt lat="37.84892393419865" lon="112.02600305468798">
        <ele>1108.0</ele>
        <time>2018-05-15T11:12:11.600000Z</time>
      </trkpt>
      <trkpt lat="37.84892223119923" lon="112.02590097081818">
        <ele>1108.0</ele>
        <time>2018-05-15T11:12:14.600000Z</time>
      </trkpt>
      <trkpt lat="37.848993956705996" lon="112.02573335178357">
        <ele>1110.0</ele>
        <time>2018-05-15T11:12:20.600000Z</time>
      </trkpt>
      <trkpt lat="37.848976597255614" lon="112.02550070444894">
        <ele>1110.0</ele>
        <time>2018-05-15T11:12:26.600000Z</time>
      </trkpt>
      <trkpt lat="37.84902341959798" lon="112.02534269296883">
        <ele>1105.0</ele>
        <time>2018-05-15T11:12:32.600000Z</time>
      </trkpt>
      <trkpt lat="37.84900316970926" lon="112.02514415145322">
        <ele>1104.0</ele>
        <time>2018-05-15T11:12:38.600000Z</time>
      </trkpt>
      <trkpt lat="37.84893978440687" lon="112.02494606184095">
        <ele>1105.0</ele>
        <time>2018-05-15T11:12:44.600000Z</time>
      </trkpt>
      <trkpt lat="37.84893731561416" lon="112.02484258673896">
        <ele>1107.0</ele>
        <time>2018-05-15T11:12:47.600000Z</time>
      </trkpt>
      <trkpt lat="37.84898957610669" lon="112.02482167681633">
        <ele>1107.0</ele>
        <time>2018-05-15T11:12:50.600000Z</time>
      </trkpt>
      <trkpt lat="37.84902068515904" lon="112.0246976889245">
        <ele>1107.0</ele>
        <time>2018-05-15T11:12:53.600000Z</time>
      </trkpt>
      <trkpt lat="37.84903834043812" lon="112.0245735906755">
        <ele>1104.0</ele>
        <time>2018-05-15T11:12:56.600000Z</time>
      </trkpt>
      <trkpt lat="37.84908456296306" lon="112.02447500024309">
        <ele>1102.0</ele>
        <time>2018-05-15T11:12:59.600000Z</time>
      </trkpt>
      <trkpt lat="37.84906724660215" lon="112.0243440764935">
        <ele>1103.0</ele>
        <time>2018-05-15T11:13:02.600000Z</time>
      </trkpt>
      <trkpt lat="37.849011462744606" lon="112.02417553510615">
        <ele>1105.0</ele>
        <time>2018-05-15T11:13:08.600000Z</time>
      </trkpt>
      <trkpt lat="37.8490566712899" lon="112.02395476590132">
        <ele>1104.0</ele>
        <time>2018-05-15T11:13:14.600000Z</time>
      </trkpt>
      <trkpt lat="37.84905531889382" lon="112.02353800556595">
        <ele>1100.0</ele>
        <time>2018-05-15T11:13:26.700000Z</time>
      </trkpt>
      <trkpt lat="37.849079424785536" lon="112.02345201111807">
        <ele>1100.0</ele>
        <time>2018-05-15T11:13:29.600000Z</time>
      </trkpt>
      <trkpt lat="37.84905139617721" lon="112.02338197750481">
        <ele>1100.0</ele>
        <time>2018-05-15T11:13:32.700000Z</time>
      </trkpt>
      <trkpt lat="37.84904403053867" lon="112.02319485329163">
        <ele>1099.0</ele>
        <time>2018-05-15T11:13:38.600000Z</time>
      </trkpt>
      <trkpt lat="37.84909938139882" lon="112.02289258924662">
        <ele>1096.0</ele>
        <time>2018-05-15T11:13:47.600000Z</time>
      </trkpt>
      <trkpt lat="37.84909129346866" lon="112.02249955032437">
        <ele>1089.0</ele>
        <time>2018-05-15T11:13:59.600000Z</time>
      </trkpt>
      <trkpt lat="37.849091385807036" lon="112.02210434931965">
        <ele>1094.0</ele>
        <time>2018-05-15T11:14:11.600000Z</time>
      </trkpt>
      <trkpt lat="37.849121259957776" lon="112.02172492078962">
        <ele>1093.0</ele>
        <time>2018-05-15T11:14:23.600000Z</time>
      </trkpt>
      <trkpt lat="37.84910007170967" lon="112.0213296826566">
        <ele>1092.0</ele>
        <time>2018-05-15T11:14:35.600000Z</time>
      </trkpt>
      <trkpt lat="37.849130387029575" lon="112.0209450833035">
        <ele>1088.0</ele>
        <time>2018-05-15T11:14:47.600000Z</time>
      </trkpt>
      <trkpt lat="37.84910961889195" lon="112.02085632750567">
        <ele>1093.0</ele>
        <time>2018-05-15T11:14:50.600000Z</time>
      </trkpt>
      <trkpt lat="37.84909666523499" lon="112.02045477853616">
        <ele>1088.0</ele>
        <time>2018-05-15T11:15:02.600000Z</time>
      </trkpt>
      <trkpt lat="37.84907319184708" lon="112.02034814863835">
        <ele>1090.0</ele>
        <time>2018-05-15T11:15:05.600000Z</time>
      </trkpt>
      <trkpt lat="37.84911142917839" lon="112.01996140435503">
        <ele>1090.0</ele>
        <time>2018-05-15T11:15:17.600000Z</time>
      </trkpt>
      <trkpt lat="37.84912053992081" lon="112.01965470284529">
        <ele>1091.0</ele>
        <time>2018-05-15T11:15:26.600000Z</time>
      </trkpt>
      <trkpt lat="37.84911154055646" lon="112.01946165082494">
        <ele>1091.0</ele>
        <time>2018-05-15T11:15:32.600000Z</time>
      </trkpt>
      <trkpt lat="37.84913234911151" lon="112.01909575978397">
        <ele>1091.0</ele>
        <time>2018-05-15T11:15:44.600000Z</time>
      </trkpt>
      <trkpt lat="37.84915991130611" lon="112.01870716866412">
        <ele>1091.0</ele>
        <time>2018-05-15T11:15:56.600000Z</time>
      </trkpt>
      <trkpt lat="37.849180311074974" lon="112.01839987086329">
        <ele>1092.0</ele>
        <time>2018-05-15T11:16:05.600000Z</time>
      </trkpt>
      <trkpt lat="37.84916970055366" lon="112.01818583473316">
        <ele>1086.0</ele>
        <time>2018-05-15T11:16:11.600000Z</time>
      </trkpt>
      <trkpt lat="37.849187237527055" lon="112.01786157456883">
        <ele>1087.0</ele>
        <time>2018-05-15T11:16:20.600000Z</time>
      </trkpt>
      <trkpt lat="37.849241318883614" lon="112.0175301630304">
        <ele>1092.0</ele>
        <time>2018-05-15T11:16:32.600000Z</time>
      </trkpt>
      <trkpt lat="37.84926910455419" lon="112.01746079759789">
        <ele>1092.0</ele>
        <time>2018-05-15T11:16:35.600000Z</time>
      </trkpt>
      <trkpt lat="37.84932014236994" lon="112.01705865802582">
        <ele>1092.0</ele>
        <time>2018-05-15T11:16:50.600000Z</time>
      </trkpt>
      <trkpt lat="37.84938184015037" lon="112.01668736814153">
        <ele>1094.0</ele>
        <time>2018-05-15T11:17:02.600000Z</time>
      </trkpt>
      <trkpt lat="37.84939920645259" lon="112.016597733775">
        <ele>1094.0</ele>
        <time>2018-05-15T11:17:05.600000Z</time>
      </trkpt>
      <trkpt lat="37.84941119713681" lon="112.01624106055726">
        <ele>1095.0</ele>
        <time>2018-05-15T11:17:17.600000Z</time>
      </trkpt>
      <trkpt lat="37.849414652433104" lon="112.01601859025399">
        <ele>1093.0</ele>
        <time>2018-05-15T11:17:23.600000Z</time>
      </trkpt>
      <trkpt lat="37.84945042119296" lon="112.01582760146573">
        <ele>1093.0</ele>
        <time>2018-05-15T11:17:29.600000Z</time>
      </trkpt>
      <trkpt lat="37.849480827795574" lon="112.015737016454">
        <ele>1093.0</ele>
        <time>2018-05-15T11:17:32.600000Z</time>
      </trkpt>
      <trkpt lat="37.8495383836493" lon="112.01535090220302">
        <ele>1097.0</ele>
        <time>2018-05-15T11:17:44.600000Z</time>
      </trkpt>
      <trkpt lat="37.84957820094476" lon="112.01517943573442">
        <ele>1096.0</ele>
        <time>2018-05-15T11:17:50.600000Z</time>
      </trkpt>
      <trkpt lat="37.84959679421227" lon="112.01499840504114">
        <ele>1094.0</ele>
        <time>2018-05-15T11:17:56.600000Z</time>
      </trkpt>
      <trkpt lat="37.849591204804035" lon="112.01482572203219">
        <ele>1092.0</ele>
        <time>2018-05-15T11:18:02.600000Z</time>
      </trkpt>
      <trkpt lat="37.84961803711553" lon="112.01463617276043">
        <ele>1094.0</ele>
        <time>2018-05-15T11:18:08.600000Z</time>
      </trkpt>
      <trkpt lat="37.849618123249776" lon="112.01444949866261">
        <ele>1092.0</ele>
        <time>2018-05-15T11:18:14.600000Z</time>
      </trkpt>
      <trkpt lat="37.8496343034587" lon="112.01426613653825">
        <ele>1091.0</ele>
        <time>2018-05-15T11:18:20.600000Z</time>
      </trkpt>
      <trkpt lat="37.84967933109871" lon="112.01399791346917">
        <ele>1093.0</ele>
        <time>2018-05-15T11:18:29.600000Z</time>
      </trkpt>
      <trkpt lat="37.849697342983745" lon="112.01361852710781">
        <ele>1096.0</ele>
        <time>2018-05-15T11:18:41.700000Z</time>
      </trkpt>
      <trkpt lat="37.849716852844956" lon="112.01322758863742">
        <ele>1098.0</ele>
        <time>2018-05-15T11:18:53.600000Z</time>
      </trkpt>
      <trkpt lat="37.84976532631876" lon="112.01282917962816">
        <ele>1097.0</ele>
        <time>2018-05-15T11:19:05.600000Z</time>
      </trkpt>
      <trkpt lat="37.84980171984675" lon="112.01266706946338">
        <ele>1095.0</ele>
        <time>2018-05-15T11:19:11.600000Z</time>
      </trkpt>
      <trkpt lat="37.84979475711908" lon="112.0123802299966">
        <ele>1096.0</ele>
        <time>2018-05-15T11:19:20.600000Z</time>
      </trkpt>
      <trkpt lat="37.849805985484196" lon="112.01198902217735">
        <ele>1092.0</ele>
        <time>2018-05-15T11:19:32.600000Z</time>
      </trkpt>
      <trkpt lat="37.84984448354776" lon="112.01163291074548">
        <ele>1095.0</ele>
        <time>2018-05-15T11:19:41.600000Z</time>
      </trkpt>
      <trkpt lat="37.84990142489397" lon="112.01135101047727">
        <ele>1098.0</ele>
        <time>2018-05-15T11:19:50.600000Z</time>
      </trkpt>
      <trkpt lat="37.84990143162769" lon="112.01124826491646">
        <ele>1096.0</ele>
        <time>2018-05-15T11:19:53.600000Z</time>
      </trkpt>
      <trkpt lat="37.84992757194804" lon="112.01083069922274">
        <ele>1097.0</ele>
        <time>2018-05-15T11:20:05.600000Z</time>
      </trkpt>
      <trkpt lat="37.84995402825194" lon="112.01047222201986">
        <ele>1098.0</ele>
        <time>2018-05-15T11:20:14.600000Z</time>
      </trkpt>
      <trkpt lat="37.849951124258425" lon="112.01025567927212">
        <ele>1099.0</ele>
        <time>2018-05-15T11:20:20.600000Z</time>
      </trkpt>
      <trkpt lat="37.84996786744512" lon="112.00994387820306">
        <ele>1096.0</ele>
        <time>2018-05-15T11:20:29.600000Z</time>
      </trkpt>
      <trkpt lat="37.849939388186826" lon="112.00983426601479">
        <ele>1097.0</ele>
        <time>2018-05-15T11:20:32.700000Z</time>
      </trkpt>
      <trkpt lat="37.849920355589056" lon="112.00973234271675">
        <ele>1096.0</ele>
        <time>2018-05-15T11:20:35.600000Z</time>
      </trkpt>
      <trkpt lat="37.84992254015642" lon="112.00963138892169">
        <ele>1096.0</ele>
        <time>2018-05-15T11:20:38.600000Z</time>
      </trkpt>
      <trkpt lat="37.84983779478665" lon="112.00930579457089">
        <ele>1103.0</ele>
        <time>2018-05-15T11:20:47.600000Z</time>
      </trkpt>
      <trkpt lat="37.84966996670888" lon="112.00895136471811">
        <ele>1107.0</ele>
        <time>2018-05-15T11:20:59.600000Z</time>
      </trkpt>
      <trkpt lat="37.84946485549164" lon="112.00864170779931">
        <ele>1105.0</ele>
        <time>2018-05-15T11:21:11.600000Z</time>
      </trkpt>
      <trkpt lat="37.849417976960225" lon="112.00857542906597">
        <ele>1107.0</ele>
        <time>2018-05-15T11:21:14.600000Z</time>
      </trkpt>
      <trkpt lat="37.84934375018954" lon="112.00843752625084">
        <ele>1109.0</ele>
        <time>2018-05-15T11:21:20.600000Z</time>
      </trkpt>
      <trkpt lat="37.8491603781086" lon="112.00814321072701">
        <ele>1110.0</ele>
        <time>2018-05-15T11:21:32.600000Z</time>
      </trkpt>
      <trkpt lat="37.84900651481134" lon="112.00789298659636">
        <ele>1107.0</ele>
        <time>2018-05-15T11:21:41.600000Z</time>
      </trkpt>
      <trkpt lat="37.84877963454704" lon="112.00760845903753">
        <ele>1103.0</ele>
        <time>2018-05-15T11:21:53.600000Z</time>
      </trkpt>
      <trkpt lat="37.84859204135271" lon="112.00731885675211">
        <ele>1108.0</ele>
        <time>2018-05-15T11:22:05.600000Z</time>
      </trkpt>
      <trkpt lat="37.84841058993806" lon="112.00706466245894">
        <ele>1112.0</ele>
        <time>2018-05-15T11:22:17.600000Z</time>
      </trkpt>
      <trkpt lat="37.84828939039313" lon="112.006947631612">
        <ele>1117.0</ele>
        <time>2018-05-15T11:22:23.600000Z</time>
      </trkpt>
      <trkpt lat="37.848149051184606" lon="112.00688034063543">
        <ele>1116.0</ele>
        <time>2018-05-15T11:22:29.600000Z</time>
      </trkpt>
      <trkpt lat="37.84782116007123" lon="112.00683848140679">
        <ele>1117.0</ele>
        <time>2018-05-15T11:22:41.600000Z</time>
      </trkpt>
      <trkpt lat="37.847588791640845" lon="112.00678958270238">
        <ele>1119.0</ele>
        <time>2018-05-15T11:22:50.600000Z</time>
      </trkpt>
      <trkpt lat="37.847360887509076" lon="112.00679042082596">
        <ele>1124.0</ele>
        <time>2018-05-15T11:22:59.700000Z</time>
      </trkpt>
      <trkpt lat="37.84722647067798" lon="112.00673880735332">
        <ele>1123.0</ele>
        <time>2018-05-15T11:23:05.600000Z</time>
      </trkpt>
      <trkpt lat="37.8470468930387" lon="112.006728556941">
        <ele>1123.0</ele>
        <time>2018-05-15T11:23:11.600000Z</time>
      </trkpt>
      <trkpt lat="37.84696395300984" lon="112.00670126538648">
        <ele>1124.0</ele>
        <time>2018-05-15T11:23:14.600000Z</time>
      </trkpt>
      <trkpt lat="37.84667234470721" lon="112.00668400025003">
        <ele>1125.0</ele>
        <time>2018-05-15T11:23:26.600000Z</time>
      </trkpt>
      <trkpt lat="37.84650773353738" lon="112.00665888094359">
        <ele>1127.0</ele>
        <time>2018-05-15T11:23:32.600000Z</time>
      </trkpt>
      <trkpt lat="37.846262472878664" lon="112.00665728833286">
        <ele>1126.0</ele>
        <time>2018-05-15T11:23:41.600000Z</time>
      </trkpt>
      <trkpt lat="37.84599635029418" lon="112.0065548722204">
        <ele>1127.0</ele>
        <time>2018-05-15T11:23:53.600000Z</time>
      </trkpt>
      <trkpt lat="37.845703461349956" lon="112.00649693079374">
        <ele>1130.0</ele>
        <time>2018-05-15T11:24:05.600000Z</time>
      </trkpt>
      <trkpt lat="37.84539409199847" lon="112.0063551846692">
        <ele>1133.0</ele>
        <time>2018-05-15T11:24:17.600000Z</time>
      </trkpt>
      <trkpt lat="37.84520193269042" lon="112.00628239659443">
        <ele>1132.0</ele>
        <time>2018-05-15T11:24:26.600000Z</time>
      </trkpt>
      <trkpt lat="37.84512420956367" lon="112.0062725237935">
        <ele>1130.0</ele>
        <time>2018-05-15T11:24:29.700000Z</time>
      </trkpt>
      <trkpt lat="37.84490245031615" lon="112.00619774583619">
        <ele>1125.0</ele>
        <time>2018-05-15T11:24:38.600000Z</time>
      </trkpt>
      <trkpt lat="37.84481078778872" lon="112.00618304945672">
        <ele>1125.0</ele>
        <time>2018-05-15T11:24:41.600000Z</time>
      </trkpt>
      <trkpt lat="37.84463842727278" lon="112.00612577419353">
        <ele>1125.0</ele>
        <time>2018-05-15T11:24:47.600000Z</time>
      </trkpt>
      <trkpt lat="37.844468095724025" lon="112.00612984656705">
        <ele>1130.0</ele>
        <time>2018-05-15T11:24:53.600000Z</time>
      </trkpt>
      <trkpt lat="37.84416100149473" lon="112.00626829644978">
        <ele>1132.0</ele>
        <time>2018-05-15T11:25:05.600000Z</time>
      </trkpt>
      <trkpt lat="37.84409345974076" lon="112.00631599403602">
        <ele>1132.0</ele>
        <time>2018-05-15T11:25:08.600000Z</time>
      </trkpt>
      <trkpt lat="37.84401989342054" lon="112.00636872165141">
        <ele>1131.0</ele>
        <time>2018-05-15T11:25:11.600000Z</time>
      </trkpt>
      <trkpt lat="37.843809461712794" lon="112.00653810741841">
        <ele>1133.0</ele>
        <time>2018-05-15T11:25:20.600000Z</time>
      </trkpt>
      <trkpt lat="37.843556323889125" lon="112.00673049807749">
        <ele>1134.0</ele>
        <time>2018-05-15T11:25:32.600000Z</time>
      </trkpt>
      <trkpt lat="37.84343301924457" lon="112.0068465711154">
        <ele>1139.0</ele>
        <time>2018-05-15T11:25:38.600000Z</time>
      </trkpt>
      <trkpt lat="37.8432963543745" lon="112.00692810375567">
        <ele>1138.0</ele>
        <time>2018-05-15T11:25:44.600000Z</time>
      </trkpt>
      <trkpt lat="37.84309785016124" lon="112.00713079912683">
        <ele>1137.0</ele>
        <time>2018-05-15T11:25:53.600000Z</time>
      </trkpt>
      <trkpt lat="37.84304189278265" lon="112.00721276219649">
        <ele>1139.0</ele>
        <time>2018-05-15T11:25:56.600000Z</time>
      </trkpt>
      <trkpt lat="37.842836959920184" lon="112.00740640339933">
        <ele>1138.0</ele>
        <time>2018-05-15T11:26:05.600000Z</time>
      </trkpt>
      <trkpt lat="37.842572031390205" lon="112.007590655527">
        <ele>1137.0</ele>
        <time>2018-05-15T11:26:17.600000Z</time>
      </trkpt>
      <trkpt lat="37.84249948825443" lon="112.00759747385473">
        <ele>1138.0</ele>
        <time>2018-05-15T11:26:20.600000Z</time>
      </trkpt>
      <trkpt lat="37.84237148235738" lon="112.00765342047734">
        <ele>1137.0</ele>
        <time>2018-05-15T11:26:26.600000Z</time>
      </trkpt>
      <trkpt lat="37.842310491158244" lon="112.00768501821443">
        <ele>1138.0</ele>
        <time>2018-05-15T11:26:29.600000Z</time>
      </trkpt>
      <trkpt lat="37.84213667744149" lon="112.00785097769781">
        <ele>1139.0</ele>
        <time>2018-05-15T11:26:38.600000Z</time>
      </trkpt>
      <trkpt lat="37.84193996099181" lon="112.00795532694211">
        <ele>1135.0</ele>
        <time>2018-05-15T11:26:47.600000Z</time>
      </trkpt>
      <trkpt lat="37.841800380575755" lon="112.00801477153401">
        <ele>1133.0</ele>
        <time>2018-05-15T11:26:53.600000Z</time>
      </trkpt>
      <trkpt lat="37.84175334445627" lon="112.00806731264738">
        <ele>1130.0</ele>
        <time>2018-05-15T11:26:56.600000Z</time>
      </trkpt>
      <trkpt lat="37.8416323792849" lon="112.00814248559843">
        <ele>1130.0</ele>
        <time>2018-05-15T11:27:02.600000Z</time>
      </trkpt>
      <trkpt lat="37.84149522576933" lon="112.00818658384722">
        <ele>1130.0</ele>
        <time>2018-05-15T11:27:08.600000Z</time>
      </trkpt>
      <trkpt lat="37.841283884770995" lon="112.00819261193085">
        <ele>1133.0</ele>
        <time>2018-05-15T11:27:17.600000Z</time>
      </trkpt>
      <trkpt lat="37.841112178495436" lon="112.0081471887177">
        <ele>1137.0</ele>
        <time>2018-05-15T11:27:23.600000Z</time>
      </trkpt>
      <trkpt lat="37.840782022906204" lon="112.00808061294342">
        <ele>1137.0</ele>
        <time>2018-05-15T11:27:35.600000Z</time>
      </trkpt>
      <trkpt lat="37.84059882102455" lon="112.0080740107243">
        <ele>1136.0</ele>
        <time>2018-05-15T11:27:41.600000Z</time>
      </trkpt>
      <trkpt lat="37.840510504870714" lon="112.00808437263561">
        <ele>1136.0</ele>
        <time>2018-05-15T11:27:44.600000Z</time>
      </trkpt>
      <trkpt lat="37.84031922719013" lon="112.00805844924632">
        <ele>1147.0</ele>
        <time>2018-05-15T11:27:50.600000Z</time>
      </trkpt>
      <trkpt lat="37.840095067569216" lon="112.00798017805275">
        <ele>1145.0</ele>
        <time>2018-05-15T11:27:59.600000Z</time>
      </trkpt>
      <trkpt lat="37.84002441702177" lon="112.00797186686476">
        <ele>1146.0</ele>
        <time>2018-05-15T11:28:02.600000Z</time>
      </trkpt>
      <trkpt lat="37.83996032775681" lon="112.00797838960675">
        <ele>1143.0</ele>
        <time>2018-05-15T11:28:05.600000Z</time>
      </trkpt>
      <trkpt lat="37.83990204127065" lon="112.00800782014994">
        <ele>1143.0</ele>
        <time>2018-05-15T11:28:08.600000Z</time>
      </trkpt>
      <trkpt lat="37.83983668637695" lon="112.00804981730627">
        <ele>1142.0</ele>
        <time>2018-05-15T11:28:11.600000Z</time>
      </trkpt>
      <trkpt lat="37.83977857606222" lon="112.00807699506811">
        <ele>1142.0</ele>
        <time>2018-05-15T11:28:14.600000Z</time>
      </trkpt>
      <trkpt lat="37.839708284399165" lon="112.0081006499092">
        <ele>1142.0</ele>
        <time>2018-05-15T11:28:17.600000Z</time>
      </trkpt>
      <trkpt lat="37.83965121282746" lon="112.00813637562922">
        <ele>1144.0</ele>
        <time>2018-05-15T11:28:20.600000Z</time>
      </trkpt>
      <trkpt lat="37.83935035921036" lon="112.00817135522033">
        <ele>1141.0</ele>
        <time>2018-05-15T11:28:32.600000Z</time>
      </trkpt>
      <trkpt lat="37.83903795896828" lon="112.00817338965092">
        <ele>1143.0</ele>
        <time>2018-05-15T11:28:44.600000Z</time>
      </trkpt>
      <trkpt lat="37.83896974050199" lon="112.00817786498281">
        <ele>1144.0</ele>
        <time>2018-05-15T11:28:47.600000Z</time>
      </trkpt>
      <trkpt lat="37.8388194676138" lon="112.00825843755193">
        <ele>1145.0</ele>
        <time>2018-05-15T11:28:53.600000Z</time>
      </trkpt>
      <trkpt lat="37.838753834582754" lon="112.0082503358516">
        <ele>1145.0</ele>
        <time>2018-05-15T11:28:56.600000Z</time>
      </trkpt>
      <trkpt lat="37.83906779259534" lon="112.00824148567295">
        <ele>1137.0</ele>
        <time>2018-05-15T11:29:08.600000Z</time>
      </trkpt>
      <trkpt lat="37.839222504363775" lon="112.00815917085126">
        <ele>1135.0</ele>
        <time>2018-05-15T11:29:14.600000Z</time>
      </trkpt>
      <trkpt lat="37.83931744293881" lon="112.00812992155727">
        <ele>1135.0</ele>
        <time>2018-05-15T11:29:17.700000Z</time>
      </trkpt>
      <trkpt lat="37.83939233748208" lon="112.00812292888932">
        <ele>1141.0</ele>
        <time>2018-05-15T11:29:20.600000Z</time>
      </trkpt>
      <trkpt lat="37.83963338269377" lon="112.00817183881196">
        <ele>1128.0</ele>
        <time>2018-05-15T11:29:29.600000Z</time>
      </trkpt>
      <trkpt lat="37.83984609780328" lon="112.00813392346087">
        <ele>1124.0</ele>
        <time>2018-05-15T11:29:38.600000Z</time>
      </trkpt>
      <trkpt lat="37.840108338759144" lon="112.00800864703099">
        <ele>1119.0</ele>
        <time>2018-05-15T11:29:47.600000Z</time>
      </trkpt>
      <trkpt lat="37.84018614358237" lon="112.007973009166">
        <ele>1122.0</ele>
        <time>2018-05-15T11:29:50.600000Z</time>
      </trkpt>
      <trkpt lat="37.840266960505254" lon="112.00796248161065">
        <ele>1123.0</ele>
        <time>2018-05-15T11:29:53.600000Z</time>
      </trkpt>
      <trkpt lat="37.840423069568175" lon="112.00799367589755">
        <ele>1126.0</ele>
        <time>2018-05-15T11:29:59.600000Z</time>
      </trkpt>
      <trkpt lat="37.84050026865594" lon="112.00802131455093">
        <ele>1124.0</ele>
        <time>2018-05-15T11:30:02.600000Z</time>
      </trkpt>
      <trkpt lat="37.84061585355594" lon="112.0081334466935">
        <ele>1116.0</ele>
        <time>2018-05-15T11:30:08.600000Z</time>
      </trkpt>
      <trkpt lat="37.84068396749462" lon="112.00815635230902">
        <ele>1115.0</ele>
        <time>2018-05-15T11:30:11.600000Z</time>
      </trkpt>
      <trkpt lat="37.84075966407845" lon="112.00817377290655">
        <ele>1117.0</ele>
        <time>2018-05-15T11:30:14.600000Z</time>
      </trkpt>
      <trkpt lat="37.84101863927749" lon="112.00822789146493">
        <ele>1116.0</ele>
        <time>2018-05-15T11:30:23.600000Z</time>
      </trkpt>
      <trkpt lat="37.8412790148395" lon="112.0082386920854">
        <ele>1118.0</ele>
        <time>2018-05-15T11:30:32.600000Z</time>
      </trkpt>
      <trkpt lat="37.841567619752645" lon="112.00816725240928">
        <ele>1119.0</ele>
        <time>2018-05-15T11:30:41.600000Z</time>
      </trkpt>
      <trkpt lat="37.84187068187953" lon="112.00801235674946">
        <ele>1122.0</ele>
        <time>2018-05-15T11:30:53.600000Z</time>
      </trkpt>
      <trkpt lat="37.84208947414056" lon="112.00785551111997">
        <ele>1127.0</ele>
        <time>2018-05-15T11:31:02.600000Z</time>
      </trkpt>
      <trkpt lat="37.842234500740666" lon="112.00781809894781">
        <ele>1121.0</ele>
        <time>2018-05-15T11:31:08.600000Z</time>
      </trkpt>
      <trkpt lat="37.8423043737317" lon="112.00774891114952">
        <ele>1122.0</ele>
        <time>2018-05-15T11:31:11.600000Z</time>
      </trkpt>
      <trkpt lat="37.842350232148746" lon="112.00767487314707">
        <ele>1123.0</ele>
        <time>2018-05-15T11:31:14.600000Z</time>
      </trkpt>
      <trkpt lat="37.84248717786845" lon="112.00753702869628">
        <ele>1121.0</ele>
        <time>2018-05-15T11:31:20.600000Z</time>
      </trkpt>
      <trkpt lat="37.842700247311825" lon="112.00740058693417">
        <ele>1120.0</ele>
        <time>2018-05-15T11:31:29.600000Z</time>
      </trkpt>
      <trkpt lat="37.84278483328991" lon="112.0073627743194">
        <ele>1118.0</ele>
        <time>2018-05-15T11:31:32.600000Z</time>
      </trkpt>
      <trkpt lat="37.84296776423596" lon="112.0071838986605">
        <ele>1119.0</ele>
        <time>2018-05-15T11:31:41.600000Z</time>
      </trkpt>
      <trkpt lat="37.843202011516695" lon="112.00698165685117">
        <ele>1120.0</ele>
        <time>2018-05-15T11:31:50.600000Z</time>
      </trkpt>
      <trkpt lat="37.84348791399453" lon="112.00674895752456">
        <ele>1123.0</ele>
        <time>2018-05-15T11:32:02.600000Z</time>
      </trkpt>
      <trkpt lat="37.84355667819955" lon="112.00668660552631">
        <ele>1123.0</ele>
        <time>2018-05-15T11:32:05.700000Z</time>
      </trkpt>
      <trkpt lat="37.843625305148315" lon="112.00666952949581">
        <ele>1120.0</ele>
        <time>2018-05-15T11:32:08.600000Z</time>
      </trkpt>
      <trkpt lat="37.84370146142621" lon="112.00663689124171">
        <ele>1119.0</ele>
        <time>2018-05-15T11:32:11.600000Z</time>
      </trkpt>
      <trkpt lat="37.84376531437577" lon="112.00657505750658">
        <ele>1120.0</ele>
        <time>2018-05-15T11:32:14.600000Z</time>
      </trkpt>
      <trkpt lat="37.84387712056309" lon="112.00643187886216">
        <ele>1121.0</ele>
        <time>2018-05-15T11:32:20.600000Z</time>
      </trkpt>
      <trkpt lat="37.84415560137762" lon="112.00626743604654">
        <ele>1125.0</ele>
        <time>2018-05-15T11:32:32.600000Z</time>
      </trkpt>
      <trkpt lat="37.84443464354292" lon="112.00612814343616">
        <ele>1121.0</ele>
        <time>2018-05-15T11:32:44.600000Z</time>
      </trkpt>
      <trkpt lat="37.844578537513684" lon="112.0060848360333">
        <ele>1121.0</ele>
        <time>2018-05-15T11:32:50.600000Z</time>
      </trkpt>
      <trkpt lat="37.8447029256308" lon="112.00613365968704">
        <ele>1122.0</ele>
        <time>2018-05-15T11:32:56.600000Z</time>
      </trkpt>
      <trkpt lat="37.844775236849635" lon="112.00617958980048">
        <ele>1123.0</ele>
        <time>2018-05-15T11:32:59.600000Z</time>
      </trkpt>
      <trkpt lat="37.8450493675166" lon="112.00624297061646">
        <ele>1124.0</ele>
        <time>2018-05-15T11:33:08.600000Z</time>
      </trkpt>
      <trkpt lat="37.84536138593415" lon="112.00631631835621">
        <ele>1122.0</ele>
        <time>2018-05-15T11:33:20.600000Z</time>
      </trkpt>
      <trkpt lat="37.845622806789144" lon="112.0064179083459">
        <ele>1120.0</ele>
        <time>2018-05-15T11:33:29.600000Z</time>
      </trkpt>
      <trkpt lat="37.84588113217173" lon="112.00652061768245">
        <ele>1124.0</ele>
        <time>2018-05-15T11:33:38.700000Z</time>
      </trkpt>
      <trkpt lat="37.846022581987896" lon="112.00658655320105">
        <ele>1122.0</ele>
        <time>2018-05-15T11:33:44.600000Z</time>
      </trkpt>
      <trkpt lat="37.84636524126043" lon="112.00664171217527">
        <ele>1120.0</ele>
        <time>2018-05-15T11:33:56.600000Z</time>
      </trkpt>
      <trkpt lat="37.8466997069558" lon="112.00666474064734">
        <ele>1119.0</ele>
        <time>2018-05-15T11:34:08.600000Z</time>
      </trkpt>
      <trkpt lat="37.8467746406419" lon="112.00667052939872">
        <ele>1120.0</ele>
        <time>2018-05-15T11:34:11.600000Z</time>
      </trkpt>
      <trkpt lat="37.84683399964491" lon="112.00669965902085">
        <ele>1123.0</ele>
        <time>2018-05-15T11:34:14.600000Z</time>
      </trkpt>
      <trkpt lat="37.84715433722323" lon="112.00672692225508">
        <ele>1119.0</ele>
        <time>2018-05-15T11:34:26.600000Z</time>
      </trkpt>
      <trkpt lat="37.84748449840587" lon="112.00675979771677">
        <ele>1118.0</ele>
        <time>2018-05-15T11:34:38.600000Z</time>
      </trkpt>
      <trkpt lat="37.84764574560099" lon="112.00679557278129">
        <ele>1118.0</ele>
        <time>2018-05-15T11:34:44.600000Z</time>
      </trkpt>
      <trkpt lat="37.84782013918305" lon="112.00681685658473">
        <ele>1118.0</ele>
        <time>2018-05-15T11:34:50.600000Z</time>
      </trkpt>
      <trkpt lat="37.847905946069254" lon="112.00679251829412">
        <ele>1116.0</ele>
        <time>2018-05-15T11:34:53.600000Z</time>
      </trkpt>
      <trkpt lat="37.847981818395766" lon="112.00682440602561">
        <ele>1117.0</ele>
        <time>2018-05-15T11:34:56.600000Z</time>
      </trkpt>
      <trkpt lat="37.848223442870484" lon="112.00686276148238">
        <ele>1114.0</ele>
        <time>2018-05-15T11:35:05.600000Z</time>
      </trkpt>
      <trkpt lat="37.848356303074446" lon="112.00698168298165">
        <ele>1117.0</ele>
        <time>2018-05-15T11:35:11.600000Z</time>
      </trkpt>
      <trkpt lat="37.84850937178225" lon="112.00723900259815">
        <ele>1120.0</ele>
        <time>2018-05-15T11:35:20.600000Z</time>
      </trkpt>
      <trkpt lat="37.84850198231252" lon="112.00716926265605">
        <ele>1117.0</ele>
        <time>2018-05-15T11:35:23.600000Z</time>
      </trkpt>
      <trkpt lat="37.8483495950582" lon="112.00695654473407">
        <ele>1116.0</ele>
        <time>2018-05-15T11:35:32.600000Z</time>
      </trkpt>
      <trkpt lat="37.84815049139675" lon="112.00685222802143">
        <ele>1116.0</ele>
        <time>2018-05-15T11:35:41.600000Z</time>
      </trkpt>
      <trkpt lat="37.84787718059871" lon="112.00679468421917">
        <ele>1117.0</ele>
        <time>2018-05-15T11:35:53.600000Z</time>
      </trkpt>
      <trkpt lat="37.847556306667265" lon="112.0067652585332">
        <ele>1122.0</ele>
        <time>2018-05-15T11:36:05.600000Z</time>
      </trkpt>
      <trkpt lat="37.8472400434971" lon="112.00673637293103">
        <ele>1122.0</ele>
        <time>2018-05-15T11:36:17.600000Z</time>
      </trkpt>
      <trkpt lat="37.84694164269207" lon="112.00672235233411">
        <ele>1124.0</ele>
        <time>2018-05-15T11:36:29.600000Z</time>
      </trkpt>
      <trkpt lat="37.846637446153004" lon="112.00665021551386">
        <ele>1125.0</ele>
        <time>2018-05-15T11:36:41.600000Z</time>
      </trkpt>
      <trkpt lat="37.84632446148363" lon="112.00661376085522">
        <ele>1124.0</ele>
        <time>2018-05-15T11:36:53.600000Z</time>
      </trkpt>
      <trkpt lat="37.84617005794771" lon="112.00662296984744">
        <ele>1126.0</ele>
        <time>2018-05-15T11:36:59.600000Z</time>
      </trkpt>
      <trkpt lat="37.845955444296195" lon="112.00653406317315">
        <ele>1125.0</ele>
        <time>2018-05-15T11:37:08.600000Z</time>
      </trkpt>
      <trkpt lat="37.845813319057335" lon="112.00652002397074">
        <ele>1130.0</ele>
        <time>2018-05-15T11:37:14.600000Z</time>
      </trkpt>
      <trkpt lat="37.845534103731" lon="112.00642490215792">
        <ele>1135.0</ele>
        <time>2018-05-15T11:37:26.600000Z</time>
      </trkpt>
      <trkpt lat="37.84524256685628" lon="112.00630897974108">
        <ele>1130.0</ele>
        <time>2018-05-15T11:37:38.600000Z</time>
      </trkpt>
      <trkpt lat="37.84511815271422" lon="112.00626952935085">
        <ele>1128.0</ele>
        <time>2018-05-15T11:37:44.600000Z</time>
      </trkpt>
      <trkpt lat="37.844967696810876" lon="112.00625934545927">
        <ele>1126.0</ele>
        <time>2018-05-15T11:37:50.600000Z</time>
      </trkpt>
      <trkpt lat="37.844679040285065" lon="112.00618318053375">
        <ele>1127.0</ele>
        <time>2018-05-15T11:38:02.600000Z</time>
      </trkpt>
      <trkpt lat="37.84453482603015" lon="112.00613169742074">
        <ele>1127.0</ele>
        <time>2018-05-15T11:38:08.600000Z</time>
      </trkpt>
      <trkpt lat="37.844467892696805" lon="112.00613874354384">
        <ele>1129.0</ele>
        <time>2018-05-15T11:38:11.600000Z</time>
      </trkpt>
      <trkpt lat="37.8444139701825" lon="112.00622230914568">
        <ele>1129.0</ele>
        <time>2018-05-15T11:38:14.600000Z</time>
      </trkpt>
      <trkpt lat="37.84434221265967" lon="112.006266378172">
        <ele>1131.0</ele>
        <time>2018-05-15T11:38:17.600000Z</time>
      </trkpt>
      <trkpt lat="37.84412562506038" lon="112.00629370528725">
        <ele>1128.0</ele>
        <time>2018-05-15T11:38:26.600000Z</time>
      </trkpt>
      <trkpt lat="37.84383162002645" lon="112.00653458679801">
        <ele>1127.0</ele>
        <time>2018-05-15T11:38:38.600000Z</time>
      </trkpt>
      <trkpt lat="37.84357214699774" lon="112.00675032603309">
        <ele>1131.0</ele>
        <time>2018-05-15T11:38:50.600000Z</time>
      </trkpt>
      <trkpt lat="37.84331675464317" lon="112.00696255139005">
        <ele>1135.0</ele>
        <time>2018-05-15T11:39:02.600000Z</time>
      </trkpt>
      <trkpt lat="37.843127588384014" lon="112.0071661194819">
        <ele>1136.0</ele>
        <time>2018-05-15T11:39:11.600000Z</time>
      </trkpt>
      <trkpt lat="37.843070904297285" lon="112.00725073432473">
        <ele>1136.0</ele>
        <time>2018-05-15T11:39:14.600000Z</time>
      </trkpt>
      <trkpt lat="37.84288159183431" lon="112.00741240459332">
        <ele>1136.0</ele>
        <time>2018-05-15T11:39:23.600000Z</time>
      </trkpt>
      <trkpt lat="37.84277404552317" lon="112.00755251981965">
        <ele>1137.0</ele>
        <time>2018-05-15T11:39:29.600000Z</time>
      </trkpt>
      <trkpt lat="37.84271678804011" lon="112.00748640571663">
        <ele>1132.0</ele>
        <time>2018-05-15T11:39:32.600000Z</time>
      </trkpt>
      <trkpt lat="37.84259414260182" lon="112.00749857266737">
        <ele>1132.0</ele>
        <time>2018-05-15T11:39:38.600000Z</time>
      </trkpt>
      <trkpt lat="37.84246058990601" lon="112.00757457221168">
        <ele>1133.0</ele>
        <time>2018-05-15T11:39:44.600000Z</time>
      </trkpt>
      <trkpt lat="37.8422856263891" lon="112.00774307076784">
        <ele>1134.0</ele>
        <time>2018-05-15T11:39:53.600000Z</time>
      </trkpt>
      <trkpt lat="37.842000094601126" lon="112.00790647518497">
        <ele>1140.0</ele>
        <time>2018-05-15T11:40:05.600000Z</time>
      </trkpt>
      <trkpt lat="37.84168953532501" lon="112.00806161544196">
        <ele>1144.0</ele>
        <time>2018-05-15T11:40:17.600000Z</time>
      </trkpt>
      <trkpt lat="37.84140925329354" lon="112.00819144721589">
        <ele>1142.0</ele>
        <time>2018-05-15T11:40:26.600000Z</time>
      </trkpt>
      <trkpt lat="37.84112410457033" lon="112.00820561539412">
        <ele>1143.0</ele>
        <time>2018-05-15T11:40:38.600000Z</time>
      </trkpt>
      <trkpt lat="37.841054270437745" lon="112.0081919332321">
        <ele>1143.0</ele>
        <time>2018-05-15T11:40:41.600000Z</time>
      </trkpt>
      <trkpt lat="37.840754517951304" lon="112.00813139315292">
        <ele>1140.0</ele>
        <time>2018-05-15T11:40:53.600000Z</time>
      </trkpt>
      <trkpt lat="37.84061316488355" lon="112.00808742987938">
        <ele>1140.0</ele>
        <time>2018-05-15T11:40:59.600000Z</time>
      </trkpt>
      <trkpt lat="37.840457590311374" lon="112.00806720604558">
        <ele>1141.0</ele>
        <time>2018-05-15T11:41:05.600000Z</time>
      </trkpt>
      <trkpt lat="37.84019468043296" lon="112.00801039097674">
        <ele>1146.0</ele>
        <time>2018-05-15T11:41:14.600000Z</time>
      </trkpt>
      <trkpt lat="37.84003053275891" lon="112.00802075507264">
        <ele>1147.0</ele>
        <time>2018-05-15T11:41:20.600000Z</time>
      </trkpt>
      <trkpt lat="37.83988251960365" lon="112.00805818479256">
        <ele>1147.0</ele>
        <time>2018-05-15T11:41:26.600000Z</time>
      </trkpt>
      <trkpt lat="37.839589437695274" lon="112.00811856447177">
        <ele>1149.0</ele>
        <time>2018-05-15T11:41:38.600000Z</time>
      </trkpt>
      <trkpt lat="37.83945339077069" lon="112.00816013817405">
        <ele>1143.0</ele>
        <time>2018-05-15T11:41:44.600000Z</time>
      </trkpt>
      <trkpt lat="37.83931064291611" lon="112.00817496900345">
        <ele>1140.0</ele>
        <time>2018-05-15T11:41:50.600000Z</time>
      </trkpt>
      <trkpt lat="37.839322780770615" lon="112.00816710240485">
        <ele>1138.0</ele>
        <time>2018-05-15T11:41:53.600000Z</time>
      </trkpt>
      <trkpt lat="37.83939218176473" lon="112.00816484969714">
        <ele>1136.0</ele>
        <time>2018-05-15T11:41:56.600000Z</time>
      </trkpt>
      <trkpt lat="37.839452048258295" lon="112.00812559971098">
        <ele>1137.0</ele>
        <time>2018-05-15T11:41:59.600000Z</time>
      </trkpt>
      <trkpt lat="37.83951220738121" lon="112.00811035143272">
        <ele>1136.0</ele>
        <time>2018-05-15T11:42:02.600000Z</time>
      </trkpt>
      <trkpt lat="37.839577000146896" lon="112.00810753684318">
        <ele>1137.0</ele>
        <time>2018-05-15T11:42:05.600000Z</time>
      </trkpt>
      <trkpt lat="37.839702371526734" lon="112.00810975507565">
        <ele>1133.0</ele>
        <time>2018-05-15T11:42:14.600000Z</time>
      </trkpt>
      <trkpt lat="37.83997966790982" lon="112.00803380975604">
        <ele>1130.0</ele>
        <time>2018-05-15T11:42:29.600000Z</time>
      </trkpt>
      <trkpt lat="37.84019821128996" lon="112.00799610557937">
        <ele>1123.0</ele>
        <time>2018-05-15T11:42:38.600000Z</time>
      </trkpt>
      <trkpt lat="37.84034734807656" lon="112.00800786399373">
        <ele>1123.0</ele>
        <time>2018-05-15T11:42:44.600000Z</time>
      </trkpt>
      <trkpt lat="37.84041223020143" lon="112.00802812436453">
        <ele>1121.0</ele>
        <time>2018-05-15T11:42:47.600000Z</time>
      </trkpt>
      <trkpt lat="37.84069166890586" lon="112.00808831952605">
        <ele>1115.0</ele>
        <time>2018-05-15T11:42:59.600000Z</time>
      </trkpt>
      <trkpt lat="37.84096554479514" lon="112.00814874216672">
        <ele>1118.0</ele>
        <time>2018-05-15T11:43:08.600000Z</time>
      </trkpt>
      <trkpt lat="37.84123793187934" lon="112.00815324176814">
        <ele>1122.0</ele>
        <time>2018-05-15T11:43:17.600000Z</time>
      </trkpt>
      <trkpt lat="37.84138823102705" lon="112.00815854465186">
        <ele>1123.0</ele>
        <time>2018-05-15T11:43:23.600000Z</time>
      </trkpt>
      <trkpt lat="37.841684379883844" lon="112.00804844839126">
        <ele>1123.0</ele>
        <time>2018-05-15T11:43:35.600000Z</time>
      </trkpt>
      <trkpt lat="37.84198285768076" lon="112.00787978929647">
        <ele>1126.0</ele>
        <time>2018-05-15T11:43:47.600000Z</time>
      </trkpt>
      <trkpt lat="37.84221429874753" lon="112.0077135561595">
        <ele>1122.0</ele>
        <time>2018-05-15T11:43:56.600000Z</time>
      </trkpt>
      <trkpt lat="37.842360714500586" lon="112.00755031722375">
        <ele>1116.0</ele>
        <time>2018-05-15T11:44:02.600000Z</time>
      </trkpt>
      <trkpt lat="37.842616537115994" lon="112.00736908827162">
        <ele>1124.0</ele>
        <time>2018-05-15T11:44:14.600000Z</time>
      </trkpt>
      <trkpt lat="37.84291531131524" lon="112.00722677601266">
        <ele>1122.0</ele>
        <time>2018-05-15T11:44:26.600000Z</time>
      </trkpt>
      <trkpt lat="37.843177778138" lon="112.00696963385667">
        <ele>1119.0</ele>
        <time>2018-05-15T11:44:38.600000Z</time>
      </trkpt>
      <trkpt lat="37.843241359494606" lon="112.00692034511746">
        <ele>1122.0</ele>
        <time>2018-05-15T11:44:41.600000Z</time>
      </trkpt>
      <trkpt lat="37.843443331088544" lon="112.00677363045152">
        <ele>1121.0</ele>
        <time>2018-05-15T11:44:50.600000Z</time>
      </trkpt>
      <trkpt lat="37.84356884746224" lon="112.00663885078042">
        <ele>1123.0</ele>
        <time>2018-05-15T11:44:56.600000Z</time>
      </trkpt>
      <trkpt lat="37.84380938537078" lon="112.00648526971466">
        <ele>1120.0</ele>
        <time>2018-05-15T11:45:05.600000Z</time>
      </trkpt>
      <trkpt lat="37.84394205522124" lon="112.00633984450855">
        <ele>1121.0</ele>
        <time>2018-05-15T11:45:11.600000Z</time>
      </trkpt>
      <trkpt lat="37.844004407636845" lon="112.00629438494762">
        <ele>1121.0</ele>
        <time>2018-05-15T11:45:14.600000Z</time>
      </trkpt>
      <trkpt lat="37.844316067714686" lon="112.00616311127831">
        <ele>1122.0</ele>
        <time>2018-05-15T11:45:26.600000Z</time>
      </trkpt>
      <trkpt lat="37.84447134248172" lon="112.00609066908895">
        <ele>1121.0</ele>
        <time>2018-05-15T11:45:32.600000Z</time>
      </trkpt>
      <trkpt lat="37.844558535083024" lon="112.0060862516817">
        <ele>1122.0</ele>
        <time>2018-05-15T11:45:35.600000Z</time>
      </trkpt>
      <trkpt lat="37.844640011512325" lon="112.00611068515664">
        <ele>1125.0</ele>
        <time>2018-05-15T11:45:38.600000Z</time>
      </trkpt>
      <trkpt lat="37.84482484064325" lon="112.00619489228714">
        <ele>1125.0</ele>
        <time>2018-05-15T11:45:47.600000Z</time>
      </trkpt>
      <trkpt lat="37.84516618365795" lon="112.0062665502159">
        <ele>1121.0</ele>
        <time>2018-05-15T11:45:59.600000Z</time>
      </trkpt>
      <trkpt lat="37.84533400678779" lon="112.00630626573714">
        <ele>1124.0</ele>
        <time>2018-05-15T11:46:05.600000Z</time>
      </trkpt>
      <trkpt lat="37.84563485339401" lon="112.00644646150735">
        <ele>1124.0</ele>
        <time>2018-05-15T11:46:17.600000Z</time>
      </trkpt>
      <trkpt lat="37.84597360731101" lon="112.00653492127228">
        <ele>1118.0</ele>
        <time>2018-05-15T11:46:29.600000Z</time>
      </trkpt>
      <trkpt lat="37.84626631116657" lon="112.00662273716769">
        <ele>1118.0</ele>
        <time>2018-05-15T11:46:38.600000Z</time>
      </trkpt>
      <trkpt lat="37.84643087339156" lon="112.006623882934">
        <ele>1120.0</ele>
        <time>2018-05-15T11:46:44.600000Z</time>
      </trkpt>
      <trkpt lat="37.84670412919638" lon="112.0066702105857">
        <ele>1122.0</ele>
        <time>2018-05-15T11:46:53.600000Z</time>
      </trkpt>
      <trkpt lat="37.84703342565275" lon="112.0066955805615">
        <ele>1120.0</ele>
        <time>2018-05-15T11:47:05.600000Z</time>
      </trkpt>
      <trkpt lat="37.847293298622475" lon="112.00671014637209">
        <ele>1121.0</ele>
        <time>2018-05-15T11:47:14.600000Z</time>
      </trkpt>
      <trkpt lat="37.84752253195913" lon="112.00678114140644">
        <ele>1123.0</ele>
        <time>2018-05-15T11:47:23.600000Z</time>
      </trkpt>
      <trkpt lat="37.84784530081958" lon="112.00680838162104">
        <ele>1122.0</ele>
        <time>2018-05-15T11:47:35.600000Z</time>
      </trkpt>
      <trkpt lat="37.8481329188834" lon="112.00683114579371">
        <ele>1117.0</ele>
        <time>2018-05-15T11:47:44.600000Z</time>
      </trkpt>
      <trkpt lat="37.84828084943468" lon="112.00689914612586">
        <ele>1117.0</ele>
        <time>2018-05-15T11:47:50.600000Z</time>
      </trkpt>
      <trkpt lat="37.84851261065573" lon="112.00724467879353">
        <ele>1117.0</ele>
        <time>2018-05-15T11:48:02.600000Z</time>
      </trkpt>
      <trkpt lat="37.84872328904593" lon="112.00756281331495">
        <ele>1112.0</ele>
        <time>2018-05-15T11:48:14.600000Z</time>
      </trkpt>
      <trkpt lat="37.84883999212466" lon="112.00773255724647">
        <ele>1115.0</ele>
        <time>2018-05-15T11:48:20.600000Z</time>
      </trkpt>
      <trkpt lat="37.84894942143872" lon="112.00785016410249">
        <ele>1112.0</ele>
        <time>2018-05-15T11:48:26.600000Z</time>
      </trkpt>
      <trkpt lat="37.84917360946019" lon="112.00822287143605">
        <ele>1116.0</ele>
        <time>2018-05-15T11:48:38.700000Z</time>
      </trkpt>
      <trkpt lat="37.84938728100251" lon="112.00854160995802">
        <ele>1107.0</ele>
        <time>2018-05-15T11:48:50.600000Z</time>
      </trkpt>
      <trkpt lat="37.84959634102712" lon="112.0088784947199">
        <ele>1101.0</ele>
        <time>2018-05-15T11:49:02.600000Z</time>
      </trkpt>
      <trkpt lat="37.84976905968619" lon="112.00925889859836">
        <ele>1103.0</ele>
        <time>2018-05-15T11:49:14.600000Z</time>
      </trkpt>
      <trkpt lat="37.849870088841165" lon="112.00959984356386">
        <ele>1111.0</ele>
        <time>2018-05-15T11:49:23.600000Z</time>
      </trkpt>
      <trkpt lat="37.8498934312135" lon="112.00980717055923">
        <ele>1111.0</ele>
        <time>2018-05-15T11:49:29.600000Z</time>
      </trkpt>
      <trkpt lat="37.849887318420876" lon="112.01016387347606">
        <ele>1112.0</ele>
        <time>2018-05-15T11:49:38.600000Z</time>
      </trkpt>
      <trkpt lat="37.849874418451925" lon="112.01051917194967">
        <ele>1113.0</ele>
        <time>2018-05-15T11:49:47.600000Z</time>
      </trkpt>
      <trkpt lat="37.849876928628596" lon="112.01071651236421">
        <ele>1110.0</ele>
        <time>2018-05-15T11:49:53.700000Z</time>
      </trkpt>
      <trkpt lat="37.84984329971386" lon="112.01096137294694">
        <ele>1111.0</ele>
        <time>2018-05-15T11:49:59.600000Z</time>
      </trkpt>
      <trkpt lat="37.849854344538805" lon="112.01106903357004">
        <ele>1110.0</ele>
        <time>2018-05-15T11:50:02.600000Z</time>
      </trkpt>
      <trkpt lat="37.84983490589081" lon="112.01132395534731">
        <ele>1113.0</ele>
        <time>2018-05-15T11:50:08.600000Z</time>
      </trkpt>
      <trkpt lat="37.84984022103619" lon="112.011455065901">
        <ele>1113.0</ele>
        <time>2018-05-15T11:50:11.600000Z</time>
      </trkpt>
      <trkpt lat="37.84982135012352" lon="112.01169162228159">
        <ele>1114.0</ele>
        <time>2018-05-15T11:50:17.600000Z</time>
      </trkpt>
      <trkpt lat="37.84982926739699" lon="112.01204899151551">
        <ele>1116.0</ele>
        <time>2018-05-15T11:50:26.600000Z</time>
      </trkpt>
      <trkpt lat="37.849781463547046" lon="112.01244098564969">
        <ele>1108.0</ele>
        <time>2018-05-15T11:50:38.600000Z</time>
      </trkpt>
      <trkpt lat="37.84973816783753" lon="112.01278687706098">
        <ele>1106.0</ele>
        <time>2018-05-15T11:50:47.600000Z</time>
      </trkpt>
      <trkpt lat="37.849703975081574" lon="112.01315388109819">
        <ele>1108.0</ele>
        <time>2018-05-15T11:50:56.600000Z</time>
      </trkpt>
      <trkpt lat="37.849688520372375" lon="112.01352641542955">
        <ele>1109.0</ele>
        <time>2018-05-15T11:51:05.600000Z</time>
      </trkpt>
      <trkpt lat="37.84967430013596" lon="112.01365942653271">
        <ele>1112.0</ele>
        <time>2018-05-15T11:51:08.600000Z</time>
      </trkpt>
      <trkpt lat="37.84964047640035" lon="112.01409955381267">
        <ele>1112.0</ele>
        <time>2018-05-15T11:51:20.600000Z</time>
      </trkpt>
      <trkpt lat="37.84959827338545" lon="112.01454326696518">
        <ele>1111.0</ele>
        <time>2018-05-15T11:51:32.600000Z</time>
      </trkpt>
      <trkpt lat="37.849566683681964" lon="112.01495008302297">
        <ele>1110.0</ele>
        <time>2018-05-15T11:51:44.600000Z</time>
      </trkpt>
      <trkpt lat="37.849503838621494" lon="112.01539049668236">
        <ele>1108.0</ele>
        <time>2018-05-15T11:51:56.600000Z</time>
      </trkpt>
      <trkpt lat="37.849462278520505" lon="112.01578900680629">
        <ele>1106.0</ele>
        <time>2018-05-15T11:52:08.600000Z</time>
      </trkpt>
      <trkpt lat="37.84945573785534" lon="112.01589471751157">
        <ele>1103.0</ele>
        <time>2018-05-15T11:52:11.700000Z</time>
      </trkpt>
      <trkpt lat="37.849377191073366" lon="112.0163256800628">
        <ele>1101.0</ele>
        <time>2018-05-15T11:52:23.600000Z</time>
      </trkpt>
      <trkpt lat="37.84935513198607" lon="112.01654656817993">
        <ele>1100.0</ele>
        <time>2018-05-15T11:52:29.600000Z</time>
      </trkpt>
      <trkpt lat="37.84935076792445" lon="112.0167708722929">
        <ele>1099.0</ele>
        <time>2018-05-15T11:52:35.600000Z</time>
      </trkpt>
      <trkpt lat="37.8492991892498" lon="112.01714164675958">
        <ele>1106.0</ele>
        <time>2018-05-15T11:52:44.600000Z</time>
      </trkpt>
      <trkpt lat="37.84926114674138" lon="112.01735524124946">
        <ele>1107.0</ele>
        <time>2018-05-15T11:52:50.600000Z</time>
      </trkpt>
      <trkpt lat="37.84926629994626" lon="112.01745230275972">
        <ele>1105.0</ele>
        <time>2018-05-15T11:52:53.600000Z</time>
      </trkpt>
      <trkpt lat="37.8492502294723" lon="112.01757126694469">
        <ele>1104.0</ele>
        <time>2018-05-15T11:52:56.600000Z</time>
      </trkpt>
      <trkpt lat="37.84921535362527" lon="112.01768752224423">
        <ele>1107.0</ele>
        <time>2018-05-15T11:52:59.600000Z</time>
      </trkpt>
      <trkpt lat="37.84919589312773" lon="112.01780705684239">
        <ele>1107.0</ele>
        <time>2018-05-15T11:53:02.700000Z</time>
      </trkpt>
      <trkpt lat="37.849190651699445" lon="112.0180109423409">
        <ele>1108.0</ele>
        <time>2018-05-15T11:53:08.600000Z</time>
      </trkpt>
      <trkpt lat="37.849204903418354" lon="112.01811080388825">
        <ele>1108.0</ele>
        <time>2018-05-15T11:53:11.600000Z</time>
      </trkpt>
      <trkpt lat="37.849219263219624" lon="112.01803515660384">
        <ele>1102.0</ele>
        <time>2018-05-15T11:53:17.600000Z</time>
      </trkpt>
      <trkpt lat="37.849210343591906" lon="112.01792465085448">
        <ele>1101.0</ele>
        <time>2018-05-15T11:53:20.600000Z</time>
      </trkpt>
      <trkpt lat="37.84922537219134" lon="112.01780322391723">
        <ele>1102.0</ele>
        <time>2018-05-15T11:53:23.600000Z</time>
      </trkpt>
      <trkpt lat="37.84921609445317" lon="112.01767587096573">
        <ele>1103.0</ele>
        <time>2018-05-15T11:53:26.600000Z</time>
      </trkpt>
      <trkpt lat="37.849276324801004" lon="112.01745716818954">
        <ele>1101.0</ele>
        <time>2018-05-15T11:53:32.600000Z</time>
      </trkpt>
      <trkpt lat="37.84928257794606" lon="112.01712488154566">
        <ele>1099.0</ele>
        <time>2018-05-15T11:53:41.600000Z</time>
      </trkpt>
      <trkpt lat="37.84935517078754" lon="112.01672473736274">
        <ele>1098.0</ele>
        <time>2018-05-15T11:53:53.600000Z</time>
      </trkpt>
      <trkpt lat="37.84940247058094" lon="112.01630891466003">
        <ele>1097.0</ele>
        <time>2018-05-15T11:54:05.600000Z</time>
      </trkpt>
      <trkpt lat="37.84942959293001" lon="112.0159650932877">
        <ele>1095.0</ele>
        <time>2018-05-15T11:54:14.600000Z</time>
      </trkpt>
      <trkpt lat="37.849483645062215" lon="112.01562207459412">
        <ele>1094.0</ele>
        <time>2018-05-15T11:54:23.600000Z</time>
      </trkpt>
      <trkpt lat="37.849549147414514" lon="112.01525028303163">
        <ele>1088.0</ele>
        <time>2018-05-15T11:54:32.600000Z</time>
      </trkpt>
      <trkpt lat="37.8495991726504" lon="112.01487532070462">
        <ele>1088.0</ele>
        <time>2018-05-15T11:54:41.600000Z</time>
      </trkpt>
      <trkpt lat="37.849647642912906" lon="112.0144986359612">
        <ele>1088.0</ele>
        <time>2018-05-15T11:54:50.600000Z</time>
      </trkpt>
      <trkpt lat="37.8496793097217" lon="112.01412227925627">
        <ele>1090.0</ele>
        <time>2018-05-15T11:54:59.600000Z</time>
      </trkpt>
      <trkpt lat="37.849718091559936" lon="112.01376791832853">
        <ele>1088.0</ele>
        <time>2018-05-15T11:55:08.600000Z</time>
      </trkpt>
      <trkpt lat="37.84974252917428" lon="112.01364563105903">
        <ele>1088.0</ele>
        <time>2018-05-15T11:55:11.600000Z</time>
      </trkpt>
      <trkpt lat="37.84976682068229" lon="112.01335775502957">
        <ele>1085.0</ele>
        <time>2018-05-15T11:55:17.600000Z</time>
      </trkpt>
      <trkpt lat="37.849789668883666" lon="112.01292726938128">
        <ele>1079.0</ele>
        <time>2018-05-15T11:55:26.600000Z</time>
      </trkpt>
      <trkpt lat="37.84986445791121" lon="112.01252386300756">
        <ele>1080.0</ele>
        <time>2018-05-15T11:55:35.600000Z</time>
      </trkpt>
      <trkpt lat="37.849886383558726" lon="112.01210451560749">
        <ele>1086.0</ele>
        <time>2018-05-15T11:55:44.600000Z</time>
      </trkpt>
      <trkpt lat="37.849912883880116" lon="112.01168391723583">
        <ele>1084.0</ele>
        <time>2018-05-15T11:55:53.600000Z</time>
      </trkpt>
      <trkpt lat="37.84993992849124" lon="112.01121381214706">
        <ele>1085.0</ele>
        <time>2018-05-15T11:56:02.600000Z</time>
      </trkpt>
      <trkpt lat="37.849976203966825" lon="112.0107616582748">
        <ele>1085.0</ele>
        <time>2018-05-15T11:56:11.600000Z</time>
      </trkpt>
      <trkpt lat="37.849993901199085" lon="112.01062562171566">
        <ele>1087.0</ele>
        <time>2018-05-15T11:56:14.600000Z</time>
      </trkpt>
      <trkpt lat="37.85000689360452" lon="112.01016303673035">
        <ele>1082.0</ele>
        <time>2018-05-15T11:56:23.600000Z</time>
      </trkpt>
      <trkpt lat="37.84999448288318" lon="112.0097153318006">
        <ele>1085.0</ele>
        <time>2018-05-15T11:56:35.600000Z</time>
      </trkpt>
      <trkpt lat="37.84996355480575" lon="112.00944114492488">
        <ele>1087.0</ele>
        <time>2018-05-15T11:56:44.600000Z</time>
      </trkpt>
      <trkpt lat="37.849832873767866" lon="112.00910491826704">
        <ele>1093.0</ele>
        <time>2018-05-15T11:56:59.600000Z</time>
      </trkpt>
      <trkpt lat="37.8496360845321" lon="112.00881130010869">
        <ele>1097.0</ele>
        <time>2018-05-15T11:57:17.600000Z</time>
      </trkpt>
      <trkpt lat="37.84944560976222" lon="112.00854046278722">
        <ele>1106.0</ele>
        <time>2018-05-15T11:57:35.600000Z</time>
      </trkpt>
      <trkpt lat="37.84937764301339" lon="112.00842333775265">
        <ele>1108.0</ele>
        <time>2018-05-15T11:57:41.600000Z</time>
      </trkpt>
      <trkpt lat="37.84923558145761" lon="112.00825451217001">
        <ele>1109.0</ele>
        <time>2018-05-15T11:57:53.600000Z</time>
      </trkpt>
      <trkpt lat="37.84920166062717" lon="112.00820624731486">
        <ele>1110.0</ele>
        <time>2018-05-15T11:57:56.600000Z</time>
      </trkpt>
      <trkpt lat="37.84909708047785" lon="112.00795623279548">
        <ele>1113.0</ele>
        <time>2018-05-15T11:58:08.600000Z</time>
      </trkpt>
      <trkpt lat="37.84899015856032" lon="112.00779900563928">
        <ele>1118.0</ele>
        <time>2018-05-15T11:58:17.600000Z</time>
      </trkpt>
      <trkpt lat="37.84890259491741" lon="112.00766269111172">
        <ele>1119.0</ele>
        <time>2018-05-15T11:58:26.600000Z</time>
      </trkpt>
      <trkpt lat="37.848737452537335" lon="112.00749923942458">
        <ele>1121.0</ele>
        <time>2018-05-15T11:58:41.600000Z</time>
      </trkpt>
      <trkpt lat="37.84870101352054" lon="112.0074470049137">
        <ele>1122.0</ele>
        <time>2018-05-15T11:58:44.600000Z</time>
      </trkpt>
      <trkpt lat="37.84854062161968" lon="112.00713652573837">
        <ele>1115.0</ele>
        <time>2018-05-15T11:59:02.600000Z</time>
      </trkpt>
      <trkpt lat="37.848505136508386" lon="112.00710866119663">
        <ele>1116.0</ele>
        <time>2018-05-15T11:59:05.600000Z</time>
      </trkpt>
      <trkpt lat="37.848443216437765" lon="112.00704106969988">
        <ele>1117.0</ele>
        <time>2018-05-15T11:59:11.600000Z</time>
      </trkpt>
      <trkpt lat="37.84848565861669" lon="112.00718440214091">
        <ele>1113.0</ele>
        <time>2018-05-15T11:59:14.600000Z</time>
      </trkpt>
      <trkpt lat="37.84870287233617" lon="112.00749442616363">
        <ele>1115.0</ele>
        <time>2018-05-15T11:59:26.600000Z</time>
      </trkpt>
      <trkpt lat="37.848894624771965" lon="112.00779066856525">
        <ele>1116.0</ele>
        <time>2018-05-15T11:59:38.600000Z</time>
      </trkpt>
      <trkpt lat="37.849115029271964" lon="112.00812340167883">
        <ele>1118.0</ele>
        <time>2018-05-15T11:59:50.600000Z</time>
      </trkpt>
      <trkpt lat="37.849274143952414" lon="112.00835585576787">
        <ele>1113.0</ele>
        <time>2018-05-15T11:59:59.600000Z</time>
      </trkpt>
      <trkpt lat="37.84931837047926" lon="112.00844667741372">
        <ele>1111.0</ele>
        <time>2018-05-15T12:00:02.600000Z</time>
      </trkpt>
      <trkpt lat="37.84953847745453" lon="112.00874780768032">
        <ele>1105.0</ele>
        <time>2018-05-15T12:00:14.600000Z</time>
      </trkpt>
      <trkpt lat="37.84960587139474" lon="112.00891862770959">
        <ele>1108.0</ele>
        <time>2018-05-15T12:00:20.600000Z</time>
      </trkpt>
      <trkpt lat="37.84979135493409" lon="112.00929841732034">
        <ele>1101.0</ele>
        <time>2018-05-15T12:00:32.600000Z</time>
      </trkpt>
      <trkpt lat="37.8498385460973" lon="112.0093916522912">
        <ele>1102.0</ele>
        <time>2018-05-15T12:00:35.600000Z</time>
      </trkpt>
      <trkpt lat="37.849869983304984" lon="112.00950557689205">
        <ele>1103.0</ele>
        <time>2018-05-15T12:00:38.600000Z</time>
      </trkpt>
      <trkpt lat="37.84988741518739" lon="112.00984832365384">
        <ele>1107.0</ele>
        <time>2018-05-15T12:00:47.600000Z</time>
      </trkpt>
      <trkpt lat="37.84988653415815" lon="112.01021311127222">
        <ele>1111.0</ele>
        <time>2018-05-15T12:00:56.600000Z</time>
      </trkpt>
      <trkpt lat="37.84987605582826" lon="112.01042672597642">
        <ele>1114.0</ele>
        <time>2018-05-15T12:01:02.600000Z</time>
      </trkpt>
      <trkpt lat="37.84990616600479" lon="112.01079923497579">
        <ele>1111.0</ele>
        <time>2018-05-15T12:01:14.700000Z</time>
      </trkpt>
      <trkpt lat="37.84986592418079" lon="112.01100675685987">
        <ele>1112.0</ele>
        <time>2018-05-15T12:01:20.600000Z</time>
      </trkpt>
      <trkpt lat="37.849851781685764" lon="112.01139829468586">
        <ele>1112.0</ele>
        <time>2018-05-15T12:01:32.700000Z</time>
      </trkpt>
      <trkpt lat="37.84985965934577" lon="112.01148804417537">
        <ele>1114.0</ele>
        <time>2018-05-15T12:01:35.600000Z</time>
      </trkpt>
      <trkpt lat="37.8498437686437" lon="112.01170893811423">
        <ele>1115.0</ele>
        <time>2018-05-15T12:01:41.600000Z</time>
      </trkpt>
      <trkpt lat="37.849803725785094" lon="112.01192332463737">
        <ele>1116.0</ele>
        <time>2018-05-15T12:01:47.600000Z</time>
      </trkpt>
      <trkpt lat="37.849805941921495" lon="112.0121398272118">
        <ele>1115.0</ele>
        <time>2018-05-15T12:01:53.600000Z</time>
      </trkpt>
      <trkpt lat="37.84977161566691" lon="112.01256236869013">
        <ele>1112.0</ele>
        <time>2018-05-15T12:02:08.600000Z</time>
      </trkpt>
      <trkpt lat="37.84971229949928" lon="112.01290219251776">
        <ele>1113.0</ele>
        <time>2018-05-15T12:02:17.600000Z</time>
      </trkpt>
      <trkpt lat="37.84969728989258" lon="112.01330797698499">
        <ele>1113.0</ele>
        <time>2018-05-15T12:02:29.600000Z</time>
      </trkpt>
      <trkpt lat="37.84966298323568" lon="112.01372647341857">
        <ele>1111.0</ele>
        <time>2018-05-15T12:02:41.600000Z</time>
      </trkpt>
      <trkpt lat="37.84961514263654" lon="112.01413497234714">
        <ele>1109.0</ele>
        <time>2018-05-15T12:02:53.600000Z</time>
      </trkpt>
      <trkpt lat="37.8495878695739" lon="112.0145626672829">
        <ele>1108.0</ele>
        <time>2018-05-15T12:03:05.600000Z</time>
      </trkpt>
      <trkpt lat="37.84956463155437" lon="112.0148138259046">
        <ele>1110.0</ele>
        <time>2018-05-15T12:03:11.600000Z</time>
      </trkpt>
      <trkpt lat="37.84953850588568" lon="112.0149365687816">
        <ele>1111.0</ele>
        <time>2018-05-15T12:03:14.600000Z</time>
      </trkpt>
      <trkpt lat="37.84955114520264" lon="112.01516582656478">
        <ele>1107.0</ele>
        <time>2018-05-15T12:03:20.600000Z</time>
      </trkpt>
      <trkpt lat="37.84951056990991" lon="112.01550377478209">
        <ele>1109.0</ele>
        <time>2018-05-15T12:03:29.600000Z</time>
      </trkpt>
      <trkpt lat="37.8494284453599" lon="112.01595149603769">
        <ele>1109.0</ele>
        <time>2018-05-15T12:03:41.600000Z</time>
      </trkpt>
      <trkpt lat="37.84937909942905" lon="112.016226727845">
        <ele>1109.0</ele>
        <time>2018-05-15T12:03:50.600000Z</time>
      </trkpt>
      <trkpt lat="37.84938625176358" lon="112.01638353625975">
        <ele>1105.0</ele>
        <time>2018-05-15T12:03:56.600000Z</time>
      </trkpt>
      <trkpt lat="37.849342693715016" lon="112.01653169974175">
        <ele>1106.0</ele>
        <time>2018-05-15T12:04:05.600000Z</time>
      </trkpt>
      <trkpt lat="37.84934712322467" lon="112.01678827380685">
        <ele>1104.0</ele>
        <time>2018-05-15T12:04:17.600000Z</time>
      </trkpt>
      <trkpt lat="37.849310189562445" lon="112.01715950809907">
        <ele>1108.0</ele>
        <time>2018-05-15T12:04:35.600000Z</time>
      </trkpt>
      <trkpt lat="37.849291215954466" lon="112.01737173008097">
        <ele>1111.0</ele>
        <time>2018-05-15T12:04:47.600000Z</time>
      </trkpt>
      <trkpt lat="37.8492615926204" lon="112.01748609938424">
        <ele>1110.0</ele>
        <time>2018-05-15T12:04:53.600000Z</time>
      </trkpt>
      <trkpt lat="37.849230589576045" lon="112.01769612462188">
        <ele>1110.0</ele>
        <time>2018-05-15T12:05:02.600000Z</time>
      </trkpt>
      <trkpt lat="37.849188426886705" lon="112.01784110369984">
        <ele>1113.0</ele>
        <time>2018-05-15T12:05:08.600000Z</time>
      </trkpt>
      <trkpt lat="37.84919314619694" lon="112.01806687937503">
        <ele>1112.0</ele>
        <time>2018-05-15T12:05:17.600000Z</time>
      </trkpt>
      <trkpt lat="37.84914134342885" lon="112.01834847716906">
        <ele>1111.0</ele>
        <time>2018-05-15T12:05:29.600000Z</time>
      </trkpt>
      <trkpt lat="37.84915079179824" lon="112.018605733614">
        <ele>1115.0</ele>
        <time>2018-05-15T12:05:41.600000Z</time>
      </trkpt>
      <trkpt lat="37.849170095666665" lon="112.01867223520209">
        <ele>1108.0</ele>
        <time>2018-05-15T12:05:47.600000Z</time>
      </trkpt>
      <trkpt lat="37.849138308137526" lon="112.01888286310334">
        <ele>1110.0</ele>
        <time>2018-05-15T12:05:53.600000Z</time>
      </trkpt>
      <trkpt lat="37.84915305574694" lon="112.01894558914563">
        <ele>1108.0</ele>
        <time>2018-05-15T12:05:56.600000Z</time>
      </trkpt>
      <trkpt lat="37.84913335404259" lon="112.01939658589677">
        <ele>1106.0</ele>
        <time>2018-05-15T12:06:08.600000Z</time>
      </trkpt>
      <trkpt lat="37.849104758827444" lon="112.0196312815983">
        <ele>1110.0</ele>
        <time>2018-05-15T12:06:14.600000Z</time>
      </trkpt>
      <trkpt lat="37.8490845291323" lon="112.01968644233108">
        <ele>1105.0</ele>
        <time>2018-05-15T12:06:17.600000Z</time>
      </trkpt>
      <trkpt lat="37.84911240592147" lon="112.02000576394404">
        <ele>1105.0</ele>
        <time>2018-05-15T12:06:26.600000Z</time>
      </trkpt>
      <trkpt lat="37.84909809856229" lon="112.02042444380203">
        <ele>1108.0</ele>
        <time>2018-05-15T12:06:38.600000Z</time>
      </trkpt>
      <trkpt lat="37.8490828769268" lon="112.02067984704563">
        <ele>1105.0</ele>
        <time>2018-05-15T12:06:44.700000Z</time>
      </trkpt>
      <trkpt lat="37.84910323092843" lon="112.02107380710989">
        <ele>1108.0</ele>
        <time>2018-05-15T12:06:50.600000Z</time>
      </trkpt>
      <trkpt lat="37.8490846772418" lon="112.02150941747044">
        <ele>1105.0</ele>
        <time>2018-05-15T12:06:59.600000Z</time>
      </trkpt>
      <trkpt lat="37.84910685840245" lon="112.02193258993658">
        <ele>1104.0</ele>
        <time>2018-05-15T12:07:08.600000Z</time>
      </trkpt>
      <trkpt lat="37.84911321395589" lon="112.02208996297456">
        <ele>1104.0</ele>
        <time>2018-05-15T12:07:11.600000Z</time>
      </trkpt>
      <trkpt lat="37.849068500860625" lon="112.02237064712605">
        <ele>1102.0</ele>
        <time>2018-05-15T12:07:17.600000Z</time>
      </trkpt>
      <trkpt lat="37.84906485601058" lon="112.02271541514827">
        <ele>1103.0</ele>
        <time>2018-05-15T12:07:23.600000Z</time>
      </trkpt>
      <trkpt lat="37.8490790239533" lon="112.02314313365945">
        <ele>1104.0</ele>
        <time>2018-05-15T12:07:32.600000Z</time>
      </trkpt>
      <trkpt lat="37.84903906626284" lon="112.02352827261355">
        <ele>1102.0</ele>
        <time>2018-05-15T12:07:44.600000Z</time>
      </trkpt>
      <trkpt lat="37.84902071663648" lon="112.02370283132593">
        <ele>1104.0</ele>
        <time>2018-05-15T12:07:53.600000Z</time>
      </trkpt>
      <trkpt lat="37.84905298340536" lon="112.02402001947489">
        <ele>1101.0</ele>
        <time>2018-05-15T12:08:11.600000Z</time>
      </trkpt>
      <trkpt lat="37.84904873688214" lon="112.02419379599546">
        <ele>1105.0</ele>
        <time>2018-05-15T12:08:20.600000Z</time>
      </trkpt>
      <trkpt lat="37.8490190233988" lon="112.02429374066664">
        <ele>1107.0</ele>
        <time>2018-05-15T12:08:26.600000Z</time>
      </trkpt>
      <trkpt lat="37.848915783532824" lon="112.02440844235221">
        <ele>1112.0</ele>
        <time>2018-05-15T12:08:32.600000Z</time>
      </trkpt>
      <trkpt lat="37.84891938976578" lon="112.02448444879934">
        <ele>1111.0</ele>
        <time>2018-05-15T12:08:35.600000Z</time>
      </trkpt>
      <trkpt lat="37.849044224318746" lon="112.02468137248421">
        <ele>1112.0</ele>
        <time>2018-05-15T12:08:44.600000Z</time>
      </trkpt>
      <trkpt lat="37.84901404934728" lon="112.02474969170503">
        <ele>1106.0</ele>
        <time>2018-05-15T12:08:50.600000Z</time>
      </trkpt>
      <trkpt lat="37.849053749943394" lon="112.02487069963671">
        <ele>1111.0</ele>
        <time>2018-05-15T12:08:56.600000Z</time>
      </trkpt>
      <trkpt lat="37.849010874313414" lon="112.02492961679498">
        <ele>1112.0</ele>
        <time>2018-05-15T12:08:59.600000Z</time>
      </trkpt>
      <trkpt lat="37.848987725614855" lon="112.02508628991728">
        <ele>1116.0</ele>
        <time>2018-05-15T12:09:05.600000Z</time>
      </trkpt>
      <trkpt lat="37.84895854407628" lon="112.02513450860125">
        <ele>1117.0</ele>
        <time>2018-05-15T12:09:08.600000Z</time>
      </trkpt>
      <trkpt lat="37.8489634141177" lon="112.0252592873037">
        <ele>1117.0</ele>
        <time>2018-05-15T12:09:14.600000Z</time>
      </trkpt>
      <trkpt lat="37.84905276870607" lon="112.02543315579504">
        <ele>1114.0</ele>
        <time>2018-05-15T12:09:23.600000Z</time>
      </trkpt>
      <trkpt lat="37.84909817439991" lon="112.02546345133652">
        <ele>1114.0</ele>
        <time>2018-05-15T12:09:26.700000Z</time>
      </trkpt>
      <trkpt lat="37.84911777413402" lon="112.02551871778856">
        <ele>1113.0</ele>
        <time>2018-05-15T12:09:29.600000Z</time>
      </trkpt>
      <trkpt lat="37.84903068736232" lon="112.02571282004618">
        <ele>1113.0</ele>
        <time>2018-05-15T12:09:38.600000Z</time>
      </trkpt>
      <trkpt lat="37.84901402474921" lon="112.02585271391806">
        <ele>1114.0</ele>
        <time>2018-05-15T12:09:44.600000Z</time>
      </trkpt>
      <trkpt lat="37.848940574752866" lon="112.02598330433757">
        <ele>1117.0</ele>
        <time>2018-05-15T12:09:50.600000Z</time>
      </trkpt>
      <trkpt lat="37.84893275723261" lon="112.02610394360717">
        <ele>1119.0</ele>
        <time>2018-05-15T12:09:56.600000Z</time>
      </trkpt>
      <trkpt lat="37.84888824355954" lon="112.02613859782434">
        <ele>1118.0</ele>
        <time>2018-05-15T12:09:59.600000Z</time>
      </trkpt>
      <trkpt lat="37.84886891905745" lon="112.02631410491382">
        <ele>1116.0</ele>
        <time>2018-05-15T12:10:11.600000Z</time>
      </trkpt>
      <trkpt lat="37.848877833613905" lon="112.02655742067209">
        <ele>1117.0</ele>
        <time>2018-05-15T12:10:23.600000Z</time>
      </trkpt>
      <trkpt lat="37.84886486095343" lon="112.02661927536022">
        <ele>1116.0</ele>
        <time>2018-05-15T12:10:26.600000Z</time>
      </trkpt>
      <trkpt lat="37.84887330221266" lon="112.02667601980119">
        <ele>1114.0</ele>
        <time>2018-05-15T12:10:29.600000Z</time>
      </trkpt>
      <trkpt lat="37.84893684575366" lon="112.0267945127424">
        <ele>1114.0</ele>
        <time>2018-05-15T12:10:35.600000Z</time>
      </trkpt>
      <trkpt lat="37.84893235803796" lon="112.02685103575595">
        <ele>1114.0</ele>
        <time>2018-05-15T12:10:38.600000Z</time>
      </trkpt>
      <trkpt lat="37.848888742590226" lon="112.02693028082045">
        <ele>1109.0</ele>
        <time>2018-05-15T12:10:50.600000Z</time>
      </trkpt>
      <trkpt lat="37.84888742672817" lon="112.02701925700075">
        <ele>1105.0</ele>
        <time>2018-05-15T12:10:56.600000Z</time>
      </trkpt>
      <trkpt lat="37.848907419440025" lon="112.02715664058795">
        <ele>1101.0</ele>
        <time>2018-05-15T12:11:02.600000Z</time>
      </trkpt>
      <trkpt lat="37.84882186956206" lon="112.02729511928933">
        <ele>1106.0</ele>
        <time>2018-05-15T12:11:11.600000Z</time>
      </trkpt>
      <trkpt lat="37.84881051881691" lon="112.02738301598035">
        <ele>1103.0</ele>
        <time>2018-05-15T12:11:17.600000Z</time>
      </trkpt>
      <trkpt lat="37.84874689159226" lon="112.0274373836414">
        <ele>1102.0</ele>
        <time>2018-05-15T12:11:23.600000Z</time>
      </trkpt>
      <trkpt lat="37.84872313054865" lon="112.027498237375">
        <ele>1101.0</ele>
        <time>2018-05-15T12:11:26.600000Z</time>
      </trkpt>
      <trkpt lat="37.84868476266733" lon="112.02754205469785">
        <ele>1102.0</ele>
        <time>2018-05-15T12:11:29.600000Z</time>
      </trkpt>
      <trkpt lat="37.84869484822331" lon="112.02762913819913">
        <ele>1105.0</ele>
        <time>2018-05-15T12:11:35.900000Z</time>
      </trkpt>
    </trkseg>
  </trk>
</gpx>