<?xml version="1.0" encoding="UTF-8"?>
<gpx xmlns="http://www.topografix.com/GPX/1/1" xmlns:gpxtpx="http://www.garmin.com/xmlschemas/TrackPointExtension/v1" xmlns:xsi="http://www.w3.org/2001/XMLSchema-instance" xsi:schemaLocation="http://www.topografix.com/GPX/1/1 http://www.topografix.com/GPX/1/1/gpx.xsd" version="1.1" creator="gpx.py -- https://github.com/tkrajina/gpxpy">
  <trk>
    <name>gpx from keep</name>
    <type>Run</type>
    <trkseg>
      <trkpt lat="37.84732950237594" lon="112.02958769613097">
        <ele>1289.9</ele>
        <time>2016-12-23T07:30:33.900000Z</time>
      </trkpt>
      <trkpt lat="37.84720452211286" lon="112.02944274051553">
        <ele>1164.1</ele>
        <time>2016-12-23T07:30:37.500000Z</time>
      </trkpt>
      <trkpt lat="37.84728918425949" lon="112.02950771577575">
        <ele>1183.5</ele>
        <time>2016-12-23T07:30:40.500000Z</time>
      </trkpt>
      <trkpt lat="37.84734305852358" lon="112.02952786233212">
        <ele>1180.3</ele>
        <time>2016-12-23T07:30:43.500000Z</time>
      </trkpt>
      <trkpt lat="37.84750498095948" lon="112.0294096662699">
        <ele>1166.7</ele>
        <time>2016-12-23T07:31:03.700000Z</time>
      </trkpt>
      <trkpt lat="37.847564887995226" lon="112.02934740296216">
        <ele>1147.9</ele>
        <time>2016-12-23T07:31:10.400000Z</time>
      </trkpt>
      <trkpt lat="37.84759266736843" lon="112.02927790985616">
        <ele>1147.4</ele>
        <time>2016-12-23T07:31:13.500000Z</time>
      </trkpt>
      <trkpt lat="37.84756183951425" lon="112.02920913964577">
        <ele>1143.9</ele>
        <time>2016-12-23T07:31:20.600000Z</time>
      </trkpt>
      <trkpt lat="37.84756337365226" lon="112.02915169388889">
        <ele>1143.4</ele>
        <time>2016-12-23T07:31:26.500000Z</time>
      </trkpt>
      <trkpt lat="37.84760852930656" lon="112.02895433913059">
        <ele>1147.6</ele>
        <time>2016-12-23T07:31:47.500000Z</time>
      </trkpt>
      <trkpt lat="37.847547864747895" lon="112.02864104657495">
        <ele>1143.4</ele>
        <time>2016-12-23T07:32:11.500000Z</time>
      </trkpt>
      <trkpt lat="37.847572644687716" lon="112.02849905282103">
        <ele>1140.7</ele>
        <time>2016-12-23T07:32:23.500000Z</time>
      </trkpt>
      <trkpt lat="37.84754258886525" lon="112.02836919000961">
        <ele>1141.0</ele>
        <time>2016-12-23T07:32:29.500000Z</time>
      </trkpt>
      <trkpt lat="37.84750446630154" lon="112.0282846681116">
        <ele>1141.4</ele>
        <time>2016-12-23T07:32:32.500000Z</time>
      </trkpt>
      <trkpt lat="37.847472449786686" lon="112.0280397713842">
        <ele>1137.0</ele>
        <time>2016-12-23T07:32:41.500000Z</time>
      </trkpt>
      <trkpt lat="37.8474924270564" lon="112.02798212857346">
        <ele>1135.3</ele>
        <time>2016-12-23T07:32:44.500000Z</time>
      </trkpt>
      <trkpt lat="37.84745875153122" lon="112.027833413324">
        <ele>1130.7</ele>
        <time>2016-12-23T07:32:54.500000Z</time>
      </trkpt>
      <trkpt lat="37.847474932459846" lon="112.02757624806432">
        <ele>1125.2</ele>
        <time>2016-12-23T07:33:09.400000Z</time>
      </trkpt>
      <trkpt lat="37.84746455491257" lon="112.02748685238988">
        <ele>1123.7</ele>
        <time>2016-12-23T07:33:12.500000Z</time>
      </trkpt>
      <trkpt lat="37.84750592000905" lon="112.0273903846549">
        <ele>1122.7</ele>
        <time>2016-12-23T07:33:15.500000Z</time>
      </trkpt>
      <trkpt lat="37.84756093318875" lon="112.02731754754141">
        <ele>1121.8</ele>
        <time>2016-12-23T07:33:18.500000Z</time>
      </trkpt>
      <trkpt lat="37.84767843757474" lon="112.02721479360561">
        <ele>1120.6</ele>
        <time>2016-12-23T07:33:24.500000Z</time>
      </trkpt>
      <trkpt lat="37.8477153860073" lon="112.02714790811173">
        <ele>1120.7</ele>
        <time>2016-12-23T07:33:27.500000Z</time>
      </trkpt>
      <trkpt lat="37.847769511277875" lon="112.02690647140177">
        <ele>1120.3</ele>
        <time>2016-12-23T07:33:36.500000Z</time>
      </trkpt>
      <trkpt lat="37.84784205989449" lon="112.02667498288008">
        <ele>1119.8</ele>
        <time>2016-12-23T07:33:45.500000Z</time>
      </trkpt>
      <trkpt lat="37.84793392350472" lon="112.02661488287009">
        <ele>1121.0</ele>
        <time>2016-12-23T07:33:51.500000Z</time>
      </trkpt>
      <trkpt lat="37.84807319513498" lon="112.02658855366508">
        <ele>1122.7</ele>
        <time>2016-12-23T07:33:57.500000Z</time>
      </trkpt>
      <trkpt lat="37.84826225885187" lon="112.02661948961831">
        <ele>1127.2</ele>
        <time>2016-12-23T07:34:03.500000Z</time>
      </trkpt>
      <trkpt lat="37.84833591531587" lon="112.026618900455">
        <ele>1128.9</ele>
        <time>2016-12-23T07:34:06.500000Z</time>
      </trkpt>
      <trkpt lat="37.84865091992167" lon="112.02656654856872">
        <ele>1134.6</ele>
        <time>2016-12-23T07:34:18.500000Z</time>
      </trkpt>
      <trkpt lat="37.848740322285394" lon="112.02649342353207">
        <ele>1135.6</ele>
        <time>2016-12-23T07:34:21.500000Z</time>
      </trkpt>
      <trkpt lat="37.84877693700382" lon="112.02633323868653">
        <ele>1135.4</ele>
        <time>2016-12-23T07:34:27.500000Z</time>
      </trkpt>
      <trkpt lat="37.848890399678375" lon="112.02629799787766">
        <ele>1137.2</ele>
        <time>2016-12-23T07:34:33.500000Z</time>
      </trkpt>
      <trkpt lat="37.8488740820443" lon="112.02621763408914">
        <ele>1136.8</ele>
        <time>2016-12-23T07:34:36.400000Z</time>
      </trkpt>
      <trkpt lat="37.84887909947904" lon="112.02611946541438">
        <ele>1137.4</ele>
        <time>2016-12-23T07:34:39.500000Z</time>
      </trkpt>
      <trkpt lat="37.84882764090321" lon="112.02606320943858">
        <ele>1137.1</ele>
        <time>2016-12-23T07:34:42.500000Z</time>
      </trkpt>
      <trkpt lat="37.848835071608704" lon="112.02594366022572">
        <ele>1136.1</ele>
        <time>2016-12-23T07:34:45.500000Z</time>
      </trkpt>
      <trkpt lat="37.848966930101206" lon="112.02562527348049">
        <ele>1132.6</ele>
        <time>2016-12-23T07:34:51.500000Z</time>
      </trkpt>
      <trkpt lat="37.84898287307717" lon="112.02525412570598">
        <ele>1125.5</ele>
        <time>2016-12-23T07:35:00.500000Z</time>
      </trkpt>
      <trkpt lat="37.84897574390738" lon="112.02505993247586">
        <ele>1121.8</ele>
        <time>2016-12-23T07:35:06.500000Z</time>
      </trkpt>
      <trkpt lat="37.84899264791515" lon="112.0249651625469">
        <ele>1120.4</ele>
        <time>2016-12-23T07:35:09.500000Z</time>
      </trkpt>
      <trkpt lat="37.84897558831691" lon="112.02488703359667">
        <ele>1119.7</ele>
        <time>2016-12-23T07:35:12.500000Z</time>
      </trkpt>
      <trkpt lat="37.84900520657798" lon="112.0244707295228">
        <ele>1111.7</ele>
        <time>2016-12-23T07:35:24.500000Z</time>
      </trkpt>
      <trkpt lat="37.84902832340664" lon="112.02429147196638">
        <ele>1108.5</ele>
        <time>2016-12-23T07:35:30.500000Z</time>
      </trkpt>
      <trkpt lat="37.84899994586371" lon="112.02394408748414">
        <ele>1106.6</ele>
        <time>2016-12-23T07:35:39.500000Z</time>
      </trkpt>
      <trkpt lat="37.8489964394037" lon="112.02381542805522">
        <ele>1107.3</ele>
        <time>2016-12-23T07:35:42.400000Z</time>
      </trkpt>
      <trkpt lat="37.84906038962177" lon="112.02357746983677">
        <ele>1107.6</ele>
        <time>2016-12-23T07:35:48.500000Z</time>
      </trkpt>
      <trkpt lat="37.84905098750571" lon="112.02348162826752">
        <ele>1108.4</ele>
        <time>2016-12-23T07:35:51.500000Z</time>
      </trkpt>
      <trkpt lat="37.84913855082389" lon="112.02326598555608">
        <ele>1110.0</ele>
        <time>2016-12-23T07:35:57.500000Z</time>
      </trkpt>
      <trkpt lat="37.8491394621476" lon="112.02289662315938">
        <ele>1113.2</ele>
        <time>2016-12-23T07:36:06.400000Z</time>
      </trkpt>
      <trkpt lat="37.849099257285594" lon="112.0226554010231">
        <ele>1112.0</ele>
        <time>2016-12-23T07:36:12.400000Z</time>
      </trkpt>
      <trkpt lat="37.84910615012758" lon="112.02243621104185">
        <ele>1112.9</ele>
        <time>2016-12-23T07:36:18.500000Z</time>
      </trkpt>
      <trkpt lat="37.84913466016503" lon="112.02232403846871">
        <ele>1115.4</ele>
        <time>2016-12-23T07:36:21.500000Z</time>
      </trkpt>
      <trkpt lat="37.84909065428639" lon="112.0220913213674">
        <ele>1117.7</ele>
        <time>2016-12-23T07:36:27.500000Z</time>
      </trkpt>
      <trkpt lat="37.849109658720906" lon="112.02197499910325">
        <ele>1118.6</ele>
        <time>2016-12-23T07:36:30.500000Z</time>
      </trkpt>
      <trkpt lat="37.849105029390756" lon="112.0218598265233">
        <ele>1119.5</ele>
        <time>2016-12-23T07:36:33.500000Z</time>
      </trkpt>
      <trkpt lat="37.84905247278098" lon="112.02152258682156">
        <ele>1123.0</ele>
        <time>2016-12-23T07:36:42.500000Z</time>
      </trkpt>
      <trkpt lat="37.849052204272795" lon="112.02141249608968">
        <ele>1123.1</ele>
        <time>2016-12-23T07:36:45.500000Z</time>
      </trkpt>
      <trkpt lat="37.849160640122705" lon="112.0211991654665">
        <ele>1125.8</ele>
        <time>2016-12-23T07:36:51.500000Z</time>
      </trkpt>
      <trkpt lat="37.849165759664515" lon="112.02109080356183">
        <ele>1125.1</ele>
        <time>2016-12-23T07:36:54.500000Z</time>
      </trkpt>
      <trkpt lat="37.849208695737225" lon="112.02099544261755">
        <ele>1125.5</ele>
        <time>2016-12-23T07:36:57.400000Z</time>
      </trkpt>
      <trkpt lat="37.849218167987175" lon="112.02080386509127">
        <ele>1127.7</ele>
        <time>2016-12-23T07:37:03.500000Z</time>
      </trkpt>
      <trkpt lat="37.849236431608475" lon="112.02070530387563">
        <ele>1128.5</ele>
        <time>2016-12-23T07:37:06.500000Z</time>
      </trkpt>
      <trkpt lat="37.849157025600626" lon="112.02031108917328">
        <ele>1126.2</ele>
        <time>2016-12-23T07:37:18.500000Z</time>
      </trkpt>
      <trkpt lat="37.849136063538154" lon="112.02012427732457">
        <ele>1124.9</ele>
        <time>2016-12-23T07:37:24.400000Z</time>
      </trkpt>
      <trkpt lat="37.84914063919415" lon="112.01994391129602">
        <ele>1122.5</ele>
        <time>2016-12-23T07:37:30.500000Z</time>
      </trkpt>
      <trkpt lat="37.84912017342945" lon="112.01970394206187">
        <ele>1123.5</ele>
        <time>2016-12-23T07:37:36.500000Z</time>
      </trkpt>
      <trkpt lat="37.84911959112081" lon="112.01926153741462">
        <ele>1122.0</ele>
        <time>2016-12-23T07:37:48.500000Z</time>
      </trkpt>
      <trkpt lat="37.84910830891784" lon="112.01904729011258">
        <ele>1121.5</ele>
        <time>2016-12-23T07:37:54.500000Z</time>
      </trkpt>
      <trkpt lat="37.849090661786825" lon="112.0189501845958">
        <ele>1120.3</ele>
        <time>2016-12-23T07:37:57.500000Z</time>
      </trkpt>
      <trkpt lat="37.849094307819065" lon="112.01861805483242">
        <ele>1122.1</ele>
        <time>2016-12-23T07:38:06.500000Z</time>
      </trkpt>
      <trkpt lat="37.84916993310525" lon="112.01832451312796">
        <ele>1122.1</ele>
        <time>2016-12-23T07:38:21.500000Z</time>
      </trkpt>
      <trkpt lat="37.849156496103454" lon="112.01817964388175">
        <ele>1121.9</ele>
        <time>2016-12-23T07:38:30.500000Z</time>
      </trkpt>
      <trkpt lat="37.84916275071262" lon="112.01808087685158">
        <ele>1122.0</ele>
        <time>2016-12-23T07:38:36.400000Z</time>
      </trkpt>
      <trkpt lat="37.84919323055806" lon="112.01801290397006">
        <ele>1120.7</ele>
        <time>2016-12-23T07:38:42.400000Z</time>
      </trkpt>
      <trkpt lat="37.84921670030717" lon="112.0178325559204">
        <ele>1117.3</ele>
        <time>2016-12-23T07:38:54.500000Z</time>
      </trkpt>
      <trkpt lat="37.849175262949494" lon="112.01772036969926">
        <ele>1116.1</ele>
        <time>2016-12-23T07:39:00.500000Z</time>
      </trkpt>
      <trkpt lat="37.849194568048595" lon="112.01761436284077">
        <ele>1116.7</ele>
        <time>2016-12-23T07:39:06.500000Z</time>
      </trkpt>
      <trkpt lat="37.84918904477456" lon="112.01754181541452">
        <ele>1117.2</ele>
        <time>2016-12-23T07:39:12.500000Z</time>
      </trkpt>
      <trkpt lat="37.849214659886236" lon="112.01747444139862">
        <ele>1119.2</ele>
        <time>2016-12-23T07:39:15.500000Z</time>
      </trkpt>
      <trkpt lat="37.84921029408361" lon="112.0173260560378">
        <ele>1118.5</ele>
        <time>2016-12-23T07:39:24.500000Z</time>
      </trkpt>
      <trkpt lat="37.84925956897207" lon="112.01724531939877">
        <ele>1120.6</ele>
        <time>2016-12-23T07:39:27.700000Z</time>
      </trkpt>
      <trkpt lat="37.84928821886352" lon="112.0171535115615">
        <ele>1124.2</ele>
        <time>2016-12-23T07:39:31.200000Z</time>
      </trkpt>
      <trkpt lat="37.849331112213854" lon="112.01671558860484">
        <ele>1131.6</ele>
        <time>2016-12-23T07:39:55.600000Z</time>
      </trkpt>
      <trkpt lat="37.84934647154551" lon="112.01634731262308">
        <ele>1132.7</ele>
        <time>2016-12-23T07:40:19.500000Z</time>
      </trkpt>
      <trkpt lat="37.84930789533754" lon="112.0159823313593">
        <ele>1135.4</ele>
        <time>2016-12-23T07:40:43.500000Z</time>
      </trkpt>
      <trkpt lat="37.84933626681045" lon="112.0158322791206">
        <ele>1136.1</ele>
        <time>2016-12-23T07:40:58.500000Z</time>
      </trkpt>
      <trkpt lat="37.84939603986845" lon="112.01577931953726">
        <ele>1134.9</ele>
        <time>2016-12-23T07:41:01.500000Z</time>
      </trkpt>
      <trkpt lat="37.849420343812554" lon="112.01571150338242">
        <ele>1134.3</ele>
        <time>2016-12-23T07:41:06.300000Z</time>
      </trkpt>
      <trkpt lat="37.849404007036696" lon="112.01553306385763">
        <ele>1134.8</ele>
        <time>2016-12-23T07:41:15.500000Z</time>
      </trkpt>
      <trkpt lat="37.84944984076706" lon="112.01528072663119">
        <ele>1137.0</ele>
        <time>2016-12-23T07:41:33.500000Z</time>
      </trkpt>
      <trkpt lat="37.84946938192264" lon="112.01510527717757">
        <ele>1137.0</ele>
        <time>2016-12-23T07:41:45.500000Z</time>
      </trkpt>
      <trkpt lat="37.84951683720682" lon="112.0149899848321">
        <ele>1136.4</ele>
        <time>2016-12-23T07:41:54.500000Z</time>
      </trkpt>
      <trkpt lat="37.84950954877139" lon="112.01475459156084">
        <ele>1135.4</ele>
        <time>2016-12-23T07:42:09.500000Z</time>
      </trkpt>
      <trkpt lat="37.84953883823109" lon="112.0146625431641">
        <ele>1135.0</ele>
        <time>2016-12-23T07:42:15.500000Z</time>
      </trkpt>
      <trkpt lat="37.849540531465536" lon="112.01446096325047">
        <ele>1136.4</ele>
        <time>2016-12-23T07:42:27.500000Z</time>
      </trkpt>
      <trkpt lat="37.84956084947986" lon="112.01430714892153">
        <ele>1138.2</ele>
        <time>2016-12-23T07:42:36.500000Z</time>
      </trkpt>
      <trkpt lat="37.84955138245878" lon="112.01425037074071">
        <ele>1138.8</ele>
        <time>2016-12-23T07:42:39.500000Z</time>
      </trkpt>
      <trkpt lat="37.84954327320583" lon="112.01387063596603">
        <ele>1140.8</ele>
        <time>2016-12-23T07:42:51.500000Z</time>
      </trkpt>
      <trkpt lat="37.849573548703525" lon="112.01349402153774">
        <ele>1140.0</ele>
        <time>2016-12-23T07:43:03.500000Z</time>
      </trkpt>
      <trkpt lat="37.849567775845316" lon="112.01328091179262">
        <ele>1141.6</ele>
        <time>2016-12-23T07:43:09.500000Z</time>
      </trkpt>
      <trkpt lat="37.84959241234403" lon="112.01308192444321">
        <ele>1141.6</ele>
        <time>2016-12-23T07:43:15.500000Z</time>
      </trkpt>
      <trkpt lat="37.84962500477392" lon="112.0129755100845">
        <ele>1142.1</ele>
        <time>2016-12-23T07:43:18.500000Z</time>
      </trkpt>
      <trkpt lat="37.84964422119118" lon="112.01255194501682">
        <ele>1139.0</ele>
        <time>2016-12-23T07:43:30.500000Z</time>
      </trkpt>
      <trkpt lat="37.84967753469094" lon="112.01226449798123">
        <ele>1135.4</ele>
        <time>2016-12-23T07:43:39.500000Z</time>
      </trkpt>
      <trkpt lat="37.849731656026236" lon="112.01206800006801">
        <ele>1134.7</ele>
        <time>2016-12-23T07:43:45.500000Z</time>
      </trkpt>
      <trkpt lat="37.84971463700109" lon="112.01196212747348">
        <ele>1133.0</ele>
        <time>2016-12-23T07:43:48.500000Z</time>
      </trkpt>
      <trkpt lat="37.84972326370133" lon="112.01177313604778">
        <ele>1129.2</ele>
        <time>2016-12-23T07:43:54.500000Z</time>
      </trkpt>
      <trkpt lat="37.849753961344454" lon="112.01171761051344">
        <ele>1127.6</ele>
        <time>2016-12-23T07:43:57.500000Z</time>
      </trkpt>
      <trkpt lat="37.84978857196445" lon="112.0115545298131">
        <ele>1126.2</ele>
        <time>2016-12-23T07:44:09.500000Z</time>
      </trkpt>
      <trkpt lat="37.84982137921185" lon="112.01117034618207">
        <ele>1125.0</ele>
        <time>2016-12-23T07:44:24.500000Z</time>
      </trkpt>
      <trkpt lat="37.84984734639331" lon="112.01098724890917">
        <ele>1126.9</ele>
        <time>2016-12-23T07:44:30.500000Z</time>
      </trkpt>
      <trkpt lat="37.84984788047916" lon="112.01069923807215">
        <ele>1130.1</ele>
        <time>2016-12-23T07:44:39.500000Z</time>
      </trkpt>
      <trkpt lat="37.84983158357288" lon="112.01058578103424">
        <ele>1129.6</ele>
        <time>2016-12-23T07:44:42.500000Z</time>
      </trkpt>
      <trkpt lat="37.84987540501352" lon="112.01025545956243">
        <ele>1128.5</ele>
        <time>2016-12-23T07:44:51.500000Z</time>
      </trkpt>
      <trkpt lat="37.84986789242874" lon="112.00983794684407">
        <ele>1134.1</ele>
        <time>2016-12-23T07:45:03.500000Z</time>
      </trkpt>
      <trkpt lat="37.849829387622464" lon="112.00944139056298">
        <ele>1130.3</ele>
        <time>2016-12-23T07:45:15.500000Z</time>
      </trkpt>
      <trkpt lat="37.849655604997594" lon="112.0091041574877">
        <ele>1128.6</ele>
        <time>2016-12-23T07:45:27.500000Z</time>
      </trkpt>
      <trkpt lat="37.849459260403826" lon="112.0087928681001">
        <ele>1130.3</ele>
        <time>2016-12-23T07:45:39.500000Z</time>
      </trkpt>
      <trkpt lat="37.8492443302373" lon="112.00851272599529">
        <ele>1125.8</ele>
        <time>2016-12-23T07:45:51.500000Z</time>
      </trkpt>
      <trkpt lat="37.84907657060075" lon="112.00817886818123">
        <ele>1122.0</ele>
        <time>2016-12-23T07:46:03.500000Z</time>
      </trkpt>
      <trkpt lat="37.84887761430268" lon="112.00788104592715">
        <ele>1121.4</ele>
        <time>2016-12-23T07:46:15.500000Z</time>
      </trkpt>
      <trkpt lat="37.84869943358378" lon="112.00760897661903">
        <ele>1122.2</ele>
        <time>2016-12-23T07:46:24.500000Z</time>
      </trkpt>
      <trkpt lat="37.84848212761741" lon="112.00728289180812">
        <ele>1125.7</ele>
        <time>2016-12-23T07:46:36.500000Z</time>
      </trkpt>
      <trkpt lat="37.848287391757616" lon="112.00706755439721">
        <ele>1130.7</ele>
        <time>2016-12-23T07:46:45.500000Z</time>
      </trkpt>
      <trkpt lat="37.84813310346783" lon="112.00697005610455">
        <ele>1137.6</ele>
        <time>2016-12-23T07:46:51.500000Z</time>
      </trkpt>
      <trkpt lat="37.84778142849303" lon="112.00691238432768">
        <ele>1145.6</ele>
        <time>2016-12-23T07:47:03.500000Z</time>
      </trkpt>
      <trkpt lat="37.84750635053672" lon="112.00684738149658">
        <ele>1142.4</ele>
        <time>2016-12-23T07:47:15.500000Z</time>
      </trkpt>
      <trkpt lat="37.84719286681212" lon="112.00680447998302">
        <ele>1144.2</ele>
        <time>2016-12-23T07:47:27.500000Z</time>
      </trkpt>
      <trkpt lat="37.84691338484691" lon="112.0067418814821">
        <ele>1144.6</ele>
        <time>2016-12-23T07:47:39.500000Z</time>
      </trkpt>
      <trkpt lat="37.8466421030694" lon="112.00670930552758">
        <ele>1145.9</ele>
        <time>2016-12-23T07:47:51.500000Z</time>
      </trkpt>
      <trkpt lat="37.84635093184779" lon="112.00667138313119">
        <ele>1146.4</ele>
        <time>2016-12-23T07:48:03.500000Z</time>
      </trkpt>
      <trkpt lat="37.846038930043875" lon="112.00665136815287">
        <ele>1144.3</ele>
        <time>2016-12-23T07:48:27.400000Z</time>
      </trkpt>
      <trkpt lat="37.845743759481266" lon="112.00655490234911">
        <ele>1138.7</ele>
        <time>2016-12-23T07:48:51.500000Z</time>
      </trkpt>
      <trkpt lat="37.845597261871106" lon="112.00655140578297">
        <ele>1136.5</ele>
        <time>2016-12-23T07:49:03.500000Z</time>
      </trkpt>
      <trkpt lat="37.845387254213755" lon="112.00646466112855">
        <ele>1134.1</ele>
        <time>2016-12-23T07:49:21.500000Z</time>
      </trkpt>
      <trkpt lat="37.84525201102025" lon="112.00645492591858">
        <ele>1130.7</ele>
        <time>2016-12-23T07:49:33.500000Z</time>
      </trkpt>
      <trkpt lat="37.84518083537782" lon="112.00641792392183">
        <ele>1129.0</ele>
        <time>2016-12-23T07:49:39.500000Z</time>
      </trkpt>
      <trkpt lat="37.84488754816504" lon="112.00636370454946">
        <ele>1130.7</ele>
        <time>2016-12-23T07:50:00.500000Z</time>
      </trkpt>
      <trkpt lat="37.844587438346906" lon="112.00627959410375">
        <ele>1133.3</ele>
        <time>2016-12-23T07:50:21.500000Z</time>
      </trkpt>
      <trkpt lat="37.84433200488068" lon="112.0063231444501">
        <ele>1134.5</ele>
        <time>2016-12-23T07:50:42.500000Z</time>
      </trkpt>
      <trkpt lat="37.84415234597865" lon="112.00643128992583">
        <ele>1136.6</ele>
        <time>2016-12-23T07:51:00.500000Z</time>
      </trkpt>
      <trkpt lat="37.84408905516024" lon="112.00644087896613">
        <ele>1136.7</ele>
        <time>2016-12-23T07:51:06.500000Z</time>
      </trkpt>
      <trkpt lat="37.84391914193621" lon="112.0065512642397">
        <ele>1139.1</ele>
        <time>2016-12-23T07:51:21.500000Z</time>
      </trkpt>
      <trkpt lat="37.84375043682677" lon="112.00664623489743">
        <ele>1139.4</ele>
        <time>2016-12-23T07:51:42.400000Z</time>
      </trkpt>
      <trkpt lat="37.84368888386528" lon="112.00663461886045">
        <ele>1140.4</ele>
        <time>2016-12-23T07:51:54.500000Z</time>
      </trkpt>
      <trkpt lat="37.843436312150345" lon="112.0068303410227">
        <ele>1142.3</ele>
        <time>2016-12-23T07:52:06.500000Z</time>
      </trkpt>
      <trkpt lat="37.84315077689061" lon="112.00707231390072">
        <ele>1145.8</ele>
        <time>2016-12-23T07:52:18.500000Z</time>
      </trkpt>
      <trkpt lat="37.84287563196135" lon="112.00726702514478">
        <ele>1148.6</ele>
        <time>2016-12-23T07:52:30.500000Z</time>
      </trkpt>
      <trkpt lat="37.84258496983773" lon="112.0075033630215">
        <ele>1149.6</ele>
        <time>2016-12-23T07:52:45.500000Z</time>
      </trkpt>
      <trkpt lat="37.84233087839244" lon="112.0076716361684">
        <ele>1150.8</ele>
        <time>2016-12-23T07:52:57.500000Z</time>
      </trkpt>
      <trkpt lat="37.84204444239498" lon="112.00786763541417">
        <ele>1152.8</ele>
        <time>2016-12-23T07:53:09.500000Z</time>
      </trkpt>
      <trkpt lat="37.8417506469624" lon="112.00802015441339">
        <ele>1156.6</ele>
        <time>2016-12-23T07:53:21.500000Z</time>
      </trkpt>
      <trkpt lat="37.841445729229186" lon="112.00811371172811">
        <ele>1159.0</ele>
        <time>2016-12-23T07:53:33.500000Z</time>
      </trkpt>
      <trkpt lat="37.84124845937847" lon="112.00816849993994">
        <ele>1152.6</ele>
        <time>2016-12-23T07:53:42.500000Z</time>
      </trkpt>
      <trkpt lat="37.84097901833264" lon="112.00812468632739">
        <ele>1151.2</ele>
        <time>2016-12-23T07:53:54.500000Z</time>
      </trkpt>
      <trkpt lat="37.84066042097234" lon="112.00812819517792">
        <ele>1150.4</ele>
        <time>2016-12-23T07:54:18.500000Z</time>
      </trkpt>
      <trkpt lat="37.8403821798203" lon="112.00808659954836">
        <ele>1149.4</ele>
        <time>2016-12-23T07:54:39.500000Z</time>
      </trkpt>
      <trkpt lat="37.84016725802934" lon="112.00810149263066">
        <ele>1145.0</ele>
        <time>2016-12-23T07:54:57.500000Z</time>
      </trkpt>
      <trkpt lat="37.83986723289293" lon="112.00817829852471">
        <ele>1139.4</ele>
        <time>2016-12-23T07:55:21.500000Z</time>
      </trkpt>
      <trkpt lat="37.83969567121506" lon="112.00820994613991">
        <ele>1136.8</ele>
        <time>2016-12-23T07:55:33.500000Z</time>
      </trkpt>
      <trkpt lat="37.83957565374737" lon="112.00826749298922">
        <ele>1134.6</ele>
        <time>2016-12-23T07:55:42.500000Z</time>
      </trkpt>
      <trkpt lat="37.83936755189913" lon="112.0083024342446">
        <ele>1132.4</ele>
        <time>2016-12-23T07:55:57.500000Z</time>
      </trkpt>
      <trkpt lat="37.83961895444085" lon="112.00818832989538">
        <ele>1142.7</ele>
        <time>2016-12-23T07:56:21.500000Z</time>
      </trkpt>
      <trkpt lat="37.83968430442234" lon="112.0081747596233">
        <ele>1143.1</ele>
        <time>2016-12-23T07:56:24.500000Z</time>
      </trkpt>
      <trkpt lat="37.8397341804333" lon="112.008129806315">
        <ele>1144.3</ele>
        <time>2016-12-23T07:56:27.500000Z</time>
      </trkpt>
      <trkpt lat="37.839968737255944" lon="112.00807711672542">
        <ele>1150.2</ele>
        <time>2016-12-23T07:56:39.500000Z</time>
      </trkpt>
      <trkpt lat="37.84000412936372" lon="112.00811798455804">
        <ele>1152.1</ele>
        <time>2016-12-23T07:56:48.400000Z</time>
      </trkpt>
      <trkpt lat="37.84016066260599" lon="112.00803823925567">
        <ele>1153.0</ele>
        <time>2016-12-23T07:57:27.500000Z</time>
      </trkpt>
      <trkpt lat="37.84014043353245" lon="112.00808960188171">
        <ele>1153.4</ele>
        <time>2016-12-23T07:57:57.500000Z</time>
      </trkpt>
      <trkpt lat="37.84019724065567" lon="112.00805472421789">
        <ele>1155.0</ele>
        <time>2016-12-23T07:59:29.500000Z</time>
      </trkpt>
      <trkpt lat="37.84049885287171" lon="112.0080833418224">
        <ele>1154.6</ele>
        <time>2016-12-23T07:59:47.500000Z</time>
      </trkpt>
      <trkpt lat="37.84077876672912" lon="112.00810979949091">
        <ele>1158.3</ele>
        <time>2016-12-23T07:59:59.500000Z</time>
      </trkpt>
      <trkpt lat="37.841055489687044" lon="112.00813624590847">
        <ele>1162.6</ele>
        <time>2016-12-23T08:00:11.500000Z</time>
      </trkpt>
      <trkpt lat="37.84112878001224" lon="112.00815477611789">
        <ele>1163.3</ele>
        <time>2016-12-23T08:00:14.500000Z</time>
      </trkpt>
      <trkpt lat="37.84140906381195" lon="112.00808784941464">
        <ele>1165.7</ele>
        <time>2016-12-23T08:00:26.500000Z</time>
      </trkpt>
      <trkpt lat="37.8415327970928" lon="112.00801410284284">
        <ele>1165.8</ele>
        <time>2016-12-23T08:00:32.500000Z</time>
      </trkpt>
      <trkpt lat="37.84160800206712" lon="112.00800980029481">
        <ele>1167.2</ele>
        <time>2016-12-23T08:00:36.300000Z</time>
      </trkpt>
      <trkpt lat="37.84177599716257" lon="112.00788704519113">
        <ele>1164.0</ele>
        <time>2016-12-23T08:00:45.400000Z</time>
      </trkpt>
      <trkpt lat="37.84192498780936" lon="112.00782647648164">
        <ele>1162.3</ele>
        <time>2016-12-23T08:00:51.500000Z</time>
      </trkpt>
      <trkpt lat="37.842064941575174" lon="112.00773390142506">
        <ele>1157.7</ele>
        <time>2016-12-23T08:00:57.500000Z</time>
      </trkpt>
      <trkpt lat="37.84210929729795" lon="112.00767978104948">
        <ele>1156.3</ele>
        <time>2016-12-23T08:01:00.500000Z</time>
      </trkpt>
      <trkpt lat="37.84236304982715" lon="112.00751689110533">
        <ele>1153.1</ele>
        <time>2016-12-23T08:01:21.500000Z</time>
      </trkpt>
      <trkpt lat="37.84248399639917" lon="112.0074546210541">
        <ele>1153.5</ele>
        <time>2016-12-23T08:01:30.500000Z</time>
      </trkpt>
      <trkpt lat="37.842659690704394" lon="112.00727524346952">
        <ele>1152.2</ele>
        <time>2016-12-23T08:01:39.400000Z</time>
      </trkpt>
      <trkpt lat="37.842789712620785" lon="112.00718550354775">
        <ele>1150.0</ele>
        <time>2016-12-23T08:01:45.500000Z</time>
      </trkpt>
      <trkpt lat="37.842827063890226" lon="112.00711946078818">
        <ele>1149.8</ele>
        <time>2016-12-23T08:01:48.500000Z</time>
      </trkpt>
      <trkpt lat="37.842989138913936" lon="112.00696463881438">
        <ele>1143.9</ele>
        <time>2016-12-23T08:01:57.500000Z</time>
      </trkpt>
      <trkpt lat="37.84325448830554" lon="112.00682777575317">
        <ele>1147.5</ele>
        <time>2016-12-23T08:02:06.500000Z</time>
      </trkpt>
      <trkpt lat="37.84354440713176" lon="112.00659991603054">
        <ele>1151.2</ele>
        <time>2016-12-23T08:02:18.500000Z</time>
      </trkpt>
      <trkpt lat="37.84380412295464" lon="112.00640101960775">
        <ele>1150.9</ele>
        <time>2016-12-23T08:02:30.500000Z</time>
      </trkpt>
      <trkpt lat="37.844080445857685" lon="112.00627039613967">
        <ele>1146.5</ele>
        <time>2016-12-23T08:02:42.500000Z</time>
      </trkpt>
      <trkpt lat="37.84425782159034" lon="112.00617791446058">
        <ele>1142.2</ele>
        <time>2016-12-23T08:02:51.500000Z</time>
      </trkpt>
      <trkpt lat="37.84433219206947" lon="112.00616553020635">
        <ele>1141.6</ele>
        <time>2016-12-23T08:02:54.500000Z</time>
      </trkpt>
      <trkpt lat="37.844626115545395" lon="112.00619988037568">
        <ele>1141.9</ele>
        <time>2016-12-23T08:03:03.500000Z</time>
      </trkpt>
      <trkpt lat="37.84491951552466" lon="112.00624362423237">
        <ele>1144.9</ele>
        <time>2016-12-23T08:03:12.500000Z</time>
      </trkpt>
      <trkpt lat="37.845231378122826" lon="112.00625344772645">
        <ele>1146.9</ele>
        <time>2016-12-23T08:03:24.500000Z</time>
      </trkpt>
      <trkpt lat="37.84548355946261" lon="112.00630085670787">
        <ele>1147.7</ele>
        <time>2016-12-23T08:03:33.500000Z</time>
      </trkpt>
      <trkpt lat="37.84579750764371" lon="112.00643239905057">
        <ele>1145.4</ele>
        <time>2016-12-23T08:03:45.500000Z</time>
      </trkpt>
      <trkpt lat="37.84608922195317" lon="112.00653679334665">
        <ele>1143.6</ele>
        <time>2016-12-23T08:03:57.500000Z</time>
      </trkpt>
      <trkpt lat="37.84626021873952" lon="112.00658789123719">
        <ele>1147.7</ele>
        <time>2016-12-23T08:04:03.500000Z</time>
      </trkpt>
      <trkpt lat="37.846573603339664" lon="112.00661584049833">
        <ele>1154.6</ele>
        <time>2016-12-23T08:04:15.500000Z</time>
      </trkpt>
      <trkpt lat="37.846897156448364" lon="112.00663168500556">
        <ele>1153.4</ele>
        <time>2016-12-23T08:04:27.400000Z</time>
      </trkpt>
      <trkpt lat="37.84707536080078" lon="112.0066643227477">
        <ele>1154.5</ele>
        <time>2016-12-23T08:04:33.500000Z</time>
      </trkpt>
      <trkpt lat="37.84722903726264" lon="112.0067240282351">
        <ele>1154.8</ele>
        <time>2016-12-23T08:04:39.400000Z</time>
      </trkpt>
      <trkpt lat="37.847530886073685" lon="112.00675370003081">
        <ele>1155.9</ele>
        <time>2016-12-23T08:04:51.500000Z</time>
      </trkpt>
      <trkpt lat="37.847853625872915" lon="112.00679836380633">
        <ele>1149.7</ele>
        <time>2016-12-23T08:05:03.500000Z</time>
      </trkpt>
      <trkpt lat="37.848134337756704" lon="112.00686950329126">
        <ele>1144.3</ele>
        <time>2016-12-23T08:05:15.400000Z</time>
      </trkpt>
      <trkpt lat="37.848293959762586" lon="112.0069602367423">
        <ele>1145.5</ele>
        <time>2016-12-23T08:05:21.500000Z</time>
      </trkpt>
      <trkpt lat="37.8484874085073" lon="112.00712008123674">
        <ele>1145.0</ele>
        <time>2016-12-23T08:05:30.500000Z</time>
      </trkpt>
      <trkpt lat="37.848673283436895" lon="112.00740227570859">
        <ele>1143.4</ele>
        <time>2016-12-23T08:05:42.500000Z</time>
      </trkpt>
      <trkpt lat="37.848870716537625" lon="112.00767153499966">
        <ele>1141.0</ele>
        <time>2016-12-23T08:05:54.500000Z</time>
      </trkpt>
      <trkpt lat="37.84910024209866" lon="112.00797785494782">
        <ele>1142.1</ele>
        <time>2016-12-23T08:06:06.500000Z</time>
      </trkpt>
      <trkpt lat="37.84929427430092" lon="112.0082814894529">
        <ele>1142.2</ele>
        <time>2016-12-23T08:06:18.500000Z</time>
      </trkpt>
      <trkpt lat="37.84949050822446" lon="112.00857487110885">
        <ele>1140.5</ele>
        <time>2016-12-23T08:06:30.500000Z</time>
      </trkpt>
      <trkpt lat="37.849681005817224" lon="112.00888145620786">
        <ele>1138.5</ele>
        <time>2016-12-23T08:06:42.500000Z</time>
      </trkpt>
      <trkpt lat="37.849819149452294" lon="112.00912111720311">
        <ele>1138.4</ele>
        <time>2016-12-23T08:06:51.500000Z</time>
      </trkpt>
      <trkpt lat="37.849860141535345" lon="112.00932224711585">
        <ele>1136.7</ele>
        <time>2016-12-23T08:06:57.500000Z</time>
      </trkpt>
      <trkpt lat="37.84988370581271" lon="112.00962908815181">
        <ele>1132.4</ele>
        <time>2016-12-23T08:07:06.500000Z</time>
      </trkpt>
      <trkpt lat="37.84990349869631" lon="112.0097276420764">
        <ele>1132.7</ele>
        <time>2016-12-23T08:07:09.400000Z</time>
      </trkpt>
      <trkpt lat="37.84990147126431" lon="112.0101296554195">
        <ele>1128.5</ele>
        <time>2016-12-23T08:07:24.500000Z</time>
      </trkpt>
      <trkpt lat="37.84988511068857" lon="112.01018688005864">
        <ele>1127.9</ele>
        <time>2016-12-23T08:07:30.500000Z</time>
      </trkpt>
      <trkpt lat="37.84991005195748" lon="112.01026915507929">
        <ele>1127.2</ele>
        <time>2016-12-23T08:07:36.500000Z</time>
      </trkpt>
      <trkpt lat="37.8498861161328" lon="112.01069803286279">
        <ele>1133.0</ele>
        <time>2016-12-23T08:07:54.500000Z</time>
      </trkpt>
      <trkpt lat="37.84985917847109" lon="112.01109498172572">
        <ele>1138.1</ele>
        <time>2016-12-23T08:08:18.500000Z</time>
      </trkpt>
      <trkpt lat="37.849852501183456" lon="112.01115175203203">
        <ele>1138.0</ele>
        <time>2016-12-23T08:08:30.500000Z</time>
      </trkpt>
      <trkpt lat="37.849826642971564" lon="112.01120135404217">
        <ele>1137.1</ele>
        <time>2016-12-23T08:08:39.400000Z</time>
      </trkpt>
      <trkpt lat="37.84977746749806" lon="112.0115227006532">
        <ele>1136.5</ele>
        <time>2016-12-23T08:09:00.400000Z</time>
      </trkpt>
      <trkpt lat="37.849774309061175" lon="112.01172865117468">
        <ele>1136.2</ele>
        <time>2016-12-23T08:09:15.500000Z</time>
      </trkpt>
      <trkpt lat="37.84973978411102" lon="112.01208233034231">
        <ele>1135.8</ele>
        <time>2016-12-23T08:09:27.500000Z</time>
      </trkpt>
      <trkpt lat="37.84973220291251" lon="112.0124369461464">
        <ele>1131.8</ele>
        <time>2016-12-23T08:09:39.400000Z</time>
      </trkpt>
      <trkpt lat="37.84971263061042" lon="112.01283022151372">
        <ele>1129.6</ele>
        <time>2016-12-23T08:09:52.500000Z</time>
      </trkpt>
      <trkpt lat="37.84971242807128" lon="112.01307556489388">
        <ele>1135.2</ele>
        <time>2016-12-23T08:09:58.500000Z</time>
      </trkpt>
      <trkpt lat="37.84967471820932" lon="112.01341669039209">
        <ele>1137.8</ele>
        <time>2016-12-23T08:10:08.500000Z</time>
      </trkpt>
      <trkpt lat="37.849646028563235" lon="112.01377813128023">
        <ele>1137.3</ele>
        <time>2016-12-23T08:10:20.500000Z</time>
      </trkpt>
      <trkpt lat="37.84961300727937" lon="112.01415185966819">
        <ele>1138.7</ele>
        <time>2016-12-23T08:10:32.500000Z</time>
      </trkpt>
      <trkpt lat="37.849556681057145" lon="112.01444669447793">
        <ele>1139.0</ele>
        <time>2016-12-23T08:10:41.500000Z</time>
      </trkpt>
      <trkpt lat="37.849562111759234" lon="112.0146682432672">
        <ele>1142.8</ele>
        <time>2016-12-23T08:10:47.500000Z</time>
      </trkpt>
      <trkpt lat="37.84951282186577" lon="112.01506575171491">
        <ele>1141.2</ele>
        <time>2016-12-23T08:10:59.500000Z</time>
      </trkpt>
      <trkpt lat="37.84945789211771" lon="112.01542375586477">
        <ele>1136.9</ele>
        <time>2016-12-23T08:11:17.500000Z</time>
      </trkpt>
      <trkpt lat="37.84943468985564" lon="112.01553398935584">
        <ele>1136.0</ele>
        <time>2016-12-23T08:11:23.500000Z</time>
      </trkpt>
      <trkpt lat="37.849407366244556" lon="112.0159270958693">
        <ele>1136.9</ele>
        <time>2016-12-23T08:11:44.500000Z</time>
      </trkpt>
      <trkpt lat="37.849364392684606" lon="112.01634217361647">
        <ele>1136.4</ele>
        <time>2016-12-23T08:12:02.500000Z</time>
      </trkpt>
      <trkpt lat="37.84934284104672" lon="112.01676745630061">
        <ele>1135.7</ele>
        <time>2016-12-23T08:12:14.500000Z</time>
      </trkpt>
      <trkpt lat="37.84932307381025" lon="112.01712815531097">
        <ele>1135.5</ele>
        <time>2016-12-23T08:12:26.500000Z</time>
      </trkpt>
      <trkpt lat="37.84927012251417" lon="112.01749224114057">
        <ele>1136.6</ele>
        <time>2016-12-23T08:12:38.500000Z</time>
      </trkpt>
      <trkpt lat="37.849232092445035" lon="112.01767565459173">
        <ele>1136.5</ele>
        <time>2016-12-23T08:12:44.500000Z</time>
      </trkpt>
      <trkpt lat="37.84922426487682" lon="112.01785877315389">
        <ele>1135.1</ele>
        <time>2016-12-23T08:12:50.500000Z</time>
      </trkpt>
      <trkpt lat="37.84920650005863" lon="112.01794279167169">
        <ele>1134.5</ele>
        <time>2016-12-23T08:12:53.500000Z</time>
      </trkpt>
      <trkpt lat="37.84920083246279" lon="112.01828723698716">
        <ele>1135.9</ele>
        <time>2016-12-23T08:13:08.500000Z</time>
      </trkpt>
      <trkpt lat="37.849154845680275" lon="112.0186925152939">
        <ele>1131.2</ele>
        <time>2016-12-23T08:13:29.500000Z</time>
      </trkpt>
      <trkpt lat="37.84914646673258" lon="112.019071045867">
        <ele>1130.0</ele>
        <time>2016-12-23T08:13:41.500000Z</time>
      </trkpt>
      <trkpt lat="37.849136448726604" lon="112.0194658551951">
        <ele>1126.6</ele>
        <time>2016-12-23T08:13:53.500000Z</time>
      </trkpt>
      <trkpt lat="37.84914144056231" lon="112.01973978289583">
        <ele>1122.4</ele>
        <time>2016-12-23T08:14:02.500000Z</time>
      </trkpt>
      <trkpt lat="37.84909042836348" lon="112.02015707707778">
        <ele>1123.4</ele>
        <time>2016-12-23T08:14:14.400000Z</time>
      </trkpt>
      <trkpt lat="37.84906977589356" lon="112.02058276409">
        <ele>1124.0</ele>
        <time>2016-12-23T08:14:26.500000Z</time>
      </trkpt>
      <trkpt lat="37.84909465044703" lon="112.0209340966703">
        <ele>1123.7</ele>
        <time>2016-12-23T08:14:35.500000Z</time>
      </trkpt>
      <trkpt lat="37.84910395247737" lon="112.02132731228305">
        <ele>1122.7</ele>
        <time>2016-12-23T08:14:47.500000Z</time>
      </trkpt>
      <trkpt lat="37.84910538131174" lon="112.02171624997204">
        <ele>1124.4</ele>
        <time>2016-12-23T08:14:59.500000Z</time>
      </trkpt>
      <trkpt lat="37.84910369483452" lon="112.02202302771644">
        <ele>1122.6</ele>
        <time>2016-12-23T08:15:08.500000Z</time>
      </trkpt>
      <trkpt lat="37.849060652195725" lon="112.02241139243095">
        <ele>1123.0</ele>
        <time>2016-12-23T08:15:20.500000Z</time>
      </trkpt>
      <trkpt lat="37.84905524437956" lon="112.0225228966942">
        <ele>1122.1</ele>
        <time>2016-12-23T08:15:23.500000Z</time>
      </trkpt>
      <trkpt lat="37.84909432628939" lon="112.02266757598174">
        <ele>1119.6</ele>
        <time>2016-12-23T08:15:29.500000Z</time>
      </trkpt>
      <trkpt lat="37.84911348839265" lon="112.02309317048761">
        <ele>1120.9</ele>
        <time>2016-12-23T08:15:53.500000Z</time>
      </trkpt>
      <trkpt lat="37.84911710531568" lon="112.02326163615707">
        <ele>1122.2</ele>
        <time>2016-12-23T08:16:05.500000Z</time>
      </trkpt>
      <trkpt lat="37.84898260291461" lon="112.02356511052727">
        <ele>1122.4</ele>
        <time>2016-12-23T08:16:20.400000Z</time>
      </trkpt>
      <trkpt lat="37.84895562075313" lon="112.02378815148785">
        <ele>1120.5</ele>
        <time>2016-12-23T08:16:38.500000Z</time>
      </trkpt>
      <trkpt lat="37.84892322776564" lon="112.02386160150955">
        <ele>1119.8</ele>
        <time>2016-12-23T08:16:44.500000Z</time>
      </trkpt>
      <trkpt lat="37.84884309369785" lon="112.02410520443523">
        <ele>1116.7</ele>
        <time>2016-12-23T08:17:05.500000Z</time>
      </trkpt>
      <trkpt lat="37.848889393513" lon="112.024170512054">
        <ele>1117.0</ele>
        <time>2016-12-23T08:17:08.500000Z</time>
      </trkpt>
      <trkpt lat="37.848899929965846" lon="112.0242430332694">
        <ele>1116.9</ele>
        <time>2016-12-23T08:17:11.500000Z</time>
      </trkpt>
      <trkpt lat="37.84892986760804" lon="112.02430467901362">
        <ele>1117.1</ele>
        <time>2016-12-23T08:17:14.500000Z</time>
      </trkpt>
      <trkpt lat="37.848970485763424" lon="112.02464789355064">
        <ele>1113.4</ele>
        <time>2016-12-23T08:17:32.400000Z</time>
      </trkpt>
      <trkpt lat="37.84895694889421" lon="112.0247411728596">
        <ele>1111.8</ele>
        <time>2016-12-23T08:17:38.400000Z</time>
      </trkpt>
      <trkpt lat="37.848923318290915" lon="112.02479103036823">
        <ele>1110.0</ele>
        <time>2016-12-23T08:17:44.500000Z</time>
      </trkpt>
      <trkpt lat="37.8489545023986" lon="112.02496147674728">
        <ele>1110.6</ele>
        <time>2016-12-23T08:17:50.500000Z</time>
      </trkpt>
      <trkpt lat="37.8489469787462" lon="112.02508043879196">
        <ele>1111.0</ele>
        <time>2016-12-23T08:17:53.500000Z</time>
      </trkpt>
      <trkpt lat="37.848908263798236" lon="112.02522750598862">
        <ele>1109.8</ele>
        <time>2016-12-23T08:18:02.500000Z</time>
      </trkpt>
      <trkpt lat="37.84892597777194" lon="112.02560931975887">
        <ele>1109.4</ele>
        <time>2016-12-23T08:18:17.500000Z</time>
      </trkpt>
      <trkpt lat="37.84892034101647" lon="112.02570236627119">
        <ele>1109.3</ele>
        <time>2016-12-23T08:18:20.400000Z</time>
      </trkpt>
      <trkpt lat="37.8489441799056" lon="112.02575511049595">
        <ele>1108.8</ele>
        <time>2016-12-23T08:18:23.500000Z</time>
      </trkpt>
      <trkpt lat="37.8489390696986" lon="112.02582195749105">
        <ele>1108.4</ele>
        <time>2016-12-23T08:18:29.500000Z</time>
      </trkpt>
      <trkpt lat="37.848907621573744" lon="112.02588053899561">
        <ele>1108.2</ele>
        <time>2016-12-23T08:18:32.500000Z</time>
      </trkpt>
      <trkpt lat="37.8489191600627" lon="112.02598084637918">
        <ele>1107.7</ele>
        <time>2016-12-23T08:18:38.500000Z</time>
      </trkpt>
      <trkpt lat="37.84886456377582" lon="112.02625710798618">
        <ele>1108.2</ele>
        <time>2016-12-23T08:18:50.500000Z</time>
      </trkpt>
      <trkpt lat="37.84886692943351" lon="112.02634187614517">
        <ele>1107.3</ele>
        <time>2016-12-23T08:18:56.500000Z</time>
      </trkpt>
      <trkpt lat="37.84885218654268" lon="112.02642423521367">
        <ele>1107.2</ele>
        <time>2016-12-23T08:19:02.500000Z</time>
      </trkpt>
      <trkpt lat="37.84880905577149" lon="112.02648466946462">
        <ele>1108.9</ele>
        <time>2016-12-23T08:19:08.500000Z</time>
      </trkpt>
      <trkpt lat="37.84873441993377" lon="112.02652003454202">
        <ele>1110.0</ele>
        <time>2016-12-23T08:19:14.500000Z</time>
      </trkpt>
      <trkpt lat="37.84854850276999" lon="112.02653911204833">
        <ele>1110.8</ele>
        <time>2016-12-23T08:19:29.500000Z</time>
      </trkpt>
      <trkpt lat="37.84844512407513" lon="112.02650363451255">
        <ele>1109.8</ele>
        <time>2016-12-23T08:19:35.500000Z</time>
      </trkpt>
      <trkpt lat="37.848302372426566" lon="112.02653994176413">
        <ele>1107.8</ele>
        <time>2016-12-23T08:19:41.500000Z</time>
      </trkpt>
      <trkpt lat="37.84809106380085" lon="112.02651083719009">
        <ele>1106.0</ele>
        <time>2016-12-23T08:19:51.400000Z</time>
      </trkpt>
      <trkpt lat="37.84798336998482" lon="112.02657390309797">
        <ele>1105.3</ele>
        <time>2016-12-23T08:20:00.500000Z</time>
      </trkpt>
      <trkpt lat="37.847679061671144" lon="112.02665757729575">
        <ele>1109.5</ele>
        <time>2016-12-23T08:20:15.500000Z</time>
      </trkpt>
      <trkpt lat="37.847612091840006" lon="112.0267160803961">
        <ele>1108.3</ele>
        <time>2016-12-23T08:20:21.400000Z</time>
      </trkpt>
      <trkpt lat="37.84752089381264" lon="112.02701282425083">
        <ele>1100.9</ele>
        <time>2016-12-23T08:20:45.400000Z</time>
      </trkpt>
      <trkpt lat="37.8475093096623" lon="112.02717249453845">
        <ele>1098.8</ele>
        <time>2016-12-23T08:20:54.500000Z</time>
      </trkpt>
      <trkpt lat="37.84752036938662" lon="112.02750645621222">
        <ele>1098.3</ele>
        <time>2016-12-23T08:21:09.500000Z</time>
      </trkpt>
      <trkpt lat="37.84746493819571" lon="112.02758178255414">
        <ele>1099.4</ele>
        <time>2016-12-23T08:21:12.500000Z</time>
      </trkpt>
      <trkpt lat="37.84736628538976" lon="112.02761332186672">
        <ele>1101.9</ele>
        <time>2016-12-23T08:21:15.500000Z</time>
      </trkpt>
      <trkpt lat="37.84732330487571" lon="112.02765556905253">
        <ele>1102.7</ele>
        <time>2016-12-23T08:21:18.400000Z</time>
      </trkpt>
      <trkpt lat="37.84730368858514" lon="112.02770774642687">
        <ele>1102.9</ele>
        <time>2016-12-23T08:21:21.500000Z</time>
      </trkpt>
      <trkpt lat="37.847278384214746" lon="112.0280933009912">
        <ele>1107.1</ele>
        <time>2016-12-23T08:21:42.500000Z</time>
      </trkpt>
      <trkpt lat="37.847283811187694" lon="112.02817459704269">
        <ele>1108.0</ele>
        <time>2016-12-23T08:21:45.500000Z</time>
      </trkpt>
      <trkpt lat="37.84726694830794" lon="112.02827968638515">
        <ele>1108.1</ele>
        <time>2016-12-23T08:21:51.500000Z</time>
      </trkpt>
      <trkpt lat="37.84723396560628" lon="112.02834580606054">
        <ele>1107.8</ele>
        <time>2016-12-23T08:21:58.400000Z</time>
      </trkpt>
      <trkpt lat="37.847261269954174" lon="112.02841266847294">
        <ele>1107.7</ele>
        <time>2016-12-23T08:22:01.500000Z</time>
      </trkpt>
      <trkpt lat="37.84725834319161" lon="112.02846887743465">
        <ele>1107.3</ele>
        <time>2016-12-23T08:22:04.500000Z</time>
      </trkpt>
      <trkpt lat="37.84728266044083" lon="112.02852043756027">
        <ele>1106.9</ele>
        <time>2016-12-23T08:22:07.500000Z</time>
      </trkpt>
      <trkpt lat="37.84729429836836" lon="112.0285929503631">
        <ele>1106.6</ele>
        <time>2016-12-23T08:22:13.500000Z</time>
      </trkpt>
      <trkpt lat="37.84736729777539" lon="112.02878228996997">
        <ele>1106.2</ele>
        <time>2016-12-23T08:22:26.500000Z</time>
      </trkpt>
      <trkpt lat="37.847354078808976" lon="112.02895270926619">
        <ele>1107.1</ele>
        <time>2016-12-23T08:22:41.500000Z</time>
      </trkpt>
      <trkpt lat="37.84729811698388" lon="112.02903858287928">
        <ele>1107.6</ele>
        <time>2016-12-23T08:22:47.500000Z</time>
      </trkpt>
      <trkpt lat="37.847359141393895" lon="112.029156011986">
        <ele>1108.7</ele>
        <time>2016-12-23T08:22:53.500000Z</time>
      </trkpt>
      <trkpt lat="37.847374529668535" lon="112.0292240460098">
        <ele>1109.5</ele>
        <time>2016-12-23T08:23:02.500000Z</time>
      </trkpt>
      <trkpt lat="37.84728904926898" lon="112.02928376600617">
        <ele>1108.6</ele>
        <time>2016-12-23T08:23:08.500000Z</time>
      </trkpt>
      <trkpt lat="37.84727000439888" lon="112.02933723625019">
        <ele>1108.6</ele>
        <time>2016-12-23T08:23:17.500000Z</time>
      </trkpt>
      <trkpt lat="37.8472208560518" lon="112.02935737941533">
        <ele>1110.0</ele>
        <time>2016-12-23T08:23:23.500000Z</time>
      </trkpt>
      <trkpt lat="37.84720047740406" lon="112.02947494273188">
        <ele>1111.2</ele>
        <time>2016-12-23T08:23:29.500000Z</time>
      </trkpt>
      <trkpt lat="37.84716205048945" lon="112.029558784601">
        <ele>1111.2</ele>
        <time>2016-12-23T08:23:35.500000Z</time>
      </trkpt>
      <trkpt lat="37.84711116829902" lon="112.02959928586185">
        <ele>1112.5</ele>
        <time>2016-12-23T08:23:53.500000Z</time>
      </trkpt>
      <trkpt lat="37.84707292764272" lon="112.02966129449139">
        <ele>1115.0</ele>
        <time>2016-12-23T08:24:05.500000Z</time>
      </trkpt>
      <trkpt lat="37.847030337190816" lon="112.02967935187186">
        <ele>1115.6</ele>
        <time>2016-12-23T08:24:08.400000Z</time>
      </trkpt>
      <trkpt lat="37.846994435000084" lon="112.02972225619371">
        <ele>1116.2</ele>
        <time>2016-12-23T08:24:14.400000Z</time>
      </trkpt>
      <trkpt lat="37.846817532859546" lon="112.02983263061095">
        <ele>1116.2</ele>
        <time>2016-12-23T08:24:23.400000Z</time>
      </trkpt>
      <trkpt lat="37.84684659695918" lon="112.02980293361534">
        <ele>1115.9</ele>
        <time>2016-12-23T08:24:41.500000Z</time>
      </trkpt>
      <trkpt lat="37.84692898627554" lon="112.02949597218839">
        <ele>0.0</ele>
        <time>2016-12-23T08:25:41.600000Z</time>
      </trkpt>
      <trkpt lat="37.84647835038306" lon="112.02971936678378">
        <ele>0.0</ele>
        <time>2016-12-23T08:26:41.600000Z</time>
      </trkpt>
      <trkpt lat="37.846830970338665" lon="112.02949598398257">
        <ele>0.0</ele>
        <time>2016-12-23T08:26:47.600000Z</time>
      </trkpt>
      <trkpt lat="37.84695496032107" lon="112.02950793368026">
        <ele>0.0</ele>
        <time>2016-12-23T08:27:05.600000Z</time>
      </trkpt>
    </trkseg>
  </trk>
</gpx>