<?xml version="1.0" encoding="UTF-8"?>
<gpx xmlns="http://www.topografix.com/GPX/1/1" xmlns:gpxtpx="http://www.garmin.com/xmlschemas/TrackPointExtension/v1" xmlns:xsi="http://www.w3.org/2001/XMLSchema-instance" xsi:schemaLocation="http://www.topografix.com/GPX/1/1 http://www.topografix.com/GPX/1/1/gpx.xsd" version="1.1" creator="gpx.py -- https://github.com/tkrajina/gpxpy">
  <trk>
    <name>gpx from keep</name>
    <type>Run</type>
    <trkseg>
      <trkpt lat="37.85641411311874" lon="112.03882174621943">
        <ele>1106.0</ele>
        <time>2018-12-28T00:39:49.204000Z</time>
      </trkpt>
      <trkpt lat="37.85645551049492" lon="112.03887260779315">
        <ele>1107.0</ele>
        <time>2018-12-28T00:39:59.804000Z</time>
      </trkpt>
    </trkseg>
  </trk>
</gpx>