<?xml version="1.0" encoding="UTF-8"?>
<gpx xmlns="http://www.topografix.com/GPX/1/1" xmlns:gpxtpx="http://www.garmin.com/xmlschemas/TrackPointExtension/v1" xmlns:xsi="http://www.w3.org/2001/XMLSchema-instance" xsi:schemaLocation="http://www.topografix.com/GPX/1/1 http://www.topografix.com/GPX/1/1/gpx.xsd" version="1.1" creator="gpx.py -- https://github.com/tkrajina/gpxpy">
  <trk>
    <name>gpx from keep</name>
    <type>Run</type>
    <trkseg>
      <trkpt lat="37.84729273492443" lon="112.02899943807458">
        <ele>1136.8</ele>
        <time>2017-01-07T01:51:13.600000Z</time>
      </trkpt>
      <trkpt lat="37.8472577438419" lon="112.02888936418238">
        <ele>1131.7</ele>
        <time>2017-01-07T01:51:25.600000Z</time>
      </trkpt>
      <trkpt lat="37.84728439248669" lon="112.02854587675843">
        <ele>1136.7</ele>
        <time>2017-01-07T01:51:49.700000Z</time>
      </trkpt>
      <trkpt lat="37.847317634849965" lon="112.02827757928983">
        <ele>1133.9</ele>
        <time>2017-01-07T01:52:34.700000Z</time>
      </trkpt>
      <trkpt lat="37.84736952382455" lon="112.02825079793021">
        <ele>1134.0</ele>
        <time>2017-01-07T01:52:43.600000Z</time>
      </trkpt>
      <trkpt lat="37.84742433428504" lon="112.02814260929406">
        <ele>1132.9</ele>
        <time>2017-01-07T01:53:11.600000Z</time>
      </trkpt>
      <trkpt lat="37.84746923368897" lon="112.02809067665657">
        <ele>1132.8</ele>
        <time>2017-01-07T01:53:17.600000Z</time>
      </trkpt>
      <trkpt lat="37.84750587301075" lon="112.02801790594094">
        <ele>1132.7</ele>
        <time>2017-01-07T01:53:20.700000Z</time>
      </trkpt>
      <trkpt lat="37.84772136711471" lon="112.0277747670378">
        <ele>1130.6</ele>
        <time>2017-01-07T01:53:41.700000Z</time>
      </trkpt>
      <trkpt lat="37.84776191796425" lon="112.02766391224677">
        <ele>1127.9</ele>
        <time>2017-01-07T01:53:47.700000Z</time>
      </trkpt>
      <trkpt lat="37.84783346829985" lon="112.02761386015959">
        <ele>1126.7</ele>
        <time>2017-01-07T01:53:53.700000Z</time>
      </trkpt>
      <trkpt lat="37.84795919693195" lon="112.02760719409486">
        <ele>1126.4</ele>
        <time>2017-01-07T01:54:05.600000Z</time>
      </trkpt>
      <trkpt lat="37.84809849372969" lon="112.0276346245497">
        <ele>1125.5</ele>
        <time>2017-01-07T01:54:14.600000Z</time>
      </trkpt>
      <trkpt lat="37.84823920055516" lon="112.02763216397399">
        <ele>1127.1</ele>
        <time>2017-01-07T01:54:20.700000Z</time>
      </trkpt>
      <trkpt lat="37.848311197286215" lon="112.02756183580249">
        <ele>1128.9</ele>
        <time>2017-01-07T01:54:32.700000Z</time>
      </trkpt>
      <trkpt lat="37.84830810149408" lon="112.02747994918143">
        <ele>1129.6</ele>
        <time>2017-01-07T01:54:41.600000Z</time>
      </trkpt>
      <trkpt lat="37.84836049052856" lon="112.02733988646308">
        <ele>1127.2</ele>
        <time>2017-01-07T01:54:50.700000Z</time>
      </trkpt>
      <trkpt lat="37.84836966088794" lon="112.0271729946925">
        <ele>1125.1</ele>
        <time>2017-01-07T01:54:59.600000Z</time>
      </trkpt>
      <trkpt lat="37.848507333555276" lon="112.02704471319572">
        <ele>1128.3</ele>
        <time>2017-01-07T01:55:05.700000Z</time>
      </trkpt>
      <trkpt lat="37.8485211162577" lon="112.02695054628579">
        <ele>1124.7</ele>
        <time>2017-01-07T01:55:08.600000Z</time>
      </trkpt>
      <trkpt lat="37.84851630322494" lon="112.02684170624967">
        <ele>1119.7</ele>
        <time>2017-01-07T01:55:11.600000Z</time>
      </trkpt>
      <trkpt lat="37.84845555998042" lon="112.02664474952762">
        <ele>1106.3</ele>
        <time>2017-01-07T01:55:17.700000Z</time>
      </trkpt>
      <trkpt lat="37.84847669341819" lon="112.02652100692654">
        <ele>1102.3</ele>
        <time>2017-01-07T01:55:20.600000Z</time>
      </trkpt>
      <trkpt lat="37.84854636601737" lon="112.02639563316437">
        <ele>1093.7</ele>
        <time>2017-01-07T01:55:23.700000Z</time>
      </trkpt>
      <trkpt lat="37.848575973994194" lon="112.02626940356883">
        <ele>1089.3</ele>
        <time>2017-01-07T01:55:26.700000Z</time>
      </trkpt>
      <trkpt lat="37.84858491528195" lon="112.0261462966636">
        <ele>1082.7</ele>
        <time>2017-01-07T01:55:29.600000Z</time>
      </trkpt>
      <trkpt lat="37.848565910002584" lon="112.02595184439835">
        <ele>1069.5</ele>
        <time>2017-01-07T01:55:35.600000Z</time>
      </trkpt>
      <trkpt lat="37.848576889812" lon="112.02585329014055">
        <ele>1061.6</ele>
        <time>2017-01-07T01:55:38.600000Z</time>
      </trkpt>
      <trkpt lat="37.84861419297931" lon="112.02574916355597">
        <ele>1058.7</ele>
        <time>2017-01-07T01:55:41.600000Z</time>
      </trkpt>
      <trkpt lat="37.84863285312485" lon="112.02552674936535">
        <ele>1046.6</ele>
        <time>2017-01-07T01:55:47.600000Z</time>
      </trkpt>
      <trkpt lat="37.848572115003414" lon="112.0252121506974">
        <ele>1032.1</ele>
        <time>2017-01-07T01:55:56.600000Z</time>
      </trkpt>
      <trkpt lat="37.84857029598335" lon="112.0251116621535">
        <ele>1026.6</ele>
        <time>2017-01-07T01:55:59.700000Z</time>
      </trkpt>
      <trkpt lat="37.8485902365442" lon="112.02502421882615">
        <ele>1024.6</ele>
        <time>2017-01-07T01:56:02.700000Z</time>
      </trkpt>
      <trkpt lat="37.84860246697267" lon="112.02461349526718">
        <ele>1008.9</ele>
        <time>2017-01-07T01:56:14.700000Z</time>
      </trkpt>
      <trkpt lat="37.84858634514137" lon="112.02425940081127">
        <ele>994.2</ele>
        <time>2017-01-07T01:56:26.600000Z</time>
      </trkpt>
      <trkpt lat="37.84857364035807" lon="112.02385583702748">
        <ele>983.5</ele>
        <time>2017-01-07T01:56:38.600000Z</time>
      </trkpt>
      <trkpt lat="37.84855540799627" lon="112.02344363541793">
        <ele>979.9</ele>
        <time>2017-01-07T01:56:50.600000Z</time>
      </trkpt>
      <trkpt lat="37.84854849359345" lon="112.02306568242417">
        <ele>970.9</ele>
        <time>2017-01-07T01:57:02.600000Z</time>
      </trkpt>
      <trkpt lat="37.848533627305386" lon="112.02268339978949">
        <ele>959.2</ele>
        <time>2017-01-07T01:57:14.600000Z</time>
      </trkpt>
      <trkpt lat="37.848523352281575" lon="112.02225705135349">
        <ele>951.8</ele>
        <time>2017-01-07T01:57:29.600000Z</time>
      </trkpt>
      <trkpt lat="37.84852646065689" lon="112.02201404720653">
        <ele>947.1</ele>
        <time>2017-01-07T01:57:38.600000Z</time>
      </trkpt>
      <trkpt lat="37.848504230868926" lon="112.02165850262472">
        <ele>947.1</ele>
        <time>2017-01-07T01:57:50.600000Z</time>
      </trkpt>
      <trkpt lat="37.84851304853572" lon="112.0212669948323">
        <ele>943.9</ele>
        <time>2017-01-07T01:58:02.700000Z</time>
      </trkpt>
      <trkpt lat="37.84853634859255" lon="112.02096723330257">
        <ele>939.7</ele>
        <time>2017-01-07T01:58:14.600000Z</time>
      </trkpt>
      <trkpt lat="37.848535437031195" lon="112.02075906815396">
        <ele>938.1</ele>
        <time>2017-01-07T01:58:23.600000Z</time>
      </trkpt>
      <trkpt lat="37.84857162756624" lon="112.02068471540117">
        <ele>943.7</ele>
        <time>2017-01-07T01:58:26.600000Z</time>
      </trkpt>
      <trkpt lat="37.84858372628608" lon="112.0205968261551">
        <ele>943.8</ele>
        <time>2017-01-07T01:58:29.600000Z</time>
      </trkpt>
      <trkpt lat="37.84857442989261" lon="112.02021070525933">
        <ele>939.0</ele>
        <time>2017-01-07T01:58:44.700000Z</time>
      </trkpt>
      <trkpt lat="37.8485631538796" lon="112.02012854685037">
        <ele>937.3</ele>
        <time>2017-01-07T01:58:47.600000Z</time>
      </trkpt>
      <trkpt lat="37.8485906544889" lon="112.01987031892521">
        <ele>931.0</ele>
        <time>2017-01-07T01:58:56.600000Z</time>
      </trkpt>
      <trkpt lat="37.84864963845264" lon="112.01979458255934">
        <ele>935.4</ele>
        <time>2017-01-07T01:58:59.600000Z</time>
      </trkpt>
      <trkpt lat="37.8486857478831" lon="112.01971282766712">
        <ele>938.9</ele>
        <time>2017-01-07T01:59:02.600000Z</time>
      </trkpt>
      <trkpt lat="37.84872186094816" lon="112.01928257309766">
        <ele>929.8</ele>
        <time>2017-01-07T01:59:14.600000Z</time>
      </trkpt>
      <trkpt lat="37.84876408148828" lon="112.01920509927285">
        <ele>937.4</ele>
        <time>2017-01-07T01:59:17.700000Z</time>
      </trkpt>
      <trkpt lat="37.84876924512471" lon="112.01893972737142">
        <ele>936.7</ele>
        <time>2017-01-07T01:59:26.700000Z</time>
      </trkpt>
      <trkpt lat="37.848834971462" lon="112.01880291535193">
        <ele>939.3</ele>
        <time>2017-01-07T01:59:32.600000Z</time>
      </trkpt>
      <trkpt lat="37.84893196465142" lon="112.01840045356128">
        <ele>937.4</ele>
        <time>2017-01-07T01:59:44.700000Z</time>
      </trkpt>
      <trkpt lat="37.84901218317517" lon="112.01803292943599">
        <ele>936.8</ele>
        <time>2017-01-07T01:59:56.600000Z</time>
      </trkpt>
      <trkpt lat="37.84908349511215" lon="112.01793220338085">
        <ele>939.4</ele>
        <time>2017-01-07T02:00:02.600000Z</time>
      </trkpt>
      <trkpt lat="37.84911721880507" lon="112.01779563537588">
        <ele>940.8</ele>
        <time>2017-01-07T02:00:05.600000Z</time>
      </trkpt>
      <trkpt lat="37.84916002235065" lon="112.0176960293919">
        <ele>941.7</ele>
        <time>2017-01-07T02:00:08.600000Z</time>
      </trkpt>
      <trkpt lat="37.84920754475731" lon="112.01750422204177">
        <ele>942.6</ele>
        <time>2017-01-07T02:00:14.700000Z</time>
      </trkpt>
      <trkpt lat="37.84916537585442" lon="112.01717427272675">
        <ele>935.1</ele>
        <time>2017-01-07T02:00:23.600000Z</time>
      </trkpt>
      <trkpt lat="37.849169910247994" lon="112.01697823874586">
        <ele>933.1</ele>
        <time>2017-01-07T02:00:29.600000Z</time>
      </trkpt>
      <trkpt lat="37.849187248270475" lon="112.01678015387972">
        <ele>932.4</ele>
        <time>2017-01-07T02:00:35.600000Z</time>
      </trkpt>
      <trkpt lat="37.84917592277369" lon="112.01663102918714">
        <ele>929.4</ele>
        <time>2017-01-07T02:00:41.600000Z</time>
      </trkpt>
      <trkpt lat="37.84918354624126" lon="112.0165525834764">
        <ele>927.9</ele>
        <time>2017-01-07T02:00:44.600000Z</time>
      </trkpt>
      <trkpt lat="37.84916740946237" lon="112.01647103502788">
        <ele>928.2</ele>
        <time>2017-01-07T02:00:47.600000Z</time>
      </trkpt>
      <trkpt lat="37.84920718921416" lon="112.01612721586562">
        <ele>926.1</ele>
        <time>2017-01-07T02:00:59.600000Z</time>
      </trkpt>
      <trkpt lat="37.849242050070124" lon="112.01586896614381">
        <ele>919.2</ele>
        <time>2017-01-07T02:01:08.600000Z</time>
      </trkpt>
      <trkpt lat="37.849283616283344" lon="112.0156965240606">
        <ele>917.5</ele>
        <time>2017-01-07T02:01:14.700000Z</time>
      </trkpt>
      <trkpt lat="37.8494361063972" lon="112.01554138288368">
        <ele>911.8</ele>
        <time>2017-01-07T02:01:17.600000Z</time>
      </trkpt>
      <trkpt lat="37.8495320015766" lon="112.01539082096119">
        <ele>905.5</ele>
        <time>2017-01-07T02:01:20.600000Z</time>
      </trkpt>
      <trkpt lat="37.84972342009576" lon="112.01521380429143">
        <ele>906.4</ele>
        <time>2017-01-07T02:01:23.600000Z</time>
      </trkpt>
      <trkpt lat="37.8496639986078" lon="112.01504127250483">
        <ele>915.3</ele>
        <time>2017-01-07T02:01:26.600000Z</time>
      </trkpt>
      <trkpt lat="37.84964725821751" lon="112.01476818200999">
        <ele>916.9</ele>
        <time>2017-01-07T02:01:32.700000Z</time>
      </trkpt>
      <trkpt lat="37.8496297581647" lon="112.0146615449309">
        <ele>919.9</ele>
        <time>2017-01-07T02:01:35.600000Z</time>
      </trkpt>
      <trkpt lat="37.84963173013394" lon="112.01451681909487">
        <ele>926.9</ele>
        <time>2017-01-07T02:01:38.600000Z</time>
      </trkpt>
      <trkpt lat="37.8496140502064" lon="112.01442413057038">
        <ele>928.0</ele>
        <time>2017-01-07T02:01:41.600000Z</time>
      </trkpt>
      <trkpt lat="37.849636795646" lon="112.01427679407698">
        <ele>929.0</ele>
        <time>2017-01-07T02:01:44.600000Z</time>
      </trkpt>
      <trkpt lat="37.84962911316075" lon="112.01387870148415">
        <ele>935.0</ele>
        <time>2017-01-07T02:01:56.600000Z</time>
      </trkpt>
      <trkpt lat="37.849703271897894" lon="112.01344696769478">
        <ele>938.8</ele>
        <time>2017-01-07T02:02:08.700000Z</time>
      </trkpt>
      <trkpt lat="37.849733401511706" lon="112.01322448256845">
        <ele>939.6</ele>
        <time>2017-01-07T02:02:14.600000Z</time>
      </trkpt>
      <trkpt lat="37.84970341588627" lon="112.01310264184907">
        <ele>942.5</ele>
        <time>2017-01-07T02:02:17.700000Z</time>
      </trkpt>
      <trkpt lat="37.84971887464848" lon="112.01297791278728">
        <ele>943.7</ele>
        <time>2017-01-07T02:02:20.600000Z</time>
      </trkpt>
      <trkpt lat="37.849690723383" lon="112.01288061326963">
        <ele>944.5</ele>
        <time>2017-01-07T02:02:23.600000Z</time>
      </trkpt>
      <trkpt lat="37.849710541634536" lon="112.012646869806">
        <ele>948.4</ele>
        <time>2017-01-07T02:02:29.600000Z</time>
      </trkpt>
      <trkpt lat="37.84976396126579" lon="112.01244986191178">
        <ele>951.4</ele>
        <time>2017-01-07T02:02:32.600000Z</time>
      </trkpt>
      <trkpt lat="37.84973333016065" lon="112.01201778220046">
        <ele>952.4</ele>
        <time>2017-01-07T02:02:44.700000Z</time>
      </trkpt>
      <trkpt lat="37.84976200442177" lon="112.01189649039812">
        <ele>952.9</ele>
        <time>2017-01-07T02:02:47.600000Z</time>
      </trkpt>
      <trkpt lat="37.84968884833822" lon="112.01170456199713">
        <ele>954.0</ele>
        <time>2017-01-07T02:02:53.600000Z</time>
      </trkpt>
      <trkpt lat="37.84951217695659" lon="112.01143725644343">
        <ele>956.6</ele>
        <time>2017-01-07T02:03:02.600000Z</time>
      </trkpt>
      <trkpt lat="37.84941550777077" lon="112.01124770345771">
        <ele>957.9</ele>
        <time>2017-01-07T02:03:08.700000Z</time>
      </trkpt>
      <trkpt lat="37.84935407192175" lon="112.01117807212094">
        <ele>959.1</ele>
        <time>2017-01-07T02:03:11.700000Z</time>
      </trkpt>
      <trkpt lat="37.84933370955554" lon="112.01106678405026">
        <ele>961.9</ele>
        <time>2017-01-07T02:03:14.600000Z</time>
      </trkpt>
      <trkpt lat="37.84920970489091" lon="112.01073959515274">
        <ele>970.1</ele>
        <time>2017-01-07T02:03:23.600000Z</time>
      </trkpt>
      <trkpt lat="37.84915583470723" lon="112.0106566950711">
        <ele>972.3</ele>
        <time>2017-01-07T02:03:26.600000Z</time>
      </trkpt>
      <trkpt lat="37.849058116572884" lon="112.01046277792942">
        <ele>977.8</ele>
        <time>2017-01-07T02:03:32.600000Z</time>
      </trkpt>
      <trkpt lat="37.84898579615586" lon="112.0102337073697">
        <ele>981.4</ele>
        <time>2017-01-07T02:03:38.600000Z</time>
      </trkpt>
      <trkpt lat="37.84883739977501" lon="112.01007421506931">
        <ele>983.7</ele>
        <time>2017-01-07T02:03:44.600000Z</time>
      </trkpt>
      <trkpt lat="37.84881551780786" lon="112.00992967734068">
        <ele>986.3</ele>
        <time>2017-01-07T02:03:47.600000Z</time>
      </trkpt>
      <trkpt lat="37.84877483907569" lon="112.00982156949247">
        <ele>987.7</ele>
        <time>2017-01-07T02:03:50.600000Z</time>
      </trkpt>
      <trkpt lat="37.84871098174661" lon="112.00973952059941">
        <ele>988.8</ele>
        <time>2017-01-07T02:03:53.700000Z</time>
      </trkpt>
      <trkpt lat="37.848682873968755" lon="112.00961908970375">
        <ele>992.3</ele>
        <time>2017-01-07T02:03:56.600000Z</time>
      </trkpt>
      <trkpt lat="37.848586595169216" lon="112.00944916471188">
        <ele>996.0</ele>
        <time>2017-01-07T02:04:02.700000Z</time>
      </trkpt>
      <trkpt lat="37.84857034892521" lon="112.00933018740486">
        <ele>997.1</ele>
        <time>2017-01-07T02:04:05.600000Z</time>
      </trkpt>
      <trkpt lat="37.84850312415464" lon="112.00914400308172">
        <ele>997.5</ele>
        <time>2017-01-07T02:04:11.600000Z</time>
      </trkpt>
      <trkpt lat="37.84833641951474" lon="112.00885316370332">
        <ele>1003.3</ele>
        <time>2017-01-07T02:04:20.600000Z</time>
      </trkpt>
      <trkpt lat="37.848277459168855" lon="112.00874675968323">
        <ele>1005.5</ele>
        <time>2017-01-07T02:04:23.600000Z</time>
      </trkpt>
      <trkpt lat="37.84811312268829" lon="112.00859513925029">
        <ele>1010.0</ele>
        <time>2017-01-07T02:04:29.600000Z</time>
      </trkpt>
      <trkpt lat="37.84784940694119" lon="112.00850868269359">
        <ele>1014.1</ele>
        <time>2017-01-07T02:04:38.700000Z</time>
      </trkpt>
      <trkpt lat="37.84754329209247" lon="112.00843556846024">
        <ele>1019.7</ele>
        <time>2017-01-07T02:04:50.600000Z</time>
      </trkpt>
      <trkpt lat="37.847220823548845" lon="112.00837770690704">
        <ele>1026.0</ele>
        <time>2017-01-07T02:05:02.600000Z</time>
      </trkpt>
      <trkpt lat="37.8469479195506" lon="112.0083329712045">
        <ele>1029.9</ele>
        <time>2017-01-07T02:05:14.700000Z</time>
      </trkpt>
      <trkpt lat="37.84671801740928" lon="112.00829301466639">
        <ele>1031.9</ele>
        <time>2017-01-07T02:05:26.700000Z</time>
      </trkpt>
      <trkpt lat="37.846438272865996" lon="112.00828881056508">
        <ele>1033.0</ele>
        <time>2017-01-07T02:05:38.700000Z</time>
      </trkpt>
      <trkpt lat="37.8461874258707" lon="112.0080832035808">
        <ele>1042.3</ele>
        <time>2017-01-07T02:06:02.600000Z</time>
      </trkpt>
      <trkpt lat="37.8461363967438" lon="112.00805054442577">
        <ele>1044.5</ele>
        <time>2017-01-07T02:06:08.600000Z</time>
      </trkpt>
      <trkpt lat="37.84610873840809" lon="112.00800393493971">
        <ele>1046.1</ele>
        <time>2017-01-07T02:06:14.600000Z</time>
      </trkpt>
      <trkpt lat="37.846130551310615" lon="112.0078704076638">
        <ele>1056.8</ele>
        <time>2017-01-07T02:06:26.600000Z</time>
      </trkpt>
      <trkpt lat="37.846251377756076" lon="112.00755796793405">
        <ele>1079.1</ele>
        <time>2017-01-07T02:06:35.600000Z</time>
      </trkpt>
      <trkpt lat="37.84637567552666" lon="112.0075176459843">
        <ele>1084.0</ele>
        <time>2017-01-07T02:06:50.600000Z</time>
      </trkpt>
      <trkpt lat="37.84665230480849" lon="112.00740141244097">
        <ele>1095.7</ele>
        <time>2017-01-07T02:07:14.700000Z</time>
      </trkpt>
      <trkpt lat="37.84667616056665" lon="112.00732658275753">
        <ele>1101.6</ele>
        <time>2017-01-07T02:07:17.600000Z</time>
      </trkpt>
      <trkpt lat="37.846754150637814" lon="112.00731594685308">
        <ele>1104.8</ele>
        <time>2017-01-07T02:07:23.700000Z</time>
      </trkpt>
      <trkpt lat="37.846850652679436" lon="112.00706801615306">
        <ele>1124.1</ele>
        <time>2017-01-07T02:07:26.600000Z</time>
      </trkpt>
      <trkpt lat="37.84692597352406" lon="112.00682427045892">
        <ele>1145.2</ele>
        <time>2017-01-07T02:07:29.600000Z</time>
      </trkpt>
      <trkpt lat="37.846992252262545" lon="112.00679473114297">
        <ele>1149.2</ele>
        <time>2017-01-07T02:07:32.600000Z</time>
      </trkpt>
      <trkpt lat="37.84730754511244" lon="112.00679700731503">
        <ele>1152.5</ele>
        <time>2017-01-07T02:07:44.600000Z</time>
      </trkpt>
      <trkpt lat="37.84762215843467" lon="112.00682663585694">
        <ele>1154.8</ele>
        <time>2017-01-07T02:07:56.600000Z</time>
      </trkpt>
      <trkpt lat="37.847914286115454" lon="112.00685818979237">
        <ele>1152.8</ele>
        <time>2017-01-07T02:08:08.700000Z</time>
      </trkpt>
      <trkpt lat="37.848185096052525" lon="112.00694229418775">
        <ele>1148.8</ele>
        <time>2017-01-07T02:08:18.600000Z</time>
      </trkpt>
      <trkpt lat="37.84838953072653" lon="112.00705749949657">
        <ele>1143.3</ele>
        <time>2017-01-07T02:08:27.600000Z</time>
      </trkpt>
      <trkpt lat="37.848495061176465" lon="112.0071700932761">
        <ele>1138.6</ele>
        <time>2017-01-07T02:08:33.600000Z</time>
      </trkpt>
      <trkpt lat="37.84852887474178" lon="112.0072925189909">
        <ele>1136.3</ele>
        <time>2017-01-07T02:08:36.800000Z</time>
      </trkpt>
      <trkpt lat="37.848688349024876" lon="112.00764654792178">
        <ele>1140.0</ele>
        <time>2017-01-07T02:08:52.700000Z</time>
      </trkpt>
      <trkpt lat="37.84884115473477" lon="112.00780284148149">
        <ele>1143.0</ele>
        <time>2017-01-07T02:09:02Z</time>
      </trkpt>
      <trkpt lat="37.84906729710224" lon="112.00812347123349">
        <ele>1144.0</ele>
        <time>2017-01-07T02:09:14.600000Z</time>
      </trkpt>
      <trkpt lat="37.849107775102475" lon="112.00821674474105">
        <ele>1144.1</ele>
        <time>2017-01-07T02:09:17.600000Z</time>
      </trkpt>
      <trkpt lat="37.84924287498936" lon="112.00842369342574">
        <ele>1148.5</ele>
        <time>2017-01-07T02:09:26.600000Z</time>
      </trkpt>
      <trkpt lat="37.84941906781772" lon="112.0087083341798">
        <ele>1144.5</ele>
        <time>2017-01-07T02:10:02.600000Z</time>
      </trkpt>
      <trkpt lat="37.849618982460356" lon="112.00899836389326">
        <ele>1143.4</ele>
        <time>2017-01-07T02:10:32.600000Z</time>
      </trkpt>
      <trkpt lat="37.849748938288876" lon="112.00918324812214">
        <ele>1142.2</ele>
        <time>2017-01-07T02:10:44.600000Z</time>
      </trkpt>
      <trkpt lat="37.84981617382167" lon="112.0094018524515">
        <ele>1139.5</ele>
        <time>2017-01-07T02:10:53.600000Z</time>
      </trkpt>
      <trkpt lat="37.84984346581356" lon="112.0095615382923">
        <ele>1137.5</ele>
        <time>2017-01-07T02:10:59.600000Z</time>
      </trkpt>
      <trkpt lat="37.84983284051454" lon="112.0096519869393">
        <ele>1137.5</ele>
        <time>2017-01-07T02:11:05.600000Z</time>
      </trkpt>
      <trkpt lat="37.84980305662018" lon="112.00955168178078">
        <ele>1135.4</ele>
        <time>2017-01-07T02:11:11.600000Z</time>
      </trkpt>
      <trkpt lat="37.84984101833742" lon="112.00959067958888">
        <ele>1133.3</ele>
        <time>2017-01-07T02:11:17.700000Z</time>
      </trkpt>
      <trkpt lat="37.849871700616006" lon="112.00979551160269">
        <ele>1130.5</ele>
        <time>2017-01-07T02:11:29.700000Z</time>
      </trkpt>
      <trkpt lat="37.84988757531332" lon="112.01019810389084">
        <ele>1123.7</ele>
        <time>2017-01-07T02:11:44.600000Z</time>
      </trkpt>
      <trkpt lat="37.849841459806" lon="112.01061895901917">
        <ele>1125.1</ele>
        <time>2017-01-07T02:11:56.600000Z</time>
      </trkpt>
      <trkpt lat="37.84984924265928" lon="112.01070742620165">
        <ele>1124.8</ele>
        <time>2017-01-07T02:11:59.600000Z</time>
      </trkpt>
      <trkpt lat="37.84981092578477" lon="112.01106574925616">
        <ele>1118.0</ele>
        <time>2017-01-07T02:12:11.600000Z</time>
      </trkpt>
      <trkpt lat="37.84981205859845" lon="112.01123663352975">
        <ele>1114.2</ele>
        <time>2017-01-07T02:12:17.700000Z</time>
      </trkpt>
      <trkpt lat="37.84977951424741" lon="112.01144957026251">
        <ele>1113.4</ele>
        <time>2017-01-07T02:12:23.700000Z</time>
      </trkpt>
      <trkpt lat="37.84976087424702" lon="112.01166619214166">
        <ele>1116.6</ele>
        <time>2017-01-07T02:12:29.700000Z</time>
      </trkpt>
      <trkpt lat="37.849755579494996" lon="112.0120109565373">
        <ele>1118.1</ele>
        <time>2017-01-07T02:12:38.600000Z</time>
      </trkpt>
      <trkpt lat="37.8497589655327" lon="112.01233039178778">
        <ele>1116.6</ele>
        <time>2017-01-07T02:12:47.700000Z</time>
      </trkpt>
      <trkpt lat="37.849709721734236" lon="112.0127620903052">
        <ele>1119.1</ele>
        <time>2017-01-07T02:12:59.600000Z</time>
      </trkpt>
      <trkpt lat="37.84967079938989" lon="112.01313284790456">
        <ele>1119.3</ele>
        <time>2017-01-07T02:13:11.700000Z</time>
      </trkpt>
      <trkpt lat="37.849634470884624" lon="112.01349742173728">
        <ele>1129.8</ele>
        <time>2017-01-07T02:13:20.600000Z</time>
      </trkpt>
      <trkpt lat="37.849576301998425" lon="112.01390635219117">
        <ele>1127.8</ele>
        <time>2017-01-07T02:13:32.700000Z</time>
      </trkpt>
      <trkpt lat="37.8495359493442" lon="112.01432510508327">
        <ele>1120.0</ele>
        <time>2017-01-07T02:13:44.600000Z</time>
      </trkpt>
      <trkpt lat="37.849497821298094" lon="112.01467496669244">
        <ele>1117.4</ele>
        <time>2017-01-07T02:13:53.700000Z</time>
      </trkpt>
      <trkpt lat="37.84944952682133" lon="112.0151040386543">
        <ele>1109.8</ele>
        <time>2017-01-07T02:14:05.700000Z</time>
      </trkpt>
      <trkpt lat="37.8494376951837" lon="112.01530422464793">
        <ele>1107.3</ele>
        <time>2017-01-07T02:14:11.700000Z</time>
      </trkpt>
      <trkpt lat="37.84936366450723" lon="112.01570390415158">
        <ele>1103.2</ele>
        <time>2017-01-07T02:14:23.700000Z</time>
      </trkpt>
      <trkpt lat="37.84934659113219" lon="112.01580397880252">
        <ele>1103.1</ele>
        <time>2017-01-07T02:14:26.600000Z</time>
      </trkpt>
      <trkpt lat="37.84932553537387" lon="112.01622857778094">
        <ele>1102.8</ele>
        <time>2017-01-07T02:14:38.600000Z</time>
      </trkpt>
      <trkpt lat="37.84929469353492" lon="112.01662412906673">
        <ele>1102.1</ele>
        <time>2017-01-07T02:14:50.600000Z</time>
      </trkpt>
      <trkpt lat="37.84924170605922" lon="112.01703230959045">
        <ele>1094.6</ele>
        <time>2017-01-07T02:15:02.600000Z</time>
      </trkpt>
      <trkpt lat="37.84920782354433" lon="112.01742590658677">
        <ele>1088.2</ele>
        <time>2017-01-07T02:15:14.600000Z</time>
      </trkpt>
      <trkpt lat="37.84918974888849" lon="112.01752891484747">
        <ele>1087.3</ele>
        <time>2017-01-07T02:15:17.600000Z</time>
      </trkpt>
      <trkpt lat="37.84914919248922" lon="112.01762117104161">
        <ele>1087.9</ele>
        <time>2017-01-07T02:15:20.600000Z</time>
      </trkpt>
      <trkpt lat="37.8491263543154" lon="112.0179401734261">
        <ele>1088.6</ele>
        <time>2017-01-07T02:15:32.600000Z</time>
      </trkpt>
      <trkpt lat="37.84913654691128" lon="112.01800214573481">
        <ele>1088.1</ele>
        <time>2017-01-07T02:15:35.600000Z</time>
      </trkpt>
      <trkpt lat="37.849115735727416" lon="112.01837004572747">
        <ele>1085.0</ele>
        <time>2017-01-07T02:15:50.600000Z</time>
      </trkpt>
      <trkpt lat="37.84913778053844" lon="112.01856632300911">
        <ele>1086.7</ele>
        <time>2017-01-07T02:15:56.600000Z</time>
      </trkpt>
      <trkpt lat="37.849120686486266" lon="112.01899182726396">
        <ele>1088.8</ele>
        <time>2017-01-07T02:16:11.700000Z</time>
      </trkpt>
      <trkpt lat="37.849119588536134" lon="112.0192981654436">
        <ele>1085.0</ele>
        <time>2017-01-07T02:16:23.600000Z</time>
      </trkpt>
      <trkpt lat="37.84914760706531" lon="112.01955409219784">
        <ele>1083.4</ele>
        <time>2017-01-07T02:16:32.600000Z</time>
      </trkpt>
      <trkpt lat="37.84914333597299" lon="112.01965454267419">
        <ele>1081.9</ele>
        <time>2017-01-07T02:16:35.700000Z</time>
      </trkpt>
      <trkpt lat="37.84911446074251" lon="112.01974805964291">
        <ele>1083.0</ele>
        <time>2017-01-07T02:16:38.600000Z</time>
      </trkpt>
      <trkpt lat="37.849115313637306" lon="112.0201502528739">
        <ele>1084.9</ele>
        <time>2017-01-07T02:16:50.600000Z</time>
      </trkpt>
      <trkpt lat="37.84912290320692" lon="112.02054767296016">
        <ele>1088.8</ele>
        <time>2017-01-07T02:17:02.600000Z</time>
      </trkpt>
      <trkpt lat="37.84913478396229" lon="112.02076400331183">
        <ele>1094.1</ele>
        <time>2017-01-07T02:17:08.600000Z</time>
      </trkpt>
      <trkpt lat="37.84910412181612" lon="112.02113057184317">
        <ele>1103.5</ele>
        <time>2017-01-07T02:17:17.700000Z</time>
      </trkpt>
      <trkpt lat="37.84907050283639" lon="112.02152887380035">
        <ele>1106.7</ele>
        <time>2017-01-07T02:17:29.600000Z</time>
      </trkpt>
      <trkpt lat="37.84906481165315" lon="112.02180350629149">
        <ele>1105.1</ele>
        <time>2017-01-07T02:17:38.600000Z</time>
      </trkpt>
      <trkpt lat="37.849098653516535" lon="112.02194948074667">
        <ele>1105.2</ele>
        <time>2017-01-07T02:17:44.600000Z</time>
      </trkpt>
      <trkpt lat="37.84906195647032" lon="112.02238309614252">
        <ele>1097.0</ele>
        <time>2017-01-07T02:18:02.600000Z</time>
      </trkpt>
      <trkpt lat="37.84908097375053" lon="112.02243889515306">
        <ele>1094.9</ele>
        <time>2017-01-07T02:18:05.700000Z</time>
      </trkpt>
      <trkpt lat="37.84903382763106" lon="112.02282082206138">
        <ele>1084.8</ele>
        <time>2017-01-07T02:18:17.700000Z</time>
      </trkpt>
      <trkpt lat="37.849033542199955" lon="112.02289693106293">
        <ele>1082.8</ele>
        <time>2017-01-07T02:18:20.600000Z</time>
      </trkpt>
      <trkpt lat="37.84897200932972" lon="112.02304585246611">
        <ele>1081.4</ele>
        <time>2017-01-07T02:18:26.700000Z</time>
      </trkpt>
      <trkpt lat="37.84870441229655" lon="112.02331169010296">
        <ele>1080.0</ele>
        <time>2017-01-07T02:18:35.700000Z</time>
      </trkpt>
      <trkpt lat="37.84864699140004" lon="112.02340732410137">
        <ele>1077.6</ele>
        <time>2017-01-07T02:18:38.600000Z</time>
      </trkpt>
      <trkpt lat="37.848625954685964" lon="112.02350226416259">
        <ele>1075.0</ele>
        <time>2017-01-07T02:18:41.600000Z</time>
      </trkpt>
      <trkpt lat="37.84856980990821" lon="112.02367473640453">
        <ele>1069.8</ele>
        <time>2017-01-07T02:18:47.700000Z</time>
      </trkpt>
      <trkpt lat="37.84857056806085" lon="112.02398625196906">
        <ele>1058.8</ele>
        <time>2017-01-07T02:18:59.700000Z</time>
      </trkpt>
      <trkpt lat="37.84852349467143" lon="112.02425956948062">
        <ele>1049.2</ele>
        <time>2017-01-07T02:19:11.700000Z</time>
      </trkpt>
      <trkpt lat="37.84853466790907" lon="112.02431605283466">
        <ele>1047.1</ele>
        <time>2017-01-07T02:19:14.600000Z</time>
      </trkpt>
      <trkpt lat="37.84848767413477" lon="112.02455092972868">
        <ele>1035.8</ele>
        <time>2017-01-07T02:19:23.700000Z</time>
      </trkpt>
      <trkpt lat="37.848486592891724" lon="112.02464222243047">
        <ele>1031.9</ele>
        <time>2017-01-07T02:19:29.100000Z</time>
      </trkpt>
      <trkpt lat="37.848623901244444" lon="112.0248433822194">
        <ele>1019.3</ele>
        <time>2017-01-07T02:19:32.700000Z</time>
      </trkpt>
      <trkpt lat="37.849115071141995" lon="112.02476405050163">
        <ele>1021.0</ele>
        <time>2017-01-07T02:19:38.600000Z</time>
      </trkpt>
      <trkpt lat="37.84919510568912" lon="112.02490927261908">
        <ele>1018.2</ele>
        <time>2017-01-07T02:19:50.600000Z</time>
      </trkpt>
      <trkpt lat="37.849302491278515" lon="112.02508677078909">
        <ele>1018.4</ele>
        <time>2017-01-07T02:19:59.600000Z</time>
      </trkpt>
      <trkpt lat="37.84931921485455" lon="112.0251746580659">
        <ele>1016.6</ele>
        <time>2017-01-07T02:20:05.600000Z</time>
      </trkpt>
      <trkpt lat="37.8492786790945" lon="112.02524270937475">
        <ele>1016.1</ele>
        <time>2017-01-07T02:20:11.600000Z</time>
      </trkpt>
      <trkpt lat="37.84926664913126" lon="112.02533495624962">
        <ele>1014.3</ele>
        <time>2017-01-07T02:20:17.700000Z</time>
      </trkpt>
      <trkpt lat="37.84936916634408" lon="112.02554147308774">
        <ele>1013.5</ele>
        <time>2017-01-07T02:20:26.600000Z</time>
      </trkpt>
      <trkpt lat="37.849396728870964" lon="112.02562528122616">
        <ele>1012.3</ele>
        <time>2017-01-07T02:20:32.600000Z</time>
      </trkpt>
      <trkpt lat="37.849373600311026" lon="112.02568130994457">
        <ele>1012.7</ele>
        <time>2017-01-07T02:20:38.700000Z</time>
      </trkpt>
      <trkpt lat="37.849371834096864" lon="112.02574112013032">
        <ele>1011.8</ele>
        <time>2017-01-07T02:20:41.600000Z</time>
      </trkpt>
      <trkpt lat="37.84917127779248" lon="112.02588794887448">
        <ele>1016.9</ele>
        <time>2017-01-07T02:20:50.600000Z</time>
      </trkpt>
      <trkpt lat="37.84890093365557" lon="112.02594060895086">
        <ele>1017.6</ele>
        <time>2017-01-07T02:21:05.600000Z</time>
      </trkpt>
      <trkpt lat="37.84880848567487" lon="112.02595108713435">
        <ele>1018.8</ele>
        <time>2017-01-07T02:21:11.600000Z</time>
      </trkpt>
      <trkpt lat="37.84875719802199" lon="112.02607520316872">
        <ele>1029.4</ele>
        <time>2017-01-07T02:21:17.600000Z</time>
      </trkpt>
      <trkpt lat="37.8486823228384" lon="112.02617856235241">
        <ele>1036.6</ele>
        <time>2017-01-07T02:21:23.600000Z</time>
      </trkpt>
      <trkpt lat="37.84847049028625" lon="112.02624557476057">
        <ele>1038.8</ele>
        <time>2017-01-07T02:21:38.600000Z</time>
      </trkpt>
      <trkpt lat="37.84833409527304" lon="112.02621114599442">
        <ele>1040.3</ele>
        <time>2017-01-07T02:21:44.600000Z</time>
      </trkpt>
      <trkpt lat="37.84825449596905" lon="112.02626027617656">
        <ele>1050.4</ele>
        <time>2017-01-07T02:21:47.600000Z</time>
      </trkpt>
      <trkpt lat="37.84821024460634" lon="112.02623419570952">
        <ele>1052.9</ele>
        <time>2017-01-07T02:21:53.600000Z</time>
      </trkpt>
      <trkpt lat="37.84809736031677" lon="112.02636045357839">
        <ele>1055.9</ele>
        <time>2017-01-07T02:22:08.600000Z</time>
      </trkpt>
      <trkpt lat="37.84788402506187" lon="112.02653204107425">
        <ele>1055.6</ele>
        <time>2017-01-07T02:22:26.600000Z</time>
      </trkpt>
      <trkpt lat="37.84780578079392" lon="112.02667727703157">
        <ele>1057.6</ele>
        <time>2017-01-07T02:22:38.600000Z</time>
      </trkpt>
      <trkpt lat="37.8477849562366" lon="112.02676800086661">
        <ele>1059.4</ele>
        <time>2017-01-07T02:22:44.600000Z</time>
      </trkpt>
      <trkpt lat="37.84764950940124" lon="112.02703729098155">
        <ele>1062.6</ele>
        <time>2017-01-07T02:23:02.600000Z</time>
      </trkpt>
      <trkpt lat="37.84750821282892" lon="112.02717079584251">
        <ele>1063.2</ele>
        <time>2017-01-07T02:23:11.600000Z</time>
      </trkpt>
      <trkpt lat="37.84747010880709" lon="112.02725169968559">
        <ele>1063.3</ele>
        <time>2017-01-07T02:23:20.600000Z</time>
      </trkpt>
      <trkpt lat="37.84742079685416" lon="112.02728650347451">
        <ele>1063.5</ele>
        <time>2017-01-07T02:23:23.600000Z</time>
      </trkpt>
      <trkpt lat="37.847365532958726" lon="112.02747682586096">
        <ele>1063.4</ele>
        <time>2017-01-07T02:23:35.600000Z</time>
      </trkpt>
      <trkpt lat="37.84740893514308" lon="112.02750221409205">
        <ele>1064.0</ele>
        <time>2017-01-07T02:23:38.600000Z</time>
      </trkpt>
      <trkpt lat="37.84745068687941" lon="112.02768893020277">
        <ele>1067.0</ele>
        <time>2017-01-07T02:23:53.700000Z</time>
      </trkpt>
      <trkpt lat="37.84745035596113" lon="112.02798569020071">
        <ele>1059.6</ele>
        <time>2017-01-07T02:24:02.600000Z</time>
      </trkpt>
      <trkpt lat="37.84749328327259" lon="112.02802497496829">
        <ele>1055.3</ele>
        <time>2017-01-07T02:24:05.600000Z</time>
      </trkpt>
      <trkpt lat="37.84751964082044" lon="112.0282904153597">
        <ele>1052.7</ele>
        <time>2017-01-07T02:24:23.600000Z</time>
      </trkpt>
      <trkpt lat="37.84751516546064" lon="112.02835006892167">
        <ele>1053.7</ele>
        <time>2017-01-07T02:24:26.600000Z</time>
      </trkpt>
      <trkpt lat="37.847439494593296" lon="112.0284177642528">
        <ele>1066.3</ele>
        <time>2017-01-07T02:24:29.600000Z</time>
      </trkpt>
      <trkpt lat="37.84745754273507" lon="112.02858175059902">
        <ele>1068.0</ele>
        <time>2017-01-07T02:24:41.600000Z</time>
      </trkpt>
      <trkpt lat="37.84744777667899" lon="112.02884417426193">
        <ele>1074.8</ele>
        <time>2017-01-07T02:24:59.600000Z</time>
      </trkpt>
      <trkpt lat="37.84744923264081" lon="112.0289762392882">
        <ele>1077.8</ele>
        <time>2017-01-07T02:25:08.600000Z</time>
      </trkpt>
      <trkpt lat="37.84741251245761" lon="112.02910108688101">
        <ele>1081.5</ele>
        <time>2017-01-07T02:25:17.600000Z</time>
      </trkpt>
      <trkpt lat="37.84746546291826" lon="112.02916672057742">
        <ele>1093.3</ele>
        <time>2017-01-07T02:25:20.600000Z</time>
      </trkpt>
      <trkpt lat="37.847409193673705" lon="112.02927980749891">
        <ele>1109.0</ele>
        <time>2017-01-07T02:25:35.600000Z</time>
      </trkpt>
      <trkpt lat="37.84727392290077" lon="112.02937916220148">
        <ele>1120.9</ele>
        <time>2017-01-07T02:25:44.600000Z</time>
      </trkpt>
      <trkpt lat="37.84721104178453" lon="112.02945002619413">
        <ele>1124.0</ele>
        <time>2017-01-07T02:25:59.600000Z</time>
      </trkpt>
      <trkpt lat="37.847171597780786" lon="112.0294390470448">
        <ele>1125.9</ele>
        <time>2017-01-07T02:26:08.600000Z</time>
      </trkpt>
      <trkpt lat="37.84709206490607" lon="112.02929040691272">
        <ele>1128.7</ele>
        <time>2017-01-07T02:26:20.600000Z</time>
      </trkpt>
      <trkpt lat="37.8470230670331" lon="112.02935500872583">
        <ele>1129.3</ele>
        <time>2017-01-07T02:26:26.600000Z</time>
      </trkpt>
      <trkpt lat="37.84695780711302" lon="112.0294795537307">
        <ele>1132.2</ele>
        <time>2017-01-07T02:26:38.600000Z</time>
      </trkpt>
    </trkseg>
  </trk>
</gpx>