<?xml version="1.0" encoding="UTF-8"?>
<gpx xmlns="http://www.topografix.com/GPX/1/1" xmlns:gpxtpx="http://www.garmin.com/xmlschemas/TrackPointExtension/v1" xmlns:xsi="http://www.w3.org/2001/XMLSchema-instance" xsi:schemaLocation="http://www.topografix.com/GPX/1/1 http://www.topografix.com/GPX/1/1/gpx.xsd" version="1.1" creator="gpx.py -- https://github.com/tkrajina/gpxpy">
  <trk>
    <name>gpx from keep</name>
    <type>Run</type>
    <trkseg>
      <trkpt lat="37.84678506725715" lon="112.03262015035342">
        <ele>1218.7</ele>
        <time>2017-07-16T13:31:34.300000Z</time>
      </trkpt>
      <trkpt lat="37.846266247911636" lon="112.02968952035978">
        <ele>1011.5</ele>
        <time>2017-07-16T13:31:40.300000Z</time>
      </trkpt>
      <trkpt lat="37.84700850799957" lon="112.02952614316766">
        <ele>1180.2</ele>
        <time>2017-07-16T13:31:43.300000Z</time>
      </trkpt>
      <trkpt lat="37.84706707818383" lon="112.02945451519355">
        <ele>1176.0</ele>
        <time>2017-07-16T13:31:46.300000Z</time>
      </trkpt>
      <trkpt lat="37.84714284155893" lon="112.0294795314656">
        <ele>1159.59</ele>
        <time>2017-07-16T13:31:55.300000Z</time>
      </trkpt>
      <trkpt lat="37.847126430827" lon="112.02942435816612">
        <ele>1156.0</ele>
        <time>2017-07-16T13:32:04.300000Z</time>
      </trkpt>
      <trkpt lat="37.84716290632706" lon="112.02948439746294">
        <ele>1153.2</ele>
        <time>2017-07-16T13:32:16.300000Z</time>
      </trkpt>
      <trkpt lat="37.84723457829989" lon="112.02946626753257">
        <ele>1148.3</ele>
        <time>2017-07-16T13:32:25.300000Z</time>
      </trkpt>
      <trkpt lat="37.847329535812285" lon="112.02935942177893">
        <ele>1143.4</ele>
        <time>2017-07-16T13:32:40.300000Z</time>
      </trkpt>
      <trkpt lat="37.847287988799515" lon="112.02915928254694">
        <ele>1144.3</ele>
        <time>2017-07-16T13:32:52.400000Z</time>
      </trkpt>
      <trkpt lat="37.84724141158538" lon="112.02912439828833">
        <ele>1144.09</ele>
        <time>2017-07-16T13:32:55.300000Z</time>
      </trkpt>
      <trkpt lat="37.84723277987682" lon="112.02899755204903">
        <ele>1144.9</ele>
        <time>2017-07-16T13:33:01.300000Z</time>
      </trkpt>
      <trkpt lat="37.84737601089673" lon="112.02868569306573">
        <ele>1143.2</ele>
        <time>2017-07-16T13:33:13.300000Z</time>
      </trkpt>
      <trkpt lat="37.84734627496705" lon="112.02832409429153">
        <ele>1143.59</ele>
        <time>2017-07-16T13:33:37.300000Z</time>
      </trkpt>
      <trkpt lat="37.84735946385542" lon="112.02825918326553">
        <ele>1143.7</ele>
        <time>2017-07-16T13:33:43.300000Z</time>
      </trkpt>
      <trkpt lat="37.847327596581366" lon="112.02809556186637">
        <ele>1142.5</ele>
        <time>2017-07-16T13:33:55.300000Z</time>
      </trkpt>
      <trkpt lat="37.84735105052606" lon="112.02794248239196">
        <ele>1141.09</ele>
        <time>2017-07-16T13:34:04.300000Z</time>
      </trkpt>
      <trkpt lat="37.847321273135805" lon="112.02781077578686">
        <ele>1140.8</ele>
        <time>2017-07-16T13:34:16.300000Z</time>
      </trkpt>
      <trkpt lat="37.84744103009685" lon="112.02745241531909">
        <ele>1140.9</ele>
        <time>2017-07-16T13:34:37.300000Z</time>
      </trkpt>
      <trkpt lat="37.847479151865365" lon="112.0273988620381">
        <ele>1140.7</ele>
        <time>2017-07-16T13:34:40.300000Z</time>
      </trkpt>
      <trkpt lat="37.8474959294945" lon="112.02731069419607">
        <ele>1140.7</ele>
        <time>2017-07-16T13:34:46.200000Z</time>
      </trkpt>
      <trkpt lat="37.847632361174966" lon="112.0270107536865">
        <ele>1141.9</ele>
        <time>2017-07-16T13:34:58.300000Z</time>
      </trkpt>
      <trkpt lat="37.847692700983906" lon="112.02696882761423">
        <ele>1143.5</ele>
        <time>2017-07-16T13:35:01.300000Z</time>
      </trkpt>
      <trkpt lat="37.847770699347" lon="112.02670892288121">
        <ele>1143.4</ele>
        <time>2017-07-16T13:35:08.200000Z</time>
      </trkpt>
      <trkpt lat="37.847779137580424" lon="112.02659398447298">
        <ele>1142.2</ele>
        <time>2017-07-16T13:35:11.300000Z</time>
      </trkpt>
      <trkpt lat="37.847831079864946" lon="112.0265471920744">
        <ele>1142.2</ele>
        <time>2017-07-16T13:35:14.300000Z</time>
      </trkpt>
      <trkpt lat="37.84804244502086" lon="112.02654202830655">
        <ele>1140.3</ele>
        <time>2017-07-16T13:35:23.300000Z</time>
      </trkpt>
      <trkpt lat="37.848347435643035" lon="112.02663231871725">
        <ele>1137.9</ele>
        <time>2017-07-16T13:35:32.300000Z</time>
      </trkpt>
      <trkpt lat="37.84843584880415" lon="112.02664555968796">
        <ele>1136.9</ele>
        <time>2017-07-16T13:35:35.300000Z</time>
      </trkpt>
      <trkpt lat="37.84876072646887" lon="112.02660035704125">
        <ele>1137.8</ele>
        <time>2017-07-16T13:35:47.300000Z</time>
      </trkpt>
      <trkpt lat="37.84883415629289" lon="112.02663712813812">
        <ele>1134.7</ele>
        <time>2017-07-16T13:35:50.300000Z</time>
      </trkpt>
      <trkpt lat="37.848880696054195" lon="112.0266855314828">
        <ele>1133.5</ele>
        <time>2017-07-16T13:35:53.300000Z</time>
      </trkpt>
      <trkpt lat="37.848879141682644" lon="112.02707551045198">
        <ele>1130.7</ele>
        <time>2017-07-16T13:36:08.300000Z</time>
      </trkpt>
      <trkpt lat="37.84884579074801" lon="112.02738247084373">
        <ele>1129.9</ele>
        <time>2017-07-16T13:36:17.300000Z</time>
      </trkpt>
      <trkpt lat="37.84888931473936" lon="112.02765399620642">
        <ele>1130.0</ele>
        <time>2017-07-16T13:36:26.300000Z</time>
      </trkpt>
      <trkpt lat="37.84886592177322" lon="112.02799422716544">
        <ele>1124.4</ele>
        <time>2017-07-16T13:36:38.300000Z</time>
      </trkpt>
      <trkpt lat="37.848905941830864" lon="112.02815243790783">
        <ele>1125.3</ele>
        <time>2017-07-16T13:36:44.300000Z</time>
      </trkpt>
      <trkpt lat="37.84891286509546" lon="112.02841586113435">
        <ele>1129.3</ele>
        <time>2017-07-16T13:36:53.300000Z</time>
      </trkpt>
      <trkpt lat="37.84884771015215" lon="112.02864440617319">
        <ele>1128.59</ele>
        <time>2017-07-16T13:36:59.200000Z</time>
      </trkpt>
      <trkpt lat="37.84882951145667" lon="112.0288659153922">
        <ele>1129.7</ele>
        <time>2017-07-16T13:37:05.300000Z</time>
      </trkpt>
      <trkpt lat="37.84884969524326" lon="112.02903765647453">
        <ele>1131.7</ele>
        <time>2017-07-16T13:37:11.300000Z</time>
      </trkpt>
      <trkpt lat="37.8488848108993" lon="112.02920588075997">
        <ele>1132.59</ele>
        <time>2017-07-16T13:37:17.300000Z</time>
      </trkpt>
      <trkpt lat="37.848859530826495" lon="112.02943956622723">
        <ele>1131.7</ele>
        <time>2017-07-16T13:37:23.300000Z</time>
      </trkpt>
      <trkpt lat="37.848906227892016" lon="112.02985797601949">
        <ele>1131.8</ele>
        <time>2017-07-16T13:37:35.200000Z</time>
      </trkpt>
      <trkpt lat="37.84896501378815" lon="112.03021796810611">
        <ele>1131.9</ele>
        <time>2017-07-16T13:37:47.300000Z</time>
      </trkpt>
      <trkpt lat="37.849046618526096" lon="112.03056795445875">
        <ele>1128.7</ele>
        <time>2017-07-16T13:37:59.300000Z</time>
      </trkpt>
      <trkpt lat="37.84917673321924" lon="112.03094147133477">
        <ele>1129.59</ele>
        <time>2017-07-16T13:38:11.300000Z</time>
      </trkpt>
      <trkpt lat="37.84930339108806" lon="112.031288215728">
        <ele>1131.5</ele>
        <time>2017-07-16T13:38:23.300000Z</time>
      </trkpt>
      <trkpt lat="37.849491702211076" lon="112.03160980173146">
        <ele>1132.3</ele>
        <time>2017-07-16T13:38:35.300000Z</time>
      </trkpt>
      <trkpt lat="37.84962167387908" lon="112.03182509564539">
        <ele>1133.9</ele>
        <time>2017-07-16T13:38:44.200000Z</time>
      </trkpt>
      <trkpt lat="37.849720165931664" lon="112.03193328020143">
        <ele>1134.59</ele>
        <time>2017-07-16T13:38:50.300000Z</time>
      </trkpt>
      <trkpt lat="37.84992184625534" lon="112.03222674091401">
        <ele>1135.09</ele>
        <time>2017-07-16T13:39:02.300000Z</time>
      </trkpt>
      <trkpt lat="37.85016503991808" lon="112.03252019988274">
        <ele>1133.09</ele>
        <time>2017-07-16T13:39:14.300000Z</time>
      </trkpt>
      <trkpt lat="37.850268352767166" lon="112.03265516608816">
        <ele>1132.9</ele>
        <time>2017-07-16T13:39:20.300000Z</time>
      </trkpt>
      <trkpt lat="37.8503066931034" lon="112.03273171279699">
        <ele>1130.9</ele>
        <time>2017-07-16T13:39:23.300000Z</time>
      </trkpt>
      <trkpt lat="37.85036193898004" lon="112.03277363364175">
        <ele>1129.59</ele>
        <time>2017-07-16T13:39:26.300000Z</time>
      </trkpt>
      <trkpt lat="37.850528814041155" lon="112.03299001461046">
        <ele>1127.5</ele>
        <time>2017-07-16T13:39:35.300000Z</time>
      </trkpt>
      <trkpt lat="37.85073862686162" lon="112.03329024880344">
        <ele>1125.8</ele>
        <time>2017-07-16T13:39:47.300000Z</time>
      </trkpt>
      <trkpt lat="37.850925373780534" lon="112.03359346485699">
        <ele>1121.3</ele>
        <time>2017-07-16T13:39:59.300000Z</time>
      </trkpt>
      <trkpt lat="37.85111359534778" lon="112.03384853322133">
        <ele>1117.9</ele>
        <time>2017-07-16T13:40:11.300000Z</time>
      </trkpt>
      <trkpt lat="37.85128055656936" lon="112.03414553642338">
        <ele>1114.2</ele>
        <time>2017-07-16T13:40:23.300000Z</time>
      </trkpt>
      <trkpt lat="37.85149719511289" lon="112.03443225743162">
        <ele>1110.4</ele>
        <time>2017-07-16T13:40:35.300000Z</time>
      </trkpt>
      <trkpt lat="37.85159883228609" lon="112.03459076903972">
        <ele>1109.2</ele>
        <time>2017-07-16T13:40:41.300000Z</time>
      </trkpt>
      <trkpt lat="37.851664064682026" lon="112.03465568591116">
        <ele>1108.5</ele>
        <time>2017-07-16T13:40:44.300000Z</time>
      </trkpt>
      <trkpt lat="37.85184221278991" lon="112.03492916172281">
        <ele>1108.59</ele>
        <time>2017-07-16T13:40:56.300000Z</time>
      </trkpt>
      <trkpt lat="37.85203227430268" lon="112.03521400117724">
        <ele>1107.09</ele>
        <time>2017-07-16T13:41:08.300000Z</time>
      </trkpt>
      <trkpt lat="37.85209234479595" lon="112.03528243713444">
        <ele>1106.9</ele>
        <time>2017-07-16T13:41:11.300000Z</time>
      </trkpt>
      <trkpt lat="37.85213907035039" lon="112.0353725171066">
        <ele>1106.9</ele>
        <time>2017-07-16T13:41:14.300000Z</time>
      </trkpt>
      <trkpt lat="37.85235575487412" lon="112.03564437294308">
        <ele>1107.0</ele>
        <time>2017-07-16T13:41:26.300000Z</time>
      </trkpt>
      <trkpt lat="37.8525807951545" lon="112.03594084934774">
        <ele>1105.0</ele>
        <time>2017-07-16T13:41:38.300000Z</time>
      </trkpt>
      <trkpt lat="37.8526324603463" lon="112.03600766512021">
        <ele>1104.5</ele>
        <time>2017-07-16T13:41:41.300000Z</time>
      </trkpt>
      <trkpt lat="37.852669161385634" lon="112.03609260876688">
        <ele>1103.9</ele>
        <time>2017-07-16T13:41:44.300000Z</time>
      </trkpt>
      <trkpt lat="37.852852462045426" lon="112.03637259274372">
        <ele>1100.8</ele>
        <time>2017-07-16T13:41:56.300000Z</time>
      </trkpt>
      <trkpt lat="37.8530624936868" lon="112.03670966112689">
        <ele>1098.0</ele>
        <time>2017-07-16T13:42:08.200000Z</time>
      </trkpt>
      <trkpt lat="37.85324605270034" lon="112.03699776854832">
        <ele>1098.4</ele>
        <time>2017-07-16T13:42:20.300000Z</time>
      </trkpt>
      <trkpt lat="37.8534209466643" lon="112.03727965782828">
        <ele>1097.59</ele>
        <time>2017-07-16T13:42:32.300000Z</time>
      </trkpt>
      <trkpt lat="37.853497634002714" lon="112.03743981410499">
        <ele>1097.7</ele>
        <time>2017-07-16T13:42:38.300000Z</time>
      </trkpt>
      <trkpt lat="37.853682915070614" lon="112.03768951142679">
        <ele>1097.8</ele>
        <time>2017-07-16T13:42:50.300000Z</time>
      </trkpt>
      <trkpt lat="37.8538728093176" lon="112.03793975191947">
        <ele>1095.3</ele>
        <time>2017-07-16T13:43:02.300000Z</time>
      </trkpt>
      <trkpt lat="37.85383770892868" lon="112.0378645415782">
        <ele>1099.5</ele>
        <time>2017-07-16T13:43:17.300000Z</time>
      </trkpt>
      <trkpt lat="37.85374433602646" lon="112.03776309471144">
        <ele>1101.09</ele>
        <time>2017-07-16T13:43:26.300000Z</time>
      </trkpt>
      <trkpt lat="37.85369285107636" lon="112.03773469272444">
        <ele>1100.59</ele>
        <time>2017-07-16T13:43:29.300000Z</time>
      </trkpt>
      <trkpt lat="37.85351628306516" lon="112.03747119576644">
        <ele>1098.59</ele>
        <time>2017-07-16T13:43:44.300000Z</time>
      </trkpt>
      <trkpt lat="37.85333267066331" lon="112.03720445598178">
        <ele>1100.2</ele>
        <time>2017-07-16T13:43:56.300000Z</time>
      </trkpt>
      <trkpt lat="37.8531359346971" lon="112.03686440311927">
        <ele>1102.9</ele>
        <time>2017-07-16T13:44:11.300000Z</time>
      </trkpt>
      <trkpt lat="37.852977647719904" lon="112.03655952069313">
        <ele>1103.09</ele>
        <time>2017-07-16T13:44:23.300000Z</time>
      </trkpt>
      <trkpt lat="37.852760757148594" lon="112.03625600184735">
        <ele>1105.09</ele>
        <time>2017-07-16T13:44:35.300000Z</time>
      </trkpt>
      <trkpt lat="37.852567632402526" lon="112.03600090957046">
        <ele>1105.4</ele>
        <time>2017-07-16T13:44:47.300000Z</time>
      </trkpt>
      <trkpt lat="37.85233059568811" lon="112.03572932279685">
        <ele>1102.3</ele>
        <time>2017-07-16T13:45:02.300000Z</time>
      </trkpt>
      <trkpt lat="37.85215091230495" lon="112.03552915179137">
        <ele>1101.8</ele>
        <time>2017-07-16T13:45:14.300000Z</time>
      </trkpt>
      <trkpt lat="37.85197386774465" lon="112.03524565979552">
        <ele>1101.2</ele>
        <time>2017-07-16T13:45:26.300000Z</time>
      </trkpt>
      <trkpt lat="37.85180229115349" lon="112.03506064107357">
        <ele>1099.7</ele>
        <time>2017-07-16T13:45:35.300000Z</time>
      </trkpt>
      <trkpt lat="37.85175909738775" lon="112.03496893866091">
        <ele>1099.09</ele>
        <time>2017-07-16T13:45:38.300000Z</time>
      </trkpt>
      <trkpt lat="37.851553868325354" lon="112.03467409456864">
        <ele>1101.5</ele>
        <time>2017-07-16T13:45:50.300000Z</time>
      </trkpt>
      <trkpt lat="37.851385553345565" lon="112.03437383913739">
        <ele>1104.8</ele>
        <time>2017-07-16T13:46:02.300000Z</time>
      </trkpt>
      <trkpt lat="37.851207162612745" lon="112.03409036034638">
        <ele>1109.09</ele>
        <time>2017-07-16T13:46:14.300000Z</time>
      </trkpt>
      <trkpt lat="37.85108550582817" lon="112.03390886073663">
        <ele>1110.8</ele>
        <time>2017-07-16T13:46:23.300000Z</time>
      </trkpt>
      <trkpt lat="37.85091548572849" lon="112.03364378073127">
        <ele>1112.5</ele>
        <time>2017-07-16T13:46:35.300000Z</time>
      </trkpt>
      <trkpt lat="37.8507171006049" lon="112.03332866322098">
        <ele>1117.8</ele>
        <time>2017-07-16T13:46:47.300000Z</time>
      </trkpt>
      <trkpt lat="37.85063525063125" lon="112.0331804362202">
        <ele>1119.0</ele>
        <time>2017-07-16T13:46:53.300000Z</time>
      </trkpt>
      <trkpt lat="37.850797118127964" lon="112.0333367687599">
        <ele>1122.4</ele>
        <time>2017-07-16T13:47:17.300000Z</time>
      </trkpt>
      <trkpt lat="37.85100534201062" lon="112.03362212916637">
        <ele>1123.3</ele>
        <time>2017-07-16T13:47:32.300000Z</time>
      </trkpt>
      <trkpt lat="37.85121031397125" lon="112.03390695210905">
        <ele>1123.0</ele>
        <time>2017-07-16T13:47:44.300000Z</time>
      </trkpt>
      <trkpt lat="37.85138569866872" lon="112.03419881518658">
        <ele>1121.2</ele>
        <time>2017-07-16T13:47:56.300000Z</time>
      </trkpt>
      <trkpt lat="37.85151219250105" lon="112.03440060507441">
        <ele>1118.9</ele>
        <time>2017-07-16T13:48:05.300000Z</time>
      </trkpt>
      <trkpt lat="37.851722192812474" lon="112.03462727431086">
        <ele>1118.0</ele>
        <time>2017-07-16T13:48:17.300000Z</time>
      </trkpt>
      <trkpt lat="37.85193065677748" lon="112.03493077419724">
        <ele>1116.0</ele>
        <time>2017-07-16T13:48:29.300000Z</time>
      </trkpt>
      <trkpt lat="37.85212733988338" lon="112.03516881189412">
        <ele>1111.9</ele>
        <time>2017-07-16T13:48:41.300000Z</time>
      </trkpt>
      <trkpt lat="37.852167309640954" lon="112.03524725962826">
        <ele>1110.2</ele>
        <time>2017-07-16T13:48:44.300000Z</time>
      </trkpt>
      <trkpt lat="37.85218416724165" lon="112.03534735259225">
        <ele>1109.8</ele>
        <time>2017-07-16T13:48:47.300000Z</time>
      </trkpt>
      <trkpt lat="37.852325637481385" lon="112.03552913072022">
        <ele>1109.09</ele>
        <time>2017-07-16T13:48:56.300000Z</time>
      </trkpt>
      <trkpt lat="37.85237902198862" lon="112.03567250535694">
        <ele>1107.7</ele>
        <time>2017-07-16T13:49:02.300000Z</time>
      </trkpt>
      <trkpt lat="37.852575601175815" lon="112.03595762309173">
        <ele>1106.2</ele>
        <time>2017-07-16T13:49:14.300000Z</time>
      </trkpt>
      <trkpt lat="37.85278084179637" lon="112.03625275297435">
        <ele>1107.8</ele>
        <time>2017-07-16T13:49:26.300000Z</time>
      </trkpt>
      <trkpt lat="37.852944249435545" lon="112.0365711579842">
        <ele>1107.9</ele>
        <time>2017-07-16T13:49:38.300000Z</time>
      </trkpt>
      <trkpt lat="37.85315923276442" lon="112.03687955079467">
        <ele>1108.3</ele>
        <time>2017-07-16T13:49:50.300000Z</time>
      </trkpt>
      <trkpt lat="37.85333930347151" lon="112.03715142780608">
        <ele>1108.3</ele>
        <time>2017-07-16T13:50:02.300000Z</time>
      </trkpt>
      <trkpt lat="37.853429334489824" lon="112.03728966713045">
        <ele>1108.7</ele>
        <time>2017-07-16T13:50:08.300000Z</time>
      </trkpt>
      <trkpt lat="37.8534543837626" lon="112.0373697467727">
        <ele>1110.0</ele>
        <time>2017-07-16T13:50:11.300000Z</time>
      </trkpt>
      <trkpt lat="37.85365944670134" lon="112.03762972198483">
        <ele>1108.09</ele>
        <time>2017-07-16T13:50:23.300000Z</time>
      </trkpt>
      <trkpt lat="37.853902740652174" lon="112.03790132932028">
        <ele>1108.3</ele>
        <time>2017-07-16T13:50:35.300000Z</time>
      </trkpt>
      <trkpt lat="37.85379786810011" lon="112.03772629287383">
        <ele>1108.0</ele>
        <time>2017-07-16T13:50:59.300000Z</time>
      </trkpt>
      <trkpt lat="37.85365615100304" lon="112.03752799469491">
        <ele>1108.3</ele>
        <time>2017-07-16T13:51:11.300000Z</time>
      </trkpt>
      <trkpt lat="37.853544494111674" lon="112.03735458510403">
        <ele>1108.9</ele>
        <time>2017-07-16T13:51:20.400000Z</time>
      </trkpt>
      <trkpt lat="37.85331095316172" lon="112.03709136974909">
        <ele>1109.9</ele>
        <time>2017-07-16T13:51:35.300000Z</time>
      </trkpt>
      <trkpt lat="37.85312285127327" lon="112.03677269034915">
        <ele>1110.59</ele>
        <time>2017-07-16T13:51:50.300000Z</time>
      </trkpt>
      <trkpt lat="37.85295417845292" lon="112.03650108675791">
        <ele>1113.0</ele>
        <time>2017-07-16T13:52:02.300000Z</time>
      </trkpt>
      <trkpt lat="37.852760807946545" lon="112.03623408831022">
        <ele>1113.0</ele>
        <time>2017-07-16T13:52:14.300000Z</time>
      </trkpt>
      <trkpt lat="37.85258725627771" lon="112.03596249130288">
        <ele>1112.8</ele>
        <time>2017-07-16T13:52:26.300000Z</time>
      </trkpt>
      <trkpt lat="37.85249397173438" lon="112.0358258831122">
        <ele>1112.5</ele>
        <time>2017-07-16T13:52:32.300000Z</time>
      </trkpt>
      <trkpt lat="37.85225740132057" lon="112.03558757340029">
        <ele>1111.8</ele>
        <time>2017-07-16T13:52:44.300000Z</time>
      </trkpt>
      <trkpt lat="37.85216076127227" lon="112.03549425231661">
        <ele>1112.4</ele>
        <time>2017-07-16T13:52:50.300000Z</time>
      </trkpt>
      <trkpt lat="37.85198556151658" lon="112.03523402575046">
        <ele>1113.2</ele>
        <time>2017-07-16T13:53:02.300000Z</time>
      </trkpt>
      <trkpt lat="37.851875647489535" lon="112.035017348354">
        <ele>1112.9</ele>
        <time>2017-07-16T13:53:11.300000Z</time>
      </trkpt>
      <trkpt lat="37.851728797468695" lon="112.03481717911382">
        <ele>1111.5</ele>
        <time>2017-07-16T13:53:20.300000Z</time>
      </trkpt>
      <trkpt lat="37.851600404668034" lon="112.03472873411407">
        <ele>1111.3</ele>
        <time>2017-07-16T13:53:26.300000Z</time>
      </trkpt>
      <trkpt lat="37.851457223318064" lon="112.03458402312785">
        <ele>1110.59</ele>
        <time>2017-07-16T13:53:35.300000Z</time>
      </trkpt>
      <trkpt lat="37.85142073861903" lon="112.03452397231038">
        <ele>1110.7</ele>
        <time>2017-07-16T13:53:38.300000Z</time>
      </trkpt>
      <trkpt lat="37.851352219916855" lon="112.03447204103952">
        <ele>1110.5</ele>
        <time>2017-07-16T13:53:41.300000Z</time>
      </trkpt>
      <trkpt lat="37.851195424540286" lon="112.03412038883724">
        <ele>1110.09</ele>
        <time>2017-07-16T13:53:53.300000Z</time>
      </trkpt>
      <trkpt lat="37.85102707849553" lon="112.03383528859001">
        <ele>1112.7</ele>
        <time>2017-07-16T13:54:05.300000Z</time>
      </trkpt>
      <trkpt lat="37.8508187916413" lon="112.03357535361964">
        <ele>1114.3</ele>
        <time>2017-07-16T13:54:17.300000Z</time>
      </trkpt>
      <trkpt lat="37.850682049192315" lon="112.03335030793397">
        <ele>1118.09</ele>
        <time>2017-07-16T13:54:26.300000Z</time>
      </trkpt>
      <trkpt lat="37.85061024224163" lon="112.03320018606611">
        <ele>1118.5</ele>
        <time>2017-07-16T13:54:32.300000Z</time>
      </trkpt>
      <trkpt lat="37.85056365297563" lon="112.03316854265432">
        <ele>1118.59</ele>
        <time>2017-07-16T13:54:35.300000Z</time>
      </trkpt>
      <trkpt lat="37.85081368607088" lon="112.03344199384516">
        <ele>1118.59</ele>
        <time>2017-07-16T13:54:56.300000Z</time>
      </trkpt>
      <trkpt lat="37.85105854256242" lon="112.03372545743228">
        <ele>1117.8</ele>
        <time>2017-07-16T13:55:11.300000Z</time>
      </trkpt>
      <trkpt lat="37.85114695444393" lon="112.0338536689192">
        <ele>1114.59</ele>
        <time>2017-07-16T13:55:17.300000Z</time>
      </trkpt>
      <trkpt lat="37.85113698785744" lon="112.03393698780675">
        <ele>1113.3</ele>
        <time>2017-07-16T13:55:20.300000Z</time>
      </trkpt>
      <trkpt lat="37.85131894038659" lon="112.0342053155991">
        <ele>1109.9</ele>
        <time>2017-07-16T13:55:32.300000Z</time>
      </trkpt>
      <trkpt lat="37.85153567389954" lon="112.03445227110956">
        <ele>1105.59</ele>
        <time>2017-07-16T13:55:44.300000Z</time>
      </trkpt>
      <trkpt lat="37.85169227347062" lon="112.0346589287515">
        <ele>1103.3</ele>
        <time>2017-07-16T13:55:53.300000Z</time>
      </trkpt>
      <trkpt lat="37.85182379484157" lon="112.03491590831862">
        <ele>1102.3</ele>
        <time>2017-07-16T13:56:05.300000Z</time>
      </trkpt>
      <trkpt lat="37.85195573159599" lon="112.0351125633207">
        <ele>1100.2</ele>
        <time>2017-07-16T13:56:14.300000Z</time>
      </trkpt>
      <trkpt lat="37.852020537282854" lon="112.03524403100923">
        <ele>1099.8</ele>
        <time>2017-07-16T13:56:20.300000Z</time>
      </trkpt>
      <trkpt lat="37.852230713615455" lon="112.03551399251769">
        <ele>1102.3</ele>
        <time>2017-07-16T13:56:32.300000Z</time>
      </trkpt>
      <trkpt lat="37.852338996752515" lon="112.03561732189826">
        <ele>1101.4</ele>
        <time>2017-07-16T13:56:38.300000Z</time>
      </trkpt>
      <trkpt lat="37.85252887770749" lon="112.03586591778875">
        <ele>1098.5</ele>
        <time>2017-07-16T13:56:50.300000Z</time>
      </trkpt>
      <trkpt lat="37.85270078871768" lon="112.036142654114">
        <ele>1098.0</ele>
        <time>2017-07-16T13:57:02.300000Z</time>
      </trkpt>
      <trkpt lat="37.852789346430214" lon="112.03632931418241">
        <ele>1098.59</ele>
        <time>2017-07-16T13:57:08.300000Z</time>
      </trkpt>
      <trkpt lat="37.85291429988942" lon="112.03649919778697">
        <ele>1098.2</ele>
        <time>2017-07-16T13:57:14.300000Z</time>
      </trkpt>
      <trkpt lat="37.852986031561656" lon="112.03657115294365">
        <ele>1097.8</ele>
        <time>2017-07-16T13:57:17.300000Z</time>
      </trkpt>
      <trkpt lat="37.853147712615005" lon="112.03669801751735">
        <ele>1099.9</ele>
        <time>2017-07-16T13:57:23.300000Z</time>
      </trkpt>
      <trkpt lat="37.85320912492623" lon="112.03677430320023">
        <ele>1100.5</ele>
        <time>2017-07-16T13:57:26.300000Z</time>
      </trkpt>
      <trkpt lat="37.85326930177087" lon="112.03691606104742">
        <ele>1104.7</ele>
        <time>2017-07-16T13:57:32.300000Z</time>
      </trkpt>
      <trkpt lat="37.853264279669325" lon="112.03697639323971">
        <ele>1107.4</ele>
        <time>2017-07-16T13:57:35.300000Z</time>
      </trkpt>
      <trkpt lat="37.85334441321905" lon="112.03717117716769">
        <ele>1111.09</ele>
        <time>2017-07-16T13:57:44.300000Z</time>
      </trkpt>
      <trkpt lat="37.853489394814204" lon="112.0373646020985">
        <ele>1111.2</ele>
        <time>2017-07-16T13:57:53.300000Z</time>
      </trkpt>
      <trkpt lat="37.85356599737953" lon="112.03744305246495">
        <ele>1109.4</ele>
        <time>2017-07-16T13:57:56.300000Z</time>
      </trkpt>
      <trkpt lat="37.853759574953365" lon="112.03774307185127">
        <ele>1108.5</ele>
        <time>2017-07-16T13:58:08.300000Z</time>
      </trkpt>
      <trkpt lat="37.85379305513271" lon="112.03781476478807">
        <ele>1108.7</ele>
        <time>2017-07-16T13:58:11.300000Z</time>
      </trkpt>
      <trkpt lat="37.8538828595162" lon="112.03793461013422">
        <ele>1107.7</ele>
        <time>2017-07-16T13:58:17.300000Z</time>
      </trkpt>
      <trkpt lat="37.853871001602606" lon="112.0377795832517">
        <ele>1108.8</ele>
        <time>2017-07-16T13:58:32.300000Z</time>
      </trkpt>
      <trkpt lat="37.85376965620901" lon="112.03760481782734">
        <ele>1110.9</ele>
        <time>2017-07-16T13:58:44.300000Z</time>
      </trkpt>
      <trkpt lat="37.85354266346285" lon="112.03732455431333">
        <ele>1107.5</ele>
        <time>2017-07-16T13:59:02.300000Z</time>
      </trkpt>
      <trkpt lat="37.8534478826432" lon="112.03724637707667">
        <ele>1104.8</ele>
        <time>2017-07-16T13:59:08.300000Z</time>
      </trkpt>
      <trkpt lat="37.85325097790587" lon="112.0369796413917">
        <ele>1104.59</ele>
        <time>2017-07-16T13:59:20.300000Z</time>
      </trkpt>
      <trkpt lat="37.85308942716409" lon="112.0366777338736">
        <ele>1106.4</ele>
        <time>2017-07-16T13:59:32.300000Z</time>
      </trkpt>
      <trkpt lat="37.85290263545111" lon="112.0363809733965">
        <ele>1107.9</ele>
        <time>2017-07-16T13:59:44.300000Z</time>
      </trkpt>
      <trkpt lat="37.85269438967365" lon="112.03609422893832">
        <ele>1110.5</ele>
        <time>2017-07-16T13:59:59.300000Z</time>
      </trkpt>
      <trkpt lat="37.85247239546931" lon="112.03577069708565">
        <ele>1113.8</ele>
        <time>2017-07-16T14:00:14.300000Z</time>
      </trkpt>
      <trkpt lat="37.852270832377435" lon="112.03552913732952">
        <ele>1117.2</ele>
        <time>2017-07-16T14:00:26.300000Z</time>
      </trkpt>
      <trkpt lat="37.85204576933153" lon="112.03524402796666">
        <ele>1118.09</ele>
        <time>2017-07-16T14:00:41.300000Z</time>
      </trkpt>
      <trkpt lat="37.85185888161823" lon="112.0349938148002">
        <ele>1117.4</ele>
        <time>2017-07-16T14:00:53.300000Z</time>
      </trkpt>
      <trkpt lat="37.85166879841266" lon="112.03471898711905">
        <ele>1117.09</ele>
        <time>2017-07-16T14:01:05.300000Z</time>
      </trkpt>
      <trkpt lat="37.851520464992085" lon="112.03445876537342">
        <ele>1117.09</ele>
        <time>2017-07-16T14:01:20.300000Z</time>
      </trkpt>
      <trkpt lat="37.85149542708919" lon="112.03437707209731">
        <ele>1117.8</ele>
        <time>2017-07-16T14:01:23.300000Z</time>
      </trkpt>
      <trkpt lat="37.85129225460938" lon="112.03413227980018">
        <ele>1120.4</ele>
        <time>2017-07-16T14:01:41.300000Z</time>
      </trkpt>
      <trkpt lat="37.851023726262206" lon="112.03387559521455">
        <ele>1114.4</ele>
        <time>2017-07-16T14:02:02.300000Z</time>
      </trkpt>
      <trkpt lat="37.85089038480708" lon="112.03370221383426">
        <ele>1112.3</ele>
        <time>2017-07-16T14:02:11.300000Z</time>
      </trkpt>
      <trkpt lat="37.85082212642791" lon="112.03365542388566">
        <ele>1111.5</ele>
        <time>2017-07-16T14:02:14.300000Z</time>
      </trkpt>
      <trkpt lat="37.850707056494954" lon="112.03344362973804">
        <ele>1110.8</ele>
        <time>2017-07-16T14:02:23.300000Z</time>
      </trkpt>
      <trkpt lat="37.850660249620326" lon="112.03327700347705">
        <ele>1110.8</ele>
        <time>2017-07-16T14:02:29.300000Z</time>
      </trkpt>
      <trkpt lat="37.850428642926836" lon="112.03301356040528">
        <ele>1110.0</ele>
        <time>2017-07-16T14:02:47.300000Z</time>
      </trkpt>
      <trkpt lat="37.850251830930844" lon="112.03275525289881">
        <ele>1112.2</ele>
        <time>2017-07-16T14:03:02.300000Z</time>
      </trkpt>
      <trkpt lat="37.85002845348205" lon="112.03245664947666">
        <ele>1113.9</ele>
        <time>2017-07-16T14:03:17.300000Z</time>
      </trkpt>
      <trkpt lat="37.849881837191354" lon="112.03227841025087">
        <ele>1117.8</ele>
        <time>2017-07-16T14:03:26.300000Z</time>
      </trkpt>
      <trkpt lat="37.84985677236076" lon="112.03220997809315">
        <ele>1118.8</ele>
        <time>2017-07-16T14:03:38.300000Z</time>
      </trkpt>
      <trkpt lat="37.849823535231955" lon="112.03215507178643">
        <ele>1119.09</ele>
        <time>2017-07-16T14:03:59.300000Z</time>
      </trkpt>
      <trkpt lat="37.84983154621996" lon="112.03209664421261">
        <ele>1119.8</ele>
        <time>2017-07-16T14:04:20.300000Z</time>
      </trkpt>
      <trkpt lat="37.84972164262489" lon="112.03199495217908">
        <ele>1120.4</ele>
        <time>2017-07-16T14:04:26.300000Z</time>
      </trkpt>
      <trkpt lat="37.84954163604577" lon="112.03171501587983">
        <ele>1123.9</ele>
        <time>2017-07-16T14:04:38.300000Z</time>
      </trkpt>
      <trkpt lat="37.84939339264534" lon="112.03142804603834">
        <ele>1128.3</ele>
        <time>2017-07-16T14:04:50.300000Z</time>
      </trkpt>
      <trkpt lat="37.84929330308836" lon="112.03130823284592">
        <ele>1129.3</ele>
        <time>2017-07-16T14:04:56.300000Z</time>
      </trkpt>
      <trkpt lat="37.84918828267924" lon="112.03109807924864">
        <ele>1130.5</ele>
        <time>2017-07-16T14:05:05.300000Z</time>
      </trkpt>
      <trkpt lat="37.84905830037627" lon="112.03077973807197">
        <ele>1131.59</ele>
        <time>2017-07-16T14:05:17.300000Z</time>
      </trkpt>
      <trkpt lat="37.84896671537024" lon="112.03062314162607">
        <ele>1131.0</ele>
        <time>2017-07-16T14:05:23.300000Z</time>
      </trkpt>
      <trkpt lat="37.84892157129645" lon="112.03044814806245">
        <ele>1131.0</ele>
        <time>2017-07-16T14:05:29.300000Z</time>
      </trkpt>
      <trkpt lat="37.84891303896647" lon="112.03027964260806">
        <ele>1130.3</ele>
        <time>2017-07-16T14:05:35.300000Z</time>
      </trkpt>
      <trkpt lat="37.84885317937502" lon="112.03013115940239">
        <ele>1129.59</ele>
        <time>2017-07-16T14:05:41.300000Z</time>
      </trkpt>
      <trkpt lat="37.848809627614074" lon="112.03007950423324">
        <ele>1130.09</ele>
        <time>2017-07-16T14:05:44.300000Z</time>
      </trkpt>
      <trkpt lat="37.84847629393002" lon="112.03003626869055">
        <ele>1128.4</ele>
        <time>2017-07-16T14:05:59.300000Z</time>
      </trkpt>
      <trkpt lat="37.848151325572594" lon="112.0300111538547">
        <ele>1129.09</ele>
        <time>2017-07-16T14:06:14.300000Z</time>
      </trkpt>
      <trkpt lat="37.847852878667524" lon="112.03001281260937">
        <ele>1130.59</ele>
        <time>2017-07-16T14:06:26.300000Z</time>
      </trkpt>
      <trkpt lat="37.8476714003629" lon="112.03000120413766">
        <ele>1130.59</ele>
        <time>2017-07-16T14:06:35.300000Z</time>
      </trkpt>
      <trkpt lat="37.84762126607443" lon="112.02997794955904">
        <ele>1132.0</ele>
        <time>2017-07-16T14:06:41.300000Z</time>
      </trkpt>
      <trkpt lat="37.8475415728317" lon="112.02984110059208">
        <ele>1133.3</ele>
        <time>2017-07-16T14:06:53.300000Z</time>
      </trkpt>
      <trkpt lat="37.84755803989193" lon="112.02976617830154">
        <ele>1133.5</ele>
        <time>2017-07-16T14:06:56.300000Z</time>
      </trkpt>
      <trkpt lat="37.84759965535735" lon="112.02972452093456">
        <ele>1131.3</ele>
        <time>2017-07-16T14:06:59.300000Z</time>
      </trkpt>
      <trkpt lat="37.847543194348134" lon="112.02962797022724">
        <ele>1131.5</ele>
        <time>2017-07-16T14:07:06.300000Z</time>
      </trkpt>
      <trkpt lat="37.847473088915706" lon="112.02956279577644">
        <ele>1131.8</ele>
        <time>2017-07-16T14:07:12.300000Z</time>
      </trkpt>
      <trkpt lat="37.84746136541073" lon="112.02947787033366">
        <ele>1132.2</ele>
        <time>2017-07-16T14:07:18.300000Z</time>
      </trkpt>
      <trkpt lat="37.84748621520904" lon="112.02941430760544">
        <ele>1132.59</ele>
        <time>2017-07-16T14:07:21.300000Z</time>
      </trkpt>
      <trkpt lat="37.847492868272184" lon="112.0292509454142">
        <ele>1134.4</ele>
        <time>2017-07-16T14:07:33.300000Z</time>
      </trkpt>
      <trkpt lat="37.847431339395335" lon="112.02922769282894">
        <ele>1136.59</ele>
        <time>2017-07-16T14:07:39.300000Z</time>
      </trkpt>
      <trkpt lat="37.84738451713251" lon="112.02928963498641">
        <ele>1138.5</ele>
        <time>2017-07-16T14:07:45.300000Z</time>
      </trkpt>
      <trkpt lat="37.84734482773593" lon="112.02942784795495">
        <ele>1139.59</ele>
        <time>2017-07-16T14:07:51.600000Z</time>
      </trkpt>
      <trkpt lat="37.847357947829806" lon="112.02960446174995">
        <ele>1141.59</ele>
        <time>2017-07-16T14:08:19.300000Z</time>
      </trkpt>
      <trkpt lat="37.84745784978067" lon="112.0293658975274">
        <ele>1142.09</ele>
        <time>2017-07-16T14:08:37.300000Z</time>
      </trkpt>
      <trkpt lat="37.84735795587884" lon="112.02938619451959">
        <ele>1141.9</ele>
        <time>2017-07-16T14:08:46.300000Z</time>
      </trkpt>
      <trkpt lat="37.84729980130093" lon="112.02953090141156">
        <ele>1140.9</ele>
        <time>2017-07-16T14:09:02.200000Z</time>
      </trkpt>
    </trkseg>
  </trk>
</gpx>