<?xml version="1.0" encoding="UTF-8"?>
<gpx xmlns="http://www.topografix.com/GPX/1/1" xmlns:gpxtpx="http://www.garmin.com/xmlschemas/TrackPointExtension/v1" xmlns:xsi="http://www.w3.org/2001/XMLSchema-instance" xsi:schemaLocation="http://www.topografix.com/GPX/1/1 http://www.topografix.com/GPX/1/1/gpx.xsd" version="1.1" creator="gpx.py -- https://github.com/tkrajina/gpxpy">
  <trk>
    <name>gpx from keep</name>
    <type>Run</type>
    <trkseg>
      <trkpt lat="37.84717142934011" lon="112.02954741539902">
        <ele>1120.0</ele>
        <time>2018-06-13T11:09:46.469000Z</time>
      </trkpt>
      <trkpt lat="37.847117411314436" lon="112.02945059453984">
        <ele>1105.0</ele>
        <time>2018-06-13T11:09:49.869000Z</time>
      </trkpt>
      <trkpt lat="37.847163129742135" lon="112.02941397896201">
        <ele>1112.0</ele>
        <time>2018-06-13T11:09:55.869000Z</time>
      </trkpt>
      <trkpt lat="37.84729361037337" lon="112.02939199284533">
        <ele>1101.0</ele>
        <time>2018-06-13T11:10:04.969000Z</time>
      </trkpt>
      <trkpt lat="37.8473460810333" lon="112.02936131305114">
        <ele>1098.0</ele>
        <time>2018-06-13T11:10:10.969000Z</time>
      </trkpt>
      <trkpt lat="37.847301232596884" lon="112.02898180326227">
        <ele>1098.0</ele>
        <time>2018-06-13T11:10:31.969000Z</time>
      </trkpt>
      <trkpt lat="37.84729298272337" lon="112.02885451335392">
        <ele>1098.0</ele>
        <time>2018-06-13T11:10:34.969000Z</time>
      </trkpt>
      <trkpt lat="37.84732758092436" lon="112.0287254663765">
        <ele>1102.0</ele>
        <time>2018-06-13T11:10:37.969000Z</time>
      </trkpt>
      <trkpt lat="37.8473611594916" lon="112.02866918116888">
        <ele>1102.0</ele>
        <time>2018-06-13T11:10:40.969000Z</time>
      </trkpt>
      <trkpt lat="37.84733070053101" lon="112.02843396402885">
        <ele>1105.0</ele>
        <time>2018-06-13T11:10:52.969000Z</time>
      </trkpt>
      <trkpt lat="37.84734373924185" lon="112.02837195387433">
        <ele>1104.0</ele>
        <time>2018-06-13T11:10:55.969000Z</time>
      </trkpt>
      <trkpt lat="37.8473271175918" lon="112.0282287022923">
        <ele>1103.0</ele>
        <time>2018-06-13T11:11:01.969000Z</time>
      </trkpt>
      <trkpt lat="37.84735513687636" lon="112.0281218927768">
        <ele>1101.0</ele>
        <time>2018-06-13T11:11:04.969000Z</time>
      </trkpt>
      <trkpt lat="37.847363860934806" lon="112.02802234255911">
        <ele>1101.0</ele>
        <time>2018-06-13T11:11:07.969000Z</time>
      </trkpt>
      <trkpt lat="37.84734496170074" lon="112.02793433959576">
        <ele>1101.0</ele>
        <time>2018-06-13T11:11:10.969000Z</time>
      </trkpt>
      <trkpt lat="37.847360013950855" lon="112.02784954952953">
        <ele>1103.0</ele>
        <time>2018-06-13T11:11:13.969000Z</time>
      </trkpt>
      <trkpt lat="37.847436267965605" lon="112.02766783794638">
        <ele>1103.0</ele>
        <time>2018-06-13T11:11:19.969000Z</time>
      </trkpt>
      <trkpt lat="37.84755531329484" lon="112.02733854838489">
        <ele>1100.0</ele>
        <time>2018-06-13T11:11:31.969000Z</time>
      </trkpt>
      <trkpt lat="37.84767421181231" lon="112.0270158963016">
        <ele>1102.0</ele>
        <time>2018-06-13T11:11:43.969000Z</time>
      </trkpt>
      <trkpt lat="37.8477342496727" lon="112.02683883109499">
        <ele>1101.0</ele>
        <time>2018-06-13T11:11:49.969000Z</time>
      </trkpt>
      <trkpt lat="37.84780903257746" lon="112.02670131415978">
        <ele>1101.0</ele>
        <time>2018-06-13T11:11:55.969000Z</time>
      </trkpt>
      <trkpt lat="37.8478399665836" lon="112.02660864099191">
        <ele>1101.0</ele>
        <time>2018-06-13T11:11:58.969000Z</time>
      </trkpt>
      <trkpt lat="37.84786160645721" lon="112.02651207680015">
        <ele>1102.0</ele>
        <time>2018-06-13T11:12:01.969000Z</time>
      </trkpt>
      <trkpt lat="37.84792254068359" lon="112.02645234377273">
        <ele>1105.0</ele>
        <time>2018-06-13T11:12:04.969000Z</time>
      </trkpt>
      <trkpt lat="37.84817154911138" lon="112.02645417116649">
        <ele>1104.0</ele>
        <time>2018-06-13T11:12:13.969000Z</time>
      </trkpt>
      <trkpt lat="37.84823759247409" lon="112.02646216892694">
        <ele>1108.0</ele>
        <time>2018-06-13T11:12:16.969000Z</time>
      </trkpt>
      <trkpt lat="37.84831236679052" lon="112.02647245163081">
        <ele>1107.0</ele>
        <time>2018-06-13T11:12:19.969000Z</time>
      </trkpt>
      <trkpt lat="37.84864418895397" lon="112.02652308388738">
        <ele>1108.0</ele>
        <time>2018-06-13T11:12:31.969000Z</time>
      </trkpt>
      <trkpt lat="37.84887679607564" lon="112.0265913318584">
        <ele>1109.0</ele>
        <time>2018-06-13T11:12:40.969000Z</time>
      </trkpt>
      <trkpt lat="37.84893627971122" lon="112.02657272891963">
        <ele>1110.0</ele>
        <time>2018-06-13T11:12:43.969000Z</time>
      </trkpt>
      <trkpt lat="37.848928842112315" lon="112.02652035689049">
        <ele>1109.0</ele>
        <time>2018-06-13T11:12:46.969000Z</time>
      </trkpt>
      <trkpt lat="37.84892275585627" lon="112.02645429699395">
        <ele>1108.0</ele>
        <time>2018-06-13T11:12:49.869000Z</time>
      </trkpt>
      <trkpt lat="37.84896523901641" lon="112.02635669235255">
        <ele>1108.0</ele>
        <time>2018-06-13T11:12:52.969000Z</time>
      </trkpt>
      <trkpt lat="37.8490173371047" lon="112.02626776340853">
        <ele>1105.0</ele>
        <time>2018-06-13T11:12:55.969000Z</time>
      </trkpt>
      <trkpt lat="37.849123233526804" lon="112.02598390549288">
        <ele>1104.0</ele>
        <time>2018-06-13T11:13:04.969000Z</time>
      </trkpt>
      <trkpt lat="37.84922304566621" lon="112.02569522635814">
        <ele>1106.0</ele>
        <time>2018-06-13T11:13:13.869000Z</time>
      </trkpt>
      <trkpt lat="37.84925672594401" lon="112.0256048683222">
        <ele>1104.0</ele>
        <time>2018-06-13T11:13:16.969000Z</time>
      </trkpt>
      <trkpt lat="37.84927851935202" lon="112.02547903000084">
        <ele>1105.0</ele>
        <time>2018-06-13T11:13:22.969000Z</time>
      </trkpt>
      <trkpt lat="37.84922372086149" lon="112.02538164021261">
        <ele>1107.0</ele>
        <time>2018-06-13T11:13:28.969000Z</time>
      </trkpt>
      <trkpt lat="37.84914260706146" lon="112.0253174727305">
        <ele>1105.0</ele>
        <time>2018-06-13T11:13:31.869000Z</time>
      </trkpt>
      <trkpt lat="37.84909133683261" lon="112.02525391291171">
        <ele>1105.0</ele>
        <time>2018-06-13T11:13:34.969000Z</time>
      </trkpt>
      <trkpt lat="37.849050974198896" lon="112.02518394527611">
        <ele>1101.0</ele>
        <time>2018-06-13T11:13:37.969000Z</time>
      </trkpt>
      <trkpt lat="37.849031425606725" lon="112.0251243382763">
        <ele>1105.0</ele>
        <time>2018-06-13T11:13:40.969000Z</time>
      </trkpt>
      <trkpt lat="37.848965278796214" lon="112.0249277830266">
        <ele>1107.0</ele>
        <time>2018-06-13T11:13:49.969000Z</time>
      </trkpt>
      <trkpt lat="37.84903992885818" lon="112.02465405037832">
        <ele>1107.0</ele>
        <time>2018-06-13T11:13:58.969000Z</time>
      </trkpt>
      <trkpt lat="37.84906188471741" lon="112.02455230980816">
        <ele>1109.0</ele>
        <time>2018-06-13T11:14:01.969000Z</time>
      </trkpt>
      <trkpt lat="37.84907001449725" lon="112.02444895235537">
        <ele>1107.0</ele>
        <time>2018-06-13T11:14:04.969000Z</time>
      </trkpt>
      <trkpt lat="37.84906437542643" lon="112.02435001497412">
        <ele>1105.0</ele>
        <time>2018-06-13T11:14:07.969000Z</time>
      </trkpt>
      <trkpt lat="37.84902196840108" lon="112.0241319079573">
        <ele>1110.0</ele>
        <time>2018-06-13T11:14:13.969000Z</time>
      </trkpt>
      <trkpt lat="37.84902826520827" lon="112.0240324150744">
        <ele>1110.0</ele>
        <time>2018-06-13T11:14:16.969000Z</time>
      </trkpt>
      <trkpt lat="37.849061672468856" lon="112.02361545952492">
        <ele>1104.0</ele>
        <time>2018-06-13T11:14:28.969000Z</time>
      </trkpt>
      <trkpt lat="37.849068245058454" lon="112.02344066577731">
        <ele>1102.0</ele>
        <time>2018-06-13T11:14:34.969000Z</time>
      </trkpt>
      <trkpt lat="37.84904643989118" lon="112.02303698974708">
        <ele>1098.0</ele>
        <time>2018-06-13T11:14:49.969000Z</time>
      </trkpt>
      <trkpt lat="37.849042367624136" lon="112.0228629558719">
        <ele>1095.0</ele>
        <time>2018-06-13T11:14:55.969000Z</time>
      </trkpt>
      <trkpt lat="37.84906152901774" lon="112.02269844515213">
        <ele>1097.0</ele>
        <time>2018-06-13T11:15:01.969000Z</time>
      </trkpt>
      <trkpt lat="37.84906691336776" lon="112.02228740320773">
        <ele>1099.0</ele>
        <time>2018-06-13T11:15:13.969000Z</time>
      </trkpt>
      <trkpt lat="37.84907225627298" lon="112.0219212218002">
        <ele>1102.0</ele>
        <time>2018-06-13T11:15:25.969000Z</time>
      </trkpt>
      <trkpt lat="37.84907773535584" lon="112.02147497304277">
        <ele>1103.0</ele>
        <time>2018-06-13T11:15:40.969000Z</time>
      </trkpt>
      <trkpt lat="37.849067028937895" lon="112.0212002343082">
        <ele>1103.0</ele>
        <time>2018-06-13T11:15:49.969000Z</time>
      </trkpt>
      <trkpt lat="37.84908281819618" lon="112.02103620386944">
        <ele>1104.0</ele>
        <time>2018-06-13T11:15:55.969000Z</time>
      </trkpt>
      <trkpt lat="37.84906023741485" lon="112.02084248732773">
        <ele>1111.0</ele>
        <time>2018-06-13T11:16:01.969000Z</time>
      </trkpt>
      <trkpt lat="37.84907642622963" lon="112.0203983612492">
        <ele>1106.0</ele>
        <time>2018-06-13T11:16:16.969000Z</time>
      </trkpt>
      <trkpt lat="37.84909462931562" lon="112.02012759327236">
        <ele>1110.0</ele>
        <time>2018-06-13T11:16:25.969000Z</time>
      </trkpt>
      <trkpt lat="37.849074307614025" lon="112.01988853235174">
        <ele>1104.0</ele>
        <time>2018-06-13T11:16:35.069000Z</time>
      </trkpt>
      <trkpt lat="37.84908748866095" lon="112.01953239089524">
        <ele>1103.0</ele>
        <time>2018-06-13T11:16:46.969000Z</time>
      </trkpt>
      <trkpt lat="37.849136842339675" lon="112.01911728196254">
        <ele>1105.0</ele>
        <time>2018-06-13T11:17:01.969000Z</time>
      </trkpt>
      <trkpt lat="37.84917371716767" lon="112.01883310928946">
        <ele>1105.0</ele>
        <time>2018-06-13T11:17:13.969000Z</time>
      </trkpt>
      <trkpt lat="37.84916235334859" lon="112.01843268304964">
        <ele>1106.0</ele>
        <time>2018-06-13T11:17:22.969000Z</time>
      </trkpt>
      <trkpt lat="37.84915256557253" lon="112.0183287020039">
        <ele>1107.0</ele>
        <time>2018-06-13T11:17:25.969000Z</time>
      </trkpt>
      <trkpt lat="37.84920621217471" lon="112.01788436095369">
        <ele>1108.0</ele>
        <time>2018-06-13T11:17:40.969000Z</time>
      </trkpt>
      <trkpt lat="37.849266052930545" lon="112.01754017260588">
        <ele>1110.0</ele>
        <time>2018-06-13T11:17:52.969000Z</time>
      </trkpt>
      <trkpt lat="37.849256040509324" lon="112.01733793833102">
        <ele>1111.0</ele>
        <time>2018-06-13T11:17:58.969000Z</time>
      </trkpt>
      <trkpt lat="37.849288264518194" lon="112.01697483240923">
        <ele>1109.0</ele>
        <time>2018-06-13T11:18:13.969000Z</time>
      </trkpt>
      <trkpt lat="37.849309533852654" lon="112.01674474973585">
        <ele>1108.0</ele>
        <time>2018-06-13T11:18:25.969000Z</time>
      </trkpt>
      <trkpt lat="37.84936917596214" lon="112.01637759035629">
        <ele>1105.0</ele>
        <time>2018-06-13T11:18:46.969000Z</time>
      </trkpt>
      <trkpt lat="37.849394855459636" lon="112.01631540423261">
        <ele>1103.0</ele>
        <time>2018-06-13T11:18:49.969000Z</time>
      </trkpt>
      <trkpt lat="37.84941529855269" lon="112.01589958880167">
        <ele>1107.0</ele>
        <time>2018-06-13T11:19:04.969000Z</time>
      </trkpt>
      <trkpt lat="37.84948361376772" lon="112.01553757248958">
        <ele>1108.0</ele>
        <time>2018-06-13T11:19:16.969000Z</time>
      </trkpt>
      <trkpt lat="37.849523890270156" lon="112.01539941599871">
        <ele>1112.0</ele>
        <time>2018-06-13T11:19:22.969000Z</time>
      </trkpt>
      <trkpt lat="37.84956904975618" lon="112.01497657727563">
        <ele>1112.0</ele>
        <time>2018-06-13T11:19:37.969000Z</time>
      </trkpt>
      <trkpt lat="37.849625217668624" lon="112.01459510482327">
        <ele>1109.0</ele>
        <time>2018-06-13T11:19:52.969000Z</time>
      </trkpt>
      <trkpt lat="37.8495984248783" lon="112.01419336943498">
        <ele>1106.0</ele>
        <time>2018-06-13T11:20:04.969000Z</time>
      </trkpt>
      <trkpt lat="37.84966004361841" lon="112.01380514425445">
        <ele>1107.0</ele>
        <time>2018-06-13T11:20:19.969000Z</time>
      </trkpt>
      <trkpt lat="37.84967189084924" lon="112.01355399250818">
        <ele>1106.0</ele>
        <time>2018-06-13T11:20:28.969000Z</time>
      </trkpt>
      <trkpt lat="37.849694370792534" lon="112.0133793478582">
        <ele>1109.0</ele>
        <time>2018-06-13T11:20:34.969000Z</time>
      </trkpt>
      <trkpt lat="37.84968081750379" lon="112.01318713592421">
        <ele>1109.0</ele>
        <time>2018-06-13T11:20:40.969000Z</time>
      </trkpt>
      <trkpt lat="37.84972417322717" lon="112.01283055093828">
        <ele>1109.0</ele>
        <time>2018-06-13T11:20:52.969000Z</time>
      </trkpt>
      <trkpt lat="37.849735725537336" lon="112.01240179213971">
        <ele>1107.0</ele>
        <time>2018-06-13T11:21:07.969000Z</time>
      </trkpt>
      <trkpt lat="37.84979042735498" lon="112.01206359429429">
        <ele>1108.0</ele>
        <time>2018-06-13T11:21:19.969000Z</time>
      </trkpt>
      <trkpt lat="37.84981915425081" lon="112.01170161241005">
        <ele>1107.0</ele>
        <time>2018-06-13T11:21:31.969000Z</time>
      </trkpt>
      <trkpt lat="37.849805835286155" lon="112.01133774575658">
        <ele>1109.0</ele>
        <time>2018-06-13T11:21:43.969000Z</time>
      </trkpt>
      <trkpt lat="37.84983452698512" lon="112.01108200879288">
        <ele>1109.0</ele>
        <time>2018-06-13T11:21:52.969000Z</time>
      </trkpt>
      <trkpt lat="37.84991917789575" lon="112.01071029513244">
        <ele>1115.0</ele>
        <time>2018-06-13T11:22:07.969000Z</time>
      </trkpt>
      <trkpt lat="37.84990991778136" lon="112.01062973827909">
        <ele>1115.0</ele>
        <time>2018-06-13T11:22:10.969000Z</time>
      </trkpt>
      <trkpt lat="37.84995239550432" lon="112.01048483730436">
        <ele>1112.0</ele>
        <time>2018-06-13T11:22:16.969000Z</time>
      </trkpt>
      <trkpt lat="37.849941188372455" lon="112.01014314533481">
        <ele>1115.0</ele>
        <time>2018-06-13T11:22:28.969000Z</time>
      </trkpt>
      <trkpt lat="37.8499221904434" lon="112.0097100007922">
        <ele>1112.0</ele>
        <time>2018-06-13T11:22:40.969000Z</time>
      </trkpt>
      <trkpt lat="37.849866952866456" lon="112.00936948596066">
        <ele>1117.0</ele>
        <time>2018-06-13T11:22:52.969000Z</time>
      </trkpt>
      <trkpt lat="37.849836536677195" lon="112.00928731160029">
        <ele>1117.0</ele>
        <time>2018-06-13T11:22:56.069000Z</time>
      </trkpt>
      <trkpt lat="37.84974114036222" lon="112.00915946074976">
        <ele>1118.0</ele>
        <time>2018-06-13T11:23:01.969000Z</time>
      </trkpt>
      <trkpt lat="37.84963542387108" lon="112.00894321650075">
        <ele>1116.0</ele>
        <time>2018-06-13T11:23:10.969000Z</time>
      </trkpt>
      <trkpt lat="37.84944877097138" lon="112.00866426855931">
        <ele>1119.0</ele>
        <time>2018-06-13T11:23:22.969000Z</time>
      </trkpt>
      <trkpt lat="37.8492851661948" lon="112.00839018485198">
        <ele>1116.0</ele>
        <time>2018-06-13T11:23:34.969000Z</time>
      </trkpt>
      <trkpt lat="37.84919447407191" lon="112.00823178942234">
        <ele>1111.0</ele>
        <time>2018-06-13T11:23:40.969000Z</time>
      </trkpt>
      <trkpt lat="37.849021125272266" lon="112.0079706842791">
        <ele>1114.0</ele>
        <time>2018-06-13T11:23:52.969000Z</time>
      </trkpt>
      <trkpt lat="37.84889234637495" lon="112.00781599271801">
        <ele>1119.0</ele>
        <time>2018-06-13T11:24:01.969000Z</time>
      </trkpt>
      <trkpt lat="37.84868567771027" lon="112.00750245236152">
        <ele>1121.0</ele>
        <time>2018-06-13T11:24:16.969000Z</time>
      </trkpt>
      <trkpt lat="37.84856928387694" lon="112.00730152601513">
        <ele>1120.0</ele>
        <time>2018-06-13T11:24:25.969000Z</time>
      </trkpt>
      <trkpt lat="37.84847304906407" lon="112.00718931581686">
        <ele>1119.0</ele>
        <time>2018-06-13T11:24:31.969000Z</time>
      </trkpt>
      <trkpt lat="37.848428705759794" lon="112.00712411140984">
        <ele>1122.0</ele>
        <time>2018-06-13T11:24:34.969000Z</time>
      </trkpt>
      <trkpt lat="37.8482610265076" lon="112.00690600692054">
        <ele>1121.0</ele>
        <time>2018-06-13T11:24:46.969000Z</time>
      </trkpt>
      <trkpt lat="37.84814717693714" lon="112.00687196118758">
        <ele>1122.0</ele>
        <time>2018-06-13T11:24:52.969000Z</time>
      </trkpt>
      <trkpt lat="37.84786617403525" lon="112.0068236941238">
        <ele>1120.0</ele>
        <time>2018-06-13T11:25:04.969000Z</time>
      </trkpt>
      <trkpt lat="37.84759552293824" lon="112.0068068818473">
        <ele>1120.0</ele>
        <time>2018-06-13T11:25:16.969000Z</time>
      </trkpt>
      <trkpt lat="37.847439511393624" lon="112.00676775035356">
        <ele>1123.0</ele>
        <time>2018-06-13T11:25:22.969000Z</time>
      </trkpt>
      <trkpt lat="37.84714585252985" lon="112.00675179192204">
        <ele>1123.0</ele>
        <time>2018-06-13T11:25:37.869000Z</time>
      </trkpt>
      <trkpt lat="37.84703337494722" lon="112.00671261018137">
        <ele>1121.0</ele>
        <time>2018-06-13T11:25:43.969000Z</time>
      </trkpt>
      <trkpt lat="37.84683667350076" lon="112.00670837092424">
        <ele>1123.0</ele>
        <time>2018-06-13T11:25:49.969000Z</time>
      </trkpt>
      <trkpt lat="37.8465652708756" lon="112.00665238661252">
        <ele>1128.0</ele>
        <time>2018-06-13T11:26:01.969000Z</time>
      </trkpt>
      <trkpt lat="37.84638263886148" lon="112.00666565364517">
        <ele>1127.0</ele>
        <time>2018-06-13T11:26:10.969000Z</time>
      </trkpt>
      <trkpt lat="37.84610951357799" lon="112.00660973363314">
        <ele>1128.0</ele>
        <time>2018-06-13T11:26:28.969000Z</time>
      </trkpt>
      <trkpt lat="37.84592358813282" lon="112.00650659190526">
        <ele>1128.0</ele>
        <time>2018-06-13T11:26:40.969000Z</time>
      </trkpt>
      <trkpt lat="37.845661665072235" lon="112.00642597401719">
        <ele>1131.0</ele>
        <time>2018-06-13T11:26:52.969000Z</time>
      </trkpt>
      <trkpt lat="37.84533962775469" lon="112.00633194450643">
        <ele>1131.0</ele>
        <time>2018-06-13T11:27:07.969000Z</time>
      </trkpt>
      <trkpt lat="37.84503191929921" lon="112.00625494291222">
        <ele>1132.0</ele>
        <time>2018-06-13T11:27:19.969000Z</time>
      </trkpt>
      <trkpt lat="37.84472210499272" lon="112.00615631690137">
        <ele>1128.0</ele>
        <time>2018-06-13T11:27:34.969000Z</time>
      </trkpt>
      <trkpt lat="37.844616164306565" lon="112.00610875511461">
        <ele>1129.0</ele>
        <time>2018-06-13T11:27:43.969000Z</time>
      </trkpt>
      <trkpt lat="37.844416271168335" lon="112.00611946292608">
        <ele>1128.0</ele>
        <time>2018-06-13T11:27:58.969000Z</time>
      </trkpt>
      <trkpt lat="37.844382765654885" lon="112.00616566045295">
        <ele>1131.0</ele>
        <time>2018-06-13T11:28:01.969000Z</time>
      </trkpt>
      <trkpt lat="37.844254803757245" lon="112.00628206656084">
        <ele>1133.0</ele>
        <time>2018-06-13T11:28:16.969000Z</time>
      </trkpt>
      <trkpt lat="37.84414560938239" lon="112.00632478853898">
        <ele>1135.0</ele>
        <time>2018-06-13T11:28:22.969000Z</time>
      </trkpt>
      <trkpt lat="37.84405315090035" lon="112.006396161422">
        <ele>1134.0</ele>
        <time>2018-06-13T11:28:28.969000Z</time>
      </trkpt>
      <trkpt lat="37.8439092722954" lon="112.00642429084729">
        <ele>1135.0</ele>
        <time>2018-06-13T11:28:40.969000Z</time>
      </trkpt>
      <trkpt lat="37.84379522087346" lon="112.0065491879198">
        <ele>1136.0</ele>
        <time>2018-06-13T11:28:52.969000Z</time>
      </trkpt>
      <trkpt lat="37.843602119155555" lon="112.00670734293443">
        <ele>1136.0</ele>
        <time>2018-06-13T11:29:04.969000Z</time>
      </trkpt>
      <trkpt lat="37.84354956945207" lon="112.00677006147221">
        <ele>1136.0</ele>
        <time>2018-06-13T11:29:07.969000Z</time>
      </trkpt>
      <trkpt lat="37.843414257107014" lon="112.00683711492859">
        <ele>1136.0</ele>
        <time>2018-06-13T11:29:13.969000Z</time>
      </trkpt>
      <trkpt lat="37.843367161062844" lon="112.00689064232134">
        <ele>1137.0</ele>
        <time>2018-06-13T11:29:16.969000Z</time>
      </trkpt>
      <trkpt lat="37.843074057677384" lon="112.00710260229813">
        <ele>1133.0</ele>
        <time>2018-06-13T11:29:31.969000Z</time>
      </trkpt>
      <trkpt lat="37.84288155266088" lon="112.0072429178221">
        <ele>1134.0</ele>
        <time>2018-06-13T11:29:40.969000Z</time>
      </trkpt>
      <trkpt lat="37.84264922542695" lon="112.00745433102698">
        <ele>1132.0</ele>
        <time>2018-06-13T11:29:52.969000Z</time>
      </trkpt>
      <trkpt lat="37.84237996120411" lon="112.00767899476098">
        <ele>1134.0</ele>
        <time>2018-06-13T11:30:07.969000Z</time>
      </trkpt>
      <trkpt lat="37.84213648607853" lon="112.00782146687379">
        <ele>1134.0</ele>
        <time>2018-06-13T11:30:19.969000Z</time>
      </trkpt>
      <trkpt lat="37.84196656486456" lon="112.00797910990605">
        <ele>1135.0</ele>
        <time>2018-06-13T11:30:31.969000Z</time>
      </trkpt>
      <trkpt lat="37.841917763583446" lon="112.00801071566585">
        <ele>1135.0</ele>
        <time>2018-06-13T11:30:34.969000Z</time>
      </trkpt>
      <trkpt lat="37.84169731587923" lon="112.00809076604634">
        <ele>1137.0</ele>
        <time>2018-06-13T11:30:43.969000Z</time>
      </trkpt>
      <trkpt lat="37.841441465831764" lon="112.0081842701213">
        <ele>1140.0</ele>
        <time>2018-06-13T11:30:55.969000Z</time>
      </trkpt>
      <trkpt lat="37.84137330978405" lon="112.00819519626506">
        <ele>1140.0</ele>
        <time>2018-06-13T11:30:58.969000Z</time>
      </trkpt>
      <trkpt lat="37.84104457147222" lon="112.00815574144988">
        <ele>1141.0</ele>
        <time>2018-06-13T11:31:13.969000Z</time>
      </trkpt>
      <trkpt lat="37.84098041504432" lon="112.00813042317779">
        <ele>1142.0</ele>
        <time>2018-06-13T11:31:16.969000Z</time>
      </trkpt>
      <trkpt lat="37.84067804968081" lon="112.00812621881958">
        <ele>1143.0</ele>
        <time>2018-06-13T11:31:28.969000Z</time>
      </trkpt>
      <trkpt lat="37.84040775571681" lon="112.00806174434165">
        <ele>1142.0</ele>
        <time>2018-06-13T11:31:40.969000Z</time>
      </trkpt>
      <trkpt lat="37.84020973453994" lon="112.00805012734051">
        <ele>1142.0</ele>
        <time>2018-06-13T11:31:49.969000Z</time>
      </trkpt>
      <trkpt lat="37.84015201510668" lon="112.00802661666624">
        <ele>1142.0</ele>
        <time>2018-06-13T11:31:52.969000Z</time>
      </trkpt>
      <trkpt lat="37.83984798188807" lon="112.00808260853589">
        <ele>1145.0</ele>
        <time>2018-06-13T11:32:07.969000Z</time>
      </trkpt>
      <trkpt lat="37.83977982938794" lon="112.00810072790888">
        <ele>1144.0</ele>
        <time>2018-06-13T11:32:10.969000Z</time>
      </trkpt>
      <trkpt lat="37.83950981651133" lon="112.0081207635937">
        <ele>1147.0</ele>
        <time>2018-06-13T11:32:22.969000Z</time>
      </trkpt>
      <trkpt lat="37.83922139861956" lon="112.0081259340344">
        <ele>1150.0</ele>
        <time>2018-06-13T11:32:34.969000Z</time>
      </trkpt>
      <trkpt lat="37.83914828174668" lon="112.00817135606147">
        <ele>1149.0</ele>
        <time>2018-06-13T11:32:37.969000Z</time>
      </trkpt>
      <trkpt lat="37.83887002088334" lon="112.00822815593895">
        <ele>1148.0</ele>
        <time>2018-06-13T11:32:49.969000Z</time>
      </trkpt>
      <trkpt lat="37.83879993632836" lon="112.00822752480153">
        <ele>1149.0</ele>
        <time>2018-06-13T11:32:52.969000Z</time>
      </trkpt>
      <trkpt lat="37.83852642592909" lon="112.00827922961376">
        <ele>1154.0</ele>
        <time>2018-06-13T11:33:04.969000Z</time>
      </trkpt>
      <trkpt lat="37.83834646697474" lon="112.00820307887658">
        <ele>1161.0</ele>
        <time>2018-06-13T11:33:13.869000Z</time>
      </trkpt>
      <trkpt lat="37.83825316755671" lon="112.00819254762662">
        <ele>1157.0</ele>
        <time>2018-06-13T11:33:19.969000Z</time>
      </trkpt>
      <trkpt lat="37.838101939868025" lon="112.00813742092934">
        <ele>1157.0</ele>
        <time>2018-06-13T11:33:25.969000Z</time>
      </trkpt>
      <trkpt lat="37.83794892348344" lon="112.00813662823484">
        <ele>1151.0</ele>
        <time>2018-06-13T11:33:31.969000Z</time>
      </trkpt>
      <trkpt lat="37.837678173913424" lon="112.00803907608802">
        <ele>1148.0</ele>
        <time>2018-06-13T11:33:43.969000Z</time>
      </trkpt>
      <trkpt lat="37.83737999098114" lon="112.00795206970118">
        <ele>1147.0</ele>
        <time>2018-06-13T11:33:58.969000Z</time>
      </trkpt>
      <trkpt lat="37.83723102054764" lon="112.00786774878931">
        <ele>1147.0</ele>
        <time>2018-06-13T11:34:04.969000Z</time>
      </trkpt>
      <trkpt lat="37.83700665494477" lon="112.00780749696514">
        <ele>1145.0</ele>
        <time>2018-06-13T11:34:13.969000Z</time>
      </trkpt>
      <trkpt lat="37.836762686904606" lon="112.0076926887497">
        <ele>1152.0</ele>
        <time>2018-06-13T11:34:25.969000Z</time>
      </trkpt>
      <trkpt lat="37.83655077313417" lon="112.00762267589847">
        <ele>1153.0</ele>
        <time>2018-06-13T11:34:34.969000Z</time>
      </trkpt>
      <trkpt lat="37.83626608670754" lon="112.00753032124263">
        <ele>1153.0</ele>
        <time>2018-06-13T11:34:46.869000Z</time>
      </trkpt>
      <trkpt lat="37.836067716180665" lon="112.00747996695647">
        <ele>1154.0</ele>
        <time>2018-06-13T11:34:55.969000Z</time>
      </trkpt>
      <trkpt lat="37.835795431707794" lon="112.00738764786732">
        <ele>1158.0</ele>
        <time>2018-06-13T11:35:07.969000Z</time>
      </trkpt>
      <trkpt lat="37.83572236801629" lon="112.0073653119802">
        <ele>1159.0</ele>
        <time>2018-06-13T11:35:10.969000Z</time>
      </trkpt>
      <trkpt lat="37.83558930520831" lon="112.00736339805923">
        <ele>1155.0</ele>
        <time>2018-06-13T11:35:16.969000Z</time>
      </trkpt>
      <trkpt lat="37.835515122132115" lon="112.00734099767293">
        <ele>1154.0</ele>
        <time>2018-06-13T11:35:19.969000Z</time>
      </trkpt>
      <trkpt lat="37.835452827556374" lon="112.0072994891817">
        <ele>1153.0</ele>
        <time>2018-06-13T11:35:22.969000Z</time>
      </trkpt>
      <trkpt lat="37.835310089959194" lon="112.00697404849154">
        <ele>1149.0</ele>
        <time>2018-06-13T11:35:34.969000Z</time>
      </trkpt>
      <trkpt lat="37.835245390143974" lon="112.00692594059313">
        <ele>1151.0</ele>
        <time>2018-06-13T11:35:37.969000Z</time>
      </trkpt>
      <trkpt lat="37.83510601995609" lon="112.00689811504616">
        <ele>1151.0</ele>
        <time>2018-06-13T11:35:43.969000Z</time>
      </trkpt>
      <trkpt lat="37.83488017718268" lon="112.00693625601147">
        <ele>1150.0</ele>
        <time>2018-06-13T11:35:52.969000Z</time>
      </trkpt>
      <trkpt lat="37.83469081328532" lon="112.00702413017356">
        <ele>1160.0</ele>
        <time>2018-06-13T11:36:04.969000Z</time>
      </trkpt>
      <trkpt lat="37.8346425539956" lon="112.00701278279429">
        <ele>1163.0</ele>
        <time>2018-06-13T11:36:07.969000Z</time>
      </trkpt>
      <trkpt lat="37.83456213835291" lon="112.006957918929">
        <ele>1164.0</ele>
        <time>2018-06-13T11:36:13.969000Z</time>
      </trkpt>
      <trkpt lat="37.83440977995609" lon="112.0069184714858">
        <ele>1161.0</ele>
        <time>2018-06-13T11:36:25.869000Z</time>
      </trkpt>
      <trkpt lat="37.83426912382136" lon="112.00677095840693">
        <ele>1161.0</ele>
        <time>2018-06-13T11:36:37.969000Z</time>
      </trkpt>
      <trkpt lat="37.834189856630395" lon="112.00678238685515">
        <ele>1159.0</ele>
        <time>2018-06-13T11:36:43.969000Z</time>
      </trkpt>
      <trkpt lat="37.83414679944535" lon="112.00678586107153">
        <ele>1159.0</ele>
        <time>2018-06-13T11:36:46.969000Z</time>
      </trkpt>
      <trkpt lat="37.833985401082145" lon="112.00677786864568">
        <ele>1156.0</ele>
        <time>2018-06-13T11:36:58.969000Z</time>
      </trkpt>
      <trkpt lat="37.83392842936666" lon="112.00675396345882">
        <ele>1161.0</ele>
        <time>2018-06-13T11:37:04.969000Z</time>
      </trkpt>
      <trkpt lat="37.83378326736927" lon="112.0066845585888">
        <ele>1160.0</ele>
        <time>2018-06-13T11:37:19.969000Z</time>
      </trkpt>
      <trkpt lat="37.833648023869124" lon="112.00666097703011">
        <ele>1163.0</ele>
        <time>2018-06-13T11:37:28.969000Z</time>
      </trkpt>
      <trkpt lat="37.833493772018656" lon="112.00658368174105">
        <ele>1167.0</ele>
        <time>2018-06-13T11:37:40.969000Z</time>
      </trkpt>
      <trkpt lat="37.83319168528908" lon="112.00652612431139">
        <ele>1167.0</ele>
        <time>2018-06-13T11:38:01.869000Z</time>
      </trkpt>
      <trkpt lat="37.8329819772788" lon="112.00643045934149">
        <ele>1165.0</ele>
        <time>2018-06-13T11:38:16.969000Z</time>
      </trkpt>
      <trkpt lat="37.83291730122595" lon="112.00638776715545">
        <ele>1169.0</ele>
        <time>2018-06-13T11:38:22.969000Z</time>
      </trkpt>
      <trkpt lat="37.83275653025547" lon="112.00633587761368">
        <ele>1167.0</ele>
        <time>2018-06-13T11:38:34.969000Z</time>
      </trkpt>
      <trkpt lat="37.83246339078883" lon="112.0061961623592">
        <ele>1164.0</ele>
        <time>2018-06-13T11:38:58.969000Z</time>
      </trkpt>
      <trkpt lat="37.832392354632404" lon="112.00618049287107">
        <ele>1167.0</ele>
        <time>2018-06-13T11:39:04.969000Z</time>
      </trkpt>
      <trkpt lat="37.83234849775504" lon="112.00614860157945">
        <ele>1167.0</ele>
        <time>2018-06-13T11:39:07.969000Z</time>
      </trkpt>
      <trkpt lat="37.83223376314505" lon="112.00613888411588">
        <ele>1167.0</ele>
        <time>2018-06-13T11:39:16.969000Z</time>
      </trkpt>
      <trkpt lat="37.83213290481585" lon="112.00611591984236">
        <ele>1163.0</ele>
        <time>2018-06-13T11:39:25.969000Z</time>
      </trkpt>
      <trkpt lat="37.831883737685835" lon="112.00615136006762">
        <ele>1165.0</ele>
        <time>2018-06-13T11:39:43.969000Z</time>
      </trkpt>
      <trkpt lat="37.83179644078308" lon="112.00612974572014">
        <ele>1163.0</ele>
        <time>2018-06-13T11:39:49.969000Z</time>
      </trkpt>
      <trkpt lat="37.8316552368458" lon="112.00617111989378">
        <ele>1164.0</ele>
        <time>2018-06-13T11:40:01.969000Z</time>
      </trkpt>
      <trkpt lat="37.831561951805405" lon="112.00615599368071">
        <ele>1162.0</ele>
        <time>2018-06-13T11:40:07.969000Z</time>
      </trkpt>
      <trkpt lat="37.83142645989903" lon="112.00619250161591">
        <ele>1166.0</ele>
        <time>2018-06-13T11:40:16.969000Z</time>
      </trkpt>
      <trkpt lat="37.83121787997878" lon="112.00617360480614">
        <ele>1165.0</ele>
        <time>2018-06-13T11:40:31.969000Z</time>
      </trkpt>
      <trkpt lat="37.83103518928082" lon="112.00620714496975">
        <ele>1164.0</ele>
        <time>2018-06-13T11:40:46.969000Z</time>
      </trkpt>
      <trkpt lat="37.83091269890764" lon="112.0061598553938">
        <ele>1162.0</ele>
        <time>2018-06-13T11:40:58.969000Z</time>
      </trkpt>
      <trkpt lat="37.8307833923312" lon="112.00621474365096">
        <ele>1163.0</ele>
        <time>2018-06-13T11:41:07.969000Z</time>
      </trkpt>
      <trkpt lat="37.83049688567379" lon="112.00621639965604">
        <ele>1160.0</ele>
        <time>2018-06-13T11:41:22.969000Z</time>
      </trkpt>
      <trkpt lat="37.83018657891608" lon="112.00619291969873">
        <ele>1160.0</ele>
        <time>2018-06-13T11:41:37.969000Z</time>
      </trkpt>
      <trkpt lat="37.82984641056667" lon="112.00617539011661">
        <ele>1165.0</ele>
        <time>2018-06-13T11:41:52.969000Z</time>
      </trkpt>
      <trkpt lat="37.82973685843035" lon="112.00615648150624">
        <ele>1165.0</ele>
        <time>2018-06-13T11:41:58.969000Z</time>
      </trkpt>
      <trkpt lat="37.82954742127441" lon="112.00618159790217">
        <ele>1165.0</ele>
        <time>2018-06-13T11:42:07.969000Z</time>
      </trkpt>
      <trkpt lat="37.82926604897162" lon="112.00618654197474">
        <ele>1166.0</ele>
        <time>2018-06-13T11:42:22.969000Z</time>
      </trkpt>
      <trkpt lat="37.828981692922824" lon="112.00619495546103">
        <ele>1168.0</ele>
        <time>2018-06-13T11:42:34.969000Z</time>
      </trkpt>
      <trkpt lat="37.82864108583721" lon="112.00623365034143">
        <ele>1169.0</ele>
        <time>2018-06-13T11:42:49.969000Z</time>
      </trkpt>
      <trkpt lat="37.82848731861758" lon="112.0062120438866">
        <ele>1170.0</ele>
        <time>2018-06-13T11:42:55.969000Z</time>
      </trkpt>
      <trkpt lat="37.828161815316804" lon="112.0062473418731">
        <ele>1166.0</ele>
        <time>2018-06-13T11:43:07.969000Z</time>
      </trkpt>
      <trkpt lat="37.82810499401484" lon="112.00626075202794">
        <ele>1169.0</ele>
        <time>2018-06-13T11:43:10.969000Z</time>
      </trkpt>
      <trkpt lat="37.82796101152706" lon="112.00625873107401">
        <ele>1171.0</ele>
        <time>2018-06-13T11:43:19.969000Z</time>
      </trkpt>
      <trkpt lat="37.82783806271494" lon="112.00630835158171">
        <ele>1174.0</ele>
        <time>2018-06-13T11:43:28.969000Z</time>
      </trkpt>
      <trkpt lat="37.82763947816079" lon="112.00630405028656">
        <ele>1177.0</ele>
        <time>2018-06-13T11:43:40.969000Z</time>
      </trkpt>
      <trkpt lat="37.827386405581514" lon="112.00637571264836">
        <ele>1178.0</ele>
        <time>2018-06-13T11:43:58.869000Z</time>
      </trkpt>
      <trkpt lat="37.82705835001864" lon="112.00639061881411">
        <ele>1178.0</ele>
        <time>2018-06-13T11:44:25.969000Z</time>
      </trkpt>
      <trkpt lat="37.82689822843193" lon="112.00640739714281">
        <ele>1179.0</ele>
        <time>2018-06-13T11:44:37.969000Z</time>
      </trkpt>
      <trkpt lat="37.82681066288317" lon="112.00638497181366">
        <ele>1180.0</ele>
        <time>2018-06-13T11:44:43.969000Z</time>
      </trkpt>
      <trkpt lat="37.8266433882202" lon="112.0064349991853">
        <ele>1180.0</ele>
        <time>2018-06-13T11:44:55.969000Z</time>
      </trkpt>
      <trkpt lat="37.82647978238552" lon="112.00643745147791">
        <ele>1182.0</ele>
        <time>2018-06-13T11:45:07.969000Z</time>
      </trkpt>
      <trkpt lat="37.826342495688806" lon="112.00653018442738">
        <ele>1182.0</ele>
        <time>2018-06-13T11:45:19.969000Z</time>
      </trkpt>
      <trkpt lat="37.82607071463863" lon="112.00650697008075">
        <ele>1179.0</ele>
        <time>2018-06-13T11:45:37.969000Z</time>
      </trkpt>
      <trkpt lat="37.82602081899657" lon="112.0064985963913">
        <ele>1181.0</ele>
        <time>2018-06-13T11:45:40.969000Z</time>
      </trkpt>
      <trkpt lat="37.8259393477682" lon="112.00652509656531">
        <ele>1182.0</ele>
        <time>2018-06-13T11:45:46.969000Z</time>
      </trkpt>
      <trkpt lat="37.82572184039906" lon="112.00649782108901">
        <ele>1183.0</ele>
        <time>2018-06-13T11:45:58.969000Z</time>
      </trkpt>
      <trkpt lat="37.8254036505807" lon="112.00647974818555">
        <ele>1183.0</ele>
        <time>2018-06-13T11:46:16.969000Z</time>
      </trkpt>
      <trkpt lat="37.825072834259245" lon="112.00641977864613">
        <ele>1183.0</ele>
        <time>2018-06-13T11:46:28.969000Z</time>
      </trkpt>
      <trkpt lat="37.8247938727031" lon="112.00636326833441">
        <ele>1194.0</ele>
        <time>2018-06-13T11:46:40.969000Z</time>
      </trkpt>
      <trkpt lat="37.82448224741799" lon="112.00631226550962">
        <ele>1197.0</ele>
        <time>2018-06-13T11:46:52.969000Z</time>
      </trkpt>
      <trkpt lat="37.82418232275934" lon="112.00625436200112">
        <ele>1193.0</ele>
        <time>2018-06-13T11:47:07.969000Z</time>
      </trkpt>
      <trkpt lat="37.823966347228705" lon="112.00616677247906">
        <ele>1190.0</ele>
        <time>2018-06-13T11:47:16.969000Z</time>
      </trkpt>
      <trkpt lat="37.82389204913691" lon="112.00616436328524">
        <ele>1184.0</ele>
        <time>2018-06-13T11:47:19.969000Z</time>
      </trkpt>
      <trkpt lat="37.823596854326865" lon="112.0061157286482">
        <ele>1182.0</ele>
        <time>2018-06-13T11:47:31.969000Z</time>
      </trkpt>
      <trkpt lat="37.823385319268226" lon="112.00609680838873">
        <ele>1183.0</ele>
        <time>2018-06-13T11:47:40.969000Z</time>
      </trkpt>
      <trkpt lat="37.82310494157463" lon="112.0061360565557">
        <ele>1184.0</ele>
        <time>2018-06-13T11:47:52.969000Z</time>
      </trkpt>
      <trkpt lat="37.82287216163299" lon="112.00617960678527">
        <ele>1189.0</ele>
        <time>2018-06-13T11:48:04.969000Z</time>
      </trkpt>
      <trkpt lat="37.82265794884331" lon="112.00614029551294">
        <ele>1191.0</ele>
        <time>2018-06-13T11:48:13.969000Z</time>
      </trkpt>
      <trkpt lat="37.822384709306164" lon="112.0060180567047">
        <ele>1195.0</ele>
        <time>2018-06-13T11:48:25.969000Z</time>
      </trkpt>
      <trkpt lat="37.82224785440183" lon="112.00596226074234">
        <ele>1197.0</ele>
        <time>2018-06-13T11:48:31.969000Z</time>
      </trkpt>
      <trkpt lat="37.822077937983615" lon="112.0058159053585">
        <ele>1197.0</ele>
        <time>2018-06-13T11:48:40.969000Z</time>
      </trkpt>
      <trkpt lat="37.82183874517029" lon="112.00563815970712">
        <ele>1197.0</ele>
        <time>2018-06-13T11:48:52.969000Z</time>
      </trkpt>
      <trkpt lat="37.82171673648773" lon="112.0055208607828">
        <ele>1199.0</ele>
        <time>2018-06-13T11:48:58.969000Z</time>
      </trkpt>
      <trkpt lat="37.821601276984964" lon="112.0054816799861">
        <ele>1202.0</ele>
        <time>2018-06-13T11:49:07.869000Z</time>
      </trkpt>
      <trkpt lat="37.82140288687477" lon="112.00529286618182">
        <ele>1209.0</ele>
        <time>2018-06-13T11:49:25.969000Z</time>
      </trkpt>
      <trkpt lat="37.82134450230083" lon="112.00520753499029">
        <ele>1207.0</ele>
        <time>2018-06-13T11:49:31.969000Z</time>
      </trkpt>
      <trkpt lat="37.821256283529074" lon="112.00514133650756">
        <ele>1209.0</ele>
        <time>2018-06-13T11:49:37.969000Z</time>
      </trkpt>
      <trkpt lat="37.82101839628102" lon="112.00496532135503">
        <ele>1210.0</ele>
        <time>2018-06-13T11:49:55.969000Z</time>
      </trkpt>
      <trkpt lat="37.8207651736593" lon="112.00482601710593">
        <ele>1206.0</ele>
        <time>2018-06-13T11:50:19.969000Z</time>
      </trkpt>
      <trkpt lat="37.82054055557081" lon="112.00463710091783">
        <ele>1207.0</ele>
        <time>2018-06-13T11:50:37.869000Z</time>
      </trkpt>
      <trkpt lat="37.820506332288446" lon="112.00455952769056">
        <ele>1209.0</ele>
        <time>2018-06-13T11:50:43.969000Z</time>
      </trkpt>
      <trkpt lat="37.820436509515325" lon="112.00450142064993">
        <ele>1211.0</ele>
        <time>2018-06-13T11:50:49.969000Z</time>
      </trkpt>
      <trkpt lat="37.82041368364207" lon="112.00442303528052">
        <ele>1211.0</ele>
        <time>2018-06-13T11:50:55.969000Z</time>
      </trkpt>
      <trkpt lat="37.820528745957525" lon="112.00454099254284">
        <ele>1209.0</ele>
        <time>2018-06-13T11:51:07.869000Z</time>
      </trkpt>
      <trkpt lat="37.82058575557148" lon="112.004628599571">
        <ele>1209.0</ele>
        <time>2018-06-13T11:51:13.969000Z</time>
      </trkpt>
      <trkpt lat="37.82071757982754" lon="112.00474301258089">
        <ele>1212.0</ele>
        <time>2018-06-13T11:51:22.969000Z</time>
      </trkpt>
      <trkpt lat="37.8207490066579" lon="112.00479301070824">
        <ele>1211.0</ele>
        <time>2018-06-13T11:51:25.969000Z</time>
      </trkpt>
      <trkpt lat="37.82077395047938" lon="112.00484698256301">
        <ele>1208.0</ele>
        <time>2018-06-13T11:51:28.869000Z</time>
      </trkpt>
      <trkpt lat="37.820838323637645" lon="112.00490052152091">
        <ele>1208.0</ele>
        <time>2018-06-13T11:51:34.969000Z</time>
      </trkpt>
      <trkpt lat="37.82091719677803" lon="112.00491748389376">
        <ele>1208.0</ele>
        <time>2018-06-13T11:51:40.969000Z</time>
      </trkpt>
      <trkpt lat="37.82104360233552" lon="112.00497816079863">
        <ele>1209.0</ele>
        <time>2018-06-13T11:51:52.969000Z</time>
      </trkpt>
      <trkpt lat="37.82109652534865" lon="112.00500856084338">
        <ele>1207.0</ele>
        <time>2018-06-13T11:51:58.969000Z</time>
      </trkpt>
      <trkpt lat="37.82113726796463" lon="112.00507906436002">
        <ele>1211.0</ele>
        <time>2018-06-13T11:52:04.869000Z</time>
      </trkpt>
      <trkpt lat="37.82117488466586" lon="112.00512555009637">
        <ele>1209.0</ele>
        <time>2018-06-13T11:52:07.869000Z</time>
      </trkpt>
      <trkpt lat="37.821425963507224" lon="112.00531874850047">
        <ele>1203.0</ele>
        <time>2018-06-13T11:52:28.969000Z</time>
      </trkpt>
      <trkpt lat="37.82171548179634" lon="112.00548680222033">
        <ele>1200.0</ele>
        <time>2018-06-13T11:52:43.969000Z</time>
      </trkpt>
      <trkpt lat="37.82196012348491" lon="112.00570396058582">
        <ele>1192.0</ele>
        <time>2018-06-13T11:52:55.969000Z</time>
      </trkpt>
      <trkpt lat="37.82212113922953" lon="112.00589324372253">
        <ele>1194.0</ele>
        <time>2018-06-13T11:53:04.969000Z</time>
      </trkpt>
      <trkpt lat="37.822380417712615" lon="112.00605463968753">
        <ele>1199.0</ele>
        <time>2018-06-13T11:53:16.969000Z</time>
      </trkpt>
      <trkpt lat="37.822637238844464" lon="112.00613750522479">
        <ele>1197.0</ele>
        <time>2018-06-13T11:53:28.969000Z</time>
      </trkpt>
      <trkpt lat="37.82282385406967" lon="112.00618541745">
        <ele>1197.0</ele>
        <time>2018-06-13T11:53:37.969000Z</time>
      </trkpt>
      <trkpt lat="37.82313571654139" lon="112.00614159013918">
        <ele>1188.0</ele>
        <time>2018-06-13T11:53:49.969000Z</time>
      </trkpt>
      <trkpt lat="37.82341246433348" lon="112.0061366915958">
        <ele>1189.0</ele>
        <time>2018-06-13T11:54:01.969000Z</time>
      </trkpt>
      <trkpt lat="37.82365808121566" lon="112.00610855015054">
        <ele>1188.0</ele>
        <time>2018-06-13T11:54:10.969000Z</time>
      </trkpt>
      <trkpt lat="37.82373235970666" lon="112.0061285441981">
        <ele>1187.0</ele>
        <time>2018-06-13T11:54:13.969000Z</time>
      </trkpt>
      <trkpt lat="37.82377348115998" lon="112.00607691021014">
        <ele>1186.0</ele>
        <time>2018-06-13T11:54:19.869000Z</time>
      </trkpt>
      <trkpt lat="37.8239660684851" lon="112.00618149702572">
        <ele>1186.0</ele>
        <time>2018-06-13T11:54:34.969000Z</time>
      </trkpt>
      <trkpt lat="37.82416721803664" lon="112.00623526469928">
        <ele>1188.0</ele>
        <time>2018-06-13T11:54:43.869000Z</time>
      </trkpt>
      <trkpt lat="37.82422137066504" lon="112.00627175008565">
        <ele>1188.0</ele>
        <time>2018-06-13T11:54:46.969000Z</time>
      </trkpt>
      <trkpt lat="37.82452186554822" lon="112.00630982799771">
        <ele>1192.0</ele>
        <time>2018-06-13T11:54:58.969000Z</time>
      </trkpt>
      <trkpt lat="37.82466056136481" lon="112.00638144368868">
        <ele>1188.0</ele>
        <time>2018-06-13T11:55:04.969000Z</time>
      </trkpt>
      <trkpt lat="37.82488090268437" lon="112.00638374191837">
        <ele>1183.0</ele>
        <time>2018-06-13T11:55:13.969000Z</time>
      </trkpt>
      <trkpt lat="37.82515348393068" lon="112.00644508631419">
        <ele>1183.0</ele>
        <time>2018-06-13T11:55:25.969000Z</time>
      </trkpt>
      <trkpt lat="37.82544938481719" lon="112.00653753777678">
        <ele>1188.0</ele>
        <time>2018-06-13T11:55:37.969000Z</time>
      </trkpt>
      <trkpt lat="37.825592363852884" lon="112.00651892076579">
        <ele>1188.0</ele>
        <time>2018-06-13T11:55:43.969000Z</time>
      </trkpt>
      <trkpt lat="37.82586957329659" lon="112.00654062358358">
        <ele>1185.0</ele>
        <time>2018-06-13T11:55:52.969000Z</time>
      </trkpt>
      <trkpt lat="37.82612472167852" lon="112.0065490416957">
        <ele>1184.0</ele>
        <time>2018-06-13T11:56:01.969000Z</time>
      </trkpt>
      <trkpt lat="37.826431615105996" lon="112.00648638344941">
        <ele>1188.0</ele>
        <time>2018-06-13T11:56:13.969000Z</time>
      </trkpt>
      <trkpt lat="37.826748411562534" lon="112.00641157517254">
        <ele>1189.0</ele>
        <time>2018-06-13T11:56:25.969000Z</time>
      </trkpt>
      <trkpt lat="37.827074491896845" lon="112.00639001502289">
        <ele>1191.0</ele>
        <time>2018-06-13T11:56:37.969000Z</time>
      </trkpt>
      <trkpt lat="37.82739937815835" lon="112.00637519397691">
        <ele>1173.0</ele>
        <time>2018-06-13T11:56:49.969000Z</time>
      </trkpt>
      <trkpt lat="37.82769206760196" lon="112.00632837314605">
        <ele>1178.0</ele>
        <time>2018-06-13T11:57:01.869000Z</time>
      </trkpt>
      <trkpt lat="37.82796968650224" lon="112.00629182428507">
        <ele>1172.0</ele>
        <time>2018-06-13T11:57:10.969000Z</time>
      </trkpt>
      <trkpt lat="37.828180357082566" lon="112.00624965352738">
        <ele>1176.0</ele>
        <time>2018-06-13T11:57:19.869000Z</time>
      </trkpt>
      <trkpt lat="37.82829213552511" lon="112.00624826303934">
        <ele>1173.0</ele>
        <time>2018-06-13T11:57:25.969000Z</time>
      </trkpt>
      <trkpt lat="37.82834757558412" lon="112.0062185479734">
        <ele>1174.0</ele>
        <time>2018-06-13T11:57:31.869000Z</time>
      </trkpt>
      <trkpt lat="37.82842469439336" lon="112.00620905881412">
        <ele>1174.0</ele>
        <time>2018-06-13T11:57:37.969000Z</time>
      </trkpt>
      <trkpt lat="37.82863949265696" lon="112.00622202721141">
        <ele>1177.0</ele>
        <time>2018-06-13T11:57:49.969000Z</time>
      </trkpt>
      <trkpt lat="37.828943693644604" lon="112.00620036618251">
        <ele>1179.0</ele>
        <time>2018-06-13T11:58:01.969000Z</time>
      </trkpt>
      <trkpt lat="37.82922449445595" lon="112.00620141395673">
        <ele>1175.0</ele>
        <time>2018-06-13T11:58:13.969000Z</time>
      </trkpt>
      <trkpt lat="37.82935222905572" lon="112.00621869855397">
        <ele>1172.0</ele>
        <time>2018-06-13T11:58:19.969000Z</time>
      </trkpt>
      <trkpt lat="37.82965345789855" lon="112.00619298323548">
        <ele>1173.0</ele>
        <time>2018-06-13T11:58:31.969000Z</time>
      </trkpt>
      <trkpt lat="37.829980151095064" lon="112.00618023974981">
        <ele>1176.0</ele>
        <time>2018-06-13T11:58:43.969000Z</time>
      </trkpt>
      <trkpt lat="37.83019041432736" lon="112.00618048500039">
        <ele>1178.0</ele>
        <time>2018-06-13T11:58:52.969000Z</time>
      </trkpt>
      <trkpt lat="37.830439898792726" lon="112.00622046109349">
        <ele>1177.0</ele>
        <time>2018-06-13T11:59:01.969000Z</time>
      </trkpt>
      <trkpt lat="37.8306841071056" lon="112.0062101602196">
        <ele>1175.0</ele>
        <time>2018-06-13T11:59:10.969000Z</time>
      </trkpt>
      <trkpt lat="37.83092082848817" lon="112.00616309813879">
        <ele>1174.0</ele>
        <time>2018-06-13T11:59:19.969000Z</time>
      </trkpt>
      <trkpt lat="37.830964736934725" lon="112.00617768961985">
        <ele>1175.0</ele>
        <time>2018-06-13T11:59:22.969000Z</time>
      </trkpt>
      <trkpt lat="37.831016319439264" lon="112.0061663304719">
        <ele>1174.0</ele>
        <time>2018-06-13T11:59:25.969000Z</time>
      </trkpt>
      <trkpt lat="37.831082723120076" lon="112.00618875825009">
        <ele>1172.0</ele>
        <time>2018-06-13T11:59:28.969000Z</time>
      </trkpt>
      <trkpt lat="37.83138882459855" lon="112.0061668266942">
        <ele>1174.0</ele>
        <time>2018-06-13T11:59:40.969000Z</time>
      </trkpt>
      <trkpt lat="37.831729328324094" lon="112.00616300177805">
        <ele>1169.0</ele>
        <time>2018-06-13T11:59:52.969000Z</time>
      </trkpt>
      <trkpt lat="37.83196274741551" lon="112.00613161806429">
        <ele>1167.0</ele>
        <time>2018-06-13T12:00:01.969000Z</time>
      </trkpt>
      <trkpt lat="37.83210595894436" lon="112.00614484615542">
        <ele>1165.0</ele>
        <time>2018-06-13T12:00:07.969000Z</time>
      </trkpt>
      <trkpt lat="37.83217463314295" lon="112.00613375528523">
        <ele>1166.0</ele>
        <time>2018-06-13T12:00:10.969000Z</time>
      </trkpt>
      <trkpt lat="37.83247847201262" lon="112.00623373360544">
        <ele>1162.0</ele>
        <time>2018-06-13T12:00:22.969000Z</time>
      </trkpt>
      <trkpt lat="37.83277195859862" lon="112.0063480397308">
        <ele>1162.0</ele>
        <time>2018-06-13T12:00:34.969000Z</time>
      </trkpt>
      <trkpt lat="37.83306977463134" lon="112.00644996821487">
        <ele>1165.0</ele>
        <time>2018-06-13T12:00:46.969000Z</time>
      </trkpt>
      <trkpt lat="37.83338417538545" lon="112.00657286515215">
        <ele>1168.0</ele>
        <time>2018-06-13T12:00:58.969000Z</time>
      </trkpt>
      <trkpt lat="37.8334540579814" lon="112.0066115113048">
        <ele>1168.0</ele>
        <time>2018-06-13T12:01:01.969000Z</time>
      </trkpt>
      <trkpt lat="37.83376939483708" lon="112.00667715934956">
        <ele>1169.0</ele>
        <time>2018-06-13T12:01:13.969000Z</time>
      </trkpt>
      <trkpt lat="37.83407479409144" lon="112.00680011473011">
        <ele>1162.0</ele>
        <time>2018-06-13T12:01:25.969000Z</time>
      </trkpt>
      <trkpt lat="37.83436120793691" lon="112.00688823274287">
        <ele>1154.0</ele>
        <time>2018-06-13T12:01:37.869000Z</time>
      </trkpt>
      <trkpt lat="37.83468372350859" lon="112.00694492943363">
        <ele>1158.0</ele>
        <time>2018-06-13T12:01:49.969000Z</time>
      </trkpt>
      <trkpt lat="37.83498148735146" lon="112.00689867051986">
        <ele>1157.0</ele>
        <time>2018-06-13T12:02:01.969000Z</time>
      </trkpt>
      <trkpt lat="37.83514644424867" lon="112.00689838053817">
        <ele>1157.0</ele>
        <time>2018-06-13T12:02:07.969000Z</time>
      </trkpt>
      <trkpt lat="37.835293024804365" lon="112.0069648599011">
        <ele>1153.0</ele>
        <time>2018-06-13T12:02:13.969000Z</time>
      </trkpt>
      <trkpt lat="37.83540264167308" lon="112.00723597079521">
        <ele>1159.0</ele>
        <time>2018-06-13T12:02:22.969000Z</time>
      </trkpt>
      <trkpt lat="37.83545832340613" lon="112.00730597540397">
        <ele>1158.0</ele>
        <time>2018-06-13T12:02:25.969000Z</time>
      </trkpt>
      <trkpt lat="37.8356635135691" lon="112.00737028565753">
        <ele>1160.0</ele>
        <time>2018-06-13T12:02:34.969000Z</time>
      </trkpt>
      <trkpt lat="37.8357405767011" lon="112.00736649206924">
        <ele>1161.0</ele>
        <time>2018-06-13T12:02:37.969000Z</time>
      </trkpt>
      <trkpt lat="37.836046116161256" lon="112.0074426842424">
        <ele>1164.0</ele>
        <time>2018-06-13T12:02:49.969000Z</time>
      </trkpt>
      <trkpt lat="37.83622783016465" lon="112.00746401740889">
        <ele>1162.0</ele>
        <time>2018-06-13T12:02:55.969000Z</time>
      </trkpt>
      <trkpt lat="37.83651057554961" lon="112.00756416582996">
        <ele>1162.0</ele>
        <time>2018-06-13T12:03:07.969000Z</time>
      </trkpt>
      <trkpt lat="37.836755245959914" lon="112.00765020142946">
        <ele>1163.0</ele>
        <time>2018-06-13T12:03:16.969000Z</time>
      </trkpt>
      <trkpt lat="37.83701486559697" lon="112.00774964653766">
        <ele>1156.0</ele>
        <time>2018-06-13T12:03:28.969000Z</time>
      </trkpt>
      <trkpt lat="37.83730895696246" lon="112.0078439516775">
        <ele>1160.0</ele>
        <time>2018-06-13T12:03:40.969000Z</time>
      </trkpt>
      <trkpt lat="37.837595400554854" lon="112.00795555811621">
        <ele>1153.0</ele>
        <time>2018-06-13T12:03:52.969000Z</time>
      </trkpt>
      <trkpt lat="37.83786606514946" lon="112.00808176374429">
        <ele>1150.0</ele>
        <time>2018-06-13T12:04:04.969000Z</time>
      </trkpt>
      <trkpt lat="37.838157160647995" lon="112.00818012447932">
        <ele>1149.0</ele>
        <time>2018-06-13T12:04:16.969000Z</time>
      </trkpt>
      <trkpt lat="37.83823705705581" lon="112.00822742051292">
        <ele>1149.0</ele>
        <time>2018-06-13T12:04:19.969000Z</time>
      </trkpt>
      <trkpt lat="37.83832300518807" lon="112.00825274827943">
        <ele>1146.0</ele>
        <time>2018-06-13T12:04:22.869000Z</time>
      </trkpt>
      <trkpt lat="37.83866428627447" lon="112.00825575289149">
        <ele>1150.0</ele>
        <time>2018-06-13T12:04:34.969000Z</time>
      </trkpt>
      <trkpt lat="37.83891987900777" lon="112.00822990630515">
        <ele>1146.0</ele>
        <time>2018-06-13T12:04:43.969000Z</time>
      </trkpt>
      <trkpt lat="37.838998584787035" lon="112.00820438290978">
        <ele>1145.0</ele>
        <time>2018-06-13T12:04:46.969000Z</time>
      </trkpt>
      <trkpt lat="37.83931404895803" lon="112.00815801407138">
        <ele>1139.0</ele>
        <time>2018-06-13T12:04:58.869000Z</time>
      </trkpt>
      <trkpt lat="37.83963383283077" lon="112.00812448985366">
        <ele>1146.0</ele>
        <time>2018-06-13T12:05:10.969000Z</time>
      </trkpt>
      <trkpt lat="37.83979245939886" lon="112.00812143719007">
        <ele>1143.0</ele>
        <time>2018-06-13T12:05:16.969000Z</time>
      </trkpt>
      <trkpt lat="37.84009205604015" lon="112.0080280010018">
        <ele>1139.0</ele>
        <time>2018-06-13T12:05:28.969000Z</time>
      </trkpt>
      <trkpt lat="37.84024700092675" lon="112.00800046403639">
        <ele>1136.0</ele>
        <time>2018-06-13T12:05:34.969000Z</time>
      </trkpt>
      <trkpt lat="37.84042356153038" lon="112.00801783380986">
        <ele>1135.0</ele>
        <time>2018-06-13T12:05:40.969000Z</time>
      </trkpt>
      <trkpt lat="37.84057244114999" lon="112.00806844173563">
        <ele>1135.0</ele>
        <time>2018-06-13T12:05:46.969000Z</time>
      </trkpt>
      <trkpt lat="37.840654604770656" lon="112.00809534476092">
        <ele>1134.0</ele>
        <time>2018-06-13T12:05:49.969000Z</time>
      </trkpt>
      <trkpt lat="37.84094644770901" lon="112.00817278845255">
        <ele>1135.0</ele>
        <time>2018-06-13T12:06:01.969000Z</time>
      </trkpt>
      <trkpt lat="37.841152028861345" lon="112.00819596236067">
        <ele>1136.0</ele>
        <time>2018-06-13T12:06:10.869000Z</time>
      </trkpt>
      <trkpt lat="37.84122432642093" lon="112.00818765655171">
        <ele>1138.0</ele>
        <time>2018-06-13T12:06:13.969000Z</time>
      </trkpt>
      <trkpt lat="37.84149650562696" lon="112.0081189438612">
        <ele>1132.0</ele>
        <time>2018-06-13T12:06:22.969000Z</time>
      </trkpt>
      <trkpt lat="37.84163832633987" lon="112.00809347789642">
        <ele>1132.0</ele>
        <time>2018-06-13T12:06:28.969000Z</time>
      </trkpt>
      <trkpt lat="37.84186205846525" lon="112.00796637434706">
        <ele>1132.0</ele>
        <time>2018-06-13T12:06:37.969000Z</time>
      </trkpt>
      <trkpt lat="37.84209490194149" lon="112.00776663025214">
        <ele>1135.0</ele>
        <time>2018-06-13T12:06:46.969000Z</time>
      </trkpt>
      <trkpt lat="37.842361912276715" lon="112.00758766108774">
        <ele>1129.0</ele>
        <time>2018-06-13T12:06:58.969000Z</time>
      </trkpt>
      <trkpt lat="37.842637039370224" lon="112.00742556210346">
        <ele>1124.0</ele>
        <time>2018-06-13T12:07:10.969000Z</time>
      </trkpt>
      <trkpt lat="37.84282878698329" lon="112.00725728306327">
        <ele>1128.0</ele>
        <time>2018-06-13T12:07:19.969000Z</time>
      </trkpt>
      <trkpt lat="37.842898148402355" lon="112.0072275079747">
        <ele>1129.0</ele>
        <time>2018-06-13T12:07:22.969000Z</time>
      </trkpt>
      <trkpt lat="37.84317565210379" lon="112.00696959634381">
        <ele>1121.0</ele>
        <time>2018-06-13T12:07:34.969000Z</time>
      </trkpt>
      <trkpt lat="37.84345137663989" lon="112.00676277477072">
        <ele>1127.0</ele>
        <time>2018-06-13T12:07:46.969000Z</time>
      </trkpt>
      <trkpt lat="37.8437390852822" lon="112.00654054467053">
        <ele>1129.0</ele>
        <time>2018-06-13T12:07:58.969000Z</time>
      </trkpt>
      <trkpt lat="37.84385798566424" lon="112.00642727037727">
        <ele>1128.0</ele>
        <time>2018-06-13T12:08:04.969000Z</time>
      </trkpt>
      <trkpt lat="37.84415931840635" lon="112.00627667175297">
        <ele>1129.0</ele>
        <time>2018-06-13T12:08:16.969000Z</time>
      </trkpt>
      <trkpt lat="37.84445224162954" lon="112.00615468236037">
        <ele>1128.0</ele>
        <time>2018-06-13T12:08:28.969000Z</time>
      </trkpt>
      <trkpt lat="37.84452221647515" lon="112.00613363476124">
        <ele>1128.0</ele>
        <time>2018-06-13T12:08:31.869000Z</time>
      </trkpt>
      <trkpt lat="37.844822954500245" lon="112.0061825248808">
        <ele>1130.0</ele>
        <time>2018-06-13T12:08:43.969000Z</time>
      </trkpt>
      <trkpt lat="37.8451501803297" lon="112.006265200576">
        <ele>1131.0</ele>
        <time>2018-06-13T12:08:55.969000Z</time>
      </trkpt>
      <trkpt lat="37.845448715009724" lon="112.00632517374798">
        <ele>1134.0</ele>
        <time>2018-06-13T12:09:07.969000Z</time>
      </trkpt>
      <trkpt lat="37.84571269092551" lon="112.00641948048465">
        <ele>1135.0</ele>
        <time>2018-06-13T12:09:16.969000Z</time>
      </trkpt>
      <trkpt lat="37.84586149580554" lon="112.00646811860003">
        <ele>1135.0</ele>
        <time>2018-06-13T12:09:22.969000Z</time>
      </trkpt>
      <trkpt lat="37.8459291858926" lon="112.00651433362725">
        <ele>1134.0</ele>
        <time>2018-06-13T12:09:25.969000Z</time>
      </trkpt>
      <trkpt lat="37.84616309322283" lon="112.00659296616021">
        <ele>1134.0</ele>
        <time>2018-06-13T12:09:34.969000Z</time>
      </trkpt>
      <trkpt lat="37.84640988833823" lon="112.00662591466083">
        <ele>1133.0</ele>
        <time>2018-06-13T12:09:43.969000Z</time>
      </trkpt>
      <trkpt lat="37.84672047228126" lon="112.00664858374313">
        <ele>1129.0</ele>
        <time>2018-06-13T12:09:55.969000Z</time>
      </trkpt>
      <trkpt lat="37.84704970917168" lon="112.00669395675125">
        <ele>1128.0</ele>
        <time>2018-06-13T12:10:07.969000Z</time>
      </trkpt>
      <trkpt lat="37.84714165077207" lon="112.00670502854713">
        <ele>1129.0</ele>
        <time>2018-06-13T12:10:10.969000Z</time>
      </trkpt>
      <trkpt lat="37.847223458890305" lon="112.00674799830291">
        <ele>1125.0</ele>
        <time>2018-06-13T12:10:13.969000Z</time>
      </trkpt>
      <trkpt lat="37.84755423852408" lon="112.00682202423053">
        <ele>1123.0</ele>
        <time>2018-06-13T12:10:25.969000Z</time>
      </trkpt>
      <trkpt lat="37.84789743081918" lon="112.00682765983476">
        <ele>1121.0</ele>
        <time>2018-06-13T12:10:37.969000Z</time>
      </trkpt>
      <trkpt lat="37.84821195608599" lon="112.00689357841964">
        <ele>1120.0</ele>
        <time>2018-06-13T12:10:49.969000Z</time>
      </trkpt>
      <trkpt lat="37.8483020576158" lon="112.00697601289377">
        <ele>1123.0</ele>
        <time>2018-06-13T12:10:55.869000Z</time>
      </trkpt>
      <trkpt lat="37.84834920233838" lon="112.00699736194942">
        <ele>1124.0</ele>
        <time>2018-06-13T12:10:58.969000Z</time>
      </trkpt>
      <trkpt lat="37.848543011226276" lon="112.00724007983774">
        <ele>1123.0</ele>
        <time>2018-06-13T12:11:16.869000Z</time>
      </trkpt>
      <trkpt lat="37.84857894550248" lon="112.00729062417706">
        <ele>1124.0</ele>
        <time>2018-06-13T12:11:19.969000Z</time>
      </trkpt>
      <trkpt lat="37.8486141990984" lon="112.00738766262818">
        <ele>1125.0</ele>
        <time>2018-06-13T12:11:25.969000Z</time>
      </trkpt>
      <trkpt lat="37.84873959743521" lon="112.00755280972493">
        <ele>1125.0</ele>
        <time>2018-06-13T12:11:40.969000Z</time>
      </trkpt>
      <trkpt lat="37.8487864359462" lon="112.00767741931752">
        <ele>1129.0</ele>
        <time>2018-06-13T12:11:46.969000Z</time>
      </trkpt>
      <trkpt lat="37.84898025562284" lon="112.00791716619253">
        <ele>1117.0</ele>
        <time>2018-06-13T12:12:07.969000Z</time>
      </trkpt>
      <trkpt lat="37.84918125499789" lon="112.00820638115998">
        <ele>1118.0</ele>
        <time>2018-06-13T12:12:28.969000Z</time>
      </trkpt>
      <trkpt lat="37.849251807626246" lon="112.0083858637437">
        <ele>1128.0</ele>
        <time>2018-06-13T12:12:37.969000Z</time>
      </trkpt>
      <trkpt lat="37.84948564942696" lon="112.00867102214075">
        <ele>1114.0</ele>
        <time>2018-06-13T12:12:49.969000Z</time>
      </trkpt>
      <trkpt lat="37.84967162096394" lon="112.00899700600306">
        <ele>1110.0</ele>
        <time>2018-06-13T12:13:01.969000Z</time>
      </trkpt>
      <trkpt lat="37.849870531671804" lon="112.00935191457116">
        <ele>1100.0</ele>
        <time>2018-06-13T12:13:13.969000Z</time>
      </trkpt>
      <trkpt lat="37.84993683081096" lon="112.00977928800954">
        <ele>1100.0</ele>
        <time>2018-06-13T12:13:25.969000Z</time>
      </trkpt>
      <trkpt lat="37.84993153029405" lon="112.01006439613236">
        <ele>1102.0</ele>
        <time>2018-06-13T12:13:34.969000Z</time>
      </trkpt>
      <trkpt lat="37.84989619295618" lon="112.01024737164619">
        <ele>1102.0</ele>
        <time>2018-06-13T12:13:40.969000Z</time>
      </trkpt>
      <trkpt lat="37.84987562061013" lon="112.01035243473518">
        <ele>1103.0</ele>
        <time>2018-06-13T12:13:43.969000Z</time>
      </trkpt>
      <trkpt lat="37.84985568566612" lon="112.01069594731115">
        <ele>1104.0</ele>
        <time>2018-06-13T12:13:52.969000Z</time>
      </trkpt>
      <trkpt lat="37.84982549521827" lon="112.01112866084397">
        <ele>1107.0</ele>
        <time>2018-06-13T12:14:04.969000Z</time>
      </trkpt>
      <trkpt lat="37.84978601087574" lon="112.01153022492169">
        <ele>1111.0</ele>
        <time>2018-06-13T12:14:16.969000Z</time>
      </trkpt>
      <trkpt lat="37.84982348849352" lon="112.01161077975964">
        <ele>1108.0</ele>
        <time>2018-06-13T12:14:22.969000Z</time>
      </trkpt>
      <trkpt lat="37.849827250315315" lon="112.01171647981232">
        <ele>1110.0</ele>
        <time>2018-06-13T12:14:28.969000Z</time>
      </trkpt>
      <trkpt lat="37.84979451501536" lon="112.0119285573485">
        <ele>1111.0</ele>
        <time>2018-06-13T12:14:37.969000Z</time>
      </trkpt>
      <trkpt lat="37.84980628446286" lon="112.0120219606914">
        <ele>1107.0</ele>
        <time>2018-06-13T12:14:43.869000Z</time>
      </trkpt>
      <trkpt lat="37.84974301342067" lon="112.01232123070336">
        <ele>1107.0</ele>
        <time>2018-06-13T12:14:58.969000Z</time>
      </trkpt>
      <trkpt lat="37.84972221404121" lon="112.01275755941994">
        <ele>1109.0</ele>
        <time>2018-06-13T12:15:22.969000Z</time>
      </trkpt>
      <trkpt lat="37.84967880009115" lon="112.01313414916034">
        <ele>1110.0</ele>
        <time>2018-06-13T12:15:40.969000Z</time>
      </trkpt>
      <trkpt lat="37.8496553832746" lon="112.01325715759874">
        <ele>1112.0</ele>
        <time>2018-06-13T12:15:46.969000Z</time>
      </trkpt>
      <trkpt lat="37.84961446092875" lon="112.01361753028286">
        <ele>1113.0</ele>
        <time>2018-06-13T12:16:04.969000Z</time>
      </trkpt>
      <trkpt lat="37.849591186118396" lon="112.01397438910456">
        <ele>1110.0</ele>
        <time>2018-06-13T12:16:16.969000Z</time>
      </trkpt>
      <trkpt lat="37.84955514240087" lon="112.01433801091488">
        <ele>1109.0</ele>
        <time>2018-06-13T12:16:28.969000Z</time>
      </trkpt>
      <trkpt lat="37.8495238669719" lon="112.0145370103342">
        <ele>1108.0</ele>
        <time>2018-06-13T12:16:34.969000Z</time>
      </trkpt>
      <trkpt lat="37.84952564680016" lon="112.01487925568185">
        <ele>1113.0</ele>
        <time>2018-06-13T12:16:43.969000Z</time>
      </trkpt>
      <trkpt lat="37.8494674343093" lon="112.01531236850634">
        <ele>1111.0</ele>
        <time>2018-06-13T12:16:55.969000Z</time>
      </trkpt>
      <trkpt lat="37.84942209711649" lon="112.01560787245815">
        <ele>1109.0</ele>
        <time>2018-06-13T12:17:04.969000Z</time>
      </trkpt>
      <trkpt lat="37.84941755587836" lon="112.01577360178524">
        <ele>1113.0</ele>
        <time>2018-06-13T12:17:10.969000Z</time>
      </trkpt>
      <trkpt lat="37.84936221534493" lon="112.01615319192719">
        <ele>1119.0</ele>
        <time>2018-06-13T12:17:28.869000Z</time>
      </trkpt>
      <trkpt lat="37.84934115536467" lon="112.01650006755146">
        <ele>1115.0</ele>
        <time>2018-06-13T12:17:49.969000Z</time>
      </trkpt>
      <trkpt lat="37.84934640563894" lon="112.01656225024581">
        <ele>1117.0</ele>
        <time>2018-06-13T12:17:52.869000Z</time>
      </trkpt>
      <trkpt lat="37.8492885983827" lon="112.01695266243021">
        <ele>1115.0</ele>
        <time>2018-06-13T12:18:13.969000Z</time>
      </trkpt>
      <trkpt lat="37.849260951798854" lon="112.01713543291626">
        <ele>1117.0</ele>
        <time>2018-06-13T12:18:22.869000Z</time>
      </trkpt>
      <trkpt lat="37.84926990943732" lon="112.01730918550848">
        <ele>1111.0</ele>
        <time>2018-06-13T12:18:31.969000Z</time>
      </trkpt>
      <trkpt lat="37.849245674542814" lon="112.0173602045465">
        <ele>1111.0</ele>
        <time>2018-06-13T12:18:34.969000Z</time>
      </trkpt>
      <trkpt lat="37.84920740072898" lon="112.01775079761212">
        <ele>1105.0</ele>
        <time>2018-06-13T12:18:55.969000Z</time>
      </trkpt>
      <trkpt lat="37.849186907109946" lon="112.01787311854862">
        <ele>1108.0</ele>
        <time>2018-06-13T12:19:01.869000Z</time>
      </trkpt>
      <trkpt lat="37.849195410458826" lon="112.01793913778477">
        <ele>1106.0</ele>
        <time>2018-06-13T12:19:04.969000Z</time>
      </trkpt>
      <trkpt lat="37.84913626207719" lon="112.01815771567553">
        <ele>1102.0</ele>
        <time>2018-06-13T12:19:16.969000Z</time>
      </trkpt>
      <trkpt lat="37.84917920326569" lon="112.01822827799452">
        <ele>1096.0</ele>
        <time>2018-06-13T12:19:19.869000Z</time>
      </trkpt>
      <trkpt lat="37.84915804014447" lon="112.0183256151757">
        <ele>1104.0</ele>
        <time>2018-06-13T12:19:25.869000Z</time>
      </trkpt>
      <trkpt lat="37.849154716084925" lon="112.0185189205685">
        <ele>1108.0</ele>
        <time>2018-06-13T12:19:37.869000Z</time>
      </trkpt>
      <trkpt lat="37.84916724239988" lon="112.01862519001337">
        <ele>1108.0</ele>
        <time>2018-06-13T12:19:43.969000Z</time>
      </trkpt>
      <trkpt lat="37.84912686980877" lon="112.0188009399469">
        <ele>1106.0</ele>
        <time>2018-06-13T12:19:52.969000Z</time>
      </trkpt>
      <trkpt lat="37.84913921835008" lon="112.0191365467346">
        <ele>1108.0</ele>
        <time>2018-06-13T12:20:07.969000Z</time>
      </trkpt>
      <trkpt lat="37.84911229367345" lon="112.01929790386356">
        <ele>1112.0</ele>
        <time>2018-06-13T12:20:16.969000Z</time>
      </trkpt>
      <trkpt lat="37.84909083363601" lon="112.01966318855331">
        <ele>1108.0</ele>
        <time>2018-06-13T12:20:28.969000Z</time>
      </trkpt>
      <trkpt lat="37.84907467268324" lon="112.02001333928953">
        <ele>1109.0</ele>
        <time>2018-06-13T12:20:37.969000Z</time>
      </trkpt>
      <trkpt lat="37.849078431558944" lon="112.02032841913423">
        <ele>1103.0</ele>
        <time>2018-06-13T12:20:46.969000Z</time>
      </trkpt>
      <trkpt lat="37.849059417256385" lon="112.0206418970229">
        <ele>1103.0</ele>
        <time>2018-06-13T12:20:55.969000Z</time>
      </trkpt>
      <trkpt lat="37.849096719358485" lon="112.0208916272906">
        <ele>1109.0</ele>
        <time>2018-06-13T12:21:01.969000Z</time>
      </trkpt>
      <trkpt lat="37.84909419274225" lon="112.02130337381804">
        <ele>1108.0</ele>
        <time>2018-06-13T12:21:13.969000Z</time>
      </trkpt>
      <trkpt lat="37.84907620842167" lon="112.02171569756263">
        <ele>1104.0</ele>
        <time>2018-06-13T12:21:25.969000Z</time>
      </trkpt>
      <trkpt lat="37.84908641571134" lon="112.02206725240191">
        <ele>1105.0</ele>
        <time>2018-06-13T12:21:34.969000Z</time>
      </trkpt>
      <trkpt lat="37.84909122399741" lon="112.02229520160752">
        <ele>1105.0</ele>
        <time>2018-06-13T12:21:40.969000Z</time>
      </trkpt>
      <trkpt lat="37.84904655757679" lon="112.02274036452881">
        <ele>1104.0</ele>
        <time>2018-06-13T12:21:52.969000Z</time>
      </trkpt>
      <trkpt lat="37.84905470593781" lon="112.02285738051741">
        <ele>1105.0</ele>
        <time>2018-06-13T12:21:55.969000Z</time>
      </trkpt>
      <trkpt lat="37.84904372289793" lon="112.02320837389256">
        <ele>1104.0</ele>
        <time>2018-06-13T12:22:04.969000Z</time>
      </trkpt>
      <trkpt lat="37.84904937538843" lon="112.02352854178952">
        <ele>1103.0</ele>
        <time>2018-06-13T12:22:13.969000Z</time>
      </trkpt>
      <trkpt lat="37.8490317603792" lon="112.02390109220441">
        <ele>1102.0</ele>
        <time>2018-06-13T12:22:22.969000Z</time>
      </trkpt>
      <trkpt lat="37.84899438709495" lon="112.02414263986643">
        <ele>1104.0</ele>
        <time>2018-06-13T12:22:28.969000Z</time>
      </trkpt>
      <trkpt lat="37.84889568088092" lon="112.02434412452887">
        <ele>1106.0</ele>
        <time>2018-06-13T12:22:34.969000Z</time>
      </trkpt>
      <trkpt lat="37.84887021536964" lon="112.02444585620847">
        <ele>1111.0</ele>
        <time>2018-06-13T12:22:37.969000Z</time>
      </trkpt>
      <trkpt lat="37.84892099657984" lon="112.02451192894368">
        <ele>1109.0</ele>
        <time>2018-06-13T12:22:40.969000Z</time>
      </trkpt>
      <trkpt lat="37.849009323781424" lon="112.02472419445763">
        <ele>1105.0</ele>
        <time>2018-06-13T12:22:49.969000Z</time>
      </trkpt>
      <trkpt lat="37.84904222717654" lon="112.02481056015654">
        <ele>1105.0</ele>
        <time>2018-06-13T12:22:55.969000Z</time>
      </trkpt>
      <trkpt lat="37.84908732613047" lon="112.02484461288167">
        <ele>1105.0</ele>
        <time>2018-06-13T12:22:58.969000Z</time>
      </trkpt>
      <trkpt lat="37.849113249734835" lon="112.02490296633445">
        <ele>1108.0</ele>
        <time>2018-06-13T12:23:01.969000Z</time>
      </trkpt>
      <trkpt lat="37.84912943929893" lon="112.02496685021804">
        <ele>1109.0</ele>
        <time>2018-06-13T12:23:04.969000Z</time>
      </trkpt>
      <trkpt lat="37.84908291533025" lon="112.02499091702623">
        <ele>1105.0</ele>
        <time>2018-06-13T12:23:07.969000Z</time>
      </trkpt>
      <trkpt lat="37.848894182837924" lon="112.0248925011176">
        <ele>1101.0</ele>
        <time>2018-06-13T12:23:10.869000Z</time>
      </trkpt>
      <trkpt lat="37.848915023848654" lon="112.02496401147964">
        <ele>1109.0</ele>
        <time>2018-06-13T12:23:13.969000Z</time>
      </trkpt>
      <trkpt lat="37.8489333677694" lon="112.02504295066703">
        <ele>1110.0</ele>
        <time>2018-06-13T12:23:16.869000Z</time>
      </trkpt>
      <trkpt lat="37.848906819453916" lon="112.02510267701582">
        <ele>1112.0</ele>
        <time>2018-06-13T12:23:19.869000Z</time>
      </trkpt>
      <trkpt lat="37.8489262025772" lon="112.02516000531863">
        <ele>1110.0</ele>
        <time>2018-06-13T12:23:22.969000Z</time>
      </trkpt>
      <trkpt lat="37.84895865756359" lon="112.02520608203872">
        <ele>1107.0</ele>
        <time>2018-06-13T12:23:25.969000Z</time>
      </trkpt>
      <trkpt lat="37.8489961436553" lon="112.02538841329128">
        <ele>1106.0</ele>
        <time>2018-06-13T12:23:34.969000Z</time>
      </trkpt>
      <trkpt lat="37.848997750100814" lon="112.02545467002382">
        <ele>1104.0</ele>
        <time>2018-06-13T12:23:37.869000Z</time>
      </trkpt>
      <trkpt lat="37.84892597026414" lon="112.02576234303149">
        <ele>1106.0</ele>
        <time>2018-06-13T12:23:52.969000Z</time>
      </trkpt>
      <trkpt lat="37.84895706399695" lon="112.02580470806417">
        <ele>1110.0</ele>
        <time>2018-06-13T12:23:55.969000Z</time>
      </trkpt>
      <trkpt lat="37.84895129756555" lon="112.02593451705387">
        <ele>1106.0</ele>
        <time>2018-06-13T12:24:01.869000Z</time>
      </trkpt>
      <trkpt lat="37.84898173574105" lon="112.02614216949395">
        <ele>1100.0</ele>
        <time>2018-06-13T12:24:13.969000Z</time>
      </trkpt>
      <trkpt lat="37.848965389003915" lon="112.02630392675943">
        <ele>1098.0</ele>
        <time>2018-06-13T12:24:22.969000Z</time>
      </trkpt>
      <trkpt lat="37.84896718464239" lon="112.02636047141152">
        <ele>1102.0</ele>
        <time>2018-06-13T12:24:25.969000Z</time>
      </trkpt>
      <trkpt lat="37.84893428006831" lon="112.02645994381218">
        <ele>1101.0</ele>
        <time>2018-06-13T12:24:31.969000Z</time>
      </trkpt>
      <trkpt lat="37.848855814003315" lon="112.02672699291584">
        <ele>1102.0</ele>
        <time>2018-06-13T12:24:46.969000Z</time>
      </trkpt>
      <trkpt lat="37.848821589269306" lon="112.0270887691678">
        <ele>1103.0</ele>
        <time>2018-06-13T12:25:04.969000Z</time>
      </trkpt>
      <trkpt lat="37.848807041652506" lon="112.02725690412095">
        <ele>1103.0</ele>
        <time>2018-06-13T12:25:13.969000Z</time>
      </trkpt>
      <trkpt lat="37.84873265388097" lon="112.02756353413912">
        <ele>1107.0</ele>
        <time>2018-06-13T12:25:31.969000Z</time>
      </trkpt>
      <trkpt lat="37.84872621701574" lon="112.02766843056087">
        <ele>1108.0</ele>
        <time>2018-06-13T12:25:37.969000Z</time>
      </trkpt>
      <trkpt lat="37.848737765842785" lon="112.02772348388471">
        <ele>1109.0</ele>
        <time>2018-06-13T12:25:40.869000Z</time>
      </trkpt>
      <trkpt lat="37.84871864951615" lon="112.02798024046547">
        <ele>1106.0</ele>
        <time>2018-06-13T12:25:55.969000Z</time>
      </trkpt>
      <trkpt lat="37.84867536577092" lon="112.02806722532762">
        <ele>1102.0</ele>
        <time>2018-06-13T12:26:01.969000Z</time>
      </trkpt>
      <trkpt lat="37.84851561974322" lon="112.02807585658887">
        <ele>1101.0</ele>
        <time>2018-06-13T12:26:13.969000Z</time>
      </trkpt>
      <trkpt lat="37.84844963918888" lon="112.02806513164622">
        <ele>1103.0</ele>
        <time>2018-06-13T12:26:16.869000Z</time>
      </trkpt>
      <trkpt lat="37.84838155029639" lon="112.02809832687635">
        <ele>1103.0</ele>
        <time>2018-06-13T12:26:19.969000Z</time>
      </trkpt>
      <trkpt lat="37.848335808283345" lon="112.02813501586292">
        <ele>1103.0</ele>
        <time>2018-06-13T12:26:22.969000Z</time>
      </trkpt>
      <trkpt lat="37.84813895906549" lon="112.02820132443779">
        <ele>1107.0</ele>
        <time>2018-06-13T12:26:34.969000Z</time>
      </trkpt>
      <trkpt lat="37.8480877690191" lon="112.02819842499322">
        <ele>1111.0</ele>
        <time>2018-06-13T12:26:37.969000Z</time>
      </trkpt>
      <trkpt lat="37.84802762947234" lon="112.02819882206626">
        <ele>1110.0</ele>
        <time>2018-06-13T12:26:40.969000Z</time>
      </trkpt>
      <trkpt lat="37.84795324075283" lon="112.02821221244315">
        <ele>1115.0</ele>
        <time>2018-06-13T12:26:46.969000Z</time>
      </trkpt>
      <trkpt lat="37.84792568553851" lon="112.02825038551778">
        <ele>1116.0</ele>
        <time>2018-06-13T12:26:52.969000Z</time>
      </trkpt>
      <trkpt lat="37.84798811421831" lon="112.02826321449362">
        <ele>1114.0</ele>
        <time>2018-06-13T12:26:58.869000Z</time>
      </trkpt>
      <trkpt lat="37.84810650665613" lon="112.02825016373176">
        <ele>1111.0</ele>
        <time>2018-06-13T12:27:04.969000Z</time>
      </trkpt>
      <trkpt lat="37.84831220015878" lon="112.02830488464463">
        <ele>1108.0</ele>
        <time>2018-06-13T12:27:13.969000Z</time>
      </trkpt>
      <trkpt lat="37.84841954036545" lon="112.02841727492246">
        <ele>1109.0</ele>
        <time>2018-06-13T12:27:19.969000Z</time>
      </trkpt>
      <trkpt lat="37.8485545098733" lon="112.02849132202019">
        <ele>1113.0</ele>
        <time>2018-06-13T12:27:25.969000Z</time>
      </trkpt>
      <trkpt lat="37.84850346951331" lon="112.02851679107755">
        <ele>1106.0</ele>
        <time>2018-06-13T12:27:31.969000Z</time>
      </trkpt>
      <trkpt lat="37.84850346951331" lon="112.02851679107755">
        <ele>1106.0</ele>
        <time>2018-06-13T12:27:37.569000Z</time>
      </trkpt>
      <trkpt lat="37.84734939351739" lon="112.02859049460824">
        <ele>1106.0</ele>
        <time>2018-06-13T12:29:37.869000Z</time>
      </trkpt>
      <trkpt lat="37.84734891082433" lon="112.02899375160005">
        <ele>1111.0</ele>
        <time>2018-06-13T12:30:01.869000Z</time>
      </trkpt>
      <trkpt lat="37.84738190389243" lon="112.0292501473704">
        <ele>1115.0</ele>
        <time>2018-06-13T12:30:13.869000Z</time>
      </trkpt>
      <trkpt lat="37.84738528862411" lon="112.02935239626052">
        <ele>1111.0</ele>
        <time>2018-06-13T12:30:19.969000Z</time>
      </trkpt>
      <trkpt lat="37.84740854774041" lon="112.02945908669996">
        <ele>1112.0</ele>
        <time>2018-06-13T12:30:28.869000Z</time>
      </trkpt>
      <trkpt lat="37.847332412636256" lon="112.02945034825362">
        <ele>1107.0</ele>
        <time>2018-06-13T12:30:37.969000Z</time>
      </trkpt>
      <trkpt lat="37.84727295234431" lon="112.02943841957027">
        <ele>1111.0</ele>
        <time>2018-06-13T12:30:43.969000Z</time>
      </trkpt>
      <trkpt lat="37.847198992618615" lon="112.02947262839486">
        <ele>1117.0</ele>
        <time>2018-06-13T12:30:49.869000Z</time>
      </trkpt>
      <trkpt lat="37.84714712186865" lon="112.02945313183082">
        <ele>1119.0</ele>
        <time>2018-06-13T12:30:52.869000Z</time>
      </trkpt>
      <trkpt lat="37.847078371129875" lon="112.02949112605152">
        <ele>1123.0</ele>
        <time>2018-06-13T12:30:58.869000Z</time>
      </trkpt>
      <trkpt lat="37.84699293170635" lon="112.02952165693225">
        <ele>1127.0</ele>
        <time>2018-06-13T12:31:10.869000Z</time>
      </trkpt>
      <trkpt lat="37.84692449443181" lon="112.02952019033039">
        <ele>1130.0</ele>
        <time>2018-06-13T12:31:16.969000Z</time>
      </trkpt>
      <trkpt lat="37.84678999775481" lon="112.02955464541793">
        <ele>1130.0</ele>
        <time>2018-06-13T12:31:26.869000Z</time>
      </trkpt>
      <trkpt lat="37.846717127241284" lon="112.02954155015536">
        <ele>1130.0</ele>
        <time>2018-06-13T12:31:32.869000Z</time>
      </trkpt>
      <trkpt lat="37.846728317508024" lon="112.02954903713922">
        <ele>1130.0</ele>
        <time>2018-06-13T12:31:39.869000Z</time>
      </trkpt>
      <trkpt lat="37.84672384655668" lon="112.0295152835892">
        <ele>1130.0</ele>
        <time>2018-06-13T12:31:46.369000Z</time>
      </trkpt>
      <trkpt lat="37.846712876787635" lon="112.02956180538277">
        <ele>1130.0</ele>
        <time>2018-06-13T12:31:57.369000Z</time>
      </trkpt>
      <trkpt lat="37.846706989766915" lon="112.0295905017432">
        <ele>1130.0</ele>
        <time>2018-06-13T12:32:05.869000Z</time>
      </trkpt>
      <trkpt lat="37.846712876787635" lon="112.02956180538277">
        <ele>1130.0</ele>
        <time>2018-06-13T12:32:14.269000Z</time>
      </trkpt>
      <trkpt lat="37.846712876787635" lon="112.02956180538277">
        <ele>1130.0</ele>
        <time>2018-06-13T12:32:19.369000Z</time>
      </trkpt>
      <trkpt lat="37.846712876787635" lon="112.02956180538277">
        <ele>1130.0</ele>
        <time>2018-06-13T12:32:21.369000Z</time>
      </trkpt>
    </trkseg>
  </trk>
</gpx>