<?xml version="1.0" encoding="UTF-8"?>
<gpx xmlns="http://www.topografix.com/GPX/1/1" xmlns:gpxtpx="http://www.garmin.com/xmlschemas/TrackPointExtension/v1" xmlns:xsi="http://www.w3.org/2001/XMLSchema-instance" xsi:schemaLocation="http://www.topografix.com/GPX/1/1 http://www.topografix.com/GPX/1/1/gpx.xsd" version="1.1" creator="gpx.py -- https://github.com/tkrajina/gpxpy">
  <trk>
    <name>gpx from keep</name>
    <type>Run</type>
    <trkseg>
      <trkpt lat="37.84733639036955" lon="112.02933102202404">
        <ele>1137.3</ele>
        <time>2017-04-18T00:53:54.100000Z</time>
      </trkpt>
      <trkpt lat="37.847399392395836" lon="112.02920092066319">
        <ele>1132.3</ele>
        <time>2017-04-18T00:54:03.100000Z</time>
      </trkpt>
      <trkpt lat="37.84740298486506" lon="112.02896101913431">
        <ele>1129.4</ele>
        <time>2017-04-18T00:54:15Z</time>
      </trkpt>
      <trkpt lat="37.84742440539933" lon="112.02885932290553">
        <ele>1129.7</ele>
        <time>2017-04-18T00:54:21Z</time>
      </trkpt>
      <trkpt lat="37.847417813656655" lon="112.02857101335002">
        <ele>1129.59</ele>
        <time>2017-04-18T00:54:41Z</time>
      </trkpt>
      <trkpt lat="37.84743598270771" lon="112.02825565813798">
        <ele>1126.2</ele>
        <time>2017-04-18T00:54:57Z</time>
      </trkpt>
      <trkpt lat="37.84740092466849" lon="112.02796086718575">
        <ele>1126.59</ele>
        <time>2017-04-18T00:55:12Z</time>
      </trkpt>
      <trkpt lat="37.84742615371875" lon="112.02775072299886">
        <ele>1125.4</ele>
        <time>2017-04-18T00:55:24Z</time>
      </trkpt>
      <trkpt lat="37.84747596183588" lon="112.02758384924242">
        <ele>1124.7</ele>
        <time>2017-04-18T00:55:36Z</time>
      </trkpt>
      <trkpt lat="37.84751582569317" lon="112.02738073763668">
        <ele>1124.4</ele>
        <time>2017-04-18T00:55:48Z</time>
      </trkpt>
      <trkpt lat="37.84755263361577" lon="112.02731068737786">
        <ele>1123.59</ele>
        <time>2017-04-18T00:55:54.100000Z</time>
      </trkpt>
      <trkpt lat="37.84761587095553" lon="112.02709242992226">
        <ele>1123.9</ele>
        <time>2017-04-18T00:56:06Z</time>
      </trkpt>
      <trkpt lat="37.847717632300906" lon="112.02687552165365">
        <ele>1123.0</ele>
        <time>2017-04-18T00:56:21Z</time>
      </trkpt>
      <trkpt lat="37.84777065647669" lon="112.02672541981899">
        <ele>1123.4</ele>
        <time>2017-04-18T00:56:30Z</time>
      </trkpt>
      <trkpt lat="37.84794072004384" lon="112.02653554997718">
        <ele>1122.0</ele>
        <time>2017-04-18T00:56:45.100000Z</time>
      </trkpt>
      <trkpt lat="37.8482075321012" lon="112.02649224755338">
        <ele>1120.09</ele>
        <time>2017-04-18T00:57:06Z</time>
      </trkpt>
      <trkpt lat="37.84905201120147" lon="112.02406504719798">
        <ele>1122.9</ele>
        <time>2017-04-18T00:59:03.500000Z</time>
      </trkpt>
      <trkpt lat="37.84909375823507" lon="112.02377326201474">
        <ele>1124.0</ele>
        <time>2017-04-18T00:59:10.100000Z</time>
      </trkpt>
      <trkpt lat="37.84909224459665" lon="112.02342659073503">
        <ele>1125.59</ele>
        <time>2017-04-18T00:59:19.100000Z</time>
      </trkpt>
      <trkpt lat="37.84908849206782" lon="112.02310642360084">
        <ele>1123.59</ele>
        <time>2017-04-18T00:59:28.100000Z</time>
      </trkpt>
      <trkpt lat="37.8491002774888" lon="112.02276002813541">
        <ele>1124.0</ele>
        <time>2017-04-18T00:59:37.100000Z</time>
      </trkpt>
      <trkpt lat="37.84911031033017" lon="112.02266159867536">
        <ele>1124.2</ele>
        <time>2017-04-18T00:59:40.100000Z</time>
      </trkpt>
      <trkpt lat="37.84910187665715" lon="112.02256966146767">
        <ele>1125.3</ele>
        <time>2017-04-18T00:59:43.100000Z</time>
      </trkpt>
      <trkpt lat="37.84907200881403" lon="112.02247799748909">
        <ele>1124.09</ele>
        <time>2017-04-18T00:59:46.100000Z</time>
      </trkpt>
      <trkpt lat="37.84907838701732" lon="112.02212647149014">
        <ele>1124.3</ele>
        <time>2017-04-18T00:59:55.100000Z</time>
      </trkpt>
      <trkpt lat="37.84906018212017" lon="112.02203642971799">
        <ele>1124.5</ele>
        <time>2017-04-18T00:59:58.200000Z</time>
      </trkpt>
      <trkpt lat="37.849016727046184" lon="112.02195315124365">
        <ele>1124.59</ele>
        <time>2017-04-18T01:00:01.100000Z</time>
      </trkpt>
      <trkpt lat="37.84899665493148" lon="112.02185148292818">
        <ele>1124.4</ele>
        <time>2017-04-18T01:00:04.100000Z</time>
      </trkpt>
      <trkpt lat="37.849035095001646" lon="112.02148454683204">
        <ele>1123.3</ele>
        <time>2017-04-18T01:00:13.100000Z</time>
      </trkpt>
      <trkpt lat="37.849065055773885" lon="112.02124307901342">
        <ele>1123.4</ele>
        <time>2017-04-18T01:00:19.100000Z</time>
      </trkpt>
      <trkpt lat="37.848994902789414" lon="112.02110112995565">
        <ele>1121.09</ele>
        <time>2017-04-18T01:00:25.100000Z</time>
      </trkpt>
      <trkpt lat="37.84898699132515" lon="112.02101784945194">
        <ele>1121.09</ele>
        <time>2017-04-18T01:00:28.100000Z</time>
      </trkpt>
      <trkpt lat="37.84903850649178" lon="112.0206344266351">
        <ele>1119.9</ele>
        <time>2017-04-18T01:00:37.100000Z</time>
      </trkpt>
      <trkpt lat="37.849056811252176" lon="112.02048949510339">
        <ele>1119.59</ele>
        <time>2017-04-18T01:00:40.100000Z</time>
      </trkpt>
      <trkpt lat="37.849040043029675" lon="112.02007607315548">
        <ele>1120.59</ele>
        <time>2017-04-18T01:00:52.100000Z</time>
      </trkpt>
      <trkpt lat="37.849073378054385" lon="112.01999089737545">
        <ele>1120.4</ele>
        <time>2017-04-18T01:00:55.300000Z</time>
      </trkpt>
      <trkpt lat="37.84907325073689" lon="112.01964426379435">
        <ele>1115.59</ele>
        <time>2017-04-18T01:01:04.100000Z</time>
      </trkpt>
      <trkpt lat="37.84907153317316" lon="112.01938280383226">
        <ele>1114.7</ele>
        <time>2017-04-18T01:01:10.100000Z</time>
      </trkpt>
      <trkpt lat="37.84910500947029" lon="112.01914946100578">
        <ele>1113.5</ele>
        <time>2017-04-18T01:01:16.100000Z</time>
      </trkpt>
      <trkpt lat="37.84911493735798" lon="112.01879904873354">
        <ele>1114.7</ele>
        <time>2017-04-18T01:01:25.100000Z</time>
      </trkpt>
      <trkpt lat="37.849128238276094" lon="112.01840754226265">
        <ele>1116.5</ele>
        <time>2017-04-18T01:01:37.100000Z</time>
      </trkpt>
      <trkpt lat="37.849147830183256" lon="112.0179990055501">
        <ele>1118.9</ele>
        <time>2017-04-18T01:01:49.100000Z</time>
      </trkpt>
      <trkpt lat="37.84913455336644" lon="112.0177992026713">
        <ele>1119.09</ele>
        <time>2017-04-18T01:01:55.200000Z</time>
      </trkpt>
      <trkpt lat="37.8491731040151" lon="112.01740418838473">
        <ele>1120.59</ele>
        <time>2017-04-18T01:02:07.100000Z</time>
      </trkpt>
      <trkpt lat="37.84923794216843" lon="112.01702080054463">
        <ele>1124.5</ele>
        <time>2017-04-18T01:02:19.100000Z</time>
      </trkpt>
      <trkpt lat="37.849272916865004" lon="112.0168372186005">
        <ele>1125.2</ele>
        <time>2017-04-18T01:02:25.100000Z</time>
      </trkpt>
      <trkpt lat="37.849278073133796" lon="112.01674069804947">
        <ele>1125.09</ele>
        <time>2017-04-18T01:02:28.100000Z</time>
      </trkpt>
      <trkpt lat="37.84933473390285" lon="112.01637245761727">
        <ele>1125.8</ele>
        <time>2017-04-18T01:02:40.100000Z</time>
      </trkpt>
      <trkpt lat="37.849412697749926" lon="112.01595555330186">
        <ele>1128.09</ele>
        <time>2017-04-18T01:02:52.100000Z</time>
      </trkpt>
      <trkpt lat="37.849441229985736" lon="112.0157489964318">
        <ele>1128.3</ele>
        <time>2017-04-18T01:02:58.100000Z</time>
      </trkpt>
      <trkpt lat="37.84939773265276" lon="112.0154937851305">
        <ele>1125.7</ele>
        <time>2017-04-18T01:03:07.100000Z</time>
      </trkpt>
      <trkpt lat="37.84939946409128" lon="112.01517206285686">
        <ele>1125.09</ele>
        <time>2017-04-18T01:03:16.100000Z</time>
      </trkpt>
      <trkpt lat="37.849456006967394" lon="112.01494360781561">
        <ele>1125.9</ele>
        <time>2017-04-18T01:03:22.200000Z</time>
      </trkpt>
      <trkpt lat="37.84945275612227" lon="112.01475219919556">
        <ele>1125.7</ele>
        <time>2017-04-18T01:03:28.100000Z</time>
      </trkpt>
      <trkpt lat="37.8494193425431" lon="112.01467217933185">
        <ele>1125.9</ele>
        <time>2017-04-18T01:03:31.100000Z</time>
      </trkpt>
      <trkpt lat="37.84938432663504" lon="112.0144886158062">
        <ele>1125.2</ele>
        <time>2017-04-18T01:03:37.100000Z</time>
      </trkpt>
      <trkpt lat="37.849385978828046" lon="112.01410201739124">
        <ele>1125.9</ele>
        <time>2017-04-18T01:03:49.100000Z</time>
      </trkpt>
      <trkpt lat="37.849392750631516" lon="112.01391709942156">
        <ele>1127.0</ele>
        <time>2017-04-18T01:03:55.100000Z</time>
      </trkpt>
      <trkpt lat="37.8494810415741" lon="112.01350048724035">
        <ele>1127.9</ele>
        <time>2017-04-18T01:04:07.100000Z</time>
      </trkpt>
      <trkpt lat="37.849567705415474" lon="112.01317849851077">
        <ele>1129.5</ele>
        <time>2017-04-18T01:04:16.100000Z</time>
      </trkpt>
      <trkpt lat="37.84959434999779" lon="112.01306522217351">
        <ele>1130.3</ele>
        <time>2017-04-18T01:04:19.100000Z</time>
      </trkpt>
      <trkpt lat="37.849642570120935" lon="112.01262185864053">
        <ele>1130.3</ele>
        <time>2017-04-18T01:04:31.100000Z</time>
      </trkpt>
      <trkpt lat="37.84969748899429" lon="112.01220850564036">
        <ele>1129.3</ele>
        <time>2017-04-18T01:04:43.100000Z</time>
      </trkpt>
      <trkpt lat="37.84980262761757" lon="112.01178676965448">
        <ele>1128.3</ele>
        <time>2017-04-18T01:04:55.100000Z</time>
      </trkpt>
      <trkpt lat="37.84982582125291" lon="112.01155509081141">
        <ele>1128.0</ele>
        <time>2017-04-18T01:05:01.100000Z</time>
      </trkpt>
      <trkpt lat="37.849830868855975" lon="112.01112688415888">
        <ele>1129.9</ele>
        <time>2017-04-18T01:05:13.200000Z</time>
      </trkpt>
      <trkpt lat="37.849819123113704" lon="112.01069003242347">
        <ele>1134.8</ele>
        <time>2017-04-18T01:05:25.100000Z</time>
      </trkpt>
      <trkpt lat="37.84982726894156" lon="112.01059514611484">
        <ele>1134.8</ele>
        <time>2017-04-18T01:05:28.100000Z</time>
      </trkpt>
      <trkpt lat="37.84980082953138" lon="112.01045160510358">
        <ele>1130.8</ele>
        <time>2017-04-18T01:05:34.100000Z</time>
      </trkpt>
      <trkpt lat="37.84988562581846" lon="112.01003150737888">
        <ele>1129.7</ele>
        <time>2017-04-18T01:05:46.100000Z</time>
      </trkpt>
      <trkpt lat="37.84993073425763" lon="112.00963817955574">
        <ele>1129.4</ele>
        <time>2017-04-18T01:05:58.100000Z</time>
      </trkpt>
      <trkpt lat="37.84991246660125" lon="112.00930000767455">
        <ele>1126.2</ele>
        <time>2017-04-18T01:06:10.100000Z</time>
      </trkpt>
      <trkpt lat="37.84980385289115" lon="112.0092381168913">
        <ele>1124.8</ele>
        <time>2017-04-18T01:06:13.200000Z</time>
      </trkpt>
      <trkpt lat="37.849655605828325" lon="112.00909162028671">
        <ele>1124.3</ele>
        <time>2017-04-18T01:06:19.100000Z</time>
      </trkpt>
      <trkpt lat="37.849512286490025" lon="112.00883834689937">
        <ele>1126.4</ele>
        <time>2017-04-18T01:06:28.100000Z</time>
      </trkpt>
      <trkpt lat="37.8493925487183" lon="112.00868481954821">
        <ele>1128.09</ele>
        <time>2017-04-18T01:06:34.100000Z</time>
      </trkpt>
      <trkpt lat="37.849290805736665" lon="112.00850155536969">
        <ele>1128.59</ele>
        <time>2017-04-18T01:06:40.100000Z</time>
      </trkpt>
      <trkpt lat="37.849107349365404" lon="112.00824315315933">
        <ele>1126.4</ele>
        <time>2017-04-18T01:06:49.100000Z</time>
      </trkpt>
      <trkpt lat="37.84900551454146" lon="112.00809124703137">
        <ele>1126.09</ele>
        <time>2017-04-18T01:06:55.200000Z</time>
      </trkpt>
      <trkpt lat="37.8488172195702" lon="112.00772661302561">
        <ele>1128.5</ele>
        <time>2017-04-18T01:07:07.100000Z</time>
      </trkpt>
      <trkpt lat="37.848777323611486" lon="112.00763957629002">
        <ele>1129.0</ele>
        <time>2017-04-18T01:07:10.100000Z</time>
      </trkpt>
      <trkpt lat="37.84853732398951" lon="112.00732793243306">
        <ele>1136.59</ele>
        <time>2017-04-18T01:07:22.100000Z</time>
      </trkpt>
      <trkpt lat="37.84832220179719" lon="112.00704466986679">
        <ele>1142.3</ele>
        <time>2017-04-18T01:07:34.100000Z</time>
      </trkpt>
      <trkpt lat="37.848192269649715" lon="112.00694466976466">
        <ele>1143.7</ele>
        <time>2017-04-18T01:07:40.100000Z</time>
      </trkpt>
      <trkpt lat="37.84787744006083" lon="112.0068898339609">
        <ele>1143.59</ele>
        <time>2017-04-18T01:07:52.100000Z</time>
      </trkpt>
      <trkpt lat="37.84757404105176" lon="112.00682310311522">
        <ele>1144.3</ele>
        <time>2017-04-18T01:08:07.100000Z</time>
      </trkpt>
      <trkpt lat="37.84727199870829" lon="112.00675637216924">
        <ele>1146.2</ele>
        <time>2017-04-18T01:08:28.100000Z</time>
      </trkpt>
      <trkpt lat="37.84698882835588" lon="112.00672991542486">
        <ele>1147.7</ele>
        <time>2017-04-18T01:08:49.100000Z</time>
      </trkpt>
      <trkpt lat="37.84694385101016" lon="112.00670964743593">
        <ele>1148.09</ele>
        <time>2017-04-18T01:08:52.100000Z</time>
      </trkpt>
      <trkpt lat="37.84687705929475" lon="112.00672614439816">
        <ele>1147.7</ele>
        <time>2017-04-18T01:08:58.100000Z</time>
      </trkpt>
      <trkpt lat="37.84658222746054" lon="112.00669806718689">
        <ele>1153.4</ele>
        <time>2017-04-18T01:09:22.100000Z</time>
      </trkpt>
      <trkpt lat="37.846442255727766" lon="112.00668970423371">
        <ele>1154.4</ele>
        <time>2017-04-18T01:09:28.100000Z</time>
      </trkpt>
      <trkpt lat="37.84621393397306" lon="112.00673973907534">
        <ele>1160.4</ele>
        <time>2017-04-18T01:09:37.100000Z</time>
      </trkpt>
      <trkpt lat="37.84612738565426" lon="112.00673974939963">
        <ele>1161.59</ele>
        <time>2017-04-18T01:09:40.100000Z</time>
      </trkpt>
      <trkpt lat="37.845792397432874" lon="112.00662139302958">
        <ele>1165.0</ele>
        <time>2017-04-18T01:09:52.100000Z</time>
      </trkpt>
      <trkpt lat="37.84564567278639" lon="112.00660302938334">
        <ele>1164.9</ele>
        <time>2017-04-18T01:09:58.100000Z</time>
      </trkpt>
      <trkpt lat="37.84530362994924" lon="112.00648494438836">
        <ele>1165.4</ele>
        <time>2017-04-18T01:10:10.200000Z</time>
      </trkpt>
      <trkpt lat="37.8451090436206" lon="112.00641279472502">
        <ele>1165.5</ele>
        <time>2017-04-18T01:10:16.100000Z</time>
      </trkpt>
      <trkpt lat="37.84501560968378" lon="112.0063563110492">
        <ele>1165.8</ele>
        <time>2017-04-18T01:10:19.100000Z</time>
      </trkpt>
      <trkpt lat="37.844673809587825" lon="112.00624795756912">
        <ele>1168.3</ele>
        <time>2017-04-18T01:10:31.100000Z</time>
      </trkpt>
      <trkpt lat="37.84440565510483" lon="112.00628123764142">
        <ele>1162.5</ele>
        <time>2017-04-18T01:10:40.100000Z</time>
      </trkpt>
      <trkpt lat="37.844132136238784" lon="112.00638479897475">
        <ele>1158.2</ele>
        <time>2017-04-18T01:10:49.100000Z</time>
      </trkpt>
      <trkpt lat="37.84382394842587" lon="112.00655972661468">
        <ele>1159.5</ele>
        <time>2017-04-18T01:11:01.100000Z</time>
      </trkpt>
      <trkpt lat="37.843530588955296" lon="112.00676627937345">
        <ele>1158.09</ele>
        <time>2017-04-18T01:11:13.100000Z</time>
      </trkpt>
      <trkpt lat="37.843315776348646" lon="112.00692659996933">
        <ele>1159.59</ele>
        <time>2017-04-18T01:11:22.100000Z</time>
      </trkpt>
      <trkpt lat="37.84307714496951" lon="112.00706800188274">
        <ele>1159.3</ele>
        <time>2017-04-18T01:11:31.100000Z</time>
      </trkpt>
      <trkpt lat="37.84291390772214" lon="112.00721966700551">
        <ele>1159.2</ele>
        <time>2017-04-18T01:11:37.100000Z</time>
      </trkpt>
      <trkpt lat="37.842665354757614" lon="112.00741324133395">
        <ele>1159.2</ele>
        <time>2017-04-18T01:11:46.200000Z</time>
      </trkpt>
      <trkpt lat="37.842443785771195" lon="112.00765655098196">
        <ele>1156.9</ele>
        <time>2017-04-18T01:11:55.200000Z</time>
      </trkpt>
      <trkpt lat="37.842200493751115" lon="112.00781471458299">
        <ele>1151.9</ele>
        <time>2017-04-18T01:12:04.100000Z</time>
      </trkpt>
      <trkpt lat="37.84205044343363" lon="112.00791150562944">
        <ele>1148.9</ele>
        <time>2017-04-18T01:12:10.100000Z</time>
      </trkpt>
      <trkpt lat="37.84178888539276" lon="112.0080080398115">
        <ele>1149.5</ele>
        <time>2017-04-18T01:12:19.100000Z</time>
      </trkpt>
      <trkpt lat="37.84155574074408" lon="112.00803807278768">
        <ele>1158.09</ele>
        <time>2017-04-18T01:12:25.100000Z</time>
      </trkpt>
      <trkpt lat="37.841438706630534" lon="112.00807160604283">
        <ele>1161.7</ele>
        <time>2017-04-18T01:12:28.100000Z</time>
      </trkpt>
      <trkpt lat="37.8411523812041" lon="112.00810299698094">
        <ele>1164.9</ele>
        <time>2017-04-18T01:12:37.100000Z</time>
      </trkpt>
      <trkpt lat="37.840890512199024" lon="112.00812140979247">
        <ele>1165.7</ele>
        <time>2017-04-18T01:12:46.100000Z</time>
      </trkpt>
      <trkpt lat="37.84059228771037" lon="112.00804818947509">
        <ele>1166.4</ele>
        <time>2017-04-18T01:12:55.100000Z</time>
      </trkpt>
      <trkpt lat="37.840509040268124" lon="112.0080330616675">
        <ele>1166.9</ele>
        <time>2017-04-18T01:12:58.100000Z</time>
      </trkpt>
      <trkpt lat="37.840334005869735" lon="112.00804632807638">
        <ele>1165.3</ele>
        <time>2017-04-18T01:13:04.100000Z</time>
      </trkpt>
      <trkpt lat="37.84025222778281" lon="112.00808472283587">
        <ele>1163.3</ele>
        <time>2017-04-18T01:13:07.100000Z</time>
      </trkpt>
      <trkpt lat="37.84000059427923" lon="112.00812827391297">
        <ele>1161.2</ele>
        <time>2017-04-18T01:13:16.100000Z</time>
      </trkpt>
      <trkpt lat="37.83992888033617" lon="112.00815801736718">
        <ele>1160.9</ele>
        <time>2017-04-18T01:13:19.100000Z</time>
      </trkpt>
      <trkpt lat="37.83986057422293" lon="112.00822803773946">
        <ele>1160.0</ele>
        <time>2017-04-18T01:13:22.200000Z</time>
      </trkpt>
      <trkpt lat="37.83978050810481" lon="112.00823804904596">
        <ele>1159.8</ele>
        <time>2017-04-18T01:13:25.100000Z</time>
      </trkpt>
      <trkpt lat="37.839507485966834" lon="112.00817482732576">
        <ele>1159.8</ele>
        <time>2017-04-18T01:13:34.100000Z</time>
      </trkpt>
      <trkpt lat="37.83942394724405" lon="112.00816645745557">
        <ele>1160.4</ele>
        <time>2017-04-18T01:13:37.100000Z</time>
      </trkpt>
      <trkpt lat="37.83942906293804" lon="112.00808806486187">
        <ele>1159.59</ele>
        <time>2017-04-18T01:13:49.100000Z</time>
      </trkpt>
      <trkpt lat="37.83950219261331" lon="112.00812995528734">
        <ele>1160.7</ele>
        <time>2017-04-18T01:13:59.600000Z</time>
      </trkpt>
      <trkpt lat="37.83954571190075" lon="112.00809291664972">
        <ele>1160.2</ele>
        <time>2017-04-18T01:14:04.100000Z</time>
      </trkpt>
      <trkpt lat="37.839667056367986" lon="112.00816129241728">
        <ele>1157.59</ele>
        <time>2017-04-18T01:14:10.200000Z</time>
      </trkpt>
      <trkpt lat="37.83994539107023" lon="112.00807962342599">
        <ele>1156.4</ele>
        <time>2017-04-18T01:14:28.100000Z</time>
      </trkpt>
      <trkpt lat="37.840088958229806" lon="112.00806473886331">
        <ele>1156.9</ele>
        <time>2017-04-18T01:14:40.100000Z</time>
      </trkpt>
      <trkpt lat="37.84017897400253" lon="112.00808473157682">
        <ele>1156.0</ele>
        <time>2017-04-18T01:14:49.100000Z</time>
      </trkpt>
      <trkpt lat="37.84048551943993" lon="112.00809658894704">
        <ele>1154.7</ele>
        <time>2017-04-18T01:15:10.100000Z</time>
      </trkpt>
      <trkpt lat="37.84063554446269" lon="112.00809981484961">
        <ele>1154.9</ele>
        <time>2017-04-18T01:15:19.100000Z</time>
      </trkpt>
      <trkpt lat="37.84093734485726" lon="112.00815654544182">
        <ele>1152.8</ele>
        <time>2017-04-18T01:15:43.100000Z</time>
      </trkpt>
      <trkpt lat="37.84127380423593" lon="112.00814488164919">
        <ele>1153.3</ele>
        <time>2017-04-18T01:16:01.100000Z</time>
      </trkpt>
      <trkpt lat="37.84155580480099" lon="112.00801644744132">
        <ele>1154.9</ele>
        <time>2017-04-18T01:16:13.100000Z</time>
      </trkpt>
      <trkpt lat="37.84174886997498" lon="112.00796127982292">
        <ele>1154.2</ele>
        <time>2017-04-18T01:16:19.100000Z</time>
      </trkpt>
      <trkpt lat="37.842022425024695" lon="112.00784474089534">
        <ele>1153.8</ele>
        <time>2017-04-18T01:16:28.100000Z</time>
      </trkpt>
      <trkpt lat="37.84215535799639" lon="112.00775633177399">
        <ele>1154.59</ele>
        <time>2017-04-18T01:16:34.100000Z</time>
      </trkpt>
      <trkpt lat="37.84231213650356" lon="112.00758655509485">
        <ele>1150.0</ele>
        <time>2017-04-18T01:16:46.100000Z</time>
      </trkpt>
      <trkpt lat="37.84237383312482" lon="112.00754978491848">
        <ele>1149.5</ele>
        <time>2017-04-18T01:16:49.100000Z</time>
      </trkpt>
      <trkpt lat="37.84243370441082" lon="112.00748814604266">
        <ele>1150.2</ele>
        <time>2017-04-18T01:16:52.100000Z</time>
      </trkpt>
      <trkpt lat="37.84266885293439" lon="112.0073316060826">
        <ele>1150.7</ele>
        <time>2017-04-18T01:17:01.100000Z</time>
      </trkpt>
      <trkpt lat="37.84272223300856" lon="112.00726321034385">
        <ele>1150.59</ele>
        <time>2017-04-18T01:17:04.100000Z</time>
      </trkpt>
      <trkpt lat="37.84295903475922" lon="112.00709829101243">
        <ele>1150.8</ele>
        <time>2017-04-18T01:17:13.100000Z</time>
      </trkpt>
      <trkpt lat="37.843237353040905" lon="112.00693147494447">
        <ele>1150.59</ele>
        <time>2017-04-18T01:17:22.100000Z</time>
      </trkpt>
      <trkpt lat="37.843498727977" lon="112.00671465367421">
        <ele>1144.59</ele>
        <time>2017-04-18T01:17:34.100000Z</time>
      </trkpt>
      <trkpt lat="37.84372727404919" lon="112.00649810730458">
        <ele>1141.0</ele>
        <time>2017-04-18T01:17:46.100000Z</time>
      </trkpt>
      <trkpt lat="37.844003901235006" lon="112.00635291767699">
        <ele>1140.5</ele>
        <time>2017-04-18T01:17:55.100000Z</time>
      </trkpt>
      <trkpt lat="37.84427044906853" lon="112.0062215153326">
        <ele>1141.09</ele>
        <time>2017-04-18T01:18:04.100000Z</time>
      </trkpt>
      <trkpt lat="37.844370582992575" lon="112.00621474565301">
        <ele>1141.7</ele>
        <time>2017-04-18T01:18:07.100000Z</time>
      </trkpt>
      <trkpt lat="37.84466372673861" lon="112.00626282580298">
        <ele>1141.3</ele>
        <time>2017-04-18T01:18:16.100000Z</time>
      </trkpt>
      <trkpt lat="37.84502556064466" lon="112.00629467920083">
        <ele>1141.5</ele>
        <time>2017-04-18T01:18:28.100000Z</time>
      </trkpt>
      <trkpt lat="37.845303841273314" lon="112.00632302854703">
        <ele>1141.7</ele>
        <time>2017-04-18T01:18:37.100000Z</time>
      </trkpt>
      <trkpt lat="37.84539900138872" lon="112.00634653416337">
        <ele>1141.59</ele>
        <time>2017-04-18T01:18:40.100000Z</time>
      </trkpt>
      <trkpt lat="37.84548718801134" lon="112.00634300961588">
        <ele>1140.7</ele>
        <time>2017-04-18T01:18:43.100000Z</time>
      </trkpt>
      <trkpt lat="37.845728954293506" lon="112.00642461444008">
        <ele>1139.5</ele>
        <time>2017-04-18T01:18:52.100000Z</time>
      </trkpt>
      <trkpt lat="37.84579880276024" lon="112.00647488383916">
        <ele>1139.9</ele>
        <time>2017-04-18T01:18:55.100000Z</time>
      </trkpt>
      <trkpt lat="37.84595900436336" lon="112.00652298001093">
        <ele>1138.4</ele>
        <time>2017-04-18T01:19:01.100000Z</time>
      </trkpt>
      <trkpt lat="37.84600233763195" lon="112.00663974913964">
        <ele>1134.09</ele>
        <time>2017-04-18T01:19:07.100000Z</time>
      </trkpt>
      <trkpt lat="37.84618718843118" lon="112.00670135804633">
        <ele>1132.59</ele>
        <time>2017-04-18T01:19:13.100000Z</time>
      </trkpt>
      <trkpt lat="37.84628048975814" lon="112.00671134843654">
        <ele>1132.9</ele>
        <time>2017-04-18T01:19:16.100000Z</time>
      </trkpt>
      <trkpt lat="37.84662375259538" lon="112.00669319662993">
        <ele>1133.59</ele>
        <time>2017-04-18T01:19:28.100000Z</time>
      </trkpt>
      <trkpt lat="37.84693053179837" lon="112.00671802867724">
        <ele>1135.8</ele>
        <time>2017-04-18T01:19:37.100000Z</time>
      </trkpt>
      <trkpt lat="37.84724384185851" lon="112.00673637247792">
        <ele>1138.3</ele>
        <time>2017-04-18T01:19:46.100000Z</time>
      </trkpt>
      <trkpt lat="37.84754880570402" lon="112.00673309235982">
        <ele>1135.9</ele>
        <time>2017-04-18T01:19:55.100000Z</time>
      </trkpt>
      <trkpt lat="37.8478222234236" lon="112.00675468465987">
        <ele>1135.8</ele>
        <time>2017-04-18T01:20:04.100000Z</time>
      </trkpt>
      <trkpt lat="37.84808201043925" lon="112.00679817383447">
        <ele>1136.9</ele>
        <time>2017-04-18T01:20:13.100000Z</time>
      </trkpt>
      <trkpt lat="37.84817575073389" lon="112.00684303440423">
        <ele>1139.2</ele>
        <time>2017-04-18T01:20:16.100000Z</time>
      </trkpt>
      <trkpt lat="37.84834055734667" lon="112.0069849286091">
        <ele>1140.0</ele>
        <time>2017-04-18T01:20:22.100000Z</time>
      </trkpt>
      <trkpt lat="37.8485357163319" lon="112.00722980879928">
        <ele>1140.09</ele>
        <time>2017-04-18T01:20:31.100000Z</time>
      </trkpt>
      <trkpt lat="37.848712322511766" lon="112.00750983296057">
        <ele>1139.2</ele>
        <time>2017-04-18T01:20:40.100000Z</time>
      </trkpt>
      <trkpt lat="37.84893221610111" lon="112.0078314817547">
        <ele>1139.0</ele>
        <time>2017-04-18T01:20:52.100000Z</time>
      </trkpt>
      <trkpt lat="37.84917578391834" lon="112.00812988203582">
        <ele>1137.2</ele>
        <time>2017-04-18T01:21:04.100000Z</time>
      </trkpt>
      <trkpt lat="37.84936225474901" lon="112.00837801133162">
        <ele>1134.8</ele>
        <time>2017-04-18T01:21:13.100000Z</time>
      </trkpt>
      <trkpt lat="37.84955045647883" lon="112.00859154054945">
        <ele>1137.3</ele>
        <time>2017-04-18T01:21:22.100000Z</time>
      </trkpt>
      <trkpt lat="37.84972549378407" lon="112.00885318904993">
        <ele>1136.9</ele>
        <time>2017-04-18T01:21:31.100000Z</time>
      </trkpt>
      <trkpt lat="37.8498372514404" lon="112.00904483303253">
        <ele>1135.2</ele>
        <time>2017-04-18T01:21:37.100000Z</time>
      </trkpt>
      <trkpt lat="37.84987898038896" lon="112.00915484882147">
        <ele>1134.3</ele>
        <time>2017-04-18T01:21:40.100000Z</time>
      </trkpt>
      <trkpt lat="37.8499291436656" lon="112.00953329421591">
        <ele>1128.8</ele>
        <time>2017-04-18T01:21:49.100000Z</time>
      </trkpt>
      <trkpt lat="37.84995081156403" lon="112.00991498936553">
        <ele>1130.0</ele>
        <time>2017-04-18T01:22:01.200000Z</time>
      </trkpt>
      <trkpt lat="37.84995414480991" lon="112.01025830284892">
        <ele>1130.7</ele>
        <time>2017-04-18T01:22:10.100000Z</time>
      </trkpt>
      <trkpt lat="37.84992232374129" lon="112.01065514768393">
        <ele>1130.0</ele>
        <time>2017-04-18T01:22:19.100000Z</time>
      </trkpt>
      <trkpt lat="37.84991758440811" lon="112.01097684029496">
        <ele>1128.59</ele>
        <time>2017-04-18T01:22:28.100000Z</time>
      </trkpt>
      <trkpt lat="37.84986582756885" lon="112.01132665497143">
        <ele>1130.5</ele>
        <time>2017-04-18T01:22:40.100000Z</time>
      </trkpt>
      <trkpt lat="37.84982095110718" lon="112.01173675562244">
        <ele>1133.5</ele>
        <time>2017-04-18T01:23:01.100000Z</time>
      </trkpt>
      <trkpt lat="37.84977923599687" lon="112.01208684452254">
        <ele>1132.09</ele>
        <time>2017-04-18T01:23:19.100000Z</time>
      </trkpt>
      <trkpt lat="37.849769213735165" lon="112.0124550446871">
        <ele>1132.09</ele>
        <time>2017-04-18T01:23:37.100000Z</time>
      </trkpt>
      <trkpt lat="37.849722498409264" lon="112.01284677154283">
        <ele>1129.7</ele>
        <time>2017-04-18T01:23:55.100000Z</time>
      </trkpt>
      <trkpt lat="37.849706129537566" lon="112.01325336673487">
        <ele>1130.2</ele>
        <time>2017-04-18T01:24:19.100000Z</time>
      </trkpt>
      <trkpt lat="37.849677678169336" lon="112.01361698203075">
        <ele>1132.09</ele>
        <time>2017-04-18T01:24:31.100000Z</time>
      </trkpt>
      <trkpt lat="37.849626009697886" lon="112.01403548329061">
        <ele>1136.4</ele>
        <time>2017-04-18T01:24:43.100000Z</time>
      </trkpt>
      <trkpt lat="37.849584321494326" lon="112.01447534474526">
        <ele>1136.2</ele>
        <time>2017-04-18T01:24:55.200000Z</time>
      </trkpt>
      <trkpt lat="37.84954618234331" lon="112.01481382811286">
        <ele>1134.4</ele>
        <time>2017-04-18T01:25:04.100000Z</time>
      </trkpt>
      <trkpt lat="37.849509483227045" lon="112.01521882089858">
        <ele>1131.3</ele>
        <time>2017-04-18T01:25:16.100000Z</time>
      </trkpt>
      <trkpt lat="37.849451348776604" lon="112.01562544212449">
        <ele>1133.3</ele>
        <time>2017-04-18T01:25:28.100000Z</time>
      </trkpt>
      <trkpt lat="37.84940464082832" lon="112.01602206252869">
        <ele>1134.3</ele>
        <time>2017-04-18T01:25:40.100000Z</time>
      </trkpt>
      <trkpt lat="37.84938126784023" lon="112.0164189542043">
        <ele>1131.4</ele>
        <time>2017-04-18T01:25:52.100000Z</time>
      </trkpt>
      <trkpt lat="37.84937304011392" lon="112.01683396223586">
        <ele>1126.9</ele>
        <time>2017-04-18T01:26:04.100000Z</time>
      </trkpt>
      <trkpt lat="37.849369734171454" lon="112.017044036195">
        <ele>1126.4</ele>
        <time>2017-04-18T01:26:10.100000Z</time>
      </trkpt>
      <trkpt lat="37.84930310865909" lon="112.01748420182977">
        <ele>1124.0</ele>
        <time>2017-04-18T01:26:22.100000Z</time>
      </trkpt>
      <trkpt lat="37.84926971355523" lon="112.01787921628956">
        <ele>1122.8</ele>
        <time>2017-04-18T01:26:34.100000Z</time>
      </trkpt>
      <trkpt lat="37.84922798118521" lon="112.01824909092696">
        <ele>1125.7</ele>
        <time>2017-04-18T01:26:46.100000Z</time>
      </trkpt>
      <trkpt lat="37.8492065012032" lon="112.01865438597488">
        <ele>1119.9</ele>
        <time>2017-04-18T01:26:58.100000Z</time>
      </trkpt>
      <trkpt lat="37.849181345748306" lon="112.01911430244775">
        <ele>1113.2</ele>
        <time>2017-04-18T01:27:10.100000Z</time>
      </trkpt>
      <trkpt lat="37.84917648818263" lon="112.01949608141535">
        <ele>1114.0</ele>
        <time>2017-04-18T01:27:19.100000Z</time>
      </trkpt>
      <trkpt lat="37.84916171989853" lon="112.01983271113959">
        <ele>1113.0</ele>
        <time>2017-04-18T01:27:28.100000Z</time>
      </trkpt>
      <trkpt lat="37.84909167062636" lon="112.02024451840671">
        <ele>1113.0</ele>
        <time>2017-04-18T01:27:37.200000Z</time>
      </trkpt>
      <trkpt lat="37.84904835450355" lon="112.02050626030217">
        <ele>1112.2</ele>
        <time>2017-04-18T01:27:43.100000Z</time>
      </trkpt>
      <trkpt lat="37.849046677773536" lon="112.02062279883955">
        <ele>1111.7</ele>
        <time>2017-04-18T01:27:46.100000Z</time>
      </trkpt>
      <trkpt lat="37.849106780506766" lon="112.02096646025588">
        <ele>1109.4</ele>
        <time>2017-04-18T01:27:55.100000Z</time>
      </trkpt>
      <trkpt lat="37.8491169342049" lon="112.02132121724301">
        <ele>1110.4</ele>
        <time>2017-04-18T01:28:04.100000Z</time>
      </trkpt>
      <trkpt lat="37.8490984749131" lon="112.02172303072777">
        <ele>1111.0</ele>
        <time>2017-04-18T01:28:13.100000Z</time>
      </trkpt>
      <trkpt lat="37.849095289767504" lon="112.02209645478268">
        <ele>1116.09</ele>
        <time>2017-04-18T01:28:22.100000Z</time>
      </trkpt>
      <trkpt lat="37.84910547093393" lon="112.02254478367858">
        <ele>1117.5</ele>
        <time>2017-04-18T01:28:34.100000Z</time>
      </trkpt>
      <trkpt lat="37.849108577499145" lon="112.02290172106969">
        <ele>1116.5</ele>
        <time>2017-04-18T01:28:43.100000Z</time>
      </trkpt>
      <trkpt lat="37.84913212383157" lon="112.02312480628122">
        <ele>1118.5</ele>
        <time>2017-04-18T01:28:49.100000Z</time>
      </trkpt>
      <trkpt lat="37.84910542650391" lon="112.0234685032132">
        <ele>1119.2</ele>
        <time>2017-04-18T01:28:58.100000Z</time>
      </trkpt>
      <trkpt lat="37.849002272655966" lon="112.02379328379168">
        <ele>1122.09</ele>
        <time>2017-04-18T01:29:19.100000Z</time>
      </trkpt>
      <trkpt lat="37.84891368614796" lon="112.02404856829216">
        <ele>1124.59</ele>
        <time>2017-04-18T01:29:31.200000Z</time>
      </trkpt>
      <trkpt lat="37.84889716742393" lon="112.02413861969367">
        <ele>1124.9</ele>
        <time>2017-04-18T01:29:37.100000Z</time>
      </trkpt>
      <trkpt lat="37.848935517229876" lon="112.02430681617584">
        <ele>1125.7</ele>
        <time>2017-04-18T01:29:46.100000Z</time>
      </trkpt>
      <trkpt lat="37.8489806307078" lon="112.02438036520773">
        <ele>1127.4</ele>
        <time>2017-04-18T01:29:49.100000Z</time>
      </trkpt>
      <trkpt lat="37.84901231860786" lon="112.02450340323259">
        <ele>1129.0</ele>
        <time>2017-04-18T01:29:58.100000Z</time>
      </trkpt>
      <trkpt lat="37.84899400702869" lon="112.02475841452349">
        <ele>1133.59</ele>
        <time>2017-04-18T01:30:10.200000Z</time>
      </trkpt>
      <trkpt lat="37.84896396365669" lon="112.02483359617842">
        <ele>1136.4</ele>
        <time>2017-04-18T01:30:19.200000Z</time>
      </trkpt>
      <trkpt lat="37.84893386145558" lon="112.02503371489097">
        <ele>1137.8</ele>
        <time>2017-04-18T01:30:25.100000Z</time>
      </trkpt>
      <trkpt lat="37.84893886281079" lon="112.02509185607708">
        <ele>1137.7</ele>
        <time>2017-04-18T01:30:28.100000Z</time>
      </trkpt>
      <trkpt lat="37.84891565020496" lon="112.02525195215897">
        <ele>1138.59</ele>
        <time>2017-04-18T01:30:43.200000Z</time>
      </trkpt>
      <trkpt lat="37.84893080652983" lon="112.02547207995735">
        <ele>1138.7</ele>
        <time>2017-04-18T01:30:55.100000Z</time>
      </trkpt>
      <trkpt lat="37.84890384967238" lon="112.02561216649516">
        <ele>1138.3</ele>
        <time>2017-04-18T01:31:01.100000Z</time>
      </trkpt>
      <trkpt lat="37.848895899010245" lon="112.02585041869055">
        <ele>1137.2</ele>
        <time>2017-04-18T01:31:10.100000Z</time>
      </trkpt>
      <trkpt lat="37.84898558635658" lon="112.02599860598183">
        <ele>1133.3</ele>
        <time>2017-04-18T01:31:13.100000Z</time>
      </trkpt>
      <trkpt lat="37.848957403553854" lon="112.02629717117021">
        <ele>1135.09</ele>
        <time>2017-04-18T01:31:28.100000Z</time>
      </trkpt>
      <trkpt lat="37.848927511406195" lon="112.02673231222228">
        <ele>1132.2</ele>
        <time>2017-04-18T01:31:49.200000Z</time>
      </trkpt>
      <trkpt lat="37.84890576246097" lon="112.0268537433808">
        <ele>1131.4</ele>
        <time>2017-04-18T01:31:55.100000Z</time>
      </trkpt>
      <trkpt lat="37.84893266294645" lon="112.02704737777587">
        <ele>1130.9</ele>
        <time>2017-04-18T01:32:07.100000Z</time>
      </trkpt>
      <trkpt lat="37.84888262075731" lon="112.02740897028707">
        <ele>1130.4</ele>
        <time>2017-04-18T01:32:19.100000Z</time>
      </trkpt>
      <trkpt lat="37.84887456171178" lon="112.02779923001873">
        <ele>1126.59</ele>
        <time>2017-04-18T01:32:34.200000Z</time>
      </trkpt>
      <trkpt lat="37.84891584730939" lon="112.02799259844134">
        <ele>1124.8</ele>
        <time>2017-04-18T01:32:43.100000Z</time>
      </trkpt>
      <trkpt lat="37.84886923913662" lon="112.02839422981853">
        <ele>1122.2</ele>
        <time>2017-04-18T01:32:58.100000Z</time>
      </trkpt>
      <trkpt lat="37.84885137355681" lon="112.02869741580525">
        <ele>1121.3</ele>
        <time>2017-04-18T01:33:10.100000Z</time>
      </trkpt>
      <trkpt lat="37.84886629926335" lon="112.02890945528551">
        <ele>1121.4</ele>
        <time>2017-04-18T01:33:19.100000Z</time>
      </trkpt>
      <trkpt lat="37.848937997975014" lon="112.02930919204472">
        <ele>1119.59</ele>
        <time>2017-04-18T01:33:40.100000Z</time>
      </trkpt>
      <trkpt lat="37.849003064091605" lon="112.02965105486236">
        <ele>1116.8</ele>
        <time>2017-04-18T01:33:58.100000Z</time>
      </trkpt>
      <trkpt lat="37.84904652893994" lon="112.03006108355405">
        <ele>1112.9</ele>
        <time>2017-04-18T01:34:16.100000Z</time>
      </trkpt>
      <trkpt lat="37.849168077092834" lon="112.03038617928922">
        <ele>1110.09</ele>
        <time>2017-04-18T01:34:37.100000Z</time>
      </trkpt>
      <trkpt lat="37.849315048842875" lon="112.03074454478387">
        <ele>1110.0</ele>
        <time>2017-04-18T01:34:58.100000Z</time>
      </trkpt>
      <trkpt lat="37.84937654700293" lon="112.03088978533914">
        <ele>1110.09</ele>
        <time>2017-04-18T01:35:07.200000Z</time>
      </trkpt>
      <trkpt lat="37.84938826835045" lon="112.0310864243951">
        <ele>1107.59</ele>
        <time>2017-04-18T01:35:16.100000Z</time>
      </trkpt>
      <trkpt lat="37.84955168631565" lon="112.03137988042594">
        <ele>1107.9</ele>
        <time>2017-04-18T01:35:34.100000Z</time>
      </trkpt>
      <trkpt lat="37.84961496775062" lon="112.03146318262144">
        <ele>1108.7</ele>
        <time>2017-04-18T01:35:40.100000Z</time>
      </trkpt>
      <trkpt lat="37.8497885798887" lon="112.0318050592544">
        <ele>1106.5</ele>
        <time>2017-04-18T01:35:58.200000Z</time>
      </trkpt>
      <trkpt lat="37.84996175545476" lon="112.03210501382127">
        <ele>1104.59</ele>
        <time>2017-04-18T01:36:16.100000Z</time>
      </trkpt>
      <trkpt lat="37.85012522717092" lon="112.03238008729338">
        <ele>1103.9</ele>
        <time>2017-04-18T01:36:31.100000Z</time>
      </trkpt>
      <trkpt lat="37.85029170642614" lon="112.03253506199577">
        <ele>1103.7</ele>
        <time>2017-04-18T01:36:46.100000Z</time>
      </trkpt>
      <trkpt lat="37.850343595644304" lon="112.03261836918578">
        <ele>1103.4</ele>
        <time>2017-04-18T01:36:52.200000Z</time>
      </trkpt>
      <trkpt lat="37.8503602749655" lon="112.03267679494246">
        <ele>1103.7</ele>
        <time>2017-04-18T01:36:55.100000Z</time>
      </trkpt>
      <trkpt lat="37.850348463338385" lon="112.03273657676124">
        <ele>1104.59</ele>
        <time>2017-04-18T01:36:58.100000Z</time>
      </trkpt>
      <trkpt lat="37.850253730417684" lon="112.03286696942227">
        <ele>1105.2</ele>
        <time>2017-04-18T01:37:07.200000Z</time>
      </trkpt>
      <trkpt lat="37.850081959149406" lon="112.03299169146584">
        <ele>1104.7</ele>
        <time>2017-04-18T01:37:16.100000Z</time>
      </trkpt>
      <trkpt lat="37.850036795689334" lon="112.03304363343717">
        <ele>1104.8</ele>
        <time>2017-04-18T01:37:19.100000Z</time>
      </trkpt>
      <trkpt lat="37.84994193601272" lon="112.03322704656985">
        <ele>1103.9</ele>
        <time>2017-04-18T01:37:25.100000Z</time>
      </trkpt>
      <trkpt lat="37.849901949385284" lon="112.03327006171008">
        <ele>1104.4</ele>
        <time>2017-04-18T01:37:34.100000Z</time>
      </trkpt>
      <trkpt lat="37.84974381753284" lon="112.03359036114273">
        <ele>1136.2</ele>
        <time>2017-04-18T01:42:16.100000Z</time>
      </trkpt>
      <trkpt lat="37.84962365817827" lon="112.03357712069703">
        <ele>1127.2</ele>
        <time>2017-04-18T01:42:22.100000Z</time>
      </trkpt>
      <trkpt lat="37.849565147105416" lon="112.03353871555245">
        <ele>1121.5</ele>
        <time>2017-04-18T01:42:37.100000Z</time>
      </trkpt>
      <trkpt lat="37.8495337867894" lon="112.03349219196015">
        <ele>1120.5</ele>
        <time>2017-04-18T01:42:43.100000Z</time>
      </trkpt>
      <trkpt lat="37.849535292392794" lon="112.03343024558345">
        <ele>1120.5</ele>
        <time>2017-04-18T01:42:55.100000Z</time>
      </trkpt>
      <trkpt lat="37.849510463915394" lon="112.03337533569699">
        <ele>1120.09</ele>
        <time>2017-04-18T01:42:58.100000Z</time>
      </trkpt>
      <trkpt lat="37.84935037034145" lon="112.03338347018435">
        <ele>1118.3</ele>
        <time>2017-04-18T01:43:05.100000Z</time>
      </trkpt>
      <trkpt lat="37.84917372011165" lon="112.03328178119276">
        <ele>1117.3</ele>
        <time>2017-04-18T01:43:17.100000Z</time>
      </trkpt>
      <trkpt lat="37.84909855041824" lon="112.03328855288919">
        <ele>1117.5</ele>
        <time>2017-04-18T01:43:20.100000Z</time>
      </trkpt>
      <trkpt lat="37.84903874776231" lon="112.03322336832838">
        <ele>1118.3</ele>
        <time>2017-04-18T01:43:26.100000Z</time>
      </trkpt>
      <trkpt lat="37.84894694027649" lon="112.03304187122775">
        <ele>1120.7</ele>
        <time>2017-04-18T01:43:41.100000Z</time>
      </trkpt>
      <trkpt lat="37.8488385680377" lon="112.03286686941823">
        <ele>1120.59</ele>
        <time>2017-04-18T01:43:50.100000Z</time>
      </trkpt>
      <trkpt lat="37.84867005466646" lon="112.03254364278104">
        <ele>1122.59</ele>
        <time>2017-04-18T01:44:05.100000Z</time>
      </trkpt>
      <trkpt lat="37.84855350152257" lon="112.03238676853026">
        <ele>1123.09</ele>
        <time>2017-04-18T01:44:23.100000Z</time>
      </trkpt>
      <trkpt lat="37.848453319450904" lon="112.03230346788528">
        <ele>1124.09</ele>
        <time>2017-04-18T01:44:32.100000Z</time>
      </trkpt>
      <trkpt lat="37.84835840892641" lon="112.03206165754348">
        <ele>1123.59</ele>
        <time>2017-04-18T01:44:47.100000Z</time>
      </trkpt>
      <trkpt lat="37.848236916733285" lon="112.0319283195022">
        <ele>1123.7</ele>
        <time>2017-04-18T01:44:56.100000Z</time>
      </trkpt>
      <trkpt lat="37.84819328862396" lon="112.03190668544053">
        <ele>1123.9</ele>
        <time>2017-04-18T01:44:59.100000Z</time>
      </trkpt>
      <trkpt lat="37.84808831051993" lon="112.03178822313981">
        <ele>1123.3</ele>
        <time>2017-04-18T01:45:11.100000Z</time>
      </trkpt>
      <trkpt lat="37.84804997594838" lon="112.03159996728479">
        <ele>1124.5</ele>
        <time>2017-04-18T01:45:26.100000Z</time>
      </trkpt>
      <trkpt lat="37.84800506545208" lon="112.03154830949067">
        <ele>1125.3</ele>
        <time>2017-04-18T01:45:32.100000Z</time>
      </trkpt>
      <trkpt lat="37.8479416653733" lon="112.03140306561849">
        <ele>1126.59</ele>
        <time>2017-04-18T01:45:44.100000Z</time>
      </trkpt>
      <trkpt lat="37.84782502999724" lon="112.03128163161232">
        <ele>1127.5</ele>
        <time>2017-04-18T01:45:53.100000Z</time>
      </trkpt>
      <trkpt lat="37.84770155020469" lon="112.03096626278045">
        <ele>1129.09</ele>
        <time>2017-04-18T01:46:11.100000Z</time>
      </trkpt>
      <trkpt lat="37.84763484681542" lon="112.03062303148151">
        <ele>1129.9</ele>
        <time>2017-04-18T01:46:27.100000Z</time>
      </trkpt>
      <trkpt lat="37.847606441085404" lon="112.03048130455353">
        <ele>1130.2</ele>
        <time>2017-04-18T01:46:33.100000Z</time>
      </trkpt>
      <trkpt lat="37.84764130194464" lon="112.03042801642773">
        <ele>1129.3</ele>
        <time>2017-04-18T01:46:39.100000Z</time>
      </trkpt>
      <trkpt lat="37.84764454445269" lon="112.03032469419468">
        <ele>1128.09</ele>
        <time>2017-04-18T01:46:42.100000Z</time>
      </trkpt>
      <trkpt lat="37.84761980021351" lon="112.03023814514266">
        <ele>1127.59</ele>
        <time>2017-04-18T01:46:48.100000Z</time>
      </trkpt>
      <trkpt lat="37.84761980021351" lon="112.03023814514266">
        <ele>1127.59</ele>
        <time>2017-04-18T01:46:53.300000Z</time>
      </trkpt>
    </trkseg>
  </trk>
</gpx>