<?xml version="1.0" encoding="UTF-8"?>
<gpx xmlns="http://www.topografix.com/GPX/1/1" xmlns:gpxtpx="http://www.garmin.com/xmlschemas/TrackPointExtension/v1" xmlns:xsi="http://www.w3.org/2001/XMLSchema-instance" xsi:schemaLocation="http://www.topografix.com/GPX/1/1 http://www.topografix.com/GPX/1/1/gpx.xsd" version="1.1" creator="gpx.py -- https://github.com/tkrajina/gpxpy">
  <trk>
    <name>gpx from keep</name>
    <type>Run</type>
    <trkseg>
      <trkpt lat="37.84736963607665" lon="112.02981136951253">
        <ele>1148.09</ele>
        <time>2017-05-30T10:37:55.400000Z</time>
      </trkpt>
      <trkpt lat="37.84741813014204" lon="112.02983949262327">
        <ele>1149.0</ele>
        <time>2017-05-30T10:38:01.400000Z</time>
      </trkpt>
      <trkpt lat="37.84756960562807" lon="112.02980620650803">
        <ele>1152.3</ele>
        <time>2017-05-30T10:38:13.400000Z</time>
      </trkpt>
      <trkpt lat="37.84763653189063" lon="112.02984108916402">
        <ele>1153.9</ele>
        <time>2017-05-30T10:38:19.300000Z</time>
      </trkpt>
      <trkpt lat="37.84776793849545" lon="112.02980455981678">
        <ele>1146.59</ele>
        <time>2017-05-30T10:38:25.300000Z</time>
      </trkpt>
      <trkpt lat="37.847868160658074" lon="112.02986946073536">
        <ele>1142.5</ele>
        <time>2017-05-30T10:38:40.300000Z</time>
      </trkpt>
      <trkpt lat="37.84804455944868" lon="112.02985104747948">
        <ele>1147.09</ele>
        <time>2017-05-30T10:38:58.500000Z</time>
      </trkpt>
      <trkpt lat="37.84818637935284" lon="112.02988132316683">
        <ele>1146.3</ele>
        <time>2017-05-30T10:39:07.300000Z</time>
      </trkpt>
      <trkpt lat="37.848261381914874" lon="112.0299413588063">
        <ele>1147.2</ele>
        <time>2017-05-30T10:39:13.300000Z</time>
      </trkpt>
      <trkpt lat="37.848306423733526" lon="112.02993973055479">
        <ele>1147.0</ele>
        <time>2017-05-30T10:39:16.300000Z</time>
      </trkpt>
      <trkpt lat="37.84833995061471" lon="112.0298777885591">
        <ele>1145.9</ele>
        <time>2017-05-30T10:39:19.300000Z</time>
      </trkpt>
      <trkpt lat="37.84850962103333" lon="112.02983773843886">
        <ele>1146.09</ele>
        <time>2017-05-30T10:39:28.400000Z</time>
      </trkpt>
      <trkpt lat="37.8485295899925" lon="112.02977282313114">
        <ele>1144.9</ele>
        <time>2017-05-30T10:39:34.300000Z</time>
      </trkpt>
      <trkpt lat="37.84862801643811" lon="112.02990453054508">
        <ele>1142.59</ele>
        <time>2017-05-30T10:39:37.300000Z</time>
      </trkpt>
      <trkpt lat="37.8487114005404" lon="112.02997619552248">
        <ele>1141.09</ele>
        <time>2017-05-30T10:39:40.300000Z</time>
      </trkpt>
      <trkpt lat="37.848787918611194" lon="112.0299729406479">
        <ele>1140.5</ele>
        <time>2017-05-30T10:39:49.300000Z</time>
      </trkpt>
      <trkpt lat="37.848984777805164" lon="112.0301262750379">
        <ele>1141.0</ele>
        <time>2017-05-30T10:40:01.300000Z</time>
      </trkpt>
      <trkpt lat="37.8490247856581" lon="112.03018469257306">
        <ele>1141.2</ele>
        <time>2017-05-30T10:40:04.300000Z</time>
      </trkpt>
      <trkpt lat="37.84905630379034" lon="112.03027475681223">
        <ele>1142.0</ele>
        <time>2017-05-30T10:40:10.300000Z</time>
      </trkpt>
      <trkpt lat="37.84894653221038" lon="112.03033941363056">
        <ele>1141.2</ele>
        <time>2017-05-30T10:40:16.300000Z</time>
      </trkpt>
      <trkpt lat="37.84889974562599" lon="112.03038783444686">
        <ele>1140.2</ele>
        <time>2017-05-30T10:40:19.300000Z</time>
      </trkpt>
      <trkpt lat="37.84896302396013" lon="112.03047140408039">
        <ele>1140.3</ele>
        <time>2017-05-30T10:40:25.300000Z</time>
      </trkpt>
      <trkpt lat="37.848978297832396" lon="112.03054794732583">
        <ele>1140.7</ele>
        <time>2017-05-30T10:40:31.400000Z</time>
      </trkpt>
      <trkpt lat="37.84902146647356" lon="112.03064477331935">
        <ele>1141.0</ele>
        <time>2017-05-30T10:40:37.300000Z</time>
      </trkpt>
      <trkpt lat="37.84901339108824" lon="112.03072808184722">
        <ele>1140.2</ele>
        <time>2017-05-30T10:40:43.400000Z</time>
      </trkpt>
      <trkpt lat="37.84914652946187" lon="112.03108645350201">
        <ele>1140.09</ele>
        <time>2017-05-30T10:41:01.400000Z</time>
      </trkpt>
      <trkpt lat="37.849343273364674" lon="112.03139829857706">
        <ele>1134.09</ele>
        <time>2017-05-30T10:41:22.300000Z</time>
      </trkpt>
      <trkpt lat="37.84945182724822" lon="112.03149647216881">
        <ele>1132.59</ele>
        <time>2017-05-30T10:41:34.300000Z</time>
      </trkpt>
      <trkpt lat="37.849641627816915" lon="112.03176477392974">
        <ele>1131.7</ele>
        <time>2017-05-30T10:41:55.300000Z</time>
      </trkpt>
      <trkpt lat="37.84970667224367" lon="112.03179343803913">
        <ele>1130.9</ele>
        <time>2017-05-30T10:42:01.400000Z</time>
      </trkpt>
      <trkpt lat="37.849910055311845" lon="112.03216669260331">
        <ele>1127.5</ele>
        <time>2017-05-30T10:42:22.300000Z</time>
      </trkpt>
      <trkpt lat="37.8499052797007" lon="112.0322335052752">
        <ele>1127.2</ele>
        <time>2017-05-30T10:42:25.300000Z</time>
      </trkpt>
      <trkpt lat="37.84995683214971" lon="112.03234332012595">
        <ele>1125.7</ele>
        <time>2017-05-30T10:42:31.400000Z</time>
      </trkpt>
      <trkpt lat="37.85007506642918" lon="112.03247828362636">
        <ele>1123.5</ele>
        <time>2017-05-30T10:42:43.300000Z</time>
      </trkpt>
      <trkpt lat="37.85013335709255" lon="112.0326067630758">
        <ele>1122.2</ele>
        <time>2017-05-30T10:42:49.300000Z</time>
      </trkpt>
      <trkpt lat="37.85024020128878" lon="112.03274010630253">
        <ele>1119.2</ele>
        <time>2017-05-30T10:42:58.400000Z</time>
      </trkpt>
      <trkpt lat="37.85030851873489" lon="112.03276200857083">
        <ele>1117.2</ele>
        <time>2017-05-30T10:43:04.300000Z</time>
      </trkpt>
      <trkpt lat="37.85046527778087" lon="112.0328983220911">
        <ele>1115.8</ele>
        <time>2017-05-30T10:43:22.300000Z</time>
      </trkpt>
      <trkpt lat="37.85052678043174" lon="112.03293347990143">
        <ele>1117.09</ele>
        <time>2017-05-30T10:43:28.400000Z</time>
      </trkpt>
      <trkpt lat="37.85052200636052" lon="112.03300029452649">
        <ele>1117.0</ele>
        <time>2017-05-30T10:43:37.300000Z</time>
      </trkpt>
      <trkpt lat="37.85056005591697" lon="112.03308522788879">
        <ele>1115.2</ele>
        <time>2017-05-30T10:43:43.300000Z</time>
      </trkpt>
      <trkpt lat="37.850770078850445" lon="112.03329863068834">
        <ele>1112.7</ele>
        <time>2017-05-30T10:44:01.300000Z</time>
      </trkpt>
      <trkpt lat="37.850922149874876" lon="112.03358021031866">
        <ele>1111.3</ele>
        <time>2017-05-30T10:44:19.300000Z</time>
      </trkpt>
      <trkpt lat="37.850998570894774" lon="112.03373033384366">
        <ele>1110.59</ele>
        <time>2017-05-30T10:44:31.300000Z</time>
      </trkpt>
      <trkpt lat="37.85110052768183" lon="112.03386720009479">
        <ele>1110.2</ele>
        <time>2017-05-30T10:44:43.300000Z</time>
      </trkpt>
      <trkpt lat="37.85109188988242" lon="112.03396215090896">
        <ele>1109.8</ele>
        <time>2017-05-30T10:44:49.300000Z</time>
      </trkpt>
      <trkpt lat="37.85114883436171" lon="112.03408874429282">
        <ele>1109.09</ele>
        <time>2017-05-30T10:44:58.300000Z</time>
      </trkpt>
      <trkpt lat="37.85134210249116" lon="112.03427699945271">
        <ele>1107.8</ele>
        <time>2017-05-30T10:45:16.400000Z</time>
      </trkpt>
      <trkpt lat="37.85141714459928" lon="112.0343237897225">
        <ele>1108.0</ele>
        <time>2017-05-30T10:45:22.300000Z</time>
      </trkpt>
      <trkpt lat="37.851437031290025" lon="112.03440386034336">
        <ele>1107.2</ele>
        <time>2017-05-30T10:45:28.400000Z</time>
      </trkpt>
      <trkpt lat="37.85148705825006" lon="112.03447364789331">
        <ele>1106.59</ele>
        <time>2017-05-30T10:45:34.300000Z</time>
      </trkpt>
      <trkpt lat="37.8515088637541" lon="112.03454560318927">
        <ele>1105.5</ele>
        <time>2017-05-30T10:45:40.300000Z</time>
      </trkpt>
      <trkpt lat="37.85166726841723" lon="112.034792298537">
        <ele>1103.09</ele>
        <time>2017-05-30T10:45:55.300000Z</time>
      </trkpt>
      <trkpt lat="37.85172713378907" lon="112.03483232854086">
        <ele>1102.7</ele>
        <time>2017-05-30T10:46:01.400000Z</time>
      </trkpt>
      <trkpt lat="37.85184919695557" lon="112.03507389111947">
        <ele>1100.4</ele>
        <time>2017-05-30T10:46:22.300000Z</time>
      </trkpt>
      <trkpt lat="37.85190059660422" lon="112.03513745828243">
        <ele>1099.7</ele>
        <time>2017-05-30T10:46:25.300000Z</time>
      </trkpt>
      <trkpt lat="37.85194400367892" lon="112.03525404971826">
        <ele>1098.8</ele>
        <time>2017-05-30T10:46:31.400000Z</time>
      </trkpt>
      <trkpt lat="37.85218413723035" lon="112.03547585352115">
        <ele>1097.4</ele>
        <time>2017-05-30T10:46:46.300000Z</time>
      </trkpt>
      <trkpt lat="37.85235072519105" lon="112.03559080850802">
        <ele>1097.3</ele>
        <time>2017-05-30T10:46:58.400000Z</time>
      </trkpt>
      <trkpt lat="37.85240241580417" lon="112.03576258956122">
        <ele>1096.5</ele>
        <time>2017-05-30T10:47:13.300000Z</time>
      </trkpt>
      <trkpt lat="37.852470611744096" lon="112.03583751884265">
        <ele>1096.09</ele>
        <time>2017-05-30T10:47:19.300000Z</time>
      </trkpt>
      <trkpt lat="37.85252574959189" lon="112.03592759982148">
        <ele>1096.0</ele>
        <time>2017-05-30T10:47:25.300000Z</time>
      </trkpt>
      <trkpt lat="37.85264087103232" lon="112.03600766410574">
        <ele>1096.3</ele>
        <time>2017-05-30T10:47:31.400000Z</time>
      </trkpt>
      <trkpt lat="37.85270441629462" lon="112.03609936790875">
        <ele>1094.0</ele>
        <time>2017-05-30T10:47:43.400000Z</time>
      </trkpt>
      <trkpt lat="37.85270421155934" lon="112.03618756276603">
        <ele>1093.5</ele>
        <time>2017-05-30T10:47:49.300000Z</time>
      </trkpt>
      <trkpt lat="37.852834168335896" lon="112.03642264468608">
        <ele>1092.3</ele>
        <time>2017-05-30T10:48:07.300000Z</time>
      </trkpt>
      <trkpt lat="37.852782495771265" lon="112.03647594723763">
        <ele>1091.5</ele>
        <time>2017-05-30T10:48:13.300000Z</time>
      </trkpt>
      <trkpt lat="37.85283086391277" lon="112.03656116164639">
        <ele>1091.4</ele>
        <time>2017-05-30T10:48:19.300000Z</time>
      </trkpt>
      <trkpt lat="37.852926150646326" lon="112.03665448695122">
        <ele>1092.4</ele>
        <time>2017-05-30T10:48:28.400000Z</time>
      </trkpt>
      <trkpt lat="37.853107633665864" lon="112.03690120058862">
        <ele>1093.5</ele>
        <time>2017-05-30T10:48:46.300000Z</time>
      </trkpt>
      <trkpt lat="37.85311262030196" lon="112.0369745177193">
        <ele>1093.09</ele>
        <time>2017-05-30T10:48:52.300000Z</time>
      </trkpt>
      <trkpt lat="37.85334291188282" lon="112.03723448560746">
        <ele>1091.7</ele>
        <time>2017-05-30T10:49:07.300000Z</time>
      </trkpt>
      <trkpt lat="37.853404485085214" lon="112.03735974244626">
        <ele>1091.8</ele>
        <time>2017-05-30T10:49:13.300000Z</time>
      </trkpt>
      <trkpt lat="37.853506271002054" lon="112.03745956327835">
        <ele>1091.7</ele>
        <time>2017-05-30T10:49:16.300000Z</time>
      </trkpt>
      <trkpt lat="37.85351262663222" lon="112.03752801201512">
        <ele>1090.9</ele>
        <time>2017-05-30T10:49:22.300000Z</time>
      </trkpt>
      <trkpt lat="37.853732684925944" lon="112.03775633225723">
        <ele>1091.9</ele>
        <time>2017-05-30T10:49:40.300000Z</time>
      </trkpt>
      <trkpt lat="37.853784655479075" lon="112.0378098958116">
        <ele>1092.2</ele>
        <time>2017-05-30T10:49:43.300000Z</time>
      </trkpt>
      <trkpt lat="37.85378776840669" lon="112.03787293483089">
        <ele>1092.09</ele>
        <time>2017-05-30T10:49:52.300000Z</time>
      </trkpt>
      <trkpt lat="37.85402625541399" lon="112.03811153737547">
        <ele>1089.9</ele>
        <time>2017-05-30T10:50:13.300000Z</time>
      </trkpt>
      <trkpt lat="37.85406630776482" lon="112.03815671584111">
        <ele>1090.0</ele>
        <time>2017-05-30T10:50:16.300000Z</time>
      </trkpt>
      <trkpt lat="37.85425632477123" lon="112.03847487236409">
        <ele>1091.2</ele>
        <time>2017-05-30T10:50:40.300000Z</time>
      </trkpt>
      <trkpt lat="37.854468039613515" lon="112.03867641680155">
        <ele>1091.8</ele>
        <time>2017-05-30T10:50:55.300000Z</time>
      </trkpt>
      <trkpt lat="37.8546847539495" lon="112.03894830995584">
        <ele>1093.2</ele>
        <time>2017-05-30T10:51:19.300000Z</time>
      </trkpt>
      <trkpt lat="37.85480651407472" lon="112.03909683759248">
        <ele>1093.3</ele>
        <time>2017-05-30T10:51:31.400000Z</time>
      </trkpt>
      <trkpt lat="37.8548413318672" lon="112.03917854560665">
        <ele>1093.09</ele>
        <time>2017-05-30T10:51:37.300000Z</time>
      </trkpt>
      <trkpt lat="37.85495640328952" lon="112.03928513682585">
        <ele>1092.09</ele>
        <time>2017-05-30T10:51:49.300000Z</time>
      </trkpt>
      <trkpt lat="37.85507625936263" lon="112.03943664315413">
        <ele>1092.0</ele>
        <time>2017-05-30T10:52:01.400000Z</time>
      </trkpt>
      <trkpt lat="37.85512831792321" lon="112.03945178900237">
        <ele>1092.2</ele>
        <time>2017-05-30T10:52:04.300000Z</time>
      </trkpt>
      <trkpt lat="37.855109735887325" lon="112.03951185873461">
        <ele>1091.59</ele>
        <time>2017-05-30T10:52:10.300000Z</time>
      </trkpt>
      <trkpt lat="37.85512504598836" lon="112.0395819358195">
        <ele>1090.7</ele>
        <time>2017-05-30T10:52:19.300000Z</time>
      </trkpt>
      <trkpt lat="37.85516806715485" lon="112.03963523404818">
        <ele>1090.59</ele>
        <time>2017-05-30T10:52:22.300000Z</time>
      </trkpt>
      <trkpt lat="37.85521152080808" lon="112.0397385890903">
        <ele>1090.09</ele>
        <time>2017-05-30T10:52:28.300000Z</time>
      </trkpt>
      <trkpt lat="37.85540496022446" lon="112.03998858049441">
        <ele>1090.4</ele>
        <time>2017-05-30T10:52:46.400000Z</time>
      </trkpt>
      <trkpt lat="37.855531624117454" lon="112.0401303496709">
        <ele>1091.0</ele>
        <time>2017-05-30T10:52:55.300000Z</time>
      </trkpt>
      <trkpt lat="37.855576739929006" lon="112.04021882467255">
        <ele>1091.4</ele>
        <time>2017-05-30T10:53:01.400000Z</time>
      </trkpt>
      <trkpt lat="37.8558417665888" lon="112.04048883603178">
        <ele>1092.3</ele>
        <time>2017-05-30T10:53:22.300000Z</time>
      </trkpt>
      <trkpt lat="37.856006959664086" lon="112.04075561557765">
        <ele>1093.2</ele>
        <time>2017-05-30T10:53:43.300000Z</time>
      </trkpt>
      <trkpt lat="37.856081694431936" lon="112.04082379515992">
        <ele>1092.09</ele>
        <time>2017-05-30T10:53:46.300000Z</time>
      </trkpt>
      <trkpt lat="37.85616498803684" lon="112.04094906867493">
        <ele>1091.09</ele>
        <time>2017-05-30T10:53:58.400000Z</time>
      </trkpt>
      <trkpt lat="37.85623699613474" lon="112.0410237433884">
        <ele>1091.09</ele>
        <time>2017-05-30T10:54:04.300000Z</time>
      </trkpt>
      <trkpt lat="37.856320285740765" lon="112.04102535688078">
        <ele>1091.7</ele>
        <time>2017-05-30T10:54:10.300000Z</time>
      </trkpt>
      <trkpt lat="37.85630692157682" lon="112.04093200426115">
        <ele>1091.0</ele>
        <time>2017-05-30T10:54:16.300000Z</time>
      </trkpt>
      <trkpt lat="37.85650200827434" lon="112.04067546147638">
        <ele>1088.8</ele>
        <time>2017-05-30T10:54:43.300000Z</time>
      </trkpt>
      <trkpt lat="37.85658839093299" lon="112.0406270157764">
        <ele>1088.5</ele>
        <time>2017-05-30T10:54:49.300000Z</time>
      </trkpt>
      <trkpt lat="37.856660017594095" lon="112.04062700712353">
        <ele>1086.3</ele>
        <time>2017-05-30T10:54:52.300000Z</time>
      </trkpt>
      <trkpt lat="37.85671676903194" lon="112.04060535325559">
        <ele>1085.0</ele>
        <time>2017-05-30T10:54:55.300000Z</time>
      </trkpt>
      <trkpt lat="37.85679517893205" lon="112.04048033269224">
        <ele>1084.09</ele>
        <time>2017-05-30T10:55:01.300000Z</time>
      </trkpt>
      <trkpt lat="37.85682837803976" lon="112.04031040128633">
        <ele>1083.4</ele>
        <time>2017-05-30T10:55:10.300000Z</time>
      </trkpt>
      <trkpt lat="37.85679000041356" lon="112.04024221885172">
        <ele>1082.8</ele>
        <time>2017-05-30T10:55:16.400000Z</time>
      </trkpt>
      <trkpt lat="37.85677012727078" lon="112.04014887023568">
        <ele>1082.59</ele>
        <time>2017-05-30T10:55:22.300000Z</time>
      </trkpt>
      <trkpt lat="37.85679987129344" lon="112.03994701328251">
        <ele>1087.8</ele>
        <time>2017-05-30T10:55:55.300000Z</time>
      </trkpt>
      <trkpt lat="37.85673137158731" lon="112.03975869884137">
        <ele>1088.5</ele>
        <time>2017-05-30T10:56:07.300000Z</time>
      </trkpt>
      <trkpt lat="37.856578210322326" lon="112.03945350793154">
        <ele>1090.0</ele>
        <time>2017-05-30T10:56:25.300000Z</time>
      </trkpt>
      <trkpt lat="37.85651478357661" lon="112.03930361811967">
        <ele>1089.8</ele>
        <time>2017-05-30T10:56:34.300000Z</time>
      </trkpt>
      <trkpt lat="37.856501700471966" lon="112.03920837848834">
        <ele>1088.09</ele>
        <time>2017-05-30T10:56:40.300000Z</time>
      </trkpt>
      <trkpt lat="37.85645662799354" lon="112.03910177917467">
        <ele>1087.7</ele>
        <time>2017-05-30T10:56:46.400000Z</time>
      </trkpt>
      <trkpt lat="37.85623134903305" lon="112.03877658371101">
        <ele>1087.8</ele>
        <time>2017-05-30T10:57:07.300000Z</time>
      </trkpt>
      <trkpt lat="37.85612304765281" lon="112.03867648755954">
        <ele>1087.8</ele>
        <time>2017-05-30T10:57:19.300000Z</time>
      </trkpt>
      <trkpt lat="37.85609984919544" lon="112.03861642502923">
        <ele>1087.9</ele>
        <time>2017-05-30T10:57:22.300000Z</time>
      </trkpt>
      <trkpt lat="37.856103000978166" lon="112.03854174904615">
        <ele>1088.0</ele>
        <time>2017-05-30T10:57:28.300000Z</time>
      </trkpt>
      <trkpt lat="37.85591641554703" lon="112.03862808143913">
        <ele>1094.0</ele>
        <time>2017-05-30T11:04:51.300000Z</time>
      </trkpt>
      <trkpt lat="37.85594284738661" lon="112.0386981545178">
        <ele>1097.09</ele>
        <time>2017-05-30T11:04:54.300000Z</time>
      </trkpt>
      <trkpt lat="37.85619625011545" lon="112.03869974731458">
        <ele>1107.8</ele>
        <time>2017-05-30T11:05:03.300000Z</time>
      </trkpt>
      <trkpt lat="37.856367981037096" lon="112.03858311328365">
        <ele>1111.5</ele>
        <time>2017-05-30T11:05:09.300000Z</time>
      </trkpt>
      <trkpt lat="37.856454600251425" lon="112.0385517174438">
        <ele>1111.5</ele>
        <time>2017-05-30T11:05:12.300000Z</time>
      </trkpt>
      <trkpt lat="37.856521199387906" lon="112.03849489114577">
        <ele>1112.9</ele>
        <time>2017-05-30T11:05:18.300000Z</time>
      </trkpt>
      <trkpt lat="37.85652630780703" lon="112.03839478250485">
        <ele>1108.8</ele>
        <time>2017-05-30T11:05:21.300000Z</time>
      </trkpt>
      <trkpt lat="37.85659459111607" lon="112.03831306478448">
        <ele>1108.3</ele>
        <time>2017-05-30T11:05:27.300000Z</time>
      </trkpt>
      <trkpt lat="37.85664452566064" lon="112.0380665792348">
        <ele>1109.9</ele>
        <time>2017-05-30T11:05:51.300000Z</time>
      </trkpt>
      <trkpt lat="37.85670462155028" lon="112.03800650820557">
        <ele>1109.5</ele>
        <time>2017-05-30T11:05:54.400000Z</time>
      </trkpt>
      <trkpt lat="37.85664029610334" lon="112.03803306197786">
        <ele>1113.3</ele>
        <time>2017-05-30T11:06:00.300000Z</time>
      </trkpt>
      <trkpt lat="37.85645247936167" lon="112.0379697813802">
        <ele>1117.3</ele>
        <time>2017-05-30T11:06:09.400000Z</time>
      </trkpt>
      <trkpt lat="37.856067440642846" lon="112.03767403403918">
        <ele>1124.5</ele>
        <time>2017-05-30T11:06:27.400000Z</time>
      </trkpt>
      <trkpt lat="37.855853512707476" lon="112.0375098108783">
        <ele>1112.3</ele>
        <time>2017-05-30T11:06:33.400000Z</time>
      </trkpt>
      <trkpt lat="37.85644302215855" lon="112.03771935971221">
        <ele>1097.5</ele>
        <time>2017-05-30T11:06:39.300000Z</time>
      </trkpt>
      <trkpt lat="37.85648140090674" lon="112.0377527295541">
        <ele>1094.8</ele>
        <time>2017-05-30T11:06:42.300000Z</time>
      </trkpt>
      <trkpt lat="37.85666946464076" lon="112.03783633258034">
        <ele>1089.8</ele>
        <time>2017-05-30T11:06:51.300000Z</time>
      </trkpt>
      <trkpt lat="37.856654568781586" lon="112.03782470050498">
        <ele>1089.5</ele>
        <time>2017-05-30T11:07:24.400000Z</time>
      </trkpt>
    </trkseg>
  </trk>
</gpx>