<?xml version="1.0" encoding="UTF-8"?>
<gpx xmlns="http://www.topografix.com/GPX/1/1" xmlns:gpxtpx="http://www.garmin.com/xmlschemas/TrackPointExtension/v1" xmlns:xsi="http://www.w3.org/2001/XMLSchema-instance" xsi:schemaLocation="http://www.topografix.com/GPX/1/1 http://www.topografix.com/GPX/1/1/gpx.xsd" version="1.1" creator="gpx.py -- https://github.com/tkrajina/gpxpy">
  <trk>
    <name>gpx from keep</name>
    <type>Run</type>
    <trkseg>
      <trkpt lat="37.84750832070139" lon="112.0296858547912">
        <ele>1120.0</ele>
        <time>2018-12-27T08:10:23.290000Z</time>
      </trkpt>
      <trkpt lat="37.84722316052136" lon="112.02958284049794">
        <ele>1106.0</ele>
        <time>2018-12-27T08:10:32.290000Z</time>
      </trkpt>
      <trkpt lat="37.8471523559286" lon="112.02952231887834">
        <ele>1117.0</ele>
        <time>2018-12-27T08:10:35.190000Z</time>
      </trkpt>
      <trkpt lat="37.84713724102021" lon="112.02949808591151">
        <ele>1113.0</ele>
        <time>2018-12-27T08:10:44.290000Z</time>
      </trkpt>
      <trkpt lat="37.84725755817595" lon="112.02943861532512">
        <ele>1116.0</ele>
        <time>2018-12-27T08:10:47.490000Z</time>
      </trkpt>
      <trkpt lat="37.84730445918747" lon="112.02922210546289">
        <ele>1119.0</ele>
        <time>2018-12-27T08:10:51.290000Z</time>
      </trkpt>
      <trkpt lat="37.847303864186856" lon="112.02899727303416">
        <ele>1117.0</ele>
        <time>2018-12-27T08:10:57.290000Z</time>
      </trkpt>
      <trkpt lat="37.847340943557626" lon="112.02871247280814">
        <ele>1116.0</ele>
        <time>2018-12-27T08:11:07.490000Z</time>
      </trkpt>
      <trkpt lat="37.84734386752765" lon="112.02841686124236">
        <ele>1114.0</ele>
        <time>2018-12-27T08:11:16.290000Z</time>
      </trkpt>
      <trkpt lat="37.847331379007734" lon="112.02831837265134">
        <ele>1114.0</ele>
        <time>2018-12-27T08:11:19.590000Z</time>
      </trkpt>
      <trkpt lat="37.84736525622436" lon="112.0279119251419">
        <ele>1115.0</ele>
        <time>2018-12-27T08:11:31.290000Z</time>
      </trkpt>
      <trkpt lat="37.84733040897473" lon="112.02777968899977">
        <ele>1116.0</ele>
        <time>2018-12-27T08:11:37.290000Z</time>
      </trkpt>
      <trkpt lat="37.84739623774002" lon="112.02760247248723">
        <ele>1117.0</ele>
        <time>2018-12-27T08:11:43.290000Z</time>
      </trkpt>
      <trkpt lat="37.847443090772565" lon="112.02752837290086">
        <ele>1118.0</ele>
        <time>2018-12-27T08:11:46.290000Z</time>
      </trkpt>
      <trkpt lat="37.847483168751225" lon="112.02744235530565">
        <ele>1118.0</ele>
        <time>2018-12-27T08:11:49.290000Z</time>
      </trkpt>
      <trkpt lat="37.847503437713996" lon="112.02735332875082">
        <ele>1117.0</ele>
        <time>2018-12-27T08:11:52.290000Z</time>
      </trkpt>
      <trkpt lat="37.847518592635986" lon="112.02726164010964">
        <ele>1116.0</ele>
        <time>2018-12-27T08:11:55.290000Z</time>
      </trkpt>
      <trkpt lat="37.84756127080159" lon="112.02717987619202">
        <ele>1116.0</ele>
        <time>2018-12-27T08:11:58.290000Z</time>
      </trkpt>
      <trkpt lat="37.84758012704173" lon="112.02708431609116">
        <ele>1116.0</ele>
        <time>2018-12-27T08:12:01.290000Z</time>
      </trkpt>
      <trkpt lat="37.84772245298178" lon="112.02681772169586">
        <ele>1114.0</ele>
        <time>2018-12-27T08:12:10.290000Z</time>
      </trkpt>
      <trkpt lat="37.847779886933104" lon="112.0267383641415">
        <ele>1114.0</ele>
        <time>2018-12-27T08:12:13.290000Z</time>
      </trkpt>
      <trkpt lat="37.84784483596723" lon="112.02667811221238">
        <ele>1114.0</ele>
        <time>2018-12-27T08:12:16.290000Z</time>
      </trkpt>
      <trkpt lat="37.84798100792719" lon="112.02652992486144">
        <ele>1115.0</ele>
        <time>2018-12-27T08:12:22.290000Z</time>
      </trkpt>
      <trkpt lat="37.848218648415966" lon="112.0264766017523">
        <ele>1114.0</ele>
        <time>2018-12-27T08:12:31.290000Z</time>
      </trkpt>
      <trkpt lat="37.848305330338704" lon="112.02648207285519">
        <ele>1113.0</ele>
        <time>2018-12-27T08:12:34.190000Z</time>
      </trkpt>
      <trkpt lat="37.848474394817934" lon="112.02651336588157">
        <ele>1114.0</ele>
        <time>2018-12-27T08:12:40.290000Z</time>
      </trkpt>
      <trkpt lat="37.848553948711306" lon="112.02651611002041">
        <ele>1115.0</ele>
        <time>2018-12-27T08:12:43.290000Z</time>
      </trkpt>
      <trkpt lat="37.848811893265946" lon="112.02650279070386">
        <ele>1115.0</ele>
        <time>2018-12-27T08:12:52.290000Z</time>
      </trkpt>
      <trkpt lat="37.848891405576495" lon="112.02652827644317">
        <ele>1115.0</ele>
        <time>2018-12-27T08:12:55.290000Z</time>
      </trkpt>
      <trkpt lat="37.84895841447024" lon="112.02630950448192">
        <ele>1115.0</ele>
        <time>2018-12-27T08:13:04.290000Z</time>
      </trkpt>
      <trkpt lat="37.848984904872694" lon="112.02624093589671">
        <ele>1115.0</ele>
        <time>2018-12-27T08:13:07.290000Z</time>
      </trkpt>
      <trkpt lat="37.84900723756116" lon="112.02615097940114">
        <ele>1116.0</ele>
        <time>2018-12-27T08:13:10.290000Z</time>
      </trkpt>
      <trkpt lat="37.849041110439096" lon="112.02607637967283">
        <ele>1116.0</ele>
        <time>2018-12-27T08:13:13.290000Z</time>
      </trkpt>
      <trkpt lat="37.849072899198816" lon="112.02600957387496">
        <ele>1116.0</ele>
        <time>2018-12-27T08:13:16.290000Z</time>
      </trkpt>
      <trkpt lat="37.84912160810469" lon="112.02595612025736">
        <ele>1116.0</ele>
        <time>2018-12-27T08:13:19.290000Z</time>
      </trkpt>
      <trkpt lat="37.84916128849412" lon="112.02586445936151">
        <ele>1116.0</ele>
        <time>2018-12-27T08:13:22.290000Z</time>
      </trkpt>
      <trkpt lat="37.84916610948233" lon="112.02576571551722">
        <ele>1117.0</ele>
        <time>2018-12-27T08:13:25.290000Z</time>
      </trkpt>
      <trkpt lat="37.84914316091256" lon="112.02564503724217">
        <ele>1116.0</ele>
        <time>2018-12-27T08:13:28.290000Z</time>
      </trkpt>
      <trkpt lat="37.84906799353244" lon="112.02523510810437">
        <ele>1115.0</ele>
        <time>2018-12-27T08:13:37.290000Z</time>
      </trkpt>
      <trkpt lat="37.849048027085175" lon="112.02510586818731">
        <ele>1114.0</ele>
        <time>2018-12-27T08:13:40.290000Z</time>
      </trkpt>
      <trkpt lat="37.848960998894206" lon="112.02476341762984">
        <ele>1111.0</ele>
        <time>2018-12-27T08:13:49.290000Z</time>
      </trkpt>
      <trkpt lat="37.8489326439324" lon="112.02455201947063">
        <ele>1110.0</ele>
        <time>2018-12-27T08:13:55.190000Z</time>
      </trkpt>
      <trkpt lat="37.84893967615268" lon="112.0244557165937">
        <ele>1110.0</ele>
        <time>2018-12-27T08:13:58.290000Z</time>
      </trkpt>
      <trkpt lat="37.84893359556546" lon="112.02435491450525">
        <ele>1110.0</ele>
        <time>2018-12-27T08:14:01.290000Z</time>
      </trkpt>
      <trkpt lat="37.84891596432114" lon="112.02424564411227">
        <ele>1110.0</ele>
        <time>2018-12-27T08:14:04.290000Z</time>
      </trkpt>
      <trkpt lat="37.84891654539854" lon="112.02413421393109">
        <ele>1109.0</ele>
        <time>2018-12-27T08:14:07.290000Z</time>
      </trkpt>
      <trkpt lat="37.848920577294884" lon="112.02403005389726">
        <ele>1110.0</ele>
        <time>2018-12-27T08:14:10.290000Z</time>
      </trkpt>
      <trkpt lat="37.84890815759358" lon="112.02392860627305">
        <ele>1109.0</ele>
        <time>2018-12-27T08:14:13.290000Z</time>
      </trkpt>
      <trkpt lat="37.848912043011275" lon="112.02382047358044">
        <ele>1109.0</ele>
        <time>2018-12-27T08:14:16.290000Z</time>
      </trkpt>
      <trkpt lat="37.848999872484335" lon="112.0236150578901">
        <ele>1109.0</ele>
        <time>2018-12-27T08:14:22.290000Z</time>
      </trkpt>
      <trkpt lat="37.84902864404359" lon="112.02351249689208">
        <ele>1108.0</ele>
        <time>2018-12-27T08:14:25.290000Z</time>
      </trkpt>
      <trkpt lat="37.849070071694634" lon="112.02341374902034">
        <ele>1108.0</ele>
        <time>2018-12-27T08:14:28.290000Z</time>
      </trkpt>
      <trkpt lat="37.84909686281647" lon="112.02331268370277">
        <ele>1107.0</ele>
        <time>2018-12-27T08:14:31.290000Z</time>
      </trkpt>
      <trkpt lat="37.84911186866506" lon="112.02320458226505">
        <ele>1106.0</ele>
        <time>2018-12-27T08:14:34.290000Z</time>
      </trkpt>
      <trkpt lat="37.84913403512047" lon="112.0228694270003">
        <ele>1104.0</ele>
        <time>2018-12-27T08:14:43.290000Z</time>
      </trkpt>
      <trkpt lat="37.84911172573743" lon="112.02265491505484">
        <ele>1105.0</ele>
        <time>2018-12-27T08:14:49.290000Z</time>
      </trkpt>
      <trkpt lat="37.84910434861225" lon="112.02253296755373">
        <ele>1104.0</ele>
        <time>2018-12-27T08:14:52.290000Z</time>
      </trkpt>
      <trkpt lat="37.84910162978346" lon="112.02229550826756">
        <ele>1103.0</ele>
        <time>2018-12-27T08:14:58.290000Z</time>
      </trkpt>
      <trkpt lat="37.84910299606656" lon="112.02185251958247">
        <ele>1103.0</ele>
        <time>2018-12-27T08:15:10.290000Z</time>
      </trkpt>
      <trkpt lat="37.84911268349049" lon="112.02141070112258">
        <ele>1102.0</ele>
        <time>2018-12-27T08:15:22.290000Z</time>
      </trkpt>
      <trkpt lat="37.849107820025" lon="112.0211893728927">
        <ele>1102.0</ele>
        <time>2018-12-27T08:15:28.290000Z</time>
      </trkpt>
      <trkpt lat="37.84909232307127" lon="112.02107985756089">
        <ele>1101.0</ele>
        <time>2018-12-27T08:15:31.290000Z</time>
      </trkpt>
      <trkpt lat="37.84908865495016" lon="112.02096444908052">
        <ele>1102.0</ele>
        <time>2018-12-27T08:15:34.290000Z</time>
      </trkpt>
      <trkpt lat="37.84910183924584" lon="112.02073528705706">
        <ele>1102.0</ele>
        <time>2018-12-27T08:15:40.290000Z</time>
      </trkpt>
      <trkpt lat="37.84912736857959" lon="112.02063127190459">
        <ele>1102.0</ele>
        <time>2018-12-27T08:15:43.290000Z</time>
      </trkpt>
      <trkpt lat="37.849136529804426" lon="112.02051737511108">
        <ele>1102.0</ele>
        <time>2018-12-27T08:15:46.290000Z</time>
      </trkpt>
      <trkpt lat="37.84912254724618" lon="112.0203886997061">
        <ele>1102.0</ele>
        <time>2018-12-27T08:15:49.290000Z</time>
      </trkpt>
      <trkpt lat="37.849137792874444" lon="112.02004251755702">
        <ele>1100.0</ele>
        <time>2018-12-27T08:15:58.290000Z</time>
      </trkpt>
      <trkpt lat="37.849116496315794" lon="112.01959657460692">
        <ele>1101.0</ele>
        <time>2018-12-27T08:16:10.290000Z</time>
      </trkpt>
      <trkpt lat="37.8491252755173" lon="112.01925483186793">
        <ele>1101.0</ele>
        <time>2018-12-27T08:16:19.290000Z</time>
      </trkpt>
      <trkpt lat="37.849154236878434" lon="112.01893550115965">
        <ele>1101.0</ele>
        <time>2018-12-27T08:16:28.290000Z</time>
      </trkpt>
      <trkpt lat="37.8491452877624" lon="112.01853332077405">
        <ele>1101.0</ele>
        <time>2018-12-27T08:16:40.290000Z</time>
      </trkpt>
      <trkpt lat="37.84913937630624" lon="112.01831150788301">
        <ele>1101.0</ele>
        <time>2018-12-27T08:16:46.290000Z</time>
      </trkpt>
      <trkpt lat="37.849170566632495" lon="112.01797756880343">
        <ele>1103.0</ele>
        <time>2018-12-27T08:16:55.290000Z</time>
      </trkpt>
      <trkpt lat="37.84917112319968" lon="112.0178696926729">
        <ele>1103.0</ele>
        <time>2018-12-27T08:16:58.290000Z</time>
      </trkpt>
      <trkpt lat="37.84914079420727" lon="112.01753996851171">
        <ele>1102.0</ele>
        <time>2018-12-27T08:17:07.290000Z</time>
      </trkpt>
      <trkpt lat="37.84922987979806" lon="112.0171233256998">
        <ele>1102.0</ele>
        <time>2018-12-27T08:17:19.290000Z</time>
      </trkpt>
      <trkpt lat="37.84930013704323" lon="112.01692564044664">
        <ele>1102.0</ele>
        <time>2018-12-27T08:17:25.290000Z</time>
      </trkpt>
      <trkpt lat="37.84932557198539" lon="112.01682991245832">
        <ele>1103.0</ele>
        <time>2018-12-27T08:17:28.290000Z</time>
      </trkpt>
      <trkpt lat="37.8493539066847" lon="112.01640435796028">
        <ele>1102.0</ele>
        <time>2018-12-27T08:17:40.290000Z</time>
      </trkpt>
      <trkpt lat="37.84940550352154" lon="112.01610046660785">
        <ele>1102.0</ele>
        <time>2018-12-27T08:17:49.290000Z</time>
      </trkpt>
      <trkpt lat="37.84943996357759" lon="112.0160036738908">
        <ele>1102.0</ele>
        <time>2018-12-27T08:17:52.290000Z</time>
      </trkpt>
      <trkpt lat="37.849471812109336" lon="112.01577575814815">
        <ele>1103.0</ele>
        <time>2018-12-27T08:17:58.290000Z</time>
      </trkpt>
      <trkpt lat="37.84941571971157" lon="112.01553864690833">
        <ele>1103.0</ele>
        <time>2018-12-27T08:18:04.290000Z</time>
      </trkpt>
      <trkpt lat="37.84949564281792" lon="112.01512500982739">
        <ele>1103.0</ele>
        <time>2018-12-27T08:18:16.290000Z</time>
      </trkpt>
      <trkpt lat="37.849568692724915" lon="112.0148167992851">
        <ele>1103.0</ele>
        <time>2018-12-27T08:18:25.290000Z</time>
      </trkpt>
      <trkpt lat="37.84958702767982" lon="112.01438315534637">
        <ele>1104.0</ele>
        <time>2018-12-27T08:18:37.290000Z</time>
      </trkpt>
      <trkpt lat="37.8496080253388" lon="112.0139681691202">
        <ele>1104.0</ele>
        <time>2018-12-27T08:18:49.290000Z</time>
      </trkpt>
      <trkpt lat="37.849669081106576" lon="112.01358751552337">
        <ele>1104.0</ele>
        <time>2018-12-27T08:19:01.290000Z</time>
      </trkpt>
      <trkpt lat="37.84971099951273" lon="112.01316415324841">
        <ele>1104.0</ele>
        <time>2018-12-27T08:19:13.290000Z</time>
      </trkpt>
      <trkpt lat="37.849726887405254" lon="112.0127364723749">
        <ele>1105.0</ele>
        <time>2018-12-27T08:19:25.290000Z</time>
      </trkpt>
      <trkpt lat="37.849730507913506" lon="112.01251695674968">
        <ele>1104.0</ele>
        <time>2018-12-27T08:19:31.290000Z</time>
      </trkpt>
      <trkpt lat="37.849772615456885" lon="112.01231122468644">
        <ele>1103.0</ele>
        <time>2018-12-27T08:19:37.290000Z</time>
      </trkpt>
      <trkpt lat="37.8497683772334" lon="112.01208900850888">
        <ele>1104.0</ele>
        <time>2018-12-27T08:19:43.290000Z</time>
      </trkpt>
      <trkpt lat="37.84980321273345" lon="112.01177217152849">
        <ele>1105.0</ele>
        <time>2018-12-27T08:19:52.290000Z</time>
      </trkpt>
      <trkpt lat="37.84983523644668" lon="112.01167592876729">
        <ele>1105.0</ele>
        <time>2018-12-27T08:19:55.290000Z</time>
      </trkpt>
      <trkpt lat="37.84984381507245" lon="112.01124609872011">
        <ele>1104.0</ele>
        <time>2018-12-27T08:20:07.290000Z</time>
      </trkpt>
      <trkpt lat="37.849837228247914" lon="112.0108076234252">
        <ele>1104.0</ele>
        <time>2018-12-27T08:20:19.290000Z</time>
      </trkpt>
      <trkpt lat="37.849857998355425" lon="112.01038563836443">
        <ele>1103.0</ele>
        <time>2018-12-27T08:20:31.290000Z</time>
      </trkpt>
      <trkpt lat="37.84988947649156" lon="112.01019856840328">
        <ele>1103.0</ele>
        <time>2018-12-27T08:20:37.290000Z</time>
      </trkpt>
      <trkpt lat="37.8498964307538" lon="112.00977064245434">
        <ele>1104.0</ele>
        <time>2018-12-27T08:20:49.290000Z</time>
      </trkpt>
      <trkpt lat="37.849834417721056" lon="112.00936192081608">
        <ele>1106.0</ele>
        <time>2018-12-27T08:21:01.290000Z</time>
      </trkpt>
      <trkpt lat="37.849817890221374" lon="112.00926217387186">
        <ele>1107.0</ele>
        <time>2018-12-27T08:21:04.290000Z</time>
      </trkpt>
      <trkpt lat="37.84962482276535" lon="112.00894997578224">
        <ele>1113.0</ele>
        <time>2018-12-27T08:21:16.290000Z</time>
      </trkpt>
      <trkpt lat="37.84940817880759" lon="112.00862886157802">
        <ele>1117.0</ele>
        <time>2018-12-27T08:21:28.290000Z</time>
      </trkpt>
      <trkpt lat="37.849207293861525" lon="112.00830044857551">
        <ele>1116.0</ele>
        <time>2018-12-27T08:21:40.290000Z</time>
      </trkpt>
      <trkpt lat="37.84899292156947" lon="112.0079460885182">
        <ele>1115.0</ele>
        <time>2018-12-27T08:21:52.290000Z</time>
      </trkpt>
      <trkpt lat="37.84888488960656" lon="112.007779857102">
        <ele>1116.0</ele>
        <time>2018-12-27T08:21:58.290000Z</time>
      </trkpt>
      <trkpt lat="37.84884583879715" lon="112.00768227790135">
        <ele>1116.0</ele>
        <time>2018-12-27T08:22:01.290000Z</time>
      </trkpt>
      <trkpt lat="37.84865912126346" lon="112.00742658249554">
        <ele>1115.0</ele>
        <time>2018-12-27T08:22:10.290000Z</time>
      </trkpt>
      <trkpt lat="37.84847102786771" lon="112.0071776460572">
        <ele>1116.0</ele>
        <time>2018-12-27T08:22:19.290000Z</time>
      </trkpt>
      <trkpt lat="37.84836242667083" lon="112.0070208775591">
        <ele>1117.0</ele>
        <time>2018-12-27T08:22:25.290000Z</time>
      </trkpt>
      <trkpt lat="37.84814594264866" lon="112.00683087392812">
        <ele>1119.0</ele>
        <time>2018-12-27T08:22:34.290000Z</time>
      </trkpt>
      <trkpt lat="37.84779059598333" lon="112.006806858575">
        <ele>1118.0</ele>
        <time>2018-12-27T08:22:46.290000Z</time>
      </trkpt>
      <trkpt lat="37.84746251574728" lon="112.00673742763696">
        <ele>1117.0</ele>
        <time>2018-12-27T08:22:58.290000Z</time>
      </trkpt>
      <trkpt lat="37.8473827316396" lon="112.0067436543186">
        <ele>1117.0</ele>
        <time>2018-12-27T08:23:01.290000Z</time>
      </trkpt>
      <trkpt lat="37.84705220973352" lon="112.00667422373145">
        <ele>1119.0</ele>
        <time>2018-12-27T08:23:13.290000Z</time>
      </trkpt>
      <trkpt lat="37.84695868052281" lon="112.00664963657216">
        <ele>1121.0</ele>
        <time>2018-12-27T08:23:16.290000Z</time>
      </trkpt>
      <trkpt lat="37.84677797501227" lon="112.00665371279523">
        <ele>1121.0</ele>
        <time>2018-12-27T08:23:22.290000Z</time>
      </trkpt>
      <trkpt lat="37.84643623452632" lon="112.00661618032143">
        <ele>1124.0</ele>
        <time>2018-12-27T08:23:34.290000Z</time>
      </trkpt>
      <trkpt lat="37.84635845511598" lon="112.0065869960171">
        <ele>1124.0</ele>
        <time>2018-12-27T08:23:37.290000Z</time>
      </trkpt>
      <trkpt lat="37.84618346250862" lon="112.00658593564707">
        <ele>1125.0</ele>
        <time>2018-12-27T08:23:43.290000Z</time>
      </trkpt>
      <trkpt lat="37.845992361103896" lon="112.0066189363783">
        <ele>1125.0</ele>
        <time>2018-12-27T08:23:49.290000Z</time>
      </trkpt>
      <trkpt lat="37.84581313142187" lon="112.00658300640072">
        <ele>1127.0</ele>
        <time>2018-12-27T08:23:55.290000Z</time>
      </trkpt>
      <trkpt lat="37.84558081408212" lon="112.00650741722832">
        <ele>1126.0</ele>
        <time>2018-12-27T08:24:04.290000Z</time>
      </trkpt>
      <trkpt lat="37.845436747785584" lon="112.0064195696701">
        <ele>1127.0</ele>
        <time>2018-12-27T08:24:10.290000Z</time>
      </trkpt>
      <trkpt lat="37.8453679929364" lon="112.00637302824587">
        <ele>1127.0</ele>
        <time>2018-12-27T08:24:13.290000Z</time>
      </trkpt>
      <trkpt lat="37.84509808778038" lon="112.00626547709828">
        <ele>1129.0</ele>
        <time>2018-12-27T08:24:22.290000Z</time>
      </trkpt>
      <trkpt lat="37.844845348343604" lon="112.00622442017757">
        <ele>1129.0</ele>
        <time>2018-12-27T08:24:31.290000Z</time>
      </trkpt>
      <trkpt lat="37.84476326444446" lon="112.0061830726179">
        <ele>1129.0</ele>
        <time>2018-12-27T08:24:34.290000Z</time>
      </trkpt>
      <trkpt lat="37.844610269989836" lon="112.00617471127242">
        <ele>1128.0</ele>
        <time>2018-12-27T08:24:40.290000Z</time>
      </trkpt>
      <trkpt lat="37.84454371088562" lon="112.00620418293647">
        <ele>1129.0</ele>
        <time>2018-12-27T08:24:43.290000Z</time>
      </trkpt>
      <trkpt lat="37.844462332889485" lon="112.00619905676132">
        <ele>1128.0</ele>
        <time>2018-12-27T08:24:46.290000Z</time>
      </trkpt>
      <trkpt lat="37.84413476983831" lon="112.00632046487299">
        <ele>1131.0</ele>
        <time>2018-12-27T08:24:58.290000Z</time>
      </trkpt>
      <trkpt lat="37.84383398221043" lon="112.00647025259325">
        <ele>1130.0</ele>
        <time>2018-12-27T08:25:10.290000Z</time>
      </trkpt>
      <trkpt lat="37.843565288483525" lon="112.00668464117453">
        <ele>1133.0</ele>
        <time>2018-12-27T08:25:22.290000Z</time>
      </trkpt>
      <trkpt lat="37.84326773261699" lon="112.00693390413107">
        <ele>1135.0</ele>
        <time>2018-12-27T08:25:34.290000Z</time>
      </trkpt>
      <trkpt lat="37.843056263516466" lon="112.00712315747553">
        <ele>1135.0</ele>
        <time>2018-12-27T08:25:43.290000Z</time>
      </trkpt>
      <trkpt lat="37.84276510401535" lon="112.00735321971162">
        <ele>1137.0</ele>
        <time>2018-12-27T08:25:55.290000Z</time>
      </trkpt>
      <trkpt lat="37.842458628229735" lon="112.00759194391483">
        <ele>1136.0</ele>
        <time>2018-12-27T08:26:07.290000Z</time>
      </trkpt>
      <trkpt lat="37.84222590437612" lon="112.00775443114738">
        <ele>1136.0</ele>
        <time>2018-12-27T08:26:16.290000Z</time>
      </trkpt>
      <trkpt lat="37.84210481049342" lon="112.00788103360708">
        <ele>1135.0</ele>
        <time>2018-12-27T08:26:22.290000Z</time>
      </trkpt>
      <trkpt lat="37.841805021150115" lon="112.0080679620669">
        <ele>1134.0</ele>
        <time>2018-12-27T08:26:34.290000Z</time>
      </trkpt>
      <trkpt lat="37.841536683778315" lon="112.0081603307495">
        <ele>1135.0</ele>
        <time>2018-12-27T08:26:43.290000Z</time>
      </trkpt>
      <trkpt lat="37.84123363540827" lon="112.00819226668865">
        <ele>1137.0</ele>
        <time>2018-12-27T08:26:52.290000Z</time>
      </trkpt>
      <trkpt lat="37.84103508203434" lon="112.00817017776903">
        <ele>1137.0</ele>
        <time>2018-12-27T08:26:58.290000Z</time>
      </trkpt>
      <trkpt lat="37.84094911763663" lon="112.00814496136245">
        <ele>1138.0</ele>
        <time>2018-12-27T08:27:01.290000Z</time>
      </trkpt>
      <trkpt lat="37.840595736368215" lon="112.00807379191218">
        <ele>1139.0</ele>
        <time>2018-12-27T08:27:13.290000Z</time>
      </trkpt>
      <trkpt lat="37.84025328946108" lon="112.00802853169692">
        <ele>1139.0</ele>
        <time>2018-12-27T08:27:25.290000Z</time>
      </trkpt>
      <trkpt lat="37.83990352605175" lon="112.00808470295355">
        <ele>1138.0</ele>
        <time>2018-12-27T08:27:37.290000Z</time>
      </trkpt>
      <trkpt lat="37.83956029911456" lon="112.00814510492503">
        <ele>1137.0</ele>
        <time>2018-12-27T08:27:49.290000Z</time>
      </trkpt>
      <trkpt lat="37.83940082731105" lon="112.00817416279472">
        <ele>1136.0</ele>
        <time>2018-12-27T08:27:55.290000Z</time>
      </trkpt>
      <trkpt lat="37.83923609270114" lon="112.00823176766264">
        <ele>1136.0</ele>
        <time>2018-12-27T08:28:01.290000Z</time>
      </trkpt>
      <trkpt lat="37.83887822073122" lon="112.00826965619693">
        <ele>1137.0</ele>
        <time>2018-12-27T08:28:13.290000Z</time>
      </trkpt>
      <trkpt lat="37.83868506326083" lon="112.00827053031476">
        <ele>1140.0</ele>
        <time>2018-12-27T08:28:19.290000Z</time>
      </trkpt>
      <trkpt lat="37.83841571453195" lon="112.00828357593876">
        <ele>1142.0</ele>
        <time>2018-12-27T08:28:28.290000Z</time>
      </trkpt>
      <trkpt lat="37.83816501403676" lon="112.00823633066621">
        <ele>1144.0</ele>
        <time>2018-12-27T08:28:37.290000Z</time>
      </trkpt>
      <trkpt lat="37.83808851649222" lon="112.00819500323931">
        <ele>1144.0</ele>
        <time>2018-12-27T08:28:40.290000Z</time>
      </trkpt>
      <trkpt lat="37.83793935476771" lon="112.00812619278724">
        <ele>1145.0</ele>
        <time>2018-12-27T08:28:46.290000Z</time>
      </trkpt>
      <trkpt lat="37.837858666986335" lon="112.008120952222">
        <ele>1145.0</ele>
        <time>2018-12-27T08:28:49.290000Z</time>
      </trkpt>
      <trkpt lat="37.83778593099226" lon="112.00807916080447">
        <ele>1145.0</ele>
        <time>2018-12-27T08:28:52.290000Z</time>
      </trkpt>
      <trkpt lat="37.837639259796944" lon="112.00804712291114">
        <ele>1145.0</ele>
        <time>2018-12-27T08:28:58.290000Z</time>
      </trkpt>
      <trkpt lat="37.83735672139752" lon="112.00788897274937">
        <ele>1147.0</ele>
        <time>2018-12-27T08:29:10.290000Z</time>
      </trkpt>
      <trkpt lat="37.83712480518342" lon="112.0077992198076">
        <ele>1148.0</ele>
        <time>2018-12-27T08:29:19.290000Z</time>
      </trkpt>
      <trkpt lat="37.837028872191375" lon="112.00779885576753">
        <ele>1148.0</ele>
        <time>2018-12-27T08:29:22.290000Z</time>
      </trkpt>
      <trkpt lat="37.8369398494276" lon="112.0077795671194">
        <ele>1148.0</ele>
        <time>2018-12-27T08:29:25.290000Z</time>
      </trkpt>
      <trkpt lat="37.83676957561264" lon="112.00771696808971">
        <ele>1149.0</ele>
        <time>2018-12-27T08:29:31.290000Z</time>
      </trkpt>
      <trkpt lat="37.83658741455886" lon="112.00768907047954">
        <ele>1149.0</ele>
        <time>2018-12-27T08:29:37.290000Z</time>
      </trkpt>
      <trkpt lat="37.8363236313784" lon="112.0076123950012">
        <ele>1150.0</ele>
        <time>2018-12-27T08:29:46.290000Z</time>
      </trkpt>
      <trkpt lat="37.836054031069246" lon="112.00746661289274">
        <ele>1150.0</ele>
        <time>2018-12-27T08:29:55.290000Z</time>
      </trkpt>
      <trkpt lat="37.83595393814872" lon="112.00743361913086">
        <ele>1152.0</ele>
        <time>2018-12-27T08:29:58.290000Z</time>
      </trkpt>
      <trkpt lat="37.83578063741864" lon="112.00748920999777">
        <ele>1152.0</ele>
        <time>2018-12-27T08:30:04.290000Z</time>
      </trkpt>
      <trkpt lat="37.83574451308557" lon="112.0074113637527">
        <ele>1151.0</ele>
        <time>2018-12-27T08:30:07.290000Z</time>
      </trkpt>
      <trkpt lat="37.835633111655014" lon="112.00737542525157">
        <ele>1152.0</ele>
        <time>2018-12-27T08:30:13.290000Z</time>
      </trkpt>
      <trkpt lat="37.83556092647967" lon="112.00738111045759">
        <ele>1153.0</ele>
        <time>2018-12-27T08:30:16.290000Z</time>
      </trkpt>
      <trkpt lat="37.835481523531406" lon="112.00735057443607">
        <ele>1153.0</ele>
        <time>2018-12-27T08:30:19.290000Z</time>
      </trkpt>
      <trkpt lat="37.8354185541534" lon="112.00726786590563">
        <ele>1152.0</ele>
        <time>2018-12-27T08:30:22.290000Z</time>
      </trkpt>
      <trkpt lat="37.835343280128825" lon="112.00703486487953">
        <ele>1152.0</ele>
        <time>2018-12-27T08:30:28.290000Z</time>
      </trkpt>
      <trkpt lat="37.83526977501897" lon="112.0069370204923">
        <ele>1154.0</ele>
        <time>2018-12-27T08:30:31.290000Z</time>
      </trkpt>
      <trkpt lat="37.83516517907289" lon="112.00689351268419">
        <ele>1154.0</ele>
        <time>2018-12-27T08:30:34.290000Z</time>
      </trkpt>
      <trkpt lat="37.83505454275973" lon="112.00687406339954">
        <ele>1154.0</ele>
        <time>2018-12-27T08:30:37.290000Z</time>
      </trkpt>
      <trkpt lat="37.834947634810064" lon="112.00687813082932">
        <ele>1155.0</ele>
        <time>2018-12-27T08:30:40.290000Z</time>
      </trkpt>
      <trkpt lat="37.834750125135024" lon="112.00696816838807">
        <ele>1154.0</ele>
        <time>2018-12-27T08:30:46.290000Z</time>
      </trkpt>
      <trkpt lat="37.834645601910125" lon="112.00699142773169">
        <ele>1155.0</ele>
        <time>2018-12-27T08:30:49.290000Z</time>
      </trkpt>
      <trkpt lat="37.83454338424232" lon="112.00696927429014">
        <ele>1154.0</ele>
        <time>2018-12-27T08:30:52.290000Z</time>
      </trkpt>
      <trkpt lat="37.83436652650965" lon="112.00686603607237">
        <ele>1154.0</ele>
        <time>2018-12-27T08:30:58.290000Z</time>
      </trkpt>
      <trkpt lat="37.834048559170995" lon="112.00677254605311">
        <ele>1155.0</ele>
        <time>2018-12-27T08:31:07.290000Z</time>
      </trkpt>
      <trkpt lat="37.83377298061797" lon="112.0066574261929">
        <ele>1155.0</ele>
        <time>2018-12-27T08:31:16.290000Z</time>
      </trkpt>
      <trkpt lat="37.8334205573725" lon="112.00656394055238">
        <ele>1156.0</ele>
        <time>2018-12-27T08:31:28.290000Z</time>
      </trkpt>
      <trkpt lat="37.83315303469244" lon="112.00647693236543">
        <ele>1158.0</ele>
        <time>2018-12-27T08:31:37.290000Z</time>
      </trkpt>
      <trkpt lat="37.83298332335017" lon="112.00643397321718">
        <ele>1158.0</ele>
        <time>2018-12-27T08:31:43.290000Z</time>
      </trkpt>
      <trkpt lat="37.83281728814595" lon="112.00634100626365">
        <ele>1159.0</ele>
        <time>2018-12-27T08:31:49.290000Z</time>
      </trkpt>
      <trkpt lat="37.83249487874645" lon="112.00619075241433">
        <ele>1159.0</ele>
        <time>2018-12-27T08:32:01.290000Z</time>
      </trkpt>
      <trkpt lat="37.8324084400787" lon="112.00615427093307">
        <ele>1159.0</ele>
        <time>2018-12-27T08:32:04.290000Z</time>
      </trkpt>
      <trkpt lat="37.83209890491517" lon="112.00614484699618">
        <ele>1159.0</ele>
        <time>2018-12-27T08:32:13.290000Z</time>
      </trkpt>
      <trkpt lat="37.831805273807745" lon="112.00617002077327">
        <ele>1164.0</ele>
        <time>2018-12-27T08:32:22.290000Z</time>
      </trkpt>
      <trkpt lat="37.83151198745543" lon="112.00617059634811">
        <ele>1164.0</ele>
        <time>2018-12-27T08:32:31.290000Z</time>
      </trkpt>
      <trkpt lat="37.83115825336605" lon="112.0061530683912">
        <ele>1165.0</ele>
        <time>2018-12-27T08:32:43.290000Z</time>
      </trkpt>
      <trkpt lat="37.830863831104665" lon="112.00617067359815">
        <ele>1165.0</ele>
        <time>2018-12-27T08:32:52.290000Z</time>
      </trkpt>
      <trkpt lat="37.8305580363303" lon="112.00619746608776">
        <ele>1167.0</ele>
        <time>2018-12-27T08:33:01.290000Z</time>
      </trkpt>
      <trkpt lat="37.830266524679864" lon="112.00620522451068">
        <ele>1166.0</ele>
        <time>2018-12-27T08:33:10.290000Z</time>
      </trkpt>
      <trkpt lat="37.83016263442896" lon="112.00621616918309">
        <ele>1166.0</ele>
        <time>2018-12-27T08:33:13.290000Z</time>
      </trkpt>
      <trkpt lat="37.83008025180879" lon="112.00618428246358">
        <ele>1166.0</ele>
        <time>2018-12-27T08:33:16.290000Z</time>
      </trkpt>
      <trkpt lat="37.829933546529176" lon="112.006159972089">
        <ele>1165.0</ele>
        <time>2018-12-27T08:33:22.290000Z</time>
      </trkpt>
      <trkpt lat="37.82969296893766" lon="112.00622649692745">
        <ele>1168.0</ele>
        <time>2018-12-27T08:33:34.290000Z</time>
      </trkpt>
      <trkpt lat="37.82955823834514" lon="112.00618975086807">
        <ele>1169.0</ele>
        <time>2018-12-27T08:33:43.290000Z</time>
      </trkpt>
      <trkpt lat="37.82929723652264" lon="112.00619086321173">
        <ele>1170.0</ele>
        <time>2018-12-27T08:33:58.290000Z</time>
      </trkpt>
      <trkpt lat="37.82922838147227" lon="112.00617167943706">
        <ele>1170.0</ele>
        <time>2018-12-27T08:34:01.290000Z</time>
      </trkpt>
      <trkpt lat="37.82892767920271" lon="112.006202800878">
        <ele>1170.0</ele>
        <time>2018-12-27T08:34:13.290000Z</time>
      </trkpt>
      <trkpt lat="37.828782086622354" lon="112.00623010854416">
        <ele>1171.0</ele>
        <time>2018-12-27T08:34:19.290000Z</time>
      </trkpt>
      <trkpt lat="37.82870420228624" lon="112.00626662062086">
        <ele>1170.0</ele>
        <time>2018-12-27T08:34:22.290000Z</time>
      </trkpt>
      <trkpt lat="37.82861425641553" lon="112.00627199856002">
        <ele>1169.0</ele>
        <time>2018-12-27T08:34:25.290000Z</time>
      </trkpt>
      <trkpt lat="37.828320443161" lon="112.0062190918263">
        <ele>1168.0</ele>
        <time>2018-12-27T08:34:37.290000Z</time>
      </trkpt>
      <trkpt lat="37.82816072274362" lon="112.00629315700266">
        <ele>1168.0</ele>
        <time>2018-12-27T08:34:43.290000Z</time>
      </trkpt>
      <trkpt lat="37.8278409007684" lon="112.00633271620116">
        <ele>1169.0</ele>
        <time>2018-12-27T08:34:55.290000Z</time>
      </trkpt>
      <trkpt lat="37.827556616585014" lon="112.0063435750078">
        <ele>1170.0</ele>
        <time>2018-12-27T08:35:07.290000Z</time>
      </trkpt>
      <trkpt lat="37.82723071478187" lon="112.00638341387474">
        <ele>1168.0</ele>
        <time>2018-12-27T08:35:19.290000Z</time>
      </trkpt>
      <trkpt lat="37.82691486185476" lon="112.00642627702753">
        <ele>1167.0</ele>
        <time>2018-12-27T08:35:31.290000Z</time>
      </trkpt>
      <trkpt lat="37.82659890525351" lon="112.00643807102828">
        <ele>1170.0</ele>
        <time>2018-12-27T08:35:43.290000Z</time>
      </trkpt>
      <trkpt lat="37.826377041246246" lon="112.00645411382808">
        <ele>1171.0</ele>
        <time>2018-12-27T08:35:52.290000Z</time>
      </trkpt>
      <trkpt lat="37.82624111108889" lon="112.00650150240203">
        <ele>1171.0</ele>
        <time>2018-12-27T08:35:58.290000Z</time>
      </trkpt>
      <trkpt lat="37.826129656663916" lon="112.00657452336317">
        <ele>1172.0</ele>
        <time>2018-12-27T08:36:04.290000Z</time>
      </trkpt>
      <trkpt lat="37.82597744838842" lon="112.00660083389472">
        <ele>1173.0</ele>
        <time>2018-12-27T08:36:13.290000Z</time>
      </trkpt>
      <trkpt lat="37.82579162355255" lon="112.00655530938545">
        <ele>1174.0</ele>
        <time>2018-12-27T08:36:25.290000Z</time>
      </trkpt>
      <trkpt lat="37.82574462890323" lon="112.00653989231131">
        <ele>1174.0</ele>
        <time>2018-12-27T08:36:28.290000Z</time>
      </trkpt>
      <trkpt lat="37.825431479945536" lon="112.00652830822449">
        <ele>1178.0</ele>
        <time>2018-12-27T08:36:46.290000Z</time>
      </trkpt>
      <trkpt lat="37.8252819658458" lon="112.00652327096412">
        <ele>1180.0</ele>
        <time>2018-12-27T08:36:52.290000Z</time>
      </trkpt>
      <trkpt lat="37.8251282786368" lon="112.00647144962988">
        <ele>1179.0</ele>
        <time>2018-12-27T08:36:58.290000Z</time>
      </trkpt>
      <trkpt lat="37.824984213325884" lon="112.0063844339536">
        <ele>1180.0</ele>
        <time>2018-12-27T08:37:04.290000Z</time>
      </trkpt>
      <trkpt lat="37.8249061124682" lon="112.0063659755301">
        <ele>1180.0</ele>
        <time>2018-12-27T08:37:07.290000Z</time>
      </trkpt>
      <trkpt lat="37.824591613839104" lon="112.00632812124103">
        <ele>1180.0</ele>
        <time>2018-12-27T08:37:19.290000Z</time>
      </trkpt>
      <trkpt lat="37.82429826483382" lon="112.00624686461148">
        <ele>1181.0</ele>
        <time>2018-12-27T08:37:31.290000Z</time>
      </trkpt>
      <trkpt lat="37.823952895033955" lon="112.0062161924863">
        <ele>1179.0</ele>
        <time>2018-12-27T08:37:43.290000Z</time>
      </trkpt>
      <trkpt lat="37.823687162506836" lon="112.00616739317226">
        <ele>1180.0</ele>
        <time>2018-12-27T08:37:52.290000Z</time>
      </trkpt>
      <trkpt lat="37.823447753600945" lon="112.0061339144985">
        <ele>1183.0</ele>
        <time>2018-12-27T08:38:01.290000Z</time>
      </trkpt>
      <trkpt lat="37.82321315592053" lon="112.0061415281742">
        <ele>1183.0</ele>
        <time>2018-12-27T08:38:10.290000Z</time>
      </trkpt>
      <trkpt lat="37.82297668678026" lon="112.00619868501462">
        <ele>1185.0</ele>
        <time>2018-12-27T08:38:19.290000Z</time>
      </trkpt>
      <trkpt lat="37.82280995580706" lon="112.00621272596504">
        <ele>1184.0</ele>
        <time>2018-12-27T08:38:25.290000Z</time>
      </trkpt>
      <trkpt lat="37.82249002599013" lon="112.00611677152266">
        <ele>1186.0</ele>
        <time>2018-12-27T08:38:37.290000Z</time>
      </trkpt>
      <trkpt lat="37.822297797944906" lon="112.00599973098151">
        <ele>1188.0</ele>
        <time>2018-12-27T08:38:46.290000Z</time>
      </trkpt>
      <trkpt lat="37.822245718781105" lon="112.00593979766744">
        <ele>1189.0</ele>
        <time>2018-12-27T08:38:49.290000Z</time>
      </trkpt>
      <trkpt lat="37.822186496885415" lon="112.00589581306723">
        <ele>1190.0</ele>
        <time>2018-12-27T08:38:52.290000Z</time>
      </trkpt>
      <trkpt lat="37.82194295074777" lon="112.00573797318349">
        <ele>1192.0</ele>
        <time>2018-12-27T08:39:04.290000Z</time>
      </trkpt>
      <trkpt lat="37.82178871726517" lon="112.00567411659996">
        <ele>1193.0</ele>
        <time>2018-12-27T08:39:13.290000Z</time>
      </trkpt>
      <trkpt lat="37.82173085311401" lon="112.00560870902326">
        <ele>1193.0</ele>
        <time>2018-12-27T08:39:19.290000Z</time>
      </trkpt>
      <trkpt lat="37.82167850000678" lon="112.00551491857658">
        <ele>1194.0</ele>
        <time>2018-12-27T08:39:25.290000Z</time>
      </trkpt>
      <trkpt lat="37.82159676177486" lon="112.00544924367135">
        <ele>1195.0</ele>
        <time>2018-12-27T08:39:31.290000Z</time>
      </trkpt>
      <trkpt lat="37.82150617198365" lon="112.00544033432844">
        <ele>1196.0</ele>
        <time>2018-12-27T08:39:37.290000Z</time>
      </trkpt>
      <trkpt lat="37.82144940778077" lon="112.0053700612961">
        <ele>1197.0</ele>
        <time>2018-12-27T08:39:43.290000Z</time>
      </trkpt>
      <trkpt lat="37.82139847650568" lon="112.0053451991425">
        <ele>1198.0</ele>
        <time>2018-12-27T08:39:46.290000Z</time>
      </trkpt>
      <trkpt lat="37.82134499510906" lon="112.00535655839353">
        <ele>1198.0</ele>
        <time>2018-12-27T08:39:49.290000Z</time>
      </trkpt>
      <trkpt lat="37.821260388647495" lon="112.00534278282765">
        <ele>1199.0</ele>
        <time>2018-12-27T08:39:55.290000Z</time>
      </trkpt>
      <trkpt lat="37.82119406843777" lon="112.0052896655114">
        <ele>1201.0</ele>
        <time>2018-12-27T08:40:01.290000Z</time>
      </trkpt>
      <trkpt lat="37.82111766073894" lon="112.00525900479865">
        <ele>1202.0</ele>
        <time>2018-12-27T08:40:07.290000Z</time>
      </trkpt>
      <trkpt lat="37.8210754798544" lon="112.00512061306968">
        <ele>1202.0</ele>
        <time>2018-12-27T08:40:13.290000Z</time>
      </trkpt>
      <trkpt lat="37.82096476209895" lon="112.00504003373679">
        <ele>1203.0</ele>
        <time>2018-12-27T08:40:22.290000Z</time>
      </trkpt>
      <trkpt lat="37.820756096677016" lon="112.00477682270369">
        <ele>1204.0</ele>
        <time>2018-12-27T08:40:43.290000Z</time>
      </trkpt>
      <trkpt lat="37.82063932741474" lon="112.00472188146443">
        <ele>1202.0</ele>
        <time>2018-12-27T08:40:52.290000Z</time>
      </trkpt>
      <trkpt lat="37.820588517671034" lon="112.00465682742491">
        <ele>1202.0</ele>
        <time>2018-12-27T08:40:58.290000Z</time>
      </trkpt>
      <trkpt lat="37.820587063293324" lon="112.00459898248158">
        <ele>1203.0</ele>
        <time>2018-12-27T08:41:01.290000Z</time>
      </trkpt>
      <trkpt lat="37.82054823917689" lon="112.00451762558271">
        <ele>1203.0</ele>
        <time>2018-12-27T08:41:07.290000Z</time>
      </trkpt>
      <trkpt lat="37.82033800740301" lon="112.00432654595122">
        <ele>1204.0</ele>
        <time>2018-12-27T08:41:25.290000Z</time>
      </trkpt>
      <trkpt lat="37.82038305078258" lon="112.00432437816286">
        <ele>1203.0</ele>
        <time>2018-12-27T08:41:28.290000Z</time>
      </trkpt>
      <trkpt lat="37.82051302851327" lon="112.00449789759028">
        <ele>1203.0</ele>
        <time>2018-12-27T08:41:34.290000Z</time>
      </trkpt>
      <trkpt lat="37.820533683178844" lon="112.00457655359199">
        <ele>1203.0</ele>
        <time>2018-12-27T08:41:37.290000Z</time>
      </trkpt>
      <trkpt lat="37.82056661316253" lon="112.00463304325098">
        <ele>1203.0</ele>
        <time>2018-12-27T08:41:40.290000Z</time>
      </trkpt>
      <trkpt lat="37.820829263594895" lon="112.00480546630281">
        <ele>1204.0</ele>
        <time>2018-12-27T08:41:55.290000Z</time>
      </trkpt>
      <trkpt lat="37.82107954363693" lon="112.00503195229338">
        <ele>1204.0</ele>
        <time>2018-12-27T08:42:10.290000Z</time>
      </trkpt>
      <trkpt lat="37.821318482728046" lon="112.00524060005067">
        <ele>1205.0</ele>
        <time>2018-12-27T08:42:22.290000Z</time>
      </trkpt>
      <trkpt lat="37.82158357607686" lon="112.00541302410585">
        <ele>1204.0</ele>
        <time>2018-12-27T08:42:34.190000Z</time>
      </trkpt>
      <trkpt lat="37.8218495594735" lon="112.00565086288245">
        <ele>1203.0</ele>
        <time>2018-12-27T08:42:46.290000Z</time>
      </trkpt>
      <trkpt lat="37.82204008461084" lon="112.00580978131394">
        <ele>1200.0</ele>
        <time>2018-12-27T08:42:55.290000Z</time>
      </trkpt>
      <trkpt lat="37.822102926887624" lon="112.00584356237577">
        <ele>1200.0</ele>
        <time>2018-12-27T08:42:58.290000Z</time>
      </trkpt>
      <trkpt lat="37.822284233588185" lon="112.00600059014656">
        <ele>1199.0</ele>
        <time>2018-12-27T08:43:07.290000Z</time>
      </trkpt>
      <trkpt lat="37.822520436520996" lon="112.00612679642126">
        <ele>1198.0</ele>
        <time>2018-12-27T08:43:16.290000Z</time>
      </trkpt>
      <trkpt lat="37.82283981199811" lon="112.00620190444117">
        <ele>1195.0</ele>
        <time>2018-12-27T08:43:28.290000Z</time>
      </trkpt>
      <trkpt lat="37.82318663598727" lon="112.00617050719639">
        <ele>1192.0</ele>
        <time>2018-12-27T08:43:40.290000Z</time>
      </trkpt>
      <trkpt lat="37.823540753107565" lon="112.00614992147743">
        <ele>1190.0</ele>
        <time>2018-12-27T08:43:52.290000Z</time>
      </trkpt>
      <trkpt lat="37.823698115315686" lon="112.00614855118091">
        <ele>1188.0</ele>
        <time>2018-12-27T08:43:58.290000Z</time>
      </trkpt>
      <trkpt lat="37.82401694685327" lon="112.00622419990118">
        <ele>1186.0</ele>
        <time>2018-12-27T08:44:10.290000Z</time>
      </trkpt>
      <trkpt lat="37.82433798767426" lon="112.00628687355092">
        <ele>1190.0</ele>
        <time>2018-12-27T08:44:22.290000Z</time>
      </trkpt>
      <trkpt lat="37.82465819695918" lon="112.00635549417773">
        <ele>1190.0</ele>
        <time>2018-12-27T08:44:34.290000Z</time>
      </trkpt>
      <trkpt lat="37.82498465127371" lon="112.00642249225979">
        <ele>1188.0</ele>
        <time>2018-12-27T08:44:46.290000Z</time>
      </trkpt>
      <trkpt lat="37.82522190031423" lon="112.00647111990102">
        <ele>1187.0</ele>
        <time>2018-12-27T08:44:55.290000Z</time>
      </trkpt>
      <trkpt lat="37.82529125918442" lon="112.00650327861845">
        <ele>1188.0</ele>
        <time>2018-12-27T08:44:58.290000Z</time>
      </trkpt>
      <trkpt lat="37.8256167324073" lon="112.00653540682829">
        <ele>1185.0</ele>
        <time>2018-12-27T08:45:10.290000Z</time>
      </trkpt>
      <trkpt lat="37.82595986889855" lon="112.00655807205901">
        <ele>1183.0</ele>
        <time>2018-12-27T08:45:22.290000Z</time>
      </trkpt>
      <trkpt lat="37.82622663682496" lon="112.00653371227723">
        <ele>1180.0</ele>
        <time>2018-12-27T08:45:31.290000Z</time>
      </trkpt>
      <trkpt lat="37.82655815165809" lon="112.0064504170472">
        <ele>1180.0</ele>
        <time>2018-12-27T08:45:43.290000Z</time>
      </trkpt>
      <trkpt lat="37.82683035957866" lon="112.00642146137623">
        <ele>1178.0</ele>
        <time>2018-12-27T08:45:52.290000Z</time>
      </trkpt>
      <trkpt lat="37.82717202076567" lon="112.00639303806106">
        <ele>1175.0</ele>
        <time>2018-12-27T08:46:04.290000Z</time>
      </trkpt>
      <trkpt lat="37.82751505228294" lon="112.00636001931937">
        <ele>1174.0</ele>
        <time>2018-12-27T08:46:16.290000Z</time>
      </trkpt>
      <trkpt lat="37.82778839561752" lon="112.00631430432263">
        <ele>1173.0</ele>
        <time>2018-12-27T08:46:25.290000Z</time>
      </trkpt>
      <trkpt lat="37.82809098709399" lon="112.00628642632711">
        <ele>1172.0</ele>
        <time>2018-12-27T08:46:37.290000Z</time>
      </trkpt>
      <trkpt lat="37.828395264537235" lon="112.00623908583283">
        <ele>1170.0</ele>
        <time>2018-12-27T08:46:49.290000Z</time>
      </trkpt>
      <trkpt lat="37.82873824238186" lon="112.006224177921">
        <ele>1169.0</ele>
        <time>2018-12-27T08:47:01.290000Z</time>
      </trkpt>
      <trkpt lat="37.82907255215441" lon="112.00620467578051">
        <ele>1166.0</ele>
        <time>2018-12-27T08:47:13.290000Z</time>
      </trkpt>
      <trkpt lat="37.82934498597582" lon="112.00619112783077">
        <ele>1165.0</ele>
        <time>2018-12-27T08:47:22.290000Z</time>
      </trkpt>
      <trkpt lat="37.82968928592271" lon="112.00618784308296">
        <ele>1164.0</ele>
        <time>2018-12-27T08:47:34.290000Z</time>
      </trkpt>
      <trkpt lat="37.83002736359876" lon="112.00617861226567">
        <ele>1162.0</ele>
        <time>2018-12-27T08:47:46.290000Z</time>
      </trkpt>
      <trkpt lat="37.830371079966994" lon="112.00618911337529">
        <ele>1161.0</ele>
        <time>2018-12-27T08:47:58.290000Z</time>
      </trkpt>
      <trkpt lat="37.83053326197877" lon="112.0062093672688">
        <ele>1160.0</ele>
        <time>2018-12-27T08:48:04.290000Z</time>
      </trkpt>
      <trkpt lat="37.830808959035906" lon="112.00619338614156">
        <ele>1158.0</ele>
        <time>2018-12-27T08:48:13.290000Z</time>
      </trkpt>
      <trkpt lat="37.83115299205551" lon="112.0061887498751">
        <ele>1159.0</ele>
        <time>2018-12-27T08:48:25.290000Z</time>
      </trkpt>
      <trkpt lat="37.83150005874306" lon="112.00616762436523">
        <ele>1158.0</ele>
        <time>2018-12-27T08:48:37.290000Z</time>
      </trkpt>
      <trkpt lat="37.83183950951752" lon="112.00615298719569">
        <ele>1157.0</ele>
        <time>2018-12-27T08:48:49.290000Z</time>
      </trkpt>
      <trkpt lat="37.832180581774466" lon="112.00614051231081">
        <ele>1153.0</ele>
        <time>2018-12-27T08:49:01.290000Z</time>
      </trkpt>
      <trkpt lat="37.832436014395235" lon="112.00618751571561">
        <ele>1152.0</ele>
        <time>2018-12-27T08:49:10.290000Z</time>
      </trkpt>
      <trkpt lat="37.83274546945452" lon="112.00631479474623">
        <ele>1153.0</ele>
        <time>2018-12-27T08:49:22.290000Z</time>
      </trkpt>
      <trkpt lat="37.83306605647826" lon="112.00643936956466">
        <ele>1152.0</ele>
        <time>2018-12-27T08:49:34.290000Z</time>
      </trkpt>
      <trkpt lat="37.83339887277982" lon="112.00655718536362">
        <ele>1154.0</ele>
        <time>2018-12-27T08:49:46.290000Z</time>
      </trkpt>
      <trkpt lat="37.8337312843469" lon="112.00662877816977">
        <ele>1154.0</ele>
        <time>2018-12-27T08:49:58.290000Z</time>
      </trkpt>
      <trkpt lat="37.83406437235327" lon="112.00674659424358">
        <ele>1153.0</ele>
        <time>2018-12-27T08:50:10.290000Z</time>
      </trkpt>
      <trkpt lat="37.83430656153938" lon="112.00686793540712">
        <ele>1151.0</ele>
        <time>2018-12-27T08:50:19.290000Z</time>
      </trkpt>
      <trkpt lat="37.83461368148672" lon="112.00695980497034">
        <ele>1152.0</ele>
        <time>2018-12-27T08:50:31.290000Z</time>
      </trkpt>
      <trkpt lat="37.8346903952791" lon="112.00698223176248">
        <ele>1152.0</ele>
        <time>2018-12-27T08:50:34.290000Z</time>
      </trkpt>
      <trkpt lat="37.83502766141621" lon="112.00688136503305">
        <ele>1153.0</ele>
        <time>2018-12-27T08:50:46.290000Z</time>
      </trkpt>
      <trkpt lat="37.835210466025" lon="112.00690080571435">
        <ele>1152.0</ele>
        <time>2018-12-27T08:50:52.290000Z</time>
      </trkpt>
      <trkpt lat="37.83529555102061" lon="112.00693647679392">
        <ele>1151.0</ele>
        <time>2018-12-27T08:50:55.290000Z</time>
      </trkpt>
      <trkpt lat="37.83535610723729" lon="112.0070094539545">
        <ele>1151.0</ele>
        <time>2018-12-27T08:50:58.290000Z</time>
      </trkpt>
      <trkpt lat="37.83545958237088" lon="112.00728519488915">
        <ele>1152.0</ele>
        <time>2018-12-27T08:51:07.290000Z</time>
      </trkpt>
      <trkpt lat="37.835523057963066" lon="112.00734246006233">
        <ele>1154.0</ele>
        <time>2018-12-27T08:51:10.290000Z</time>
      </trkpt>
      <trkpt lat="37.83560493480885" lon="112.00736218322145">
        <ele>1155.0</ele>
        <time>2018-12-27T08:51:13.290000Z</time>
      </trkpt>
      <trkpt lat="37.83576909791711" lon="112.00735513547707">
        <ele>1155.0</ele>
        <time>2018-12-27T08:51:19.290000Z</time>
      </trkpt>
      <trkpt lat="37.836086297262774" lon="112.0074334887614">
        <ele>1154.0</ele>
        <time>2018-12-27T08:51:31.290000Z</time>
      </trkpt>
      <trkpt lat="37.83641373109378" lon="112.00753725049739">
        <ele>1153.0</ele>
        <time>2018-12-27T08:51:43.290000Z</time>
      </trkpt>
      <trkpt lat="37.83656798112333" lon="112.00757940121557">
        <ele>1154.0</ele>
        <time>2018-12-27T08:51:49.290000Z</time>
      </trkpt>
      <trkpt lat="37.8367033560485" lon="112.00767372504804">
        <ele>1153.0</ele>
        <time>2018-12-27T08:51:55.290000Z</time>
      </trkpt>
      <trkpt lat="37.83703924339242" lon="112.0077631594126">
        <ele>1152.0</ele>
        <time>2018-12-27T08:52:07.290000Z</time>
      </trkpt>
      <trkpt lat="37.83739322853929" lon="112.0078796233484">
        <ele>1149.0</ele>
        <time>2018-12-27T08:52:19.290000Z</time>
      </trkpt>
      <trkpt lat="37.83765637959221" lon="112.00797771679647">
        <ele>1149.0</ele>
        <time>2018-12-27T08:52:28.290000Z</time>
      </trkpt>
      <trkpt lat="37.83790686330615" lon="112.00804742862549">
        <ele>1149.0</ele>
        <time>2018-12-27T08:52:37.290000Z</time>
      </trkpt>
      <trkpt lat="37.83806422298789" lon="112.00813904733305">
        <ele>1148.0</ele>
        <time>2018-12-27T08:52:43.290000Z</time>
      </trkpt>
      <trkpt lat="37.83833256055856" lon="112.00822659816448">
        <ele>1148.0</ele>
        <time>2018-12-27T08:52:52.290000Z</time>
      </trkpt>
      <trkpt lat="37.83850688887463" lon="112.00826847660797">
        <ele>1148.0</ele>
        <time>2018-12-27T08:52:58.290000Z</time>
      </trkpt>
      <trkpt lat="37.838674520761934" lon="112.00818952385849">
        <ele>1148.0</ele>
        <time>2018-12-27T08:53:04.290000Z</time>
      </trkpt>
      <trkpt lat="37.838948353420356" lon="112.00816218912723">
        <ele>1146.0</ele>
        <time>2018-12-27T08:53:13.290000Z</time>
      </trkpt>
      <trkpt lat="37.8392243902344" lon="112.00812350082285">
        <ele>1145.0</ele>
        <time>2018-12-27T08:53:22.290000Z</time>
      </trkpt>
      <trkpt lat="37.83948333057391" lon="112.00808616616754">
        <ele>1145.0</ele>
        <time>2018-12-27T08:53:31.290000Z</time>
      </trkpt>
      <trkpt lat="37.839736419753464" lon="112.00810073308864">
        <ele>1145.0</ele>
        <time>2018-12-27T08:53:40.290000Z</time>
      </trkpt>
      <trkpt lat="37.839901639990465" lon="112.0080447803304">
        <ele>1144.0</ele>
        <time>2018-12-27T08:53:46.290000Z</time>
      </trkpt>
      <trkpt lat="37.84017871987221" lon="112.0079869549832">
        <ele>1143.0</ele>
        <time>2018-12-27T08:53:55.290000Z</time>
      </trkpt>
      <trkpt lat="37.84034922573427" lon="112.00794618954063">
        <ele>1143.0</ele>
        <time>2018-12-27T08:54:01.290000Z</time>
      </trkpt>
      <trkpt lat="37.840431272921855" lon="112.00793872542623">
        <ele>1142.0</ele>
        <time>2018-12-27T08:54:04.290000Z</time>
      </trkpt>
      <trkpt lat="37.8405091562632" lon="112.00798888374992">
        <ele>1141.0</ele>
        <time>2018-12-27T08:54:07.290000Z</time>
      </trkpt>
      <trkpt lat="37.840586630487806" lon="112.0080077390762">
        <ele>1141.0</ele>
        <time>2018-12-27T08:54:10.290000Z</time>
      </trkpt>
      <trkpt lat="37.8407451679667" lon="112.00805493318038">
        <ele>1142.0</ele>
        <time>2018-12-27T08:54:16.290000Z</time>
      </trkpt>
      <trkpt lat="37.840826701557916" lon="112.0080731581882">
        <ele>1141.0</ele>
        <time>2018-12-27T08:54:19.290000Z</time>
      </trkpt>
      <trkpt lat="37.841152508921176" lon="112.00812695454493">
        <ele>1141.0</ele>
        <time>2018-12-27T08:54:31.390000Z</time>
      </trkpt>
      <trkpt lat="37.841492286780756" lon="112.00813334041874">
        <ele>1140.0</ele>
        <time>2018-12-27T08:54:43.290000Z</time>
      </trkpt>
      <trkpt lat="37.841744174115654" lon="112.00802200942343">
        <ele>1148.0</ele>
        <time>2018-12-27T08:54:52.290000Z</time>
      </trkpt>
      <trkpt lat="37.84197143918661" lon="112.00785899209139">
        <ele>1144.0</ele>
        <time>2018-12-27T08:55:01.290000Z</time>
      </trkpt>
      <trkpt lat="37.84219175530673" lon="112.00774227102173">
        <ele>1143.0</ele>
        <time>2018-12-27T08:55:10.290000Z</time>
      </trkpt>
      <trkpt lat="37.84231747448755" lon="112.00761628910303">
        <ele>1141.0</ele>
        <time>2018-12-27T08:55:16.290000Z</time>
      </trkpt>
      <trkpt lat="37.84247152663401" lon="112.0075424747651">
        <ele>1140.0</ele>
        <time>2018-12-27T08:55:22.290000Z</time>
      </trkpt>
      <trkpt lat="37.8426010894342" lon="112.00740135517795">
        <ele>1139.0</ele>
        <time>2018-12-27T08:55:28.290000Z</time>
      </trkpt>
      <trkpt lat="37.84274489863314" lon="112.00730510625782">
        <ele>1139.0</ele>
        <time>2018-12-27T08:55:34.290000Z</time>
      </trkpt>
      <trkpt lat="37.84302560234756" lon="112.00706584552884">
        <ele>1138.0</ele>
        <time>2018-12-27T08:55:46.290000Z</time>
      </trkpt>
      <trkpt lat="37.84329369453814" lon="112.00687091830402">
        <ele>1134.0</ele>
        <time>2018-12-27T08:55:58.290000Z</time>
      </trkpt>
      <trkpt lat="37.84356017221315" lon="112.00667166684356">
        <ele>1129.0</ele>
        <time>2018-12-27T08:56:10.290000Z</time>
      </trkpt>
      <trkpt lat="37.843756052338094" lon="112.00649161641857">
        <ele>1129.0</ele>
        <time>2018-12-27T08:56:19.290000Z</time>
      </trkpt>
      <trkpt lat="37.84404950484908" lon="112.00634507324777">
        <ele>1128.0</ele>
        <time>2018-12-27T08:56:31.290000Z</time>
      </trkpt>
      <trkpt lat="37.84437748026843" lon="112.0061763608895">
        <ele>1128.0</ele>
        <time>2018-12-27T08:56:43.290000Z</time>
      </trkpt>
      <trkpt lat="37.8445363867542" lon="112.00611281926503">
        <ele>1127.0</ele>
        <time>2018-12-27T08:56:49.290000Z</time>
      </trkpt>
      <trkpt lat="37.84462077094874" lon="112.00611064672914">
        <ele>1127.0</ele>
        <time>2018-12-27T08:56:52.290000Z</time>
      </trkpt>
      <trkpt lat="37.84494847075829" lon="112.0062162985936">
        <ele>1125.0</ele>
        <time>2018-12-27T08:57:04.290000Z</time>
      </trkpt>
      <trkpt lat="37.845218500766215" lon="112.00628195163084">
        <ele>1122.0</ele>
        <time>2018-12-27T08:57:13.290000Z</time>
      </trkpt>
      <trkpt lat="37.84553187780604" lon="112.00636868373839">
        <ele>1121.0</ele>
        <time>2018-12-27T08:57:25.290000Z</time>
      </trkpt>
      <trkpt lat="37.84585787934787" lon="112.00649812349711">
        <ele>1124.0</ele>
        <time>2018-12-27T08:57:37.290000Z</time>
      </trkpt>
      <trkpt lat="37.84621581861465" lon="112.00656241474421">
        <ele>1123.0</ele>
        <time>2018-12-27T08:57:49.290000Z</time>
      </trkpt>
      <trkpt lat="37.8462878497464" lon="112.00660862931372">
        <ele>1122.0</ele>
        <time>2018-12-27T08:57:52.290000Z</time>
      </trkpt>
      <trkpt lat="37.84646791838325" lon="112.0066361795589">
        <ele>1121.0</ele>
        <time>2018-12-27T08:57:58.290000Z</time>
      </trkpt>
      <trkpt lat="37.84664076387826" lon="112.00662940116426">
        <ele>1120.0</ele>
        <time>2018-12-27T08:58:04.290000Z</time>
      </trkpt>
      <trkpt lat="37.84697620066066" lon="112.00668828898326">
        <ele>1119.0</ele>
        <time>2018-12-27T08:58:16.290000Z</time>
      </trkpt>
      <trkpt lat="37.84732527233891" lon="112.00672392843802">
        <ele>1116.0</ele>
        <time>2018-12-27T08:58:28.290000Z</time>
      </trkpt>
      <trkpt lat="37.84759676589037" lon="112.00675390062193">
        <ele>1115.0</ele>
        <time>2018-12-27T08:58:37.290000Z</time>
      </trkpt>
      <trkpt lat="37.84794605916016" lon="112.00680629940462">
        <ele>1115.0</ele>
        <time>2018-12-27T08:58:49.290000Z</time>
      </trkpt>
      <trkpt lat="37.848115323848624" lon="112.0068176323038">
        <ele>1115.0</ele>
        <time>2018-12-27T08:58:55.290000Z</time>
      </trkpt>
      <trkpt lat="37.84826520958949" lon="112.0068678924262">
        <ele>1113.0</ele>
        <time>2018-12-27T08:59:01.290000Z</time>
      </trkpt>
      <trkpt lat="37.84838594117995" lon="112.00695978414517">
        <ele>1114.0</ele>
        <time>2018-12-27T08:59:07.290000Z</time>
      </trkpt>
      <trkpt lat="37.84846980790109" lon="112.00713169298014">
        <ele>1114.0</ele>
        <time>2018-12-27T08:59:13.290000Z</time>
      </trkpt>
      <trkpt lat="37.84866043688896" lon="112.00744036836224">
        <ele>1113.0</ele>
        <time>2018-12-27T08:59:25.290000Z</time>
      </trkpt>
      <trkpt lat="37.84885482208819" lon="112.00776364175624">
        <ele>1113.0</ele>
        <time>2018-12-27T08:59:37.290000Z</time>
      </trkpt>
      <trkpt lat="37.84906664296141" lon="112.00806312678209">
        <ele>1113.0</ele>
        <time>2018-12-27T08:59:49.290000Z</time>
      </trkpt>
      <trkpt lat="37.84926316035163" lon="112.00840018925277">
        <ele>1112.0</ele>
        <time>2018-12-27T09:00:01.290000Z</time>
      </trkpt>
      <trkpt lat="37.84948929129458" lon="112.00872400433192">
        <ele>1111.0</ele>
        <time>2018-12-27T09:00:13.290000Z</time>
      </trkpt>
      <trkpt lat="37.849711271010825" lon="112.0090759350073">
        <ele>1111.0</ele>
        <time>2018-12-27T09:00:25.290000Z</time>
      </trkpt>
      <trkpt lat="37.8498428260038" lon="112.00936273077933">
        <ele>1111.0</ele>
        <time>2018-12-27T09:00:34.290000Z</time>
      </trkpt>
      <trkpt lat="37.8498807522896" lon="112.00956654976987">
        <ele>1111.0</ele>
        <time>2018-12-27T09:00:40.290000Z</time>
      </trkpt>
      <trkpt lat="37.849881142108444" lon="112.00998771517978">
        <ele>1109.0</ele>
        <time>2018-12-27T09:00:52.290000Z</time>
      </trkpt>
      <trkpt lat="37.84987046177929" lon="112.01032805115531">
        <ele>1108.0</ele>
        <time>2018-12-27T09:01:01.290000Z</time>
      </trkpt>
      <trkpt lat="37.849886867113305" lon="112.01044078171803">
        <ele>1108.0</ele>
        <time>2018-12-27T09:01:04.290000Z</time>
      </trkpt>
      <trkpt lat="37.8498554622969" lon="112.0107884278616">
        <ele>1107.0</ele>
        <time>2018-12-27T09:01:13.290000Z</time>
      </trkpt>
      <trkpt lat="37.84981913120621" lon="112.01124420934921">
        <ele>1106.0</ele>
        <time>2018-12-27T09:01:25.290000Z</time>
      </trkpt>
      <trkpt lat="37.84979530906594" lon="112.01159807745576">
        <ele>1105.0</ele>
        <time>2018-12-27T09:01:34.290000Z</time>
      </trkpt>
      <trkpt lat="37.84976312294545" lon="112.01193653985818">
        <ele>1105.0</ele>
        <time>2018-12-27T09:01:43.290000Z</time>
      </trkpt>
      <trkpt lat="37.849729540418345" lon="112.01228933252918">
        <ele>1106.0</ele>
        <time>2018-12-27T09:01:52.290000Z</time>
      </trkpt>
      <trkpt lat="37.84968215929551" lon="112.01272323109012">
        <ele>1105.0</ele>
        <time>2018-12-27T09:02:04.290000Z</time>
      </trkpt>
      <trkpt lat="37.84966270341477" lon="112.01307116150724">
        <ele>1105.0</ele>
        <time>2018-12-27T09:02:13.290000Z</time>
      </trkpt>
      <trkpt lat="37.849631006917406" lon="112.01343072065431">
        <ele>1105.0</ele>
        <time>2018-12-27T09:02:22.290000Z</time>
      </trkpt>
      <trkpt lat="37.84960474790059" lon="112.01388138837329">
        <ele>1105.0</ele>
        <time>2018-12-27T09:02:34.290000Z</time>
      </trkpt>
      <trkpt lat="37.8495693980317" lon="112.01428664299382">
        <ele>1105.0</ele>
        <time>2018-12-27T09:02:46.290000Z</time>
      </trkpt>
      <trkpt lat="37.849539470243876" lon="112.01469433371258">
        <ele>1104.0</ele>
        <time>2018-12-27T09:02:58.290000Z</time>
      </trkpt>
      <trkpt lat="37.84949897404382" lon="112.01512394472418">
        <ele>1105.0</ele>
        <time>2018-12-27T09:03:10.290000Z</time>
      </trkpt>
      <trkpt lat="37.84946004020843" lon="112.01546128874716">
        <ele>1105.0</ele>
        <time>2018-12-27T09:03:19.290000Z</time>
      </trkpt>
      <trkpt lat="37.84942573287655" lon="112.01585578954264">
        <ele>1104.0</ele>
        <time>2018-12-27T09:03:31.290000Z</time>
      </trkpt>
      <trkpt lat="37.84937211815282" lon="112.01620104445959">
        <ele>1100.0</ele>
        <time>2018-12-27T09:03:43.290000Z</time>
      </trkpt>
      <trkpt lat="37.84933821656655" lon="112.01657982479136">
        <ele>1100.0</ele>
        <time>2018-12-27T09:03:55.290000Z</time>
      </trkpt>
      <trkpt lat="37.84929008132937" lon="112.01700403164182">
        <ele>1101.0</ele>
        <time>2018-12-27T09:04:07.290000Z</time>
      </trkpt>
      <trkpt lat="37.84924117287402" lon="112.01741499495253">
        <ele>1101.0</ele>
        <time>2018-12-27T09:04:19.290000Z</time>
      </trkpt>
      <trkpt lat="37.84919926495564" lon="112.01784623945059">
        <ele>1103.0</ele>
        <time>2018-12-27T09:04:31.290000Z</time>
      </trkpt>
      <trkpt lat="37.849161162116665" lon="112.01827640670069">
        <ele>1103.0</ele>
        <time>2018-12-27T09:04:43.290000Z</time>
      </trkpt>
      <trkpt lat="37.849163637213216" lon="112.01836157431025">
        <ele>1102.0</ele>
        <time>2018-12-27T09:04:46.290000Z</time>
      </trkpt>
      <trkpt lat="37.849106243979335" lon="112.018608433989">
        <ele>1102.0</ele>
        <time>2018-12-27T09:04:58.290000Z</time>
      </trkpt>
      <trkpt lat="37.84911747703934" lon="112.01895884197029">
        <ele>1102.0</ele>
        <time>2018-12-27T09:05:10.290000Z</time>
      </trkpt>
      <trkpt lat="37.849093050785534" lon="112.01935251849704">
        <ele>1103.0</ele>
        <time>2018-12-27T09:05:22.290000Z</time>
      </trkpt>
      <trkpt lat="37.849076098933935" lon="112.01979162289061">
        <ele>1103.0</ele>
        <time>2018-12-27T09:05:34.290000Z</time>
      </trkpt>
      <trkpt lat="37.84906647215419" lon="112.02003551196952">
        <ele>1104.0</ele>
        <time>2018-12-27T09:05:40.290000Z</time>
      </trkpt>
      <trkpt lat="37.8490943035786" lon="112.02047083370047">
        <ele>1104.0</ele>
        <time>2018-12-27T09:05:52.290000Z</time>
      </trkpt>
      <trkpt lat="37.84909968564483" lon="112.02068444168401">
        <ele>1104.0</ele>
        <time>2018-12-27T09:05:58.290000Z</time>
      </trkpt>
      <trkpt lat="37.84906814807579" lon="112.0209061671656">
        <ele>1104.0</ele>
        <time>2018-12-27T09:06:04.290000Z</time>
      </trkpt>
      <trkpt lat="37.84908323985647" lon="112.0213401490347">
        <ele>1104.0</ele>
        <time>2018-12-27T09:06:16.290000Z</time>
      </trkpt>
      <trkpt lat="37.84907879111186" lon="112.02177792422331">
        <ele>1104.0</ele>
        <time>2018-12-27T09:06:28.290000Z</time>
      </trkpt>
      <trkpt lat="37.849051476633534" lon="112.02212925860431">
        <ele>1104.0</ele>
        <time>2018-12-27T09:06:37.290000Z</time>
      </trkpt>
      <trkpt lat="37.84907147219592" lon="112.02257615486607">
        <ele>1102.0</ele>
        <time>2018-12-27T09:06:49.290000Z</time>
      </trkpt>
      <trkpt lat="37.84905786590554" lon="112.02299366629002">
        <ele>1103.0</ele>
        <time>2018-12-27T09:07:01.290000Z</time>
      </trkpt>
      <trkpt lat="37.849072940822026" lon="112.02334060179172">
        <ele>1103.0</ele>
        <time>2018-12-27T09:07:10.290000Z</time>
      </trkpt>
      <trkpt lat="37.84903221013154" lon="112.0236569907369">
        <ele>1104.0</ele>
        <time>2018-12-27T09:07:19.290000Z</time>
      </trkpt>
      <trkpt lat="37.84900321815934" lon="112.02374406797416">
        <ele>1104.0</ele>
        <time>2018-12-27T09:07:22.290000Z</time>
      </trkpt>
      <trkpt lat="37.84903510462069" lon="112.02399528134913">
        <ele>1107.0</ele>
        <time>2018-12-27T09:07:31.290000Z</time>
      </trkpt>
      <trkpt lat="37.849002506782334" lon="112.0241253612948">
        <ele>1107.0</ele>
        <time>2018-12-27T09:07:37.290000Z</time>
      </trkpt>
      <trkpt lat="37.84903154129904" lon="112.02425330457343">
        <ele>1109.0</ele>
        <time>2018-12-27T09:07:43.290000Z</time>
      </trkpt>
      <trkpt lat="37.848890884581074" lon="112.02434743828718">
        <ele>1111.0</ele>
        <time>2018-12-27T09:07:52.290000Z</time>
      </trkpt>
      <trkpt lat="37.84884460810701" lon="112.02439129681878">
        <ele>1113.0</ele>
        <time>2018-12-27T09:07:55.290000Z</time>
      </trkpt>
      <trkpt lat="37.848832861971" lon="112.02446196867339">
        <ele>1113.0</ele>
        <time>2018-12-27T09:07:58.290000Z</time>
      </trkpt>
      <trkpt lat="37.84893356861258" lon="112.02460894018938">
        <ele>1113.0</ele>
        <time>2018-12-27T09:08:04.290000Z</time>
      </trkpt>
      <trkpt lat="37.848983436549275" lon="112.0247703713766">
        <ele>1114.0</ele>
        <time>2018-12-27T09:08:10.290000Z</time>
      </trkpt>
      <trkpt lat="37.849113619243056" lon="112.02490544982498">
        <ele>1112.0</ele>
        <time>2018-12-27T09:08:22.290000Z</time>
      </trkpt>
      <trkpt lat="37.84913423310242" lon="112.02495348497929">
        <ele>1112.0</ele>
        <time>2018-12-27T09:08:25.290000Z</time>
      </trkpt>
      <trkpt lat="37.84909261856918" lon="112.02514416754599">
        <ele>1113.0</ele>
        <time>2018-12-27T09:08:34.290000Z</time>
      </trkpt>
      <trkpt lat="37.849121687463736" lon="112.02519561136606">
        <ele>1115.0</ele>
        <time>2018-12-27T09:08:40.290000Z</time>
      </trkpt>
      <trkpt lat="37.8490767339228" lon="112.02526491606558">
        <ele>1116.0</ele>
        <time>2018-12-27T09:08:43.290000Z</time>
      </trkpt>
      <trkpt lat="37.84910143400665" lon="112.02534011809091">
        <ele>1117.0</ele>
        <time>2018-12-27T09:08:46.290000Z</time>
      </trkpt>
      <trkpt lat="37.84914830554254" lon="112.0253523801366">
        <ele>1117.0</ele>
        <time>2018-12-27T09:08:49.290000Z</time>
      </trkpt>
      <trkpt lat="37.84918996443178" lon="112.02542469884632">
        <ele>1116.0</ele>
        <time>2018-12-27T09:08:52.290000Z</time>
      </trkpt>
      <trkpt lat="37.849160474865585" lon="112.02568906815797">
        <ele>1116.0</ele>
        <time>2018-12-27T09:09:01.290000Z</time>
      </trkpt>
      <trkpt lat="37.84917485742826" lon="112.02578194690187">
        <ele>1113.0</ele>
        <time>2018-12-27T09:09:07.290000Z</time>
      </trkpt>
      <trkpt lat="37.84904806438871" lon="112.02587813121094">
        <ele>1112.0</ele>
        <time>2018-12-27T09:09:13.290000Z</time>
      </trkpt>
      <trkpt lat="37.848955058829254" lon="112.02589870616691">
        <ele>1112.0</ele>
        <time>2018-12-27T09:09:16.290000Z</time>
      </trkpt>
      <trkpt lat="37.84898570267933" lon="112.02593573759488">
        <ele>1112.0</ele>
        <time>2018-12-27T09:09:19.290000Z</time>
      </trkpt>
      <trkpt lat="37.84900166178443" lon="112.02600977347548">
        <ele>1110.0</ele>
        <time>2018-12-27T09:09:25.290000Z</time>
      </trkpt>
      <trkpt lat="37.84899526831428" lon="112.02607896596186">
        <ele>1110.0</ele>
        <time>2018-12-27T09:09:28.290000Z</time>
      </trkpt>
      <trkpt lat="37.848867931235574" lon="112.02617760917747">
        <ele>1109.0</ele>
        <time>2018-12-27T09:09:34.290000Z</time>
      </trkpt>
      <trkpt lat="37.84878928075187" lon="112.02631282773314">
        <ele>1108.0</ele>
        <time>2018-12-27T09:09:40.290000Z</time>
      </trkpt>
      <trkpt lat="37.848738882431505" lon="112.02644100776443">
        <ele>1107.0</ele>
        <time>2018-12-27T09:09:46.290000Z</time>
      </trkpt>
      <trkpt lat="37.84875128401295" lon="112.02651575608529">
        <ele>1106.0</ele>
        <time>2018-12-27T09:09:49.290000Z</time>
      </trkpt>
      <trkpt lat="37.848839198621484" lon="112.02657418017444">
        <ele>1106.0</ele>
        <time>2018-12-27T09:09:52.290000Z</time>
      </trkpt>
      <trkpt lat="37.848875414000254" lon="112.02665050439404">
        <ele>1106.0</ele>
        <time>2018-12-27T09:09:55.290000Z</time>
      </trkpt>
      <trkpt lat="37.848905753261896" lon="112.02679848518555">
        <ele>1106.0</ele>
        <time>2018-12-27T09:10:01.290000Z</time>
      </trkpt>
      <trkpt lat="37.848884604760464" lon="112.02716610892489">
        <ele>1107.0</ele>
        <time>2018-12-27T09:10:16.290000Z</time>
      </trkpt>
      <trkpt lat="37.848903125508286" lon="112.02734838757702">
        <ele>1106.0</ele>
        <time>2018-12-27T09:10:25.290000Z</time>
      </trkpt>
      <trkpt lat="37.84888121047054" lon="112.02742979494438">
        <ele>1105.0</ele>
        <time>2018-12-27T09:10:31.290000Z</time>
      </trkpt>
      <trkpt lat="37.84885907122454" lon="112.02780923858508">
        <ele>1104.0</ele>
        <time>2018-12-27T09:10:49.290000Z</time>
      </trkpt>
      <trkpt lat="37.84883538898804" lon="112.02815704412416">
        <ele>1104.0</ele>
        <time>2018-12-27T09:11:01.290000Z</time>
      </trkpt>
      <trkpt lat="37.848850107253774" lon="112.02834284534607">
        <ele>1104.0</ele>
        <time>2018-12-27T09:11:07.290000Z</time>
      </trkpt>
      <trkpt lat="37.84881598251279" lon="112.02863818942681">
        <ele>1103.0</ele>
        <time>2018-12-27T09:11:16.290000Z</time>
      </trkpt>
      <trkpt lat="37.84882824080321" lon="112.0288321078896">
        <ele>1103.0</ele>
        <time>2018-12-27T09:11:22.290000Z</time>
      </trkpt>
      <trkpt lat="37.84880603461788" lon="112.02902954783774">
        <ele>1101.0</ele>
        <time>2018-12-27T09:11:28.290000Z</time>
      </trkpt>
      <trkpt lat="37.84884134064513" lon="112.02944443682068">
        <ele>1100.0</ele>
        <time>2018-12-27T09:11:40.290000Z</time>
      </trkpt>
      <trkpt lat="37.848909450335974" lon="112.02987122871103">
        <ele>1101.0</ele>
        <time>2018-12-27T09:11:52.290000Z</time>
      </trkpt>
      <trkpt lat="37.8489780990278" lon="112.03030154326557">
        <ele>1100.0</ele>
        <time>2018-12-27T09:12:04.290000Z</time>
      </trkpt>
      <trkpt lat="37.84900850924779" lon="112.03040080421145">
        <ele>1100.0</ele>
        <time>2018-12-27T09:12:07.290000Z</time>
      </trkpt>
      <trkpt lat="37.84913976584982" lon="112.03064178381244">
        <ele>1101.0</ele>
        <time>2018-12-27T09:12:16.290000Z</time>
      </trkpt>
      <trkpt lat="37.84919730325915" lon="112.03096148450464">
        <ele>1101.0</ele>
        <time>2018-12-27T09:12:31.290000Z</time>
      </trkpt>
      <trkpt lat="37.849199384358556" lon="112.0311070038581">
        <ele>1099.0</ele>
        <time>2018-12-27T09:12:37.290000Z</time>
      </trkpt>
      <trkpt lat="37.84928481290775" lon="112.03134042163568">
        <ele>1099.0</ele>
        <time>2018-12-27T09:12:46.290000Z</time>
      </trkpt>
      <trkpt lat="37.84941188567144" lon="112.03154230675447">
        <ele>1100.0</ele>
        <time>2018-12-27T09:12:55.290000Z</time>
      </trkpt>
      <trkpt lat="37.849380472317804" lon="112.03160656926708">
        <ele>1100.0</ele>
        <time>2018-12-27T09:12:58.290000Z</time>
      </trkpt>
      <trkpt lat="37.84919022409183" lon="112.031630395158">
        <ele>1100.0</ele>
        <time>2018-12-27T09:13:04.290000Z</time>
      </trkpt>
      <trkpt lat="37.849081269651315" lon="112.03169478462642">
        <ele>1100.0</ele>
        <time>2018-12-27T09:13:10.290000Z</time>
      </trkpt>
      <trkpt lat="37.84898876428665" lon="112.03168992696199">
        <ele>1099.0</ele>
        <time>2018-12-27T09:13:16.290000Z</time>
      </trkpt>
      <trkpt lat="37.848957721009576" lon="112.03173618438217">
        <ele>1100.0</ele>
        <time>2018-12-27T09:13:19.290000Z</time>
      </trkpt>
      <trkpt lat="37.84885226593775" lon="112.0318119342783">
        <ele>1100.0</ele>
        <time>2018-12-27T09:13:28.290000Z</time>
      </trkpt>
      <trkpt lat="37.848767819556116" lon="112.03183980497126">
        <ele>1100.0</ele>
        <time>2018-12-27T09:13:34.290000Z</time>
      </trkpt>
      <trkpt lat="37.848521516776664" lon="112.03206229784243">
        <ele>1101.0</ele>
        <time>2018-12-27T09:13:55.290000Z</time>
      </trkpt>
      <trkpt lat="37.84847721366788" lon="112.03207381541854">
        <ele>1100.0</ele>
        <time>2018-12-27T09:13:58.290000Z</time>
      </trkpt>
      <trkpt lat="37.84844422838665" lon="112.03211940017701">
        <ele>1100.0</ele>
        <time>2018-12-27T09:14:01.290000Z</time>
      </trkpt>
      <trkpt lat="37.848439399409756" lon="112.03220118551043">
        <ele>1101.0</ele>
        <time>2018-12-27T09:14:04.290000Z</time>
      </trkpt>
      <trkpt lat="37.84840770016092" lon="112.03226549415929">
        <ele>1102.0</ele>
        <time>2018-12-27T09:14:07.290000Z</time>
      </trkpt>
      <trkpt lat="37.84827932934554" lon="112.0322631513923">
        <ele>1103.0</ele>
        <time>2018-12-27T09:14:13.290000Z</time>
      </trkpt>
      <trkpt lat="37.848233605267914" lon="112.03230673220185">
        <ele>1103.0</ele>
        <time>2018-12-27T09:14:16.290000Z</time>
      </trkpt>
      <trkpt lat="37.84818147434989" lon="112.03229971369382">
        <ele>1100.0</ele>
        <time>2018-12-27T09:14:19.290000Z</time>
      </trkpt>
      <trkpt lat="37.848145962557226" lon="112.03217637237708">
        <ele>1099.0</ele>
        <time>2018-12-27T09:14:22.290000Z</time>
      </trkpt>
      <trkpt lat="37.848135433753406" lon="112.03204410236467">
        <ele>1098.0</ele>
        <time>2018-12-27T09:14:25.290000Z</time>
      </trkpt>
      <trkpt lat="37.848099514972375" lon="112.03197648359162">
        <ele>1097.0</ele>
        <time>2018-12-27T09:14:28.290000Z</time>
      </trkpt>
      <trkpt lat="37.848051804561486" lon="112.03195998932763">
        <ele>1097.0</ele>
        <time>2018-12-27T09:14:31.290000Z</time>
      </trkpt>
      <trkpt lat="37.847979093965066" lon="112.03197641067213">
        <ele>1097.0</ele>
        <time>2018-12-27T09:14:37.290000Z</time>
      </trkpt>
      <trkpt lat="37.84799641109286" lon="112.0320872642619">
        <ele>1098.0</ele>
        <time>2018-12-27T09:14:43.290000Z</time>
      </trkpt>
      <trkpt lat="37.84795131612076" lon="112.0321706494515">
        <ele>1099.0</ele>
        <time>2018-12-27T09:14:46.290000Z</time>
      </trkpt>
      <trkpt lat="37.847900146634515" lon="112.03219747239216">
        <ele>1100.0</ele>
        <time>2018-12-27T09:14:49.290000Z</time>
      </trkpt>
      <trkpt lat="37.84781317094034" lon="112.0321715797958">
        <ele>1100.0</ele>
        <time>2018-12-27T09:14:55.290000Z</time>
      </trkpt>
      <trkpt lat="37.84781107160041" lon="112.0321476161271">
        <ele>1101.0</ele>
        <time>2018-12-27T09:15:01.290000Z</time>
      </trkpt>
      <trkpt lat="37.847891306081124" lon="112.03213339452267">
        <ele>1100.0</ele>
        <time>2018-12-27T09:15:04.290000Z</time>
      </trkpt>
      <trkpt lat="37.84790674040919" lon="112.0321458353748">
        <ele>1100.0</ele>
        <time>2018-12-27T09:15:07.290000Z</time>
      </trkpt>
      <trkpt lat="37.84798137371375" lon="112.03219669691894">
        <ele>1102.0</ele>
        <time>2018-12-27T09:15:25.290000Z</time>
      </trkpt>
      <trkpt lat="37.84799650454553" lon="112.03216856424025">
        <ele>1102.0</ele>
        <time>2018-12-27T09:15:28.290000Z</time>
      </trkpt>
      <trkpt lat="37.848033963626" lon="112.03215563586947">
        <ele>1102.0</ele>
        <time>2018-12-27T09:15:31.290000Z</time>
      </trkpt>
      <trkpt lat="37.84809266776785" lon="112.03208409221028">
        <ele>1101.0</ele>
        <time>2018-12-27T09:15:40.290000Z</time>
      </trkpt>
      <trkpt lat="37.84812843729053" lon="112.03212595069535">
        <ele>1102.0</ele>
        <time>2018-12-27T09:15:49.290000Z</time>
      </trkpt>
      <trkpt lat="37.84809918940693" lon="112.03223862607594">
        <ele>1112.0</ele>
        <time>2018-12-27T09:15:55.290000Z</time>
      </trkpt>
      <trkpt lat="37.84809515064479" lon="112.03218050809365">
        <ele>1111.0</ele>
        <time>2018-12-27T09:15:58.290000Z</time>
      </trkpt>
      <trkpt lat="37.84812337031119" lon="112.03204085859498">
        <ele>1109.0</ele>
        <time>2018-12-27T09:16:04.290000Z</time>
      </trkpt>
      <trkpt lat="37.84819162778772" lon="112.03180957942676">
        <ele>1108.0</ele>
        <time>2018-12-27T09:16:10.290000Z</time>
      </trkpt>
      <trkpt lat="37.84813206221596" lon="112.03164918630297">
        <ele>1108.0</ele>
        <time>2018-12-27T09:16:16.290000Z</time>
      </trkpt>
      <trkpt lat="37.84800191569542" lon="112.03150530235874">
        <ele>1103.0</ele>
        <time>2018-12-27T09:16:31.290000Z</time>
      </trkpt>
      <trkpt lat="37.847962680199664" lon="112.0315729289875">
        <ele>1103.0</ele>
        <time>2018-12-27T09:16:34.290000Z</time>
      </trkpt>
      <trkpt lat="37.84782426074527" lon="112.03166149558622">
        <ele>1103.0</ele>
        <time>2018-12-27T09:16:43.290000Z</time>
      </trkpt>
      <trkpt lat="37.84783237513421" lon="112.03167189875">
        <ele>1103.0</ele>
        <time>2018-12-27T09:16:46.290000Z</time>
      </trkpt>
      <trkpt lat="37.84781877992889" lon="112.03177765597694">
        <ele>1104.0</ele>
        <time>2018-12-27T09:17:01.290000Z</time>
      </trkpt>
      <trkpt lat="37.84798538058813" lon="112.03169379093247">
        <ele>1101.0</ele>
        <time>2018-12-27T09:17:13.290000Z</time>
      </trkpt>
      <trkpt lat="37.84795679768562" lon="112.03155747501006">
        <ele>1102.0</ele>
        <time>2018-12-27T09:17:19.290000Z</time>
      </trkpt>
      <trkpt lat="37.84788215126133" lon="112.03148313886128">
        <ele>1101.0</ele>
        <time>2018-12-27T09:17:25.290000Z</time>
      </trkpt>
      <trkpt lat="37.847859860723915" lon="112.03136190561744">
        <ele>1103.0</ele>
        <time>2018-12-27T09:17:31.290000Z</time>
      </trkpt>
      <trkpt lat="37.8478350938136" lon="112.03130649176676">
        <ele>1103.0</ele>
        <time>2018-12-27T09:17:34.290000Z</time>
      </trkpt>
      <trkpt lat="37.847832398574056" lon="112.03124327902353">
        <ele>1103.0</ele>
        <time>2018-12-27T09:17:37.290000Z</time>
      </trkpt>
      <trkpt lat="37.847815214645316" lon="112.03128455299462">
        <ele>1103.0</ele>
        <time>2018-12-27T09:17:43.290000Z</time>
      </trkpt>
      <trkpt lat="37.847762328396996" lon="112.0312901538569">
        <ele>1104.0</ele>
        <time>2018-12-27T09:17:46.290000Z</time>
      </trkpt>
      <trkpt lat="37.84772929409816" lon="112.03123577163912">
        <ele>1105.0</ele>
        <time>2018-12-27T09:17:49.290000Z</time>
      </trkpt>
      <trkpt lat="37.8476925589405" lon="112.03112081567727">
        <ele>1106.0</ele>
        <time>2018-12-27T09:17:55.290000Z</time>
      </trkpt>
      <trkpt lat="37.847649533627965" lon="112.03107826040281">
        <ele>1107.0</ele>
        <time>2018-12-27T09:17:58.290000Z</time>
      </trkpt>
      <trkpt lat="37.847621531897566" lon="112.0310251522414">
        <ele>1107.0</ele>
        <time>2018-12-27T09:18:01.290000Z</time>
      </trkpt>
      <trkpt lat="37.8476199324709" lon="112.03088091665775">
        <ele>1108.0</ele>
        <time>2018-12-27T09:18:07.290000Z</time>
      </trkpt>
      <trkpt lat="37.84759848929318" lon="112.03070831443252">
        <ele>1110.0</ele>
        <time>2018-12-27T09:18:16.290000Z</time>
      </trkpt>
      <trkpt lat="37.84753374669222" lon="112.03054158170997">
        <ele>1111.0</ele>
        <time>2018-12-27T09:18:25.290000Z</time>
      </trkpt>
      <trkpt lat="37.847484710778595" lon="112.03049275074153">
        <ele>1111.0</ele>
        <time>2018-12-27T09:18:28.290000Z</time>
      </trkpt>
      <trkpt lat="37.84745163488824" lon="112.03043615355548">
        <ele>1111.0</ele>
        <time>2018-12-27T09:18:31.290000Z</time>
      </trkpt>
      <trkpt lat="37.84744038635682" lon="112.03037746154588">
        <ele>1110.0</ele>
        <time>2018-12-27T09:18:34.290000Z</time>
      </trkpt>
      <trkpt lat="37.84751022348811" lon="112.03032059804461">
        <ele>1110.0</ele>
        <time>2018-12-27T09:18:40.290000Z</time>
      </trkpt>
      <trkpt lat="37.847487771317404" lon="112.03014641699659">
        <ele>1110.0</ele>
        <time>2018-12-27T09:18:49.290000Z</time>
      </trkpt>
      <trkpt lat="37.84746487133493" lon="112.03007883543707">
        <ele>1110.0</ele>
        <time>2018-12-27T09:18:52.290000Z</time>
      </trkpt>
      <trkpt lat="37.847464427195554" lon="112.03001544177044">
        <ele>1110.0</ele>
        <time>2018-12-27T09:18:55.290000Z</time>
      </trkpt>
      <trkpt lat="37.847357566875324" lon="112.02982948756828">
        <ele>1110.0</ele>
        <time>2018-12-27T09:19:04.290000Z</time>
      </trkpt>
      <trkpt lat="37.84731675045117" lon="112.02978377182018">
        <ele>1109.0</ele>
        <time>2018-12-27T09:19:07.290000Z</time>
      </trkpt>
      <trkpt lat="37.84728140685238" lon="112.02972602370755">
        <ele>1109.0</ele>
        <time>2018-12-27T09:19:10.290000Z</time>
      </trkpt>
      <trkpt lat="37.847315588922925" lon="112.02956773823698">
        <ele>1110.0</ele>
        <time>2018-12-27T09:19:16.290000Z</time>
      </trkpt>
      <trkpt lat="37.84719496580001" lon="112.02953489814624">
        <ele>1109.0</ele>
        <time>2018-12-27T09:19:25.290000Z</time>
      </trkpt>
      <trkpt lat="37.847164914836114" lon="112.0294875562762">
        <ele>1109.0</ele>
        <time>2018-12-27T09:19:28.290000Z</time>
      </trkpt>
      <trkpt lat="37.847168347373454" lon="112.0293992954008">
        <ele>1109.0</ele>
        <time>2018-12-27T09:19:31.290000Z</time>
      </trkpt>
      <trkpt lat="37.84709570081712" lon="112.02937240600684">
        <ele>1109.0</ele>
        <time>2018-12-27T09:19:37.290000Z</time>
      </trkpt>
      <trkpt lat="37.84704729289999" lon="112.02938273126765">
        <ele>1110.0</ele>
        <time>2018-12-27T09:19:40.290000Z</time>
      </trkpt>
      <trkpt lat="37.846999682469544" lon="112.02935389215513">
        <ele>1110.0</ele>
        <time>2018-12-27T09:19:43.290000Z</time>
      </trkpt>
      <trkpt lat="37.846854449568575" lon="112.02942574594742">
        <ele>1109.0</ele>
        <time>2018-12-27T09:19:52.290000Z</time>
      </trkpt>
      <trkpt lat="37.846813411627856" lon="112.02948175883199">
        <ele>1110.0</ele>
        <time>2018-12-27T09:19:55.290000Z</time>
      </trkpt>
      <trkpt lat="37.846722008397386" lon="112.02969952543435">
        <ele>1112.0</ele>
        <time>2018-12-27T09:20:04.190000Z</time>
      </trkpt>
      <trkpt lat="37.84667876547466" lon="112.02975069768765">
        <ele>1111.0</ele>
        <time>2018-12-27T09:20:07.190000Z</time>
      </trkpt>
      <trkpt lat="37.84577805742944" lon="112.02887142126676">
        <ele>1107.0</ele>
        <time>2018-12-27T09:20:22.890000Z</time>
      </trkpt>
      <trkpt lat="37.84577805742944" lon="112.02887142126676">
        <ele>1107.0</ele>
        <time>2018-12-27T09:20:35.390000Z</time>
      </trkpt>
      <trkpt lat="37.8459621868356" lon="112.02955053605467">
        <ele>1108.0</ele>
        <time>2018-12-27T09:21:13.290000Z</time>
      </trkpt>
      <trkpt lat="37.8463016021029" lon="112.02954860193776">
        <ele>1112.0</ele>
        <time>2018-12-27T09:21:19.290000Z</time>
      </trkpt>
      <trkpt lat="37.84630215700137" lon="112.02954373344794">
        <ele>1110.0</ele>
        <time>2018-12-27T09:21:28.290000Z</time>
      </trkpt>
      <trkpt lat="37.84630031178801" lon="112.02954120315526">
        <ele>1109.0</ele>
        <time>2018-12-27T09:21:40.190000Z</time>
      </trkpt>
      <trkpt lat="37.8466541239088" lon="112.02972130812661">
        <ele>1108.0</ele>
        <time>2018-12-27T09:21:46.590000Z</time>
      </trkpt>
      <trkpt lat="37.84682957562336" lon="112.02997939720034">
        <ele>1109.0</ele>
        <time>2018-12-27T09:21:52.290000Z</time>
      </trkpt>
      <trkpt lat="37.84691615352649" lon="112.02985956787879">
        <ele>1110.0</ele>
        <time>2018-12-27T09:22:20.190000Z</time>
      </trkpt>
      <trkpt lat="37.846978427296435" lon="112.02980249106666">
        <ele>1110.0</ele>
        <time>2018-12-27T09:22:29.290000Z</time>
      </trkpt>
    </trkseg>
  </trk>
</gpx>