<?xml version="1.0" encoding="UTF-8"?>
<gpx xmlns="http://www.topografix.com/GPX/1/1" xmlns:gpxtpx="http://www.garmin.com/xmlschemas/TrackPointExtension/v1" xmlns:xsi="http://www.w3.org/2001/XMLSchema-instance" xsi:schemaLocation="http://www.topografix.com/GPX/1/1 http://www.topografix.com/GPX/1/1/gpx.xsd" version="1.1" creator="gpx.py -- https://github.com/tkrajina/gpxpy">
  <trk>
    <name>gpx from keep</name>
    <type>Run</type>
    <trkseg>
      <trkpt lat="37.846798826827474" lon="112.02955082572205">
        <ele>0.0</ele>
        <time>2016-06-21T22:30:12.500000Z</time>
      </trkpt>
      <trkpt lat="37.846842899352886" lon="112.0295248970479">
        <ele>0.0</ele>
        <time>2016-06-21T22:30:16.100000Z</time>
      </trkpt>
      <trkpt lat="37.846421600857134" lon="112.02951721323157">
        <ele>1086.1504321780358</ele>
        <time>2016-06-21T22:31:56.200000Z</time>
      </trkpt>
      <trkpt lat="37.84665253521271" lon="112.0296056285094">
        <ele>1087.1149533529092</ele>
        <time>2016-06-21T22:32:03.900000Z</time>
      </trkpt>
      <trkpt lat="37.84686741524757" lon="112.02960506171519">
        <ele>1088.2991166100685</ele>
        <time>2016-06-21T22:32:07.900000Z</time>
      </trkpt>
      <trkpt lat="37.847045052738956" lon="112.02952579317844">
        <ele>1101.2591807185222</ele>
        <time>2016-06-21T22:32:18.800000Z</time>
      </trkpt>
      <trkpt lat="37.847205907046344" lon="112.02953902674501">
        <ele>1105.778141919282</ele>
        <time>2016-06-21T22:32:22.900000Z</time>
      </trkpt>
      <trkpt lat="37.84722411048838" lon="112.0294213712783">
        <ele>1106.7215948423957</ele>
        <time>2016-06-21T22:32:26.900000Z</time>
      </trkpt>
      <trkpt lat="37.847263421919756" lon="112.02932535102136">
        <ele>1106.4212432809552</ele>
        <time>2016-06-21T22:32:29.800000Z</time>
      </trkpt>
      <trkpt lat="37.84722574684299" lon="112.02920337573778">
        <ele>1105.9778172315748</ele>
        <time>2016-06-21T22:32:33.900000Z</time>
      </trkpt>
      <trkpt lat="37.84723550591321" lon="112.02888558039498">
        <ele>1104.1206722557104</ele>
        <time>2016-06-21T22:32:43.900000Z</time>
      </trkpt>
      <trkpt lat="37.847197227116695" lon="112.02878821898783">
        <ele>1103.5568645047667</ele>
        <time>2016-06-21T22:32:47.900000Z</time>
      </trkpt>
      <trkpt lat="37.84721420624334" lon="112.0285131597547">
        <ele>1102.125424581428</ele>
        <time>2016-06-21T22:32:57.900000Z</time>
      </trkpt>
      <trkpt lat="37.84723898529502" lon="112.02837170754549">
        <ele>1102.888900892192</ele>
        <time>2016-06-21T22:33:01.900000Z</time>
      </trkpt>
      <trkpt lat="37.84720601311989" lon="112.02832167705601">
        <ele>1103.282851249433</ele>
        <time>2016-06-21T22:33:04.900000Z</time>
      </trkpt>
      <trkpt lat="37.84726451654521" lon="112.02814857851817">
        <ele>1103.5707377490332</ele>
        <time>2016-06-21T22:33:11.900000Z</time>
      </trkpt>
      <trkpt lat="37.84731657536914" lon="112.02805553600312">
        <ele>1103.8451261588539</ele>
        <time>2016-06-21T22:33:15.900000Z</time>
      </trkpt>
      <trkpt lat="37.8473860158549" lon="112.02784998349702">
        <ele>1104.5820150882616</ele>
        <time>2016-06-21T22:33:22.900000Z</time>
      </trkpt>
      <trkpt lat="37.84763375692147" lon="112.02752054517155">
        <ele>1105.4534974632277</ele>
        <time>2016-06-21T22:33:38.900000Z</time>
      </trkpt>
      <trkpt lat="37.84765309470199" lon="112.02738640052986">
        <ele>1106.2221953489534</ele>
        <time>2016-06-21T22:33:42.900000Z</time>
      </trkpt>
      <trkpt lat="37.84773798617155" lon="112.02718761200326">
        <ele>1107.8286250905655</ele>
        <time>2016-06-21T22:33:49.900000Z</time>
      </trkpt>
      <trkpt lat="37.847820920236316" lon="112.02711647487573">
        <ele>1108.7896476576325</ele>
        <time>2016-06-21T22:33:53.900000Z</time>
      </trkpt>
      <trkpt lat="37.847989824992155" lon="112.02674513571337">
        <ele>1110.9358627264858</ele>
        <time>2016-06-21T22:34:04.900000Z</time>
      </trkpt>
      <trkpt lat="37.848031853014255" lon="112.02665047619134">
        <ele>1111.5708187781</ele>
        <time>2016-06-21T22:34:07.900000Z</time>
      </trkpt>
      <trkpt lat="37.84809279074257" lon="112.02658745619857">
        <ele>1112.3544987673613</ele>
        <time>2016-06-21T22:34:10.900000Z</time>
      </trkpt>
      <trkpt lat="37.84817943630186" lon="112.02655012503779">
        <ele>1113.5488314393242</ele>
        <time>2016-06-21T22:34:14.900000Z</time>
      </trkpt>
      <trkpt lat="37.84847488420806" lon="112.02655414612128">
        <ele>1119.5462666912908</ele>
        <time>2016-06-21T22:34:25.900000Z</time>
      </trkpt>
      <trkpt lat="37.8487456435001" lon="112.02655789973268">
        <ele>1118.3910105626371</ele>
        <time>2016-06-21T22:34:39.900000Z</time>
      </trkpt>
      <trkpt lat="37.84887479847817" lon="112.02655382760527">
        <ele>1117.034207241188</ele>
        <time>2016-06-21T22:34:46.900000Z</time>
      </trkpt>
      <trkpt lat="37.848917207609496" lon="112.02652136971996">
        <ele>1116.5430835804623</ele>
        <time>2016-06-21T22:34:50.900000Z</time>
      </trkpt>
      <trkpt lat="37.84891314020688" lon="112.02631232100826">
        <ele>1116.3160135805476</ele>
        <time>2016-06-21T22:34:58Z</time>
      </trkpt>
      <trkpt lat="37.848998218930696" lon="112.02594046097444">
        <ele>1115.5551328688296</ele>
        <time>2016-06-21T22:35:19.900000Z</time>
      </trkpt>
      <trkpt lat="37.84903965416106" lon="112.02576224012691">
        <ele>1116.300080182721</ele>
        <time>2016-06-21T22:35:23.900000Z</time>
      </trkpt>
      <trkpt lat="37.84908570569337" lon="112.02527356601632">
        <ele>1116.1454707528057</ele>
        <time>2016-06-21T22:35:32Z</time>
      </trkpt>
      <trkpt lat="37.84909091312693" lon="112.02515079098507">
        <ele>1116.0370925627362</ele>
        <time>2016-06-21T22:35:35.900000Z</time>
      </trkpt>
      <trkpt lat="37.849073074072066" lon="112.02491984874484">
        <ele>1115.9429256368148</ele>
        <time>2016-06-21T22:35:39.900000Z</time>
      </trkpt>
      <trkpt lat="37.84899600471567" lon="112.02451665587945">
        <ele>1115.2836129158306</ele>
        <time>2016-06-21T22:35:49.900000Z</time>
      </trkpt>
      <trkpt lat="37.8490293777132" lon="112.0244138915843">
        <ele>1114.9495293983673</ele>
        <time>2016-06-21T22:35:53.900000Z</time>
      </trkpt>
      <trkpt lat="37.84900521654269" lon="112.02411345775391">
        <ele>1114.3718536452245</ele>
        <time>2016-06-21T22:36:01.900000Z</time>
      </trkpt>
      <trkpt lat="37.849028331453745" lon="112.02368700728468">
        <ele>1113.415423339718</ele>
        <time>2016-06-21T22:36:12.900000Z</time>
      </trkpt>
      <trkpt lat="37.84903550009024" lon="112.0235428753991">
        <ele>1113.0645259536084</ele>
        <time>2016-06-21T22:36:17Z</time>
      </trkpt>
      <trkpt lat="37.84901512605338" lon="112.02345120759931">
        <ele>1112.6820552588651</ele>
        <time>2016-06-21T22:36:19.900000Z</time>
      </trkpt>
      <trkpt lat="37.84903397874868" lon="112.02309885865296">
        <ele>1111.4607534999916</ele>
        <time>2016-06-21T22:36:31.900000Z</time>
      </trkpt>
      <trkpt lat="37.84901440514241" lon="112.02271055387332">
        <ele>1111.0094280520611</ele>
        <time>2016-06-21T22:36:42.900000Z</time>
      </trkpt>
      <trkpt lat="37.8490116613215" lon="112.02242067883122">
        <ele>1110.5428632079113</ele>
        <time>2016-06-21T22:36:50.900000Z</time>
      </trkpt>
      <trkpt lat="37.84899676500389" lon="112.02231089637955">
        <ele>1109.8992191661293</ele>
        <time>2016-06-21T22:36:53.900000Z</time>
      </trkpt>
      <trkpt lat="37.84904839611361" lon="112.02188067998095">
        <ele>1109.2690068969882</ele>
        <time>2016-06-21T22:37:08.900000Z</time>
      </trkpt>
      <trkpt lat="37.84905921816192" lon="112.02149319666164">
        <ele>1109.0137679142015</ele>
        <time>2016-06-21T22:37:20.900000Z</time>
      </trkpt>
      <trkpt lat="37.849063223089416" lon="112.02121874362557">
        <ele>1109.3200636367765</ele>
        <time>2016-06-21T22:37:29Z</time>
      </trkpt>
      <trkpt lat="37.84907634966615" lon="112.02088345316375">
        <ele>1109.4124712623568</ele>
        <time>2016-06-21T22:37:39.900000Z</time>
      </trkpt>
      <trkpt lat="37.849041670567175" lon="112.02047029923416">
        <ele>1109.1665471325648</ele>
        <time>2016-06-21T22:37:50.900000Z</time>
      </trkpt>
      <trkpt lat="37.8490131950542" lon="112.02017017114682">
        <ele>1108.3840019919592</ele>
        <time>2016-06-21T22:37:58.900000Z</time>
      </trkpt>
      <trkpt lat="37.84902913910511" lon="112.02009473116583">
        <ele>1108.222926707403</ele>
        <time>2016-06-21T22:38:01.900000Z</time>
      </trkpt>
      <trkpt lat="37.84902373134499" lon="112.01969510191263">
        <ele>1108.4722869216087</ele>
        <time>2016-06-21T22:38:12.900000Z</time>
      </trkpt>
      <trkpt lat="37.84908297422028" lon="112.0192684311115">
        <ele>1109.8011649041289</ele>
        <time>2016-06-21T22:38:24.900000Z</time>
      </trkpt>
      <trkpt lat="37.84912679451921" lon="112.01882797773439">
        <ele>1109.7688582836117</ele>
        <time>2016-06-21T22:38:35.900000Z</time>
      </trkpt>
      <trkpt lat="37.849074530160415" lon="112.01850055778552">
        <ele>1109.6713669471626</ele>
        <time>2016-06-21T22:38:42.900000Z</time>
      </trkpt>
      <trkpt lat="37.84911042685326" lon="112.01837347717218">
        <ele>1109.7815115689014</ele>
        <time>2016-06-21T22:38:46.900000Z</time>
      </trkpt>
      <trkpt lat="37.84914406084792" lon="112.01808552516661">
        <ele>1109.6236489496919</ele>
        <time>2016-06-21T22:38:53.900000Z</time>
      </trkpt>
      <trkpt lat="37.84916277389545" lon="112.01770105483848">
        <ele>1109.7030610810384</ele>
        <time>2016-06-21T22:39:03.900000Z</time>
      </trkpt>
      <trkpt lat="37.849230303605" lon="112.01722817231739">
        <ele>1106.5327587749223</ele>
        <time>2016-06-21T22:39:15.900000Z</time>
      </trkpt>
      <trkpt lat="37.8492894348244" lon="112.01684857192303">
        <ele>1105.9478499260777</ele>
        <time>2016-06-21T22:39:26Z</time>
      </trkpt>
      <trkpt lat="37.84933030637865" lon="112.01640300897958">
        <ele>1105.3992832587812</ele>
        <time>2016-06-21T22:39:36.900000Z</time>
      </trkpt>
      <trkpt lat="37.849383136273815" lon="112.01614264538945">
        <ele>1106.037603462314</ele>
        <time>2016-06-21T22:39:43.900000Z</time>
      </trkpt>
      <trkpt lat="37.84943978363031" lon="112.0156851923362">
        <ele>1107.2322298458068</ele>
        <time>2016-06-21T22:39:54.900000Z</time>
      </trkpt>
      <trkpt lat="37.849516363768345" lon="112.01527964976056">
        <ele>1108.0455261726893</ele>
        <time>2016-06-21T22:40:06.900000Z</time>
      </trkpt>
      <trkpt lat="37.8495322270673" lon="112.01495008714744">
        <ele>1108.2500049710952</ele>
        <time>2016-06-21T22:40:13.900000Z</time>
      </trkpt>
      <trkpt lat="37.84957730855066" lon="112.01455563944769">
        <ele>1109.3468530992695</ele>
        <time>2016-06-21T22:40:23.900000Z</time>
      </trkpt>
      <trkpt lat="37.849603757631925" lon="112.01413145919271">
        <ele>1110.5533151174886</ele>
        <time>2016-06-21T22:40:34.900000Z</time>
      </trkpt>
      <trkpt lat="37.8496412826407" lon="112.01363077395405">
        <ele>1111.538483152949</ele>
        <time>2016-06-21T22:40:46.900000Z</time>
      </trkpt>
      <trkpt lat="37.8496693970505" lon="112.01328986736466">
        <ele>1112.2325249005564</ele>
        <time>2016-06-21T22:40:55.900000Z</time>
      </trkpt>
      <trkpt lat="37.8497127656057" lon="112.01283487774326">
        <ele>1112.871384704571</ele>
        <time>2016-06-21T22:41:06.900000Z</time>
      </trkpt>
      <trkpt lat="37.849746517627835" lon="112.01242260685514">
        <ele>1113.2366941598216</ele>
        <time>2016-06-21T22:41:17.900000Z</time>
      </trkpt>
      <trkpt lat="37.849769466202105" lon="112.01199439086473">
        <ele>1113.8083974110752</ele>
        <time>2016-06-21T22:41:28.900000Z</time>
      </trkpt>
      <trkpt lat="37.849774025155824" lon="112.0117329765545">
        <ele>1115.5043235038459</ele>
        <time>2016-06-21T22:41:35Z</time>
      </trkpt>
      <trkpt lat="37.8497601779376" lon="112.01155023266105">
        <ele>1115.894379123748</ele>
        <time>2016-06-21T22:41:38.900000Z</time>
      </trkpt>
      <trkpt lat="37.84977230968522" lon="112.01111175262346">
        <ele>1117.2807868164766</ele>
        <time>2016-06-21T22:41:50.900000Z</time>
      </trkpt>
      <trkpt lat="37.849801277450425" lon="112.01066921924048">
        <ele>1117.6132484833654</ele>
        <time>2016-06-21T22:42:02.900000Z</time>
      </trkpt>
      <trkpt lat="37.849840756222534" lon="112.01025155822904">
        <ele>1117.7509574762094</ele>
        <time>2016-06-21T22:42:14.900000Z</time>
      </trkpt>
      <trkpt lat="37.849855525470254" lon="112.00993392350703">
        <ele>1118.6074455792002</ele>
        <time>2016-06-21T22:42:24.900000Z</time>
      </trkpt>
      <trkpt lat="37.849871354040566" lon="112.00981011282498">
        <ele>1118.8367784233606</ele>
        <time>2016-06-21T22:42:28.900000Z</time>
      </trkpt>
      <trkpt lat="37.84982737794053" lon="112.00935705585208">
        <ele>1118.5035343463314</ele>
        <time>2016-06-21T22:42:40.900000Z</time>
      </trkpt>
      <trkpt lat="37.84980299594113" lon="112.0092527143799">
        <ele>1118.394643919856</ele>
        <time>2016-06-21T22:42:43.900000Z</time>
      </trkpt>
      <trkpt lat="37.84962301850218" lon="112.00891780785031">
        <ele>1118.5654027257408</ele>
        <time>2016-06-21T22:42:55.900000Z</time>
      </trkpt>
      <trkpt lat="37.84943015107816" lon="112.00863021055068">
        <ele>1119.138529166897</ele>
        <time>2016-06-21T22:43:06.900000Z</time>
      </trkpt>
      <trkpt lat="37.84931211192189" lon="112.00845289548506">
        <ele>1119.5552940010448</ele>
        <time>2016-06-21T22:43:13.900000Z</time>
      </trkpt>
      <trkpt lat="37.8491253015048" lon="112.00813610535498">
        <ele>1120.6160491725</ele>
        <time>2016-06-21T22:43:25Z</time>
      </trkpt>
      <trkpt lat="37.84892001748689" lon="112.00782796910511">
        <ele>1120.338592658945</ele>
        <time>2016-06-21T22:43:36.900000Z</time>
      </trkpt>
      <trkpt lat="37.848705792574656" lon="112.00751605097365">
        <ele>1120.5644702851446</ele>
        <time>2016-06-21T22:43:47.900000Z</time>
      </trkpt>
      <trkpt lat="37.848495987744556" lon="112.0071779133921">
        <ele>1121.9922541788694</ele>
        <time>2016-06-21T22:43:58.900000Z</time>
      </trkpt>
      <trkpt lat="37.84827754274416" lon="112.00691735805903">
        <ele>1123.9398734933434</ele>
        <time>2016-06-21T22:44:09.900000Z</time>
      </trkpt>
      <trkpt lat="37.84818169143641" lon="112.00685249461098">
        <ele>1124.390552502732</ele>
        <time>2016-06-21T22:44:13.900000Z</time>
      </trkpt>
      <trkpt lat="37.847904623304316" lon="112.0067811653631">
        <ele>1124.5668791019173</ele>
        <time>2016-06-21T22:44:24.900000Z</time>
      </trkpt>
      <trkpt lat="37.84762094481073" lon="112.00674308527768">
        <ele>1123.9582801052502</ele>
        <time>2016-06-21T22:44:35.900000Z</time>
      </trkpt>
      <trkpt lat="37.84728531140391" lon="112.0066590584982">
        <ele>1123.627248613562</ele>
        <time>2016-06-21T22:44:48.900000Z</time>
      </trkpt>
      <trkpt lat="37.84693285682818" lon="112.00666612863304">
        <ele>1124.4598795809338</ele>
        <time>2016-06-21T22:45:00.900000Z</time>
      </trkpt>
      <trkpt lat="37.84664231526861" lon="112.00665508053352">
        <ele>1124.9462752503066</ele>
        <time>2016-06-21T22:45:10.900000Z</time>
      </trkpt>
      <trkpt lat="37.84633822349106" lon="112.00663889814044">
        <ele>1126.107474653559</ele>
        <time>2016-06-21T22:45:22Z</time>
      </trkpt>
      <trkpt lat="37.84613422955412" lon="112.00662811003095">
        <ele>1125.8000061204427</ele>
        <time>2016-06-21T22:45:29.900000Z</time>
      </trkpt>
      <trkpt lat="37.84602748264861" lon="112.00657784492631">
        <ele>1125.9172245037341</ele>
        <time>2016-06-21T22:45:33.900000Z</time>
      </trkpt>
      <trkpt lat="37.84593608938837" lon="112.0065648809076">
        <ele>1126.0412904523557</ele>
        <time>2016-06-21T22:45:36.900000Z</time>
      </trkpt>
      <trkpt lat="37.845624434201916" lon="112.00644652204268">
        <ele>1126.0637061052264</ele>
        <time>2016-06-21T22:45:48.900000Z</time>
      </trkpt>
      <trkpt lat="37.84530927797488" lon="112.00631951386994">
        <ele>1125.5742039204763</ele>
        <time>2016-06-21T22:45:59.900000Z</time>
      </trkpt>
      <trkpt lat="37.84518913145042" lon="112.0063046611564">
        <ele>1125.2265772560813</ele>
        <time>2016-06-21T22:46:03.900000Z</time>
      </trkpt>
      <trkpt lat="37.84493226546505" lon="112.00619170236465">
        <ele>1125.3822879147242</ele>
        <time>2016-06-21T22:46:14Z</time>
      </trkpt>
      <trkpt lat="37.84458600764275" lon="112.00612254447722">
        <ele>1127.009454027543</ele>
        <time>2016-06-21T22:46:24.900000Z</time>
      </trkpt>
      <trkpt lat="37.844366915266235" lon="112.00617095596215">
        <ele>1127.4462111159864</ele>
        <time>2016-06-21T22:46:34.900000Z</time>
      </trkpt>
      <trkpt lat="37.8441092843372" lon="112.00631452109451">
        <ele>1127.7071478306525</ele>
        <time>2016-06-21T22:46:44.900000Z</time>
      </trkpt>
      <trkpt lat="37.843811998774825" lon="112.00647268800944">
        <ele>1128.661784859611</ele>
        <time>2016-06-21T22:46:56.900000Z</time>
      </trkpt>
      <trkpt lat="37.84351690097706" lon="112.00671627337515">
        <ele>1129.2377155103418</ele>
        <time>2016-06-21T22:47:09.900000Z</time>
      </trkpt>
      <trkpt lat="37.84322419744467" lon="112.00697607805122">
        <ele>1130.4186229904194</ele>
        <time>2016-06-21T22:47:21.900000Z</time>
      </trkpt>
      <trkpt lat="37.843033761446875" lon="112.00715045251174">
        <ele>1131.854550207202</ele>
        <time>2016-06-21T22:47:29.900000Z</time>
      </trkpt>
      <trkpt lat="37.8428421917165" lon="112.00724995066903">
        <ele>1132.026972421075</ele>
        <time>2016-06-21T22:47:36.900000Z</time>
      </trkpt>
      <trkpt lat="37.84277063461033" lon="112.00731807824866">
        <ele>1132.1244123912631</ele>
        <time>2016-06-21T22:47:39.900000Z</time>
      </trkpt>
      <trkpt lat="37.842668169812136" lon="112.00737891110546">
        <ele>1132.3832487318607</ele>
        <time>2016-06-21T22:47:44Z</time>
      </trkpt>
      <trkpt lat="37.842577030290954" lon="112.0074632600145">
        <ele>1132.8001327683105</ele>
        <time>2016-06-21T22:47:47.900000Z</time>
      </trkpt>
      <trkpt lat="37.84232689737915" lon="112.0076408866498">
        <ele>1133.2007211855373</ele>
        <time>2016-06-21T22:47:57.900000Z</time>
      </trkpt>
      <trkpt lat="37.84204799874129" lon="112.00782095004341">
        <ele>1134.1232739050427</ele>
        <time>2016-06-21T22:48:08.900000Z</time>
      </trkpt>
      <trkpt lat="37.84186634585455" lon="112.00796180643785">
        <ele>1135.471817524207</ele>
        <time>2016-06-21T22:48:15.900000Z</time>
      </trkpt>
      <trkpt lat="37.84159053405921" lon="112.0081075400858">
        <ele>1135.6039746245135</ele>
        <time>2016-06-21T22:48:25.900000Z</time>
      </trkpt>
      <trkpt lat="37.84123764871635" lon="112.00816894420224">
        <ele>1135.769422256545</ele>
        <time>2016-06-21T22:48:37.900000Z</time>
      </trkpt>
      <trkpt lat="37.841034697287775" lon="112.00817275286391">
        <ele>1135.9638736350819</ele>
        <time>2016-06-21T22:48:44.900000Z</time>
      </trkpt>
      <trkpt lat="37.8408530849688" lon="112.0081168188674">
        <ele>1135.847737429128</ele>
        <time>2016-06-21T22:48:51.900000Z</time>
      </trkpt>
      <trkpt lat="37.84053390314259" lon="112.00806603735539">
        <ele>1136.29545762461</ele>
        <time>2016-06-21T22:49:03.900000Z</time>
      </trkpt>
      <trkpt lat="37.84032135357213" lon="112.00801281030793">
        <ele>1136.8262300698552</ele>
        <time>2016-06-21T22:49:10.900000Z</time>
      </trkpt>
      <trkpt lat="37.83999391088366" lon="112.00800311797828">
        <ele>1137.8938481098332</ele>
        <time>2016-06-21T22:49:21.900000Z</time>
      </trkpt>
      <trkpt lat="37.83970269571389" lon="112.00803667199968">
        <ele>1137.4058739680243</ele>
        <time>2016-06-21T22:49:33.900000Z</time>
      </trkpt>
      <trkpt lat="37.83947313527088" lon="112.00804751206343">
        <ele>1138.2664540356911</ele>
        <time>2016-06-21T22:49:40.900000Z</time>
      </trkpt>
      <trkpt lat="37.83926896113632" lon="112.00809781537865">
        <ele>1139.4401057196342</ele>
        <time>2016-06-21T22:49:48.900000Z</time>
      </trkpt>
      <trkpt lat="37.83957231310642" lon="112.0080885884032">
        <ele>1139.7477858562245</ele>
        <time>2016-06-21T22:50:02.900000Z</time>
      </trkpt>
      <trkpt lat="37.83987697525968" lon="112.00809503965903">
        <ele>1138.5086246025892</ele>
        <time>2016-06-21T22:50:12.900000Z</time>
      </trkpt>
      <trkpt lat="37.84012998692915" lon="112.00804418988578">
        <ele>1138.2131835862863</ele>
        <time>2016-06-21T22:50:19.900000Z</time>
      </trkpt>
      <trkpt lat="37.84035187632254" lon="112.00805849020253">
        <ele>1138.1502515680306</ele>
        <time>2016-06-21T22:50:27.900000Z</time>
      </trkpt>
      <trkpt lat="37.8406725835188" lon="112.00814387212449">
        <ele>1137.5758676222829</ele>
        <time>2016-06-21T22:50:38.900000Z</time>
      </trkpt>
      <trkpt lat="37.84107801333823" lon="112.00820437483343">
        <ele>1137.2085579424988</ele>
        <time>2016-06-21T22:50:49.900000Z</time>
      </trkpt>
      <trkpt lat="37.84132758056864" lon="112.00821732029205">
        <ele>1135.909500829493</ele>
        <time>2016-06-21T22:50:56.900000Z</time>
      </trkpt>
      <trkpt lat="37.841522195820595" lon="112.00818837309706">
        <ele>1134.5557006162624</ele>
        <time>2016-06-21T22:51:02.900000Z</time>
      </trkpt>
      <trkpt lat="37.84173026059573" lon="112.0081069827777">
        <ele>1134.714224852166</ele>
        <time>2016-06-21T22:51:09.900000Z</time>
      </trkpt>
      <trkpt lat="37.84199917453865" lon="112.00790853826851">
        <ele>1135.0125317810628</ele>
        <time>2016-06-21T22:51:17.900000Z</time>
      </trkpt>
      <trkpt lat="37.84229456569917" lon="112.00765629847089">
        <ele>1135.9800349870302</ele>
        <time>2016-06-21T22:51:28.900000Z</time>
      </trkpt>
      <trkpt lat="37.842504925127976" lon="112.00753328008078">
        <ele>1136.8928985385317</ele>
        <time>2016-06-21T22:51:35.900000Z</time>
      </trkpt>
      <trkpt lat="37.84282994819583" lon="112.00726157561226">
        <ele>1138.2518591138773</ele>
        <time>2016-06-21T22:51:46.900000Z</time>
      </trkpt>
      <trkpt lat="37.84303194423236" lon="112.00712288079517">
        <ele>1138.6036461636609</ele>
        <time>2016-06-21T22:51:53.900000Z</time>
      </trkpt>
      <trkpt lat="37.843230006740384" lon="112.0069385039399">
        <ele>1138.9958602941244</ele>
        <time>2016-06-21T22:52:01.900000Z</time>
      </trkpt>
      <trkpt lat="37.8435305421773" lon="112.00669086247902">
        <ele>1139.3490907937753</ele>
        <time>2016-06-21T22:52:12.900000Z</time>
      </trkpt>
      <trkpt lat="37.84380528447482" lon="112.00644971242235">
        <ele>1138.9966748278082</ele>
        <time>2016-06-21T22:52:23.900000Z</time>
      </trkpt>
      <trkpt lat="37.84413762078195" lon="112.00627424155284">
        <ele>1138.4682850508734</ele>
        <time>2016-06-21T22:52:34.900000Z</time>
      </trkpt>
      <trkpt lat="37.84435657561051" lon="112.0061809586419">
        <ele>1138.3481139896821</ele>
        <time>2016-06-21T22:52:41.900000Z</time>
      </trkpt>
      <trkpt lat="37.844484487301955" lon="112.0061393157542">
        <ele>1136.3477403628658</ele>
        <time>2016-06-21T22:52:45.900000Z</time>
      </trkpt>
      <trkpt lat="37.84463254410954" lon="112.00616578840771">
        <ele>1134.326090080289</ele>
        <time>2016-06-21T22:52:49.900000Z</time>
      </trkpt>
      <trkpt lat="37.84493992789396" lon="112.00626063038608">
        <ele>1131.6825478303808</ele>
        <time>2016-06-21T22:52:56.900000Z</time>
      </trkpt>
      <trkpt lat="37.845280410188245" lon="112.00635600915768">
        <ele>1130.6155450485342</ele>
        <time>2016-06-21T22:53:07.900000Z</time>
      </trkpt>
      <trkpt lat="37.84558100023464" lon="112.0064546365346">
        <ele>1128.6310608855163</ele>
        <time>2016-06-21T22:53:15.900000Z</time>
      </trkpt>
      <trkpt lat="37.8459416967413" lon="112.0065951550561">
        <ele>1126.143710656803</ele>
        <time>2016-06-21T22:53:25.900000Z</time>
      </trkpt>
      <trkpt lat="37.84627603683675" lon="112.00665782733722">
        <ele>1126.038590824159</ele>
        <time>2016-06-21T22:53:33.900000Z</time>
      </trkpt>
      <trkpt lat="37.84672920018614" lon="112.00672426985663">
        <ele>1125.844659377063</ele>
        <time>2016-06-21T22:53:44.900000Z</time>
      </trkpt>
      <trkpt lat="37.846862960756035" lon="112.00672290234306">
        <ele>1125.760249689866</ele>
        <time>2016-06-21T22:53:48.900000Z</time>
      </trkpt>
      <trkpt lat="37.84720925171679" lon="112.00678124831984">
        <ele>1125.5291879359288</ele>
        <time>2016-06-21T22:54:00.900000Z</time>
      </trkpt>
      <trkpt lat="37.84759191945979" lon="112.00683256189537">
        <ele>1122.3298212595464</ele>
        <time>2016-06-21T22:54:11.900000Z</time>
      </trkpt>
      <trkpt lat="37.847862000230954" lon="112.00688145613024">
        <ele>1114.1717305151524</ele>
        <time>2016-06-21T22:54:18.900000Z</time>
      </trkpt>
      <trkpt lat="37.84799405983473" lon="112.00690468721118">
        <ele>1113.870147253231</ele>
        <time>2016-06-21T22:54:22.900000Z</time>
      </trkpt>
      <trkpt lat="37.848208349757435" lon="112.00701143500407">
        <ele>1113.86892146179</ele>
        <time>2016-06-21T22:54:29.900000Z</time>
      </trkpt>
      <trkpt lat="37.848414407854534" lon="112.00724063581028">
        <ele>1114.752427859092</ele>
        <time>2016-06-21T22:54:37.900000Z</time>
      </trkpt>
      <trkpt lat="37.848684765982036" lon="112.00756173665351">
        <ele>1115.9596448282975</ele>
        <time>2016-06-21T22:54:48.900000Z</time>
      </trkpt>
      <trkpt lat="37.84892762833893" lon="112.00791473962862">
        <ele>1116.9165678839427</ele>
        <time>2016-06-21T22:54:59.900000Z</time>
      </trkpt>
      <trkpt lat="37.84911921820293" lon="112.00817476143803">
        <ele>1117.9924975875424</ele>
        <time>2016-06-21T22:55:07.900000Z</time>
      </trkpt>
      <trkpt lat="37.84933622312936" lon="112.00855669497949">
        <ele>1119.9550490573856</ele>
        <time>2016-06-21T22:55:19.900000Z</time>
      </trkpt>
      <trkpt lat="37.849542774788226" lon="112.00889592147628">
        <ele>1121.1197504727738</ele>
        <time>2016-06-21T22:55:30.900000Z</time>
      </trkpt>
      <trkpt lat="37.84976006811722" lon="112.00927326398246">
        <ele>1121.6921376403047</ele>
        <time>2016-06-21T22:55:42.900000Z</time>
      </trkpt>
      <trkpt lat="37.84983909831868" lon="112.00952303268727">
        <ele>1122.1097358598954</ele>
        <time>2016-06-21T22:55:49.900000Z</time>
      </trkpt>
      <trkpt lat="37.849866666702404" lon="112.00974334325248">
        <ele>1122.636649377097</ele>
        <time>2016-06-21T22:55:55.900000Z</time>
      </trkpt>
      <trkpt lat="37.84986618502162" lon="112.01027696590477">
        <ele>1123.6652346942867</ele>
        <time>2016-06-21T22:56:06.900000Z</time>
      </trkpt>
      <trkpt lat="37.84987247672773" lon="112.0106297427532">
        <ele>1124.3537366800258</ele>
        <time>2016-06-21T22:56:14.900000Z</time>
      </trkpt>
      <trkpt lat="37.84985298567574" lon="112.01107876261743">
        <ele>1124.1764648889643</ele>
        <time>2016-06-21T22:56:24.900000Z</time>
      </trkpt>
      <trkpt lat="37.84983451717915" lon="112.01145722924434">
        <ele>1123.895914586534</ele>
        <time>2016-06-21T22:56:32.900000Z</time>
      </trkpt>
      <trkpt lat="37.84980393532994" lon="112.01189679572016">
        <ele>1123.3166813972402</ele>
        <time>2016-06-21T22:56:43.900000Z</time>
      </trkpt>
      <trkpt lat="37.8497580959905" lon="112.01217254363269">
        <ele>1122.7048750240674</ele>
        <time>2016-06-21T22:56:50.900000Z</time>
      </trkpt>
      <trkpt lat="37.84973860358404" lon="112.01262563190022">
        <ele>1121.439808860058</ele>
        <time>2016-06-21T22:57:02.900000Z</time>
      </trkpt>
      <trkpt lat="37.849676962622176" lon="112.01311279238939">
        <ele>1120.097309406231</ele>
        <time>2016-06-21T22:57:13.900000Z</time>
      </trkpt>
      <trkpt lat="37.84963796750482" lon="112.0135572406958">
        <ele>1119.5789238648408</ele>
        <time>2016-06-21T22:57:24.900000Z</time>
      </trkpt>
      <trkpt lat="37.84959900990497" lon="112.0138954470527">
        <ele>1120.0065291838937</ele>
        <time>2016-06-21T22:57:31.900000Z</time>
      </trkpt>
      <trkpt lat="37.849556434579554" lon="112.01436044970393">
        <ele>1120.3935464353403</ele>
        <time>2016-06-21T22:57:43.900000Z</time>
      </trkpt>
      <trkpt lat="37.84951963583409" lon="112.0147043390665">
        <ele>1119.8757255817586</ele>
        <time>2016-06-21T22:57:50.900000Z</time>
      </trkpt>
      <trkpt lat="37.84949856197702" lon="112.01495793139534">
        <ele>1119.9156430078417</ele>
        <time>2016-06-21T22:57:56.900000Z</time>
      </trkpt>
      <trkpt lat="37.849459790712515" lon="112.01523369631839">
        <ele>1119.7020972387284</ele>
        <time>2016-06-21T22:58:03.900000Z</time>
      </trkpt>
      <trkpt lat="37.84945839716036" lon="112.0155321683901">
        <ele>1119.5725743065823</ele>
        <time>2016-06-21T22:58:11.900000Z</time>
      </trkpt>
      <trkpt lat="37.84939440774527" lon="112.01599502786267">
        <ele>1119.1796153756347</ele>
        <time>2016-06-21T22:58:23.900000Z</time>
      </trkpt>
      <trkpt lat="37.84934288578748" lon="112.0164638388422">
        <ele>1119.2549840085921</ele>
        <time>2016-06-21T22:58:34.900000Z</time>
      </trkpt>
      <trkpt lat="37.849310835637" lon="112.01686019502819">
        <ele>1119.5398680570784</ele>
        <time>2016-06-21T22:58:44.900000Z</time>
      </trkpt>
      <trkpt lat="37.849297872311695" lon="112.01712758787272">
        <ele>1119.478835095782</ele>
        <time>2016-06-21T22:58:51.900000Z</time>
      </trkpt>
      <trkpt lat="37.84925409357635" lon="112.01716220000534">
        <ele>1118.968160694874</ele>
        <time>2016-06-21T22:58:55.900000Z</time>
      </trkpt>
      <trkpt lat="37.849199589778536" lon="112.01695916185416">
        <ele>1118.2788417672705</ele>
        <time>2016-06-21T22:58:59.900000Z</time>
      </trkpt>
      <trkpt lat="37.849265239973526" lon="112.01686560777891">
        <ele>1117.3001781494447</ele>
        <time>2016-06-21T22:59:03.900000Z</time>
      </trkpt>
      <trkpt lat="37.849291125900706" lon="112.01673015230527">
        <ele>1116.4434763138584</ele>
        <time>2016-06-21T22:59:07.900000Z</time>
      </trkpt>
      <trkpt lat="37.84930159785843" lon="112.01638516856637">
        <ele>1115.1736262679522</ele>
        <time>2016-06-21T22:59:15.900000Z</time>
      </trkpt>
      <trkpt lat="37.84933841281832" lon="112.0159363667425">
        <ele>1114.6515215320255</ele>
        <time>2016-06-21T22:59:27.900000Z</time>
      </trkpt>
      <trkpt lat="37.84935757150854" lon="112.01568682432105">
        <ele>1114.0922460811894</ele>
        <time>2016-06-21T22:59:34.900000Z</time>
      </trkpt>
      <trkpt lat="37.84943022234343" lon="112.01523207773374">
        <ele>1112.933336006162</ele>
        <time>2016-06-21T22:59:48.900000Z</time>
      </trkpt>
      <trkpt lat="37.84947793861023" lon="112.01476949865702">
        <ele>1111.4455407889513</ele>
        <time>2016-06-21T23:00:00.900000Z</time>
      </trkpt>
      <trkpt lat="37.84951205267826" lon="112.01432098410953">
        <ele>1111.775573829439</ele>
        <time>2016-06-21T23:00:11.900000Z</time>
      </trkpt>
      <trkpt lat="37.849552402588095" lon="112.01387517667938">
        <ele>1111.21768739225</ele>
        <time>2016-06-21T23:00:23.900000Z</time>
      </trkpt>
      <trkpt lat="37.84959915113578" lon="112.0134696539291">
        <ele>1110.955192164143</ele>
        <time>2016-06-21T23:00:34.900000Z</time>
      </trkpt>
      <trkpt lat="37.84964719878275" lon="112.01308495077325">
        <ele>1111.2617516377343</ele>
        <time>2016-06-21T23:00:45.900000Z</time>
      </trkpt>
      <trkpt lat="37.849685287898836" lon="112.01295464181865">
        <ele>1111.1718008345476</ele>
        <time>2016-06-21T23:00:49.900000Z</time>
      </trkpt>
      <trkpt lat="37.84970900686538" lon="112.01254020842086">
        <ele>1108.5340177010203</ele>
        <time>2016-06-21T23:01:00.900000Z</time>
      </trkpt>
      <trkpt lat="37.849707456465225" lon="112.01213956865129">
        <ele>1106.485705398089</ele>
        <time>2016-06-21T23:01:11.900000Z</time>
      </trkpt>
      <trkpt lat="37.84971572596286" lon="112.01181489483005">
        <ele>1104.4782787752845</ele>
        <time>2016-06-21T23:01:19.900000Z</time>
      </trkpt>
      <trkpt lat="37.84973011197364" lon="112.01171946509962">
        <ele>1104.3278732819563</ele>
        <time>2016-06-21T23:01:22.900000Z</time>
      </trkpt>
      <trkpt lat="37.84973048706706" lon="112.0113115325573">
        <ele>1103.699793231779</ele>
        <time>2016-06-21T23:01:33.900000Z</time>
      </trkpt>
      <trkpt lat="37.84975424012672" lon="112.0108890025557">
        <ele>1105.1014822963486</ele>
        <time>2016-06-21T23:01:45.900000Z</time>
      </trkpt>
      <trkpt lat="37.849808414062515" lon="112.01054838158204">
        <ele>1107.098148315859</ele>
        <time>2016-06-21T23:01:56.900000Z</time>
      </trkpt>
      <trkpt lat="37.84982921982521" lon="112.01011477447227">
        <ele>1109.2066772218561</ele>
        <time>2016-06-21T23:02:08.900000Z</time>
      </trkpt>
      <trkpt lat="37.84985281071744" lon="112.00974983269039">
        <ele>1110.82690104716</ele>
        <time>2016-06-21T23:02:18.900000Z</time>
      </trkpt>
      <trkpt lat="37.8498471971053" lon="112.00953681820681">
        <ele>1112.0034811122664</ele>
        <time>2016-06-21T23:02:25.900000Z</time>
      </trkpt>
      <trkpt lat="37.84982085849166" lon="112.00935975985557">
        <ele>1112.2078119425937</ele>
        <time>2016-06-21T23:02:29.900000Z</time>
      </trkpt>
      <trkpt lat="37.84974331802966" lon="112.00915702759552">
        <ele>1112.7206946723604</ele>
        <time>2016-06-21T23:02:36.200000Z</time>
      </trkpt>
      <trkpt lat="37.84953970654976" lon="112.00883239658233">
        <ele>1113.6874913289992</ele>
        <time>2016-06-21T23:02:46.900000Z</time>
      </trkpt>
      <trkpt lat="37.84934313057311" lon="112.00851452441985">
        <ele>1114.7496391994214</ele>
        <time>2016-06-21T23:02:57.900000Z</time>
      </trkpt>
      <trkpt lat="37.849156526413935" lon="112.00821962966583">
        <ele>1115.3632243447144</ele>
        <time>2016-06-21T23:03:08.900000Z</time>
      </trkpt>
      <trkpt lat="37.84896988809881" lon="112.00793663019776">
        <ele>1115.7278846440392</ele>
        <time>2016-06-21T23:03:19.900000Z</time>
      </trkpt>
      <trkpt lat="37.84878083141795" lon="112.0076460634324">
        <ele>1115.718764294205</ele>
        <time>2016-06-21T23:03:29.900000Z</time>
      </trkpt>
      <trkpt lat="37.848599111611186" lon="112.00735198298933">
        <ele>1115.87151840211</ele>
        <time>2016-06-21T23:03:39.900000Z</time>
      </trkpt>
      <trkpt lat="37.848388037307515" lon="112.00707601828499">
        <ele>1117.2032295038366</ele>
        <time>2016-06-21T23:03:50.900000Z</time>
      </trkpt>
      <trkpt lat="37.84829502200424" lon="112.00696979654896">
        <ele>1117.7722636639794</ele>
        <time>2016-06-21T23:03:54.900000Z</time>
      </trkpt>
      <trkpt lat="37.848182160862386" lon="112.00687709294132">
        <ele>1118.211948982767</ele>
        <time>2016-06-21T23:03:58.900000Z</time>
      </trkpt>
      <trkpt lat="37.847904558132846" lon="112.00680306061527">
        <ele>1119.3778971215627</ele>
        <time>2016-06-21T23:04:08.900000Z</time>
      </trkpt>
      <trkpt lat="37.84763773715979" lon="112.00675281448812">
        <ele>1120.2354472729953</ele>
        <time>2016-06-21T23:04:18.900000Z</time>
      </trkpt>
      <trkpt lat="37.84731608074354" lon="112.00671284676787">
        <ele>1122.0891762834794</ele>
        <time>2016-06-21T23:04:32.900000Z</time>
      </trkpt>
      <trkpt lat="37.84704189667694" lon="112.00667530620656">
        <ele>1123.1197986314555</ele>
        <time>2016-06-21T23:04:43.900000Z</time>
      </trkpt>
      <trkpt lat="37.84675229381019" lon="112.00662235977336">
        <ele>1124.2593470105846</ele>
        <time>2016-06-21T23:04:54.900000Z</time>
      </trkpt>
      <trkpt lat="37.846620537096484" lon="112.00658858662041">
        <ele>1124.4759308172363</ele>
        <time>2016-06-21T23:05:00.900000Z</time>
      </trkpt>
      <trkpt lat="37.84626599994186" lon="112.00656619310979">
        <ele>1125.6029644683724</ele>
        <time>2016-06-21T23:05:12.900000Z</time>
      </trkpt>
      <trkpt lat="37.846060382181456" lon="112.0065540536504">
        <ele>1126.0923903393195</ele>
        <time>2016-06-21T23:05:19.900000Z</time>
      </trkpt>
      <trkpt lat="37.845742134147805" lon="112.00646299693848">
        <ele>1127.5503149118697</ele>
        <time>2016-06-21T23:05:31.900000Z</time>
      </trkpt>
      <trkpt lat="37.845482587809286" lon="112.00633895551495">
        <ele>1126.482781364729</ele>
        <time>2016-06-21T23:05:46.800000Z</time>
      </trkpt>
      <trkpt lat="37.84541237220235" lon="112.00632085312392">
        <ele>1126.3347949208066</ele>
        <time>2016-06-21T23:05:49.900000Z</time>
      </trkpt>
      <trkpt lat="37.84566778358383" lon="112.00646679015261">
        <ele>1125.9998955048616</ele>
        <time>2016-06-21T23:06:06.900000Z</time>
      </trkpt>
      <trkpt lat="37.84585105461338" lon="112.00660327519627">
        <ele>1123.9588010391733</ele>
        <time>2016-06-21T23:06:18.900000Z</time>
      </trkpt>
      <trkpt lat="37.846101540977216" lon="112.0066721746452">
        <ele>1120.6820845537165</ele>
        <time>2016-06-21T23:06:28.900000Z</time>
      </trkpt>
      <trkpt lat="37.84610008619096" lon="112.00661405793043">
        <ele>1118.760733006947</ele>
        <time>2016-06-21T23:06:34.900000Z</time>
      </trkpt>
      <trkpt lat="37.84574908110801" lon="112.00649894740576">
        <ele>1118.0359278644437</ele>
        <time>2016-06-21T23:06:49.900000Z</time>
      </trkpt>
      <trkpt lat="37.84543436184953" lon="112.00640734972012">
        <ele>1118.4453695318534</ele>
        <time>2016-06-21T23:07:00.900000Z</time>
      </trkpt>
      <trkpt lat="37.8451709463477" lon="112.0063070961138">
        <ele>1120.4539801863161</ele>
        <time>2016-06-21T23:07:11.900000Z</time>
      </trkpt>
      <trkpt lat="37.84488636066755" lon="112.00620954826314">
        <ele>1121.6417238692484</ele>
        <time>2016-06-21T23:07:22.900000Z</time>
      </trkpt>
      <trkpt lat="37.844577238585956" lon="112.00615173891923">
        <ele>1122.0214869861243</ele>
        <time>2016-06-21T23:07:33.900000Z</time>
      </trkpt>
      <trkpt lat="37.844511292256044" lon="112.00615769358785">
        <ele>1122.1838487164284</ele>
        <time>2016-06-21T23:07:36.900000Z</time>
      </trkpt>
      <trkpt lat="37.84430971660537" lon="112.0062458385125">
        <ele>1123.586148675428</ele>
        <time>2016-06-21T23:07:43.900000Z</time>
      </trkpt>
      <trkpt lat="37.844205992765225" lon="112.0062736927796">
        <ele>1124.6857183941117</ele>
        <time>2016-06-21T23:07:47.900000Z</time>
      </trkpt>
      <trkpt lat="37.84395328832087" lon="112.00640293108701">
        <ele>1127.4506198297067</ele>
        <time>2016-06-21T23:07:57.900000Z</time>
      </trkpt>
      <trkpt lat="37.84366243629343" lon="112.006587317587">
        <ele>1129.8750435925874</ele>
        <time>2016-06-21T23:08:13.900000Z</time>
      </trkpt>
      <trkpt lat="37.84339919563976" lon="112.00679278558906">
        <ele>1131.2552189812832</ele>
        <time>2016-06-21T23:08:24.900000Z</time>
      </trkpt>
      <trkpt lat="37.84315353925062" lon="112.00701555210681">
        <ele>1131.7757821149064</ele>
        <time>2016-06-21T23:08:34.900000Z</time>
      </trkpt>
      <trkpt lat="37.842880566219144" lon="112.0072096693878">
        <ele>1132.7628728894638</ele>
        <time>2016-06-21T23:08:46.900000Z</time>
      </trkpt>
      <trkpt lat="37.84262282479588" lon="112.00739108064842">
        <ele>1133.9921845327995</ele>
        <time>2016-06-21T23:08:58.900000Z</time>
      </trkpt>
      <trkpt lat="37.842319137642086" lon="112.00760439504496">
        <ele>1134.8236081302161</ele>
        <time>2016-06-21T23:09:10.900000Z</time>
      </trkpt>
      <trkpt lat="37.842082556973374" lon="112.00778661581423">
        <ele>1135.6490627344576</ele>
        <time>2016-06-21T23:09:22.900000Z</time>
      </trkpt>
      <trkpt lat="37.84181421177416" lon="112.00797613943257">
        <ele>1136.298181305764</ele>
        <time>2016-06-21T23:09:34.900000Z</time>
      </trkpt>
      <trkpt lat="37.84165309719377" lon="112.00805292859478">
        <ele>1136.6903146396335</ele>
        <time>2016-06-21T23:09:41.900000Z</time>
      </trkpt>
      <trkpt lat="37.84139244135697" lon="112.00811972799413">
        <ele>1138.1689494521129</ele>
        <time>2016-06-21T23:09:52.900000Z</time>
      </trkpt>
      <trkpt lat="37.84102913582095" lon="112.00812679959354">
        <ele>1139.9213415189884</ele>
        <time>2016-06-21T23:10:06.900000Z</time>
      </trkpt>
      <trkpt lat="37.84067963203635" lon="112.00805412602338">
        <ele>1140.17579429134</ele>
        <time>2016-06-21T23:10:20.900000Z</time>
      </trkpt>
      <trkpt lat="37.840580092355076" lon="112.00804359554427">
        <ele>1140.068308269643</ele>
        <time>2016-06-21T23:10:23.900000Z</time>
      </trkpt>
      <trkpt lat="37.84032716560635" lon="112.00797415433956">
        <ele>1139.9269758824323</ele>
        <time>2016-06-21T23:10:33.900000Z</time>
      </trkpt>
      <trkpt lat="37.84015054740542" lon="112.0079725535143">
        <ele>1139.6273521359615</ele>
        <time>2016-06-21T23:10:40.900000Z</time>
      </trkpt>
      <trkpt lat="37.83982394495863" lon="112.00804557798716">
        <ele>1140.0218151321646</ele>
        <time>2016-06-21T23:10:52.900000Z</time>
      </trkpt>
      <trkpt lat="37.83954656825884" lon="112.00807858974619">
        <ele>1140.2148390786997</ele>
        <time>2016-06-21T23:11:02.900000Z</time>
      </trkpt>
      <trkpt lat="37.83930636591369" lon="112.00810997518438">
        <ele>1140.326753551352</ele>
        <time>2016-06-21T23:11:13.900000Z</time>
      </trkpt>
      <trkpt lat="37.83936085282765" lon="112.00812564707734">
        <ele>1140.4300644643592</ele>
        <time>2016-06-21T23:11:17.900000Z</time>
      </trkpt>
      <trkpt lat="37.83959746170527" lon="112.00811669837847">
        <ele>1140.9533571581933</ele>
        <time>2016-06-21T23:11:26.900000Z</time>
      </trkpt>
      <trkpt lat="37.83990637122947" lon="112.00806313874851">
        <ele>1141.7579408137744</ele>
        <time>2016-06-21T23:11:37.900000Z</time>
      </trkpt>
      <trkpt lat="37.84020982341608" lon="112.00802012216685">
        <ele>1144.9552556980889</ele>
        <time>2016-06-21T23:11:48.900000Z</time>
      </trkpt>
      <trkpt lat="37.84052316361969" lon="112.00802792396381">
        <ele>1146.2489983807136</ele>
        <time>2016-06-21T23:11:59.900000Z</time>
      </trkpt>
      <trkpt lat="37.84081322875315" lon="112.008107903159">
        <ele>1146.1746224943315</ele>
        <time>2016-06-21T23:12:09.900000Z</time>
      </trkpt>
      <trkpt lat="37.84116239409141" lon="112.00820328349394">
        <ele>1146.740718705333</ele>
        <time>2016-06-21T23:12:23.900000Z</time>
      </trkpt>
      <trkpt lat="37.84126787945953" lon="112.00822165249738">
        <ele>1146.456013621092</ele>
        <time>2016-06-21T23:12:27.900000Z</time>
      </trkpt>
      <trkpt lat="37.84143482903132" lon="112.00819000542758">
        <ele>1142.660295433151</ele>
        <time>2016-06-21T23:12:39.900000Z</time>
      </trkpt>
      <trkpt lat="37.841727261859" lon="112.00802021141538">
        <ele>1138.4616943648282</ele>
        <time>2016-06-21T23:12:49.900000Z</time>
      </trkpt>
      <trkpt lat="37.842011623885305" lon="112.00782744196475">
        <ele>1135.7422469132673</ele>
        <time>2016-06-21T23:12:57.900000Z</time>
      </trkpt>
      <trkpt lat="37.84227765222391" lon="112.00768738674205">
        <ele>1135.0946451991185</ele>
        <time>2016-06-21T23:13:08.900000Z</time>
      </trkpt>
      <trkpt lat="37.8423372769585" lon="112.00761736800042">
        <ele>1134.7124935709073</ele>
        <time>2016-06-21T23:13:12.900000Z</time>
      </trkpt>
      <trkpt lat="37.84243809685492" lon="112.00756221173054">
        <ele>1134.224273894929</ele>
        <time>2016-06-21T23:13:16Z</time>
      </trkpt>
      <trkpt lat="37.842552326570676" lon="112.00746812862099">
        <ele>1132.931120730418</ele>
        <time>2016-06-21T23:13:19.900000Z</time>
      </trkpt>
      <trkpt lat="37.84262447272923" lon="112.00738432259978">
        <ele>1131.523999443959</ele>
        <time>2016-06-21T23:13:23.900000Z</time>
      </trkpt>
      <trkpt lat="37.842739461979065" lon="112.00730862098521">
        <ele>1130.5131473396007</ele>
        <time>2016-06-21T23:13:27.900000Z</time>
      </trkpt>
      <trkpt lat="37.84308636069569" lon="112.00707097422426">
        <ele>1127.9939943763775</ele>
        <time>2016-06-21T23:13:38.900000Z</time>
      </trkpt>
      <trkpt lat="37.84333388715308" lon="112.00685793853388">
        <ele>1128.01204427829</ele>
        <time>2016-06-21T23:13:49.900000Z</time>
      </trkpt>
      <trkpt lat="37.84359282611964" lon="112.00663922560634">
        <ele>1128.6782728886942</ele>
        <time>2016-06-21T23:14:01.900000Z</time>
      </trkpt>
      <trkpt lat="37.8437725958607" lon="112.00649377693004">
        <ele>1128.3400006398997</ele>
        <time>2016-06-21T23:14:07.900000Z</time>
      </trkpt>
      <trkpt lat="37.844040574958576" lon="112.00633723532302">
        <ele>1120.6886141150458</ele>
        <time>2016-06-21T23:14:19.900000Z</time>
      </trkpt>
      <trkpt lat="37.8443617224563" lon="112.0061836611221">
        <ele>1118.6029838026946</ele>
        <time>2016-06-21T23:14:30.900000Z</time>
      </trkpt>
      <trkpt lat="37.844492579051376" lon="112.00615526303577">
        <ele>1118.8939104580024</ele>
        <time>2016-06-21T23:14:34.900000Z</time>
      </trkpt>
      <trkpt lat="37.844849710284336" lon="112.00621739160955">
        <ele>1120.6251851292482</ele>
        <time>2016-06-21T23:14:45.900000Z</time>
      </trkpt>
      <trkpt lat="37.845197546126954" lon="112.00630330860366">
        <ele>1122.9310403306806</ele>
        <time>2016-06-21T23:14:57.900000Z</time>
      </trkpt>
      <trkpt lat="37.845488347142464" lon="112.0064092354529">
        <ele>1125.0309677016328</ele>
        <time>2016-06-21T23:15:08.900000Z</time>
      </trkpt>
      <trkpt lat="37.84583958954035" lon="112.00653569885624">
        <ele>1126.34176964954</ele>
        <time>2016-06-21T23:15:19.900000Z</time>
      </trkpt>
      <trkpt lat="37.84611181135398" lon="112.0065943238318">
        <ele>1127.118826896089</ele>
        <time>2016-06-21T23:15:26.900000Z</time>
      </trkpt>
      <trkpt lat="37.84645656919394" lon="112.00662077318297">
        <ele>1130.5688154708216</ele>
        <time>2016-06-21T23:15:37.900000Z</time>
      </trkpt>
      <trkpt lat="37.846714665266454" lon="112.00668534675793">
        <ele>1131.6308184887732</ele>
        <time>2016-06-21T23:15:47.900000Z</time>
      </trkpt>
      <trkpt lat="37.847001901204685" lon="112.00671315455868">
        <ele>1131.4513353864086</ele>
        <time>2016-06-21T23:15:58.900000Z</time>
      </trkpt>
      <trkpt lat="37.847216362141715" lon="112.00676232566035">
        <ele>1131.0425835406356</ele>
        <time>2016-06-21T23:16:06.900000Z</time>
      </trkpt>
      <trkpt lat="37.84759012486592" lon="112.00679742158172">
        <ele>1131.0594745639532</ele>
        <time>2016-06-21T23:16:18.900000Z</time>
      </trkpt>
      <trkpt lat="37.84793673078476" lon="112.00684117073732">
        <ele>1130.0004083973336</ele>
        <time>2016-06-21T23:16:29.900000Z</time>
      </trkpt>
      <trkpt lat="37.84809621136399" lon="112.00685818135914">
        <ele>1130.002031310412</ele>
        <time>2016-06-21T23:16:33.900000Z</time>
      </trkpt>
      <trkpt lat="37.848229821640764" lon="112.00690736220403">
        <ele>1129.9568072725262</ele>
        <time>2016-06-21T23:16:37.900000Z</time>
      </trkpt>
      <trkpt lat="37.84834893585047" lon="112.0069957401065">
        <ele>1129.3097095253572</ele>
        <time>2016-06-21T23:16:41.900000Z</time>
      </trkpt>
      <trkpt lat="37.848576510121184" lon="112.00728846195878">
        <ele>1132.4338503028334</ele>
        <time>2016-06-21T23:16:51.900000Z</time>
      </trkpt>
      <trkpt lat="37.848819357693" lon="112.0076460588344">
        <ele>1132.0131076076618</ele>
        <time>2016-06-21T23:17:02.900000Z</time>
      </trkpt>
      <trkpt lat="37.84901274255179" lon="112.00794095014284">
        <ele>1131.520952090184</ele>
        <time>2016-06-21T23:17:12.900000Z</time>
      </trkpt>
      <trkpt lat="37.84921695215613" lon="112.0082455729332">
        <ele>1130.9485965644249</ele>
        <time>2016-06-21T23:17:22.900000Z</time>
      </trkpt>
      <trkpt lat="37.84940163406339" lon="112.00854830728431">
        <ele>1129.9847575999188</ele>
        <time>2016-06-21T23:17:32.900000Z</time>
      </trkpt>
      <trkpt lat="37.849579907000454" lon="112.0088167132174">
        <ele>1128.1182990787024</ele>
        <time>2016-06-21T23:17:43.900000Z</time>
      </trkpt>
      <trkpt lat="37.849756630643874" lon="112.00915080860993">
        <ele>1126.0924761405988</ele>
        <time>2016-06-21T23:17:54.900000Z</time>
      </trkpt>
      <trkpt lat="37.84981403211912" lon="112.0092824484894">
        <ele>1125.7725577884837</ele>
        <time>2016-06-21T23:17:58.900000Z</time>
      </trkpt>
      <trkpt lat="37.8498666830429" lon="112.00955330560323">
        <ele>1125.121475095276</ele>
        <time>2016-06-21T23:18:06.900000Z</time>
      </trkpt>
      <trkpt lat="37.84988769117473" lon="112.00988255790637">
        <ele>1125.0643640299727</ele>
        <time>2016-06-21T23:18:14.900000Z</time>
      </trkpt>
      <trkpt lat="37.849890909985355" lon="112.0101723465747">
        <ele>1124.8473230282066</ele>
        <time>2016-06-21T23:18:22.900000Z</time>
      </trkpt>
      <trkpt lat="37.84987680526617" lon="112.01054134487893">
        <ele>1124.5953142884948</ele>
        <time>2016-06-21T23:18:30.900000Z</time>
      </trkpt>
      <trkpt lat="37.849851379543985" lon="112.01097847018889">
        <ele>1124.918003553878</ele>
        <time>2016-06-21T23:18:40.900000Z</time>
      </trkpt>
      <trkpt lat="37.849818845720364" lon="112.0114350638412">
        <ele>1124.32582811599</ele>
        <time>2016-06-21T23:18:51.900000Z</time>
      </trkpt>
      <trkpt lat="37.84982193544623" lon="112.01158509826999">
        <ele>1124.064576293825</ele>
        <time>2016-06-21T23:18:55.900000Z</time>
      </trkpt>
      <trkpt lat="37.84978551781153" lon="112.0120725159658">
        <ele>1123.1099840938173</ele>
        <time>2016-06-21T23:19:07.900000Z</time>
      </trkpt>
      <trkpt lat="37.84972459783974" lon="112.01249668208749">
        <ele>1122.036147605504</ele>
        <time>2016-06-21T23:19:18.900000Z</time>
      </trkpt>
      <trkpt lat="37.84971229184213" lon="112.0128110878813">
        <ele>1121.879386107255</ele>
        <time>2016-06-21T23:19:26.900000Z</time>
      </trkpt>
      <trkpt lat="37.849673777449894" lon="112.01318227061036">
        <ele>1121.4414367355112</ele>
        <time>2016-06-21T23:19:36.900000Z</time>
      </trkpt>
      <trkpt lat="37.84963477488716" lon="112.01353534320998">
        <ele>1120.4787324748047</ele>
        <time>2016-06-21T23:19:46.900000Z</time>
      </trkpt>
      <trkpt lat="37.84958678838076" lon="112.01399412493068">
        <ele>1119.8575001411066</ele>
        <time>2016-06-21T23:19:57.900000Z</time>
      </trkpt>
      <trkpt lat="37.8495450913398" lon="112.01443695983198">
        <ele>1119.5126070781037</ele>
        <time>2016-06-21T23:20:09.900000Z</time>
      </trkpt>
      <trkpt lat="37.849517883919745" lon="112.01484248876825">
        <ele>1118.3531581879413</ele>
        <time>2016-06-21T23:20:19.900000Z</time>
      </trkpt>
      <trkpt lat="37.849457923161374" lon="112.01522261202675">
        <ele>1117.4004398381016</ele>
        <time>2016-06-21T23:20:30.900000Z</time>
      </trkpt>
      <trkpt lat="37.84941867053907" lon="112.01566789202789">
        <ele>1116.0224353352146</ele>
        <time>2016-06-21T23:20:43.900000Z</time>
      </trkpt>
      <trkpt lat="37.84936099762903" lon="112.01610425697075">
        <ele>1115.7629902260849</ele>
        <time>2016-06-21T23:20:54.900000Z</time>
      </trkpt>
      <trkpt lat="37.84931824427878" lon="112.01654278752503">
        <ele>1115.734670578298</ele>
        <time>2016-06-21T23:21:06.900000Z</time>
      </trkpt>
      <trkpt lat="37.84926992287609" lon="112.01693671313332">
        <ele>1115.7832563941624</ele>
        <time>2016-06-21T23:21:16.900000Z</time>
      </trkpt>
      <trkpt lat="37.84924005060933" lon="112.01733172179242">
        <ele>1116.038242652646</ele>
        <time>2016-06-21T23:21:27.900000Z</time>
      </trkpt>
      <trkpt lat="37.849197522306596" lon="112.01769375068392">
        <ele>1116.210271130324</ele>
        <time>2016-06-21T23:21:37.900000Z</time>
      </trkpt>
      <trkpt lat="37.84919151847456" lon="112.01809336028784">
        <ele>1116.766821834212</ele>
        <time>2016-06-21T23:21:47.900000Z</time>
      </trkpt>
      <trkpt lat="37.849182533875904" lon="112.01839563926012">
        <ele>1116.903839128045</ele>
        <time>2016-06-21T23:21:55.900000Z</time>
      </trkpt>
      <trkpt lat="37.849128315229066" lon="112.01876903521968">
        <ele>1115.7062819654482</ele>
        <time>2016-06-21T23:22:06.900000Z</time>
      </trkpt>
      <trkpt lat="37.84910248806389" lon="112.01917812161724">
        <ele>1115.849002217968</ele>
        <time>2016-06-21T23:22:17.900000Z</time>
      </trkpt>
      <trkpt lat="37.849096933438574" lon="112.01961587067147">
        <ele>1115.908097098455</ele>
        <time>2016-06-21T23:22:28.900000Z</time>
      </trkpt>
      <trkpt lat="37.84907564603565" lon="112.02005389716439">
        <ele>1115.4099910314878</ele>
        <time>2016-06-21T23:22:39.900000Z</time>
      </trkpt>
      <trkpt lat="37.84906437237777" lon="112.0204037806661">
        <ele>1114.1985581014817</ele>
        <time>2016-06-21T23:22:49.900000Z</time>
      </trkpt>
      <trkpt lat="37.849055967155685" lon="112.02079692995933">
        <ele>1113.1934567321794</ele>
        <time>2016-06-21T23:23:00.900000Z</time>
      </trkpt>
      <trkpt lat="37.84903742316976" lon="112.02093050624418">
        <ele>1112.9203199322164</ele>
        <time>2016-06-21T23:23:04.900000Z</time>
      </trkpt>
      <trkpt lat="37.84904910845752" lon="112.0213204141924">
        <ele>1112.413553286573</ele>
        <time>2016-06-21T23:23:15.900000Z</time>
      </trkpt>
      <trkpt lat="37.849052782626174" lon="112.0214653464852">
        <ele>1111.9888448145034</ele>
        <time>2016-06-21T23:23:19.800000Z</time>
      </trkpt>
      <trkpt lat="37.84906344262985" lon="112.02193475835608">
        <ele>1111.537099076643</ele>
        <time>2016-06-21T23:23:30.900000Z</time>
      </trkpt>
      <trkpt lat="37.8490739651563" lon="112.02235658543545">
        <ele>1110.823839646928</ele>
        <time>2016-06-21T23:23:40.900000Z</time>
      </trkpt>
      <trkpt lat="37.849067997943294" lon="112.02275759834154">
        <ele>1110.58756680572</ele>
        <time>2016-06-21T23:23:51.900000Z</time>
      </trkpt>
      <trkpt lat="37.84907530770579" lon="112.02316645636972">
        <ele>1110.3720215988237</ele>
        <time>2016-06-21T23:24:01.900000Z</time>
      </trkpt>
      <trkpt lat="37.84905334365819" lon="112.02356639929009">
        <ele>1109.1191251798894</ele>
        <time>2016-06-21T23:24:12.900000Z</time>
      </trkpt>
      <trkpt lat="37.849024754374355" lon="112.02401042599517">
        <ele>1108.2805527840676</ele>
        <time>2016-06-21T23:24:24.900000Z</time>
      </trkpt>
      <trkpt lat="37.84900833510851" lon="112.02447095307217">
        <ele>1108.559276604481</ele>
        <time>2016-06-21T23:24:35.900000Z</time>
      </trkpt>
      <trkpt lat="37.84902753289568" lon="112.02459777886781">
        <ele>1109.025751958903</ele>
        <time>2016-06-21T23:24:39.800000Z</time>
      </trkpt>
      <trkpt lat="37.84900699084393" lon="112.0249782686869">
        <ele>1109.9839122044102</ele>
        <time>2016-06-21T23:24:49.900000Z</time>
      </trkpt>
      <trkpt lat="37.84898673461698" lon="112.02525167318879">
        <ele>1110.322444824668</ele>
        <time>2016-06-21T23:24:56.900000Z</time>
      </trkpt>
      <trkpt lat="37.84899271182112" lon="112.02535146076491">
        <ele>1110.4210222497204</ele>
        <time>2016-06-21T23:24:59.900000Z</time>
      </trkpt>
      <trkpt lat="37.84895976059951" lon="112.02539797861878">
        <ele>1110.4484725372502</ele>
        <time>2016-06-21T23:25:06.900000Z</time>
      </trkpt>
      <trkpt lat="37.84900828007721" lon="112.02551831429132">
        <ele>1108.688451559024</ele>
        <time>2016-06-21T23:25:17.900000Z</time>
      </trkpt>
      <trkpt lat="37.84902373824046" lon="112.02562405108392">
        <ele>1107.8854687276785</ele>
        <time>2016-06-21T23:25:24.900000Z</time>
      </trkpt>
      <trkpt lat="37.84904770744336" lon="112.02569165622559">
        <ele>1107.7388250052497</ele>
        <time>2016-06-21T23:25:28.900000Z</time>
      </trkpt>
      <trkpt lat="37.84903365053808" lon="112.02577549206856">
        <ele>1107.6027680026182</ele>
        <time>2016-06-21T23:25:35.800000Z</time>
      </trkpt>
      <trkpt lat="37.84890772050047" lon="112.02589476844214">
        <ele>1107.6214470673317</ele>
        <time>2016-06-21T23:25:43.900000Z</time>
      </trkpt>
      <trkpt lat="37.84892956449352" lon="112.02604891368351">
        <ele>1107.867467294133</ele>
        <time>2016-06-21T23:25:51.800000Z</time>
      </trkpt>
      <trkpt lat="37.84886862014394" lon="112.02621794368746">
        <ele>1108.845150904854</ele>
        <time>2016-06-21T23:25:57.900000Z</time>
      </trkpt>
      <trkpt lat="37.84882536081453" lon="112.02626419365586">
        <ele>1109.3198418407671</ele>
        <time>2016-06-21T23:26:01.800000Z</time>
      </trkpt>
      <trkpt lat="37.84885470868854" lon="112.02635045979683">
        <ele>1111.8020898962827</ele>
        <time>2016-06-21T23:26:16.900000Z</time>
      </trkpt>
      <trkpt lat="37.848854172992546" lon="112.02645187436278">
        <ele>1111.8367860378646</ele>
        <time>2016-06-21T23:26:23.900000Z</time>
      </trkpt>
      <trkpt lat="37.84891205831834" lon="112.02651920682109">
        <ele>1111.3302874806673</ele>
        <time>2016-06-21T23:26:27.900000Z</time>
      </trkpt>
      <trkpt lat="37.84898081996015" lon="112.02668173326879">
        <ele>1111.8735019921714</ele>
        <time>2016-06-21T23:26:48.800000Z</time>
      </trkpt>
      <trkpt lat="37.849031317710285" lon="112.02666874602369">
        <ele>1106.534229389732</ele>
        <time>2016-06-21T23:27:45.100000Z</time>
      </trkpt>
    </trkseg>
  </trk>
</gpx>