<?xml version="1.0" encoding="UTF-8"?>
<gpx xmlns="http://www.topografix.com/GPX/1/1" xmlns:gpxtpx="http://www.garmin.com/xmlschemas/TrackPointExtension/v1" xmlns:xsi="http://www.w3.org/2001/XMLSchema-instance" xsi:schemaLocation="http://www.topografix.com/GPX/1/1 http://www.topografix.com/GPX/1/1/gpx.xsd" version="1.1" creator="gpx.py -- https://github.com/tkrajina/gpxpy">
  <trk>
    <name>gpx from keep</name>
    <type>Run</type>
    <trkseg>
      <trkpt lat="37.847212365330435" lon="112.02956012246962">
        <ele>1105.0129871419927</ele>
        <time>2016-04-28T13:02:32.300000Z</time>
      </trkpt>
      <trkpt lat="37.84733132699661" lon="112.02994092979702">
        <ele>1105.926587319238</ele>
        <time>2016-04-28T13:03:01.100000Z</time>
      </trkpt>
      <trkpt lat="37.847350924395876" lon="112.0300239623951">
        <ele>1105.4091905303421</ele>
        <time>2016-04-28T13:03:09Z</time>
      </trkpt>
      <trkpt lat="37.84765137148263" lon="112.02998200301792">
        <ele>1106.0532159937543</ele>
        <time>2016-04-28T13:03:24.100000Z</time>
      </trkpt>
      <trkpt lat="37.847973573858795" lon="112.02992002618394">
        <ele>1109.9028541248476</ele>
        <time>2016-04-28T13:03:40.100000Z</time>
      </trkpt>
      <trkpt lat="37.84817253294454" lon="112.02988511143002">
        <ele>1111.1028019248001</ele>
        <time>2016-04-28T13:03:47.100000Z</time>
      </trkpt>
      <trkpt lat="37.84844273835749" lon="112.0298934635189">
        <ele>1112.451631338733</ele>
        <time>2016-04-28T13:03:58.100000Z</time>
      </trkpt>
      <trkpt lat="37.84862367884596" lon="112.02990317871016">
        <ele>1112.8643985810265</ele>
        <time>2016-04-28T13:04:06.200000Z</time>
      </trkpt>
      <trkpt lat="37.84869333534226" lon="112.02993129936497">
        <ele>1112.940091628431</ele>
        <time>2016-04-28T13:04:10.100000Z</time>
      </trkpt>
      <trkpt lat="37.84879566248297" lon="112.03002243614783">
        <ele>1113.071848981995</ele>
        <time>2016-04-28T13:04:14.100000Z</time>
      </trkpt>
      <trkpt lat="37.84886821536868" lon="112.03041109919928">
        <ele>1110.6203463145487</ele>
        <time>2016-04-28T13:04:26.100000Z</time>
      </trkpt>
      <trkpt lat="37.84888230604518" lon="112.03052686162852">
        <ele>1109.5263401004643</ele>
        <time>2016-04-28T13:04:30.100000Z</time>
      </trkpt>
      <trkpt lat="37.848914752210995" lon="112.03057148654634">
        <ele>1108.9161705533907</ele>
        <time>2016-04-28T13:04:33.100000Z</time>
      </trkpt>
      <trkpt lat="37.84895760988152" lon="112.03068427092049">
        <ele>1108.210394161657</ele>
        <time>2016-04-28T13:04:37.100000Z</time>
      </trkpt>
      <trkpt lat="37.8489876416111" lon="112.0309363549512">
        <ele>1105.9413041361402</ele>
        <time>2016-04-28T13:04:47Z</time>
      </trkpt>
      <trkpt lat="37.849060468854624" lon="112.03121818943458">
        <ele>1102.4396656262547</ele>
        <time>2016-04-28T13:04:57.100000Z</time>
      </trkpt>
      <trkpt lat="37.849205404045975" lon="112.03152571447468">
        <ele>1099.603403860208</ele>
        <time>2016-04-28T13:05:08.100000Z</time>
      </trkpt>
      <trkpt lat="37.849255315642765" lon="112.03163985441925">
        <ele>1099.3932984083344</ele>
        <time>2016-04-28T13:05:12.100000Z</time>
      </trkpt>
      <trkpt lat="37.84949631766063" lon="112.03193979896136">
        <ele>1096.7456525532018</ele>
        <time>2016-04-28T13:05:27Z</time>
      </trkpt>
      <trkpt lat="37.84963485702308" lon="112.03220270147533">
        <ele>1095.0956326853116</ele>
        <time>2016-04-28T13:05:37.200000Z</time>
      </trkpt>
      <trkpt lat="37.849863724921384" lon="112.0324739811313">
        <ele>1094.7381034944183</ele>
        <time>2016-04-28T13:05:48.100000Z</time>
      </trkpt>
      <trkpt lat="37.84992564132611" lon="112.03256188538707">
        <ele>1094.8257110773445</ele>
        <time>2016-04-28T13:05:52.100000Z</time>
      </trkpt>
      <trkpt lat="37.8500809207647" lon="112.0327485109897">
        <ele>1094.7250947488103</ele>
        <time>2016-04-28T13:06:03.100000Z</time>
      </trkpt>
      <trkpt lat="37.850242003025215" lon="112.03289212745807">
        <ele>1094.0525887082706</ele>
        <time>2016-04-28T13:06:10.100000Z</time>
      </trkpt>
      <trkpt lat="37.85032831310372" lon="112.03299057977343">
        <ele>1093.6559505076298</ele>
        <time>2016-04-28T13:06:14Z</time>
      </trkpt>
      <trkpt lat="37.85037118674026" lon="112.03310012834065">
        <ele>1093.4704664590072</ele>
        <time>2016-04-28T13:06:18Z</time>
      </trkpt>
      <trkpt lat="37.8505566612429" lon="112.03325510502637">
        <ele>1091.7014253207406</ele>
        <time>2016-04-28T13:06:32.300000Z</time>
      </trkpt>
      <trkpt lat="37.85067803000347" lon="112.03344201019276">
        <ele>1090.9916801994025</ele>
        <time>2016-04-28T13:06:36.100000Z</time>
      </trkpt>
      <trkpt lat="37.85076297869373" lon="112.03354316984354">
        <ele>1090.8274327106367</ele>
        <time>2016-04-28T13:06:40.100000Z</time>
      </trkpt>
      <trkpt lat="37.85092625382131" lon="112.03367894566814">
        <ele>1090.6998925406572</ele>
        <time>2016-04-28T13:06:47.100000Z</time>
      </trkpt>
      <trkpt lat="37.85113172557426" lon="112.03398189354064">
        <ele>1089.84854637732</ele>
        <time>2016-04-28T13:07:01.100000Z</time>
      </trkpt>
      <trkpt lat="37.85119096911873" lon="112.03405465447024">
        <ele>1089.4235859271557</ele>
        <time>2016-04-28T13:07:05.100000Z</time>
      </trkpt>
      <trkpt lat="37.85122708354846" lon="112.03415582242677">
        <ele>1089.0608829037146</ele>
        <time>2016-04-28T13:07:09.100000Z</time>
      </trkpt>
      <trkpt lat="37.85143335705318" lon="112.03446580934255">
        <ele>1087.1396616404463</ele>
        <time>2016-04-28T13:07:23.100000Z</time>
      </trkpt>
      <trkpt lat="37.85154745231627" lon="112.03463378785275">
        <ele>1085.6579371682703</ele>
        <time>2016-04-28T13:07:32.300000Z</time>
      </trkpt>
      <trkpt lat="37.851644645216226" lon="112.03472169523877">
        <ele>1083.4677847161017</ele>
        <time>2016-04-28T13:07:36Z</time>
      </trkpt>
      <trkpt lat="37.8518206374267" lon="112.03498922050849">
        <ele>1080.36398112108</ele>
        <time>2016-04-28T13:07:46.100000Z</time>
      </trkpt>
      <trkpt lat="37.851886080775124" lon="112.03508010873857">
        <ele>1079.460767906583</ele>
        <time>2016-04-28T13:07:50.100000Z</time>
      </trkpt>
      <trkpt lat="37.85193196635286" lon="112.03518100910853">
        <ele>1079.0096883929623</ele>
        <time>2016-04-28T13:07:53.100000Z</time>
      </trkpt>
      <trkpt lat="37.852033445232806" lon="112.03529299478657">
        <ele>1078.993709556176</ele>
        <time>2016-04-28T13:07:57.100000Z</time>
      </trkpt>
      <trkpt lat="37.85222601517275" lon="112.03555078510749">
        <ele>1079.584080458047</ele>
        <time>2016-04-28T13:08:12.100000Z</time>
      </trkpt>
      <trkpt lat="37.85239383295534" lon="112.03572011709281">
        <ele>1079.1882256414385</ele>
        <time>2016-04-28T13:08:20.100000Z</time>
      </trkpt>
      <trkpt lat="37.8524684216946" lon="112.03584590562892">
        <ele>1078.5873455763074</ele>
        <time>2016-04-28T13:08:24Z</time>
      </trkpt>
      <trkpt lat="37.85266894601598" lon="112.03606853112433">
        <ele>1077.769763292739</ele>
        <time>2016-04-28T13:08:32.100000Z</time>
      </trkpt>
      <trkpt lat="37.852785157144254" lon="112.03638098756805">
        <ele>1077.3165129870317</ele>
        <time>2016-04-28T13:08:44Z</time>
      </trkpt>
      <trkpt lat="37.85290137207241" lon="112.0365754918139">
        <ele>1076.7734587308023</ele>
        <time>2016-04-28T13:08:51.100000Z</time>
      </trkpt>
      <trkpt lat="37.852934745996976" lon="112.03669209127723">
        <ele>1076.5229072252464</ele>
        <time>2016-04-28T13:08:55.100000Z</time>
      </trkpt>
      <trkpt lat="37.85308629988304" lon="112.03697587362277">
        <ele>1074.867882368044</ele>
        <time>2016-04-28T13:09:06.100000Z</time>
      </trkpt>
      <trkpt lat="37.853161881778526" lon="112.03714414443178">
        <ele>1073.610896384463</ele>
        <time>2016-04-28T13:09:13.100000Z</time>
      </trkpt>
      <trkpt lat="37.85331039457111" lon="112.03733567487261">
        <ele>1072.8240525746564</ele>
        <time>2016-04-28T13:09:21Z</time>
      </trkpt>
      <trkpt lat="37.85338512809155" lon="112.03740086839966">
        <ele>1072.4104888742104</ele>
        <time>2016-04-28T13:09:25.100000Z</time>
      </trkpt>
      <trkpt lat="37.853619349915206" lon="112.03772387943222">
        <ele>1072.5626782442803</ele>
        <time>2016-04-28T13:09:36Z</time>
      </trkpt>
      <trkpt lat="37.85385401959322" lon="112.03797032708736">
        <ele>1072.2096161635027</ele>
        <time>2016-04-28T13:09:46.100000Z</time>
      </trkpt>
      <trkpt lat="37.85398830583306" lon="112.03809639068909">
        <ele>1071.63238540004</ele>
        <time>2016-04-28T13:09:55.100000Z</time>
      </trkpt>
      <trkpt lat="37.85394072527769" lon="112.03802091080014">
        <ele>1070.9598068624834</ele>
        <time>2016-04-28T13:09:58.200000Z</time>
      </trkpt>
      <trkpt lat="37.85380315910913" lon="112.03790567023587">
        <ele>1068.7817587530635</ele>
        <time>2016-04-28T13:10:05.100000Z</time>
      </trkpt>
      <trkpt lat="37.853582136133625" lon="112.0376237791509">
        <ele>1064.8701642647375</ele>
        <time>2016-04-28T13:10:20.100000Z</time>
      </trkpt>
      <trkpt lat="37.85344843396411" lon="112.03748040269477">
        <ele>1063.9488280857684</ele>
        <time>2016-04-28T13:10:26.100000Z</time>
      </trkpt>
      <trkpt lat="37.85323696849302" lon="112.03717335451447">
        <ele>1067.16657780899</ele>
        <time>2016-04-28T13:10:37.200000Z</time>
      </trkpt>
      <trkpt lat="37.85308241899984" lon="112.03689362837964">
        <ele>1072.1368047824744</ele>
        <time>2016-04-28T13:10:48.100000Z</time>
      </trkpt>
      <trkpt lat="37.852965767883894" lon="112.03665204729413">
        <ele>1075.0716111511495</ele>
        <time>2016-04-28T13:10:56.100000Z</time>
      </trkpt>
      <trkpt lat="37.852873533040295" lon="112.0365295032307">
        <ele>1076.4005299995588</ele>
        <time>2016-04-28T13:11:00.100000Z</time>
      </trkpt>
      <trkpt lat="37.85270899040118" lon="112.03623274187426">
        <ele>1078.7356473168738</ele>
        <time>2016-04-28T13:11:11.100000Z</time>
      </trkpt>
      <trkpt lat="37.85262546185599" lon="112.03610045957547">
        <ele>1080.242307662058</ele>
        <time>2016-04-28T13:11:18.100000Z</time>
      </trkpt>
      <trkpt lat="37.8523743677495" lon="112.03580668971622">
        <ele>1082.0238167526097</ele>
        <time>2016-04-28T13:11:32.100000Z</time>
      </trkpt>
      <trkpt lat="37.85216915611524" lon="112.0355010145343">
        <ele>1085.050185292987</ele>
        <time>2016-04-28T13:11:46.200000Z</time>
      </trkpt>
      <trkpt lat="37.85199838061436" lon="112.03520534843008">
        <ele>1090.4577335298886</ele>
        <time>2016-04-28T13:12:00.100000Z</time>
      </trkpt>
      <trkpt lat="37.85194735212602" lon="112.03509930860898">
        <ele>1092.5997782910335</ele>
        <time>2016-04-28T13:12:04.100000Z</time>
      </trkpt>
      <trkpt lat="37.851719374450965" lon="112.03478634078141">
        <ele>1099.5145704022943</ele>
        <time>2016-04-28T13:12:18.100000Z</time>
      </trkpt>
      <trkpt lat="37.85155370666383" lon="112.0345134060548">
        <ele>1104.1377473738908</ele>
        <time>2016-04-28T13:12:29.100000Z</time>
      </trkpt>
      <trkpt lat="37.85138887342508" lon="112.03434678704558">
        <ele>1106.494011249678</ele>
        <time>2016-04-28T13:12:36.100000Z</time>
      </trkpt>
      <trkpt lat="37.85131726932797" lon="112.03422344032954">
        <ele>1108.4450164308087</ele>
        <time>2016-04-28T13:12:40Z</time>
      </trkpt>
      <trkpt lat="37.851129047366946" lon="112.03396728617174">
        <ele>1111.5101978462706</ele>
        <time>2016-04-28T13:12:55Z</time>
      </trkpt>
      <trkpt lat="37.85090398870074" lon="112.03368625211394">
        <ele>1111.4264355487487</ele>
        <time>2016-04-28T13:13:10Z</time>
      </trkpt>
      <trkpt lat="37.85072585060817" lon="112.03341306017694">
        <ele>1110.6325733137087</ele>
        <time>2016-04-28T13:13:21.100000Z</time>
      </trkpt>
      <trkpt lat="37.850635984898005" lon="112.03321343769578">
        <ele>1110.5149825157632</ele>
        <time>2016-04-28T13:13:29Z</time>
      </trkpt>
      <trkpt lat="37.85080930016258" lon="112.03346065937652">
        <ele>1106.428185624679</ele>
        <time>2016-04-28T13:13:47.200000Z</time>
      </trkpt>
      <trkpt lat="37.85099138191639" lon="112.03378660089857">
        <ele>1102.3442838274043</ele>
        <time>2016-04-28T13:14:02Z</time>
      </trkpt>
      <trkpt lat="37.85117909096156" lon="112.03414338453689">
        <ele>1100.0842676151397</ele>
        <time>2016-04-28T13:14:15Z</time>
      </trkpt>
      <trkpt lat="37.85140923274968" lon="112.03445634412095">
        <ele>1098.4718246266796</ele>
        <time>2016-04-28T13:14:26Z</time>
      </trkpt>
      <trkpt lat="37.851632843263765" lon="112.03466434631929">
        <ele>1097.4067709189285</ele>
        <time>2016-04-28T13:14:36Z</time>
      </trkpt>
      <trkpt lat="37.8517859209933" lon="112.03486938299208">
        <ele>1095.4981571938897</ele>
        <time>2016-04-28T13:14:43Z</time>
      </trkpt>
      <trkpt lat="37.85194189681157" lon="112.03499651002815">
        <ele>1094.031871360366</ele>
        <time>2016-04-28T13:14:50Z</time>
      </trkpt>
      <trkpt lat="37.85213124101286" lon="112.0353560158581">
        <ele>1093.3342263203533</ele>
        <time>2016-04-28T13:15:03Z</time>
      </trkpt>
      <trkpt lat="37.85218632040608" lon="112.03547044267918">
        <ele>1092.7827543806438</ele>
        <time>2016-04-28T13:15:07Z</time>
      </trkpt>
      <trkpt lat="37.85230991888792" lon="112.03563761520168">
        <ele>1091.0222446694436</ele>
        <time>2016-04-28T13:15:14Z</time>
      </trkpt>
      <trkpt lat="37.85252404200376" lon="112.03584535785456">
        <ele>1089.0694654433069</ele>
        <time>2016-04-28T13:15:24Z</time>
      </trkpt>
      <trkpt lat="37.85267849288251" lon="112.03604661660962">
        <ele>1087.446440743681</ele>
        <time>2016-04-28T13:15:31Z</time>
      </trkpt>
      <trkpt lat="37.85278357168174" lon="112.03612857624572">
        <ele>1086.6413015719477</ele>
        <time>2016-04-28T13:15:35.100000Z</time>
      </trkpt>
      <trkpt lat="37.85290118356034" lon="112.03630495225201">
        <ele>1085.3816982322965</ele>
        <time>2016-04-28T13:15:42.100000Z</time>
      </trkpt>
      <trkpt lat="37.85296609245903" lon="112.03651136585272">
        <ele>1084.4939152419947</ele>
        <time>2016-04-28T13:15:49Z</time>
      </trkpt>
      <trkpt lat="37.853131344766396" lon="112.03685466407967">
        <ele>1082.7832441917844</ele>
        <time>2016-04-28T13:16:00.100000Z</time>
      </trkpt>
      <trkpt lat="37.85322257592709" lon="112.03706053809036">
        <ele>1082.8498993386575</ele>
        <time>2016-04-28T13:16:07.100000Z</time>
      </trkpt>
      <trkpt lat="37.85341841897151" lon="112.03731726447087">
        <ele>1081.5625165817783</ele>
        <time>2016-04-28T13:16:18.100000Z</time>
      </trkpt>
      <trkpt lat="37.85365156572338" lon="112.03763540454828">
        <ele>1081.3198429147426</ele>
        <time>2016-04-28T13:16:29Z</time>
      </trkpt>
      <trkpt lat="37.85377757620864" lon="112.03782098942294">
        <ele>1081.1075365770348</ele>
        <time>2016-04-28T13:16:36.100000Z</time>
      </trkpt>
      <trkpt lat="37.85386260842795" lon="112.03789159414906">
        <ele>1081.2314666770415</ele>
        <time>2016-04-28T13:16:40.100000Z</time>
      </trkpt>
      <trkpt lat="37.85397778449718" lon="112.0380698772652">
        <ele>1081.0980872851017</ele>
        <time>2016-04-28T13:16:48.900000Z</time>
      </trkpt>
      <trkpt lat="37.85383220880136" lon="112.03777742349654">
        <ele>1080.5434871730788</ele>
        <time>2016-04-28T13:17:05.100000Z</time>
      </trkpt>
      <trkpt lat="37.853545684081325" lon="112.03742763352426">
        <ele>1080.758122705904</ele>
        <time>2016-04-28T13:17:21.100000Z</time>
      </trkpt>
      <trkpt lat="37.85333793390712" lon="112.03715710947024">
        <ele>1083.7340024198215</ele>
        <time>2016-04-28T13:17:32.100000Z</time>
      </trkpt>
      <trkpt lat="37.853147334175524" lon="112.03686250793378">
        <ele>1086.605027803087</ele>
        <time>2016-04-28T13:17:43.100000Z</time>
      </trkpt>
      <trkpt lat="37.85294869159951" lon="112.03652732983927">
        <ele>1089.460227012659</ele>
        <time>2016-04-28T13:17:54Z</time>
      </trkpt>
      <trkpt lat="37.85270871657977" lon="112.03623382405645">
        <ele>1092.8201976249056</ele>
        <time>2016-04-28T13:18:07.100000Z</time>
      </trkpt>
      <trkpt lat="37.85261036201625" lon="112.03606015159251">
        <ele>1093.9148079578379</ele>
        <time>2016-04-28T13:18:15.100000Z</time>
      </trkpt>
      <trkpt lat="37.85241830332542" lon="112.0358139887982">
        <ele>1098.886383954998</ele>
        <time>2016-04-28T13:18:26.100000Z</time>
      </trkpt>
      <trkpt lat="37.852281142067284" lon="112.03564519353387">
        <ele>1101.7317239870852</ele>
        <time>2016-04-28T13:18:33.100000Z</time>
      </trkpt>
      <trkpt lat="37.85209709438468" lon="112.03533951779411">
        <ele>1105.8657234161765</ele>
        <time>2016-04-28T13:18:44Z</time>
      </trkpt>
      <trkpt lat="37.8519431939139" lon="112.03513691209551">
        <ele>1108.042900847637</ele>
        <time>2016-04-28T13:18:55.100000Z</time>
      </trkpt>
      <trkpt lat="37.85169448874744" lon="112.0348693940159">
        <ele>1108.900549937142</ele>
        <time>2016-04-28T13:19:09.100000Z</time>
      </trkpt>
      <trkpt lat="37.85156813707413" lon="112.03472089290035">
        <ele>1109.7848058192033</ele>
        <time>2016-04-28T13:19:16.100000Z</time>
      </trkpt>
      <trkpt lat="37.851370263403936" lon="112.03441441857223">
        <ele>1112.591995446345</ele>
        <time>2016-04-28T13:19:28Z</time>
      </trkpt>
      <trkpt lat="37.85132711657064" lon="112.03430378235993">
        <ele>1113.0764216872028</ele>
        <time>2016-04-28T13:19:32Z</time>
      </trkpt>
      <trkpt lat="37.85113322419137" lon="112.03403599599478">
        <ele>1113.4464932066412</ele>
        <time>2016-04-28T13:19:42.100000Z</time>
      </trkpt>
      <trkpt lat="37.85096117781792" lon="112.03371032060149">
        <ele>1111.8611915605668</ele>
        <time>2016-04-28T13:19:56.100000Z</time>
      </trkpt>
      <trkpt lat="37.85077600102714" lon="112.03343063708705">
        <ele>1109.0498165593174</ele>
        <time>2016-04-28T13:20:07.100000Z</time>
      </trkpt>
      <trkpt lat="37.850608420126676" lon="112.03316826675572">
        <ele>1107.256511368272</ele>
        <time>2016-04-28T13:20:18Z</time>
      </trkpt>
      <trkpt lat="37.8505583528549" lon="112.03311633601035">
        <ele>1106.6276116061163</ele>
        <time>2016-04-28T13:20:24.100000Z</time>
      </trkpt>
      <trkpt lat="37.85053017578775" lon="112.03321236842639">
        <ele>1106.1617581961164</ele>
        <time>2016-04-28T13:20:28.100000Z</time>
      </trkpt>
      <trkpt lat="37.85072865733553" lon="112.03348690832448">
        <ele>1106.122813459479</ele>
        <time>2016-04-28T13:20:39.100000Z</time>
      </trkpt>
      <trkpt lat="37.850831198575996" lon="112.03360591961345">
        <ele>1105.9903735512519</ele>
        <time>2016-04-28T13:20:46.100000Z</time>
      </trkpt>
      <trkpt lat="37.850942538596016" lon="112.03378958240447">
        <ele>1105.8743946913294</ele>
        <time>2016-04-28T13:20:54Z</time>
      </trkpt>
      <trkpt lat="37.85113332888183" lon="112.03399217283916">
        <ele>1105.6108662678942</ele>
        <time>2016-04-28T13:21:04.100000Z</time>
      </trkpt>
      <trkpt lat="37.85127498716107" lon="112.0342055914125">
        <ele>1104.2493739053666</ele>
        <time>2016-04-28T13:21:11.100000Z</time>
      </trkpt>
      <trkpt lat="37.8515216160723" lon="112.03454533113302">
        <ele>1101.2550078416602</ele>
        <time>2016-04-28T13:21:26Z</time>
      </trkpt>
      <trkpt lat="37.85172900541288" lon="112.03472925965139">
        <ele>1100.2279289711935</ele>
        <time>2016-04-28T13:21:34Z</time>
      </trkpt>
      <trkpt lat="37.85188399935719" lon="112.03492726302345">
        <ele>1098.881286353128</ele>
        <time>2016-04-28T13:21:42.100000Z</time>
      </trkpt>
      <trkpt lat="37.85204911093474" lon="112.03520750652115">
        <ele>1095.3789125308951</ele>
        <time>2016-04-28T13:21:53Z</time>
      </trkpt>
      <trkpt lat="37.85222546241762" lon="112.03555511365107">
        <ele>1093.4837986891557</ele>
        <time>2016-04-28T13:22:04.100000Z</time>
      </trkpt>
      <trkpt lat="37.85245257462276" lon="112.03589352139743">
        <ele>1092.0129804483165</ele>
        <time>2016-04-28T13:22:16Z</time>
      </trkpt>
      <trkpt lat="37.85269145924596" lon="112.03618783484104">
        <ele>1090.6997047743416</ele>
        <time>2016-04-28T13:22:28.100000Z</time>
      </trkpt>
      <trkpt lat="37.85282354871639" lon="112.03632200552217">
        <ele>1090.4977789910236</ele>
        <time>2016-04-28T13:22:35Z</time>
      </trkpt>
      <trkpt lat="37.85301040100152" lon="112.03659225221404">
        <ele>1089.2923202436616</ele>
        <time>2016-04-28T13:22:46.100000Z</time>
      </trkpt>
      <trkpt lat="37.853183765300024" lon="112.0368297677011">
        <ele>1088.4378258199167</ele>
        <time>2016-04-28T13:22:56.100000Z</time>
      </trkpt>
      <trkpt lat="37.85340074413717" lon="112.03721581079192">
        <ele>1088.2400673580287</ele>
        <time>2016-04-28T13:23:08Z</time>
      </trkpt>
      <trkpt lat="37.85352164521688" lon="112.0373802901083">
        <ele>1088.5282852544524</ele>
        <time>2016-04-28T13:23:14.300000Z</time>
      </trkpt>
      <trkpt lat="37.853594053054" lon="112.03751366294847">
        <ele>1088.673503996614</ele>
        <time>2016-04-28T13:23:18.100000Z</time>
      </trkpt>
      <trkpt lat="37.85379830576466" lon="112.03777255760566">
        <ele>1090.4803159638564</ele>
        <time>2016-04-28T13:23:26Z</time>
      </trkpt>
      <trkpt lat="37.85403167128012" lon="112.03799600855649">
        <ele>1092.2751528754472</ele>
        <time>2016-04-28T13:23:37.100000Z</time>
      </trkpt>
      <trkpt lat="37.85413106211547" lon="112.03807608159818">
        <ele>1092.748963671695</ele>
        <time>2016-04-28T13:23:41Z</time>
      </trkpt>
      <trkpt lat="37.854069311937884" lon="112.03790780256165">
        <ele>1093.3956415071643</ele>
        <time>2016-04-28T13:23:51Z</time>
      </trkpt>
      <trkpt lat="37.85401306088389" lon="112.03782745432575">
        <ele>1093.309716271045</ele>
        <time>2016-04-28T13:23:55Z</time>
      </trkpt>
      <trkpt lat="37.85371022521005" lon="112.0376107771587">
        <ele>1093.0776236063384</ele>
        <time>2016-04-28T13:24:10.100000Z</time>
      </trkpt>
      <trkpt lat="37.85355842035735" lon="112.03743439575452">
        <ele>1093.7518246142083</ele>
        <time>2016-04-28T13:24:17Z</time>
      </trkpt>
      <trkpt lat="37.85340578124398" lon="112.03714871430951">
        <ele>1094.6215280747122</ele>
        <time>2016-04-28T13:24:27Z</time>
      </trkpt>
      <trkpt lat="37.853298098800366" lon="112.03701778266674">
        <ele>1095.994569284963</ele>
        <time>2016-04-28T13:24:34.100000Z</time>
      </trkpt>
      <trkpt lat="37.85314414816678" lon="112.03671425050005">
        <ele>1099.15977987834</ele>
        <time>2016-04-28T13:24:45Z</time>
      </trkpt>
      <trkpt lat="37.85300299033564" lon="112.03651163194185">
        <ele>1099.9552604168844</ele>
        <time>2016-04-28T13:24:52Z</time>
      </trkpt>
      <trkpt lat="37.85280119023223" lon="112.0362527505198">
        <ele>1102.8878617583548</ele>
        <time>2016-04-28T13:25:02.100000Z</time>
      </trkpt>
      <trkpt lat="37.85262728716374" lon="112.03601551125455">
        <ele>1105.6478299021148</ele>
        <time>2016-04-28T13:25:10.100000Z</time>
      </trkpt>
      <trkpt lat="37.85254067744504" lon="112.03592516321588">
        <ele>1106.814404704798</ele>
        <time>2016-04-28T13:25:14Z</time>
      </trkpt>
      <trkpt lat="37.85230060581986" lon="112.03555943306665">
        <ele>1108.1321547100797</ele>
        <time>2016-04-28T13:25:25.300000Z</time>
      </trkpt>
      <trkpt lat="37.852208045047135" lon="112.03546205366467">
        <ele>1107.8049644086552</ele>
        <time>2016-04-28T13:25:29.100000Z</time>
      </trkpt>
      <trkpt lat="37.852086229845554" lon="112.03522914413804">
        <ele>1107.8206003906575</ele>
        <time>2016-04-28T13:25:35.300000Z</time>
      </trkpt>
      <trkpt lat="37.85188933368132" lon="112.03496621772359">
        <ele>1108.8739104820986</ele>
        <time>2016-04-28T13:25:43Z</time>
      </trkpt>
      <trkpt lat="37.85168900426682" lon="112.03466461006869">
        <ele>1109.0674745737078</ele>
        <time>2016-04-28T13:25:51Z</time>
      </trkpt>
      <trkpt lat="37.85154630210759" lon="112.0343183638232">
        <ele>1109.3567519960827</ele>
        <time>2016-04-28T13:26:01Z</time>
      </trkpt>
      <trkpt lat="37.851433283425976" lon="112.03415471551283">
        <ele>1109.951264532925</ele>
        <time>2016-04-28T13:26:05.100000Z</time>
      </trkpt>
      <trkpt lat="37.85122954478462" lon="112.03392047539931">
        <ele>1110.9908681558177</ele>
        <time>2016-04-28T13:26:12.100000Z</time>
      </trkpt>
      <trkpt lat="37.851140477923664" lon="112.0338390620815">
        <ele>1111.2302005746544</ele>
        <time>2016-04-28T13:26:16Z</time>
      </trkpt>
      <trkpt lat="37.85103644242454" lon="112.03377712759087">
        <ele>1111.503645812</ele>
        <time>2016-04-28T13:26:20Z</time>
      </trkpt>
      <trkpt lat="37.85097201797848" lon="112.0337154589858">
        <ele>1111.999941820917</ele>
        <time>2016-04-28T13:26:23Z</time>
      </trkpt>
      <trkpt lat="37.850757830927215" lon="112.03342739319206">
        <ele>1113.8432754159817</ele>
        <time>2016-04-28T13:26:37Z</time>
      </trkpt>
      <trkpt lat="37.85064342657551" lon="112.0331652869902">
        <ele>1114.8890829246388</ele>
        <time>2016-04-28T13:26:44.100000Z</time>
      </trkpt>
      <trkpt lat="37.850628150678766" lon="112.03308711320814">
        <ele>1115.0522355540015</ele>
        <time>2016-04-28T13:26:49Z</time>
      </trkpt>
      <trkpt lat="37.850579831847156" lon="112.03298540992186">
        <ele>1116.0744456149919</ele>
        <time>2016-04-28T13:26:52Z</time>
      </trkpt>
      <trkpt lat="37.85059838483446" lon="112.03305465639772">
        <ele>1117.0323034799997</ele>
        <time>2016-04-28T13:26:55Z</time>
      </trkpt>
      <trkpt lat="37.85076150715138" lon="112.03336544671217">
        <ele>1116.8716680331966</ele>
        <time>2016-04-28T13:27:07.100000Z</time>
      </trkpt>
      <trkpt lat="37.85082885163863" lon="112.03356642562531">
        <ele>1116.0225317152342</ele>
        <time>2016-04-28T13:27:15.100000Z</time>
      </trkpt>
      <trkpt lat="37.850987632679114" lon="112.0338793867297">
        <ele>1112.631905493526</ele>
        <time>2016-04-28T13:27:26.100000Z</time>
      </trkpt>
      <trkpt lat="37.851175603107514" lon="112.0342407704012">
        <ele>1108.885217595987</ele>
        <time>2016-04-28T13:27:37.100000Z</time>
      </trkpt>
      <trkpt lat="37.85136570268046" lon="112.03450693627474">
        <ele>1105.9737078687149</ele>
        <time>2016-04-28T13:27:47Z</time>
      </trkpt>
      <trkpt lat="37.85145500664268" lon="112.03460350079312">
        <ele>1105.0225449395684</ele>
        <time>2016-04-28T13:27:51.100000Z</time>
      </trkpt>
      <trkpt lat="37.85158093229492" lon="112.03470249595122">
        <ele>1104.4520044000913</ele>
        <time>2016-04-28T13:27:55Z</time>
      </trkpt>
      <trkpt lat="37.85182353001594" lon="112.03502817559965">
        <ele>1102.7697439523072</ele>
        <time>2016-04-28T13:28:08.100000Z</time>
      </trkpt>
      <trkpt lat="37.85201157062393" lon="112.03524971314637">
        <ele>1101.5084993008036</ele>
        <time>2016-04-28T13:28:16.100000Z</time>
      </trkpt>
      <trkpt lat="37.85224542560881" lon="112.03560380666103">
        <ele>1100.7212045788901</ele>
        <time>2016-04-28T13:28:31.100000Z</time>
      </trkpt>
      <trkpt lat="37.85245388518664" lon="112.03591327019582">
        <ele>1100.5426221143498</ele>
        <time>2016-04-28T13:28:42Z</time>
      </trkpt>
      <trkpt lat="37.85258307679897" lon="112.03612643614063">
        <ele>1100.086873584014</ele>
        <time>2016-04-28T13:28:50Z</time>
      </trkpt>
      <trkpt lat="37.85275464411772" lon="112.03631822629852">
        <ele>1099.0942297849508</ele>
        <time>2016-04-28T13:28:57Z</time>
      </trkpt>
      <trkpt lat="37.85289821185868" lon="112.03653409944376">
        <ele>1098.552085210171</ele>
        <time>2016-04-28T13:29:03Z</time>
      </trkpt>
      <trkpt lat="37.85302516444727" lon="112.03677892463124">
        <ele>1097.9262415705232</ele>
        <time>2016-04-28T13:29:12.100000Z</time>
      </trkpt>
      <trkpt lat="37.853248354339314" lon="112.03705891170092">
        <ele>1097.3017935629987</ele>
        <time>2016-04-28T13:29:23.100000Z</time>
      </trkpt>
      <trkpt lat="37.8533072545392" lon="112.03716631179223">
        <ele>1097.0295639653455</ele>
        <time>2016-04-28T13:29:27Z</time>
      </trkpt>
      <trkpt lat="37.85338038146725" lon="112.03722203585977">
        <ele>1096.7860173385654</ele>
        <time>2016-04-28T13:29:30Z</time>
      </trkpt>
      <trkpt lat="37.85344963721454" lon="112.0373096853217">
        <ele>1096.2728093173819</ele>
        <time>2016-04-28T13:29:33Z</time>
      </trkpt>
      <trkpt lat="37.8534985022087" lon="112.03741600554277">
        <ele>1095.8411083769458</ele>
        <time>2016-04-28T13:29:37.100000Z</time>
      </trkpt>
      <trkpt lat="37.85373795406432" lon="112.03770600856073">
        <ele>1095.07407805347</ele>
        <time>2016-04-28T13:29:47.100000Z</time>
      </trkpt>
      <trkpt lat="37.85384032180034" lon="112.03778905636865">
        <ele>1095.0401997010772</ele>
        <time>2016-04-28T13:29:51.100000Z</time>
      </trkpt>
      <trkpt lat="37.854126440026036" lon="112.03808041108475">
        <ele>1095.4641748807294</ele>
        <time>2016-04-28T13:30:03Z</time>
      </trkpt>
      <trkpt lat="37.854140148144026" lon="112.03813749725133">
        <ele>1095.6952396071492</ele>
        <time>2016-04-28T13:30:06.100000Z</time>
      </trkpt>
      <trkpt lat="37.85411394803664" lon="112.0380855531964">
        <ele>1095.8611065729729</ele>
        <time>2016-04-28T13:30:10Z</time>
      </trkpt>
      <trkpt lat="37.85390902739591" lon="112.03788076631253">
        <ele>1094.1405054503332</ele>
        <time>2016-04-28T13:30:20Z</time>
      </trkpt>
      <trkpt lat="37.85381569800215" lon="112.03776011000016">
        <ele>1092.7860667106422</ele>
        <time>2016-04-28T13:30:26Z</time>
      </trkpt>
      <trkpt lat="37.853765048480774" lon="112.03772223852454">
        <ele>1092.5423649138688</ele>
        <time>2016-04-28T13:30:29.100000Z</time>
      </trkpt>
      <trkpt lat="37.85346185616517" lon="112.03730535505856">
        <ele>1094.3211319273626</ele>
        <time>2016-04-28T13:30:43.100000Z</time>
      </trkpt>
      <trkpt lat="37.85329262479062" lon="112.03703861538075">
        <ele>1095.6074206790283</ele>
        <time>2016-04-28T13:30:50.100000Z</time>
      </trkpt>
      <trkpt lat="37.85309436096752" lon="112.03677377595962">
        <ele>1098.468508432094</ele>
        <time>2016-04-28T13:31:01.200000Z</time>
      </trkpt>
      <trkpt lat="37.85294318104185" lon="112.0365638535061">
        <ele>1100.590076656669</ele>
        <time>2016-04-28T13:31:09Z</time>
      </trkpt>
      <trkpt lat="37.852830308351024" lon="112.03633201462488">
        <ele>1102.0309874157933</ele>
        <time>2016-04-28T13:31:16.100000Z</time>
      </trkpt>
      <trkpt lat="37.85262563727067" lon="112.03602498017632">
        <ele>1103.722297324516</ele>
        <time>2016-04-28T13:31:27Z</time>
      </trkpt>
      <trkpt lat="37.852481226989084" lon="112.03582290878873">
        <ele>1103.477360342257</ele>
        <time>2016-04-28T13:31:35Z</time>
      </trkpt>
      <trkpt lat="37.85232344909624" lon="112.03565276329563">
        <ele>1102.8177750176726</ele>
        <time>2016-04-28T13:31:42Z</time>
      </trkpt>
      <trkpt lat="37.85224857336154" lon="112.03553400954618">
        <ele>1102.2315810263328</ele>
        <time>2016-04-28T13:31:49.200000Z</time>
      </trkpt>
      <trkpt lat="37.85208618851476" lon="112.03524672835728">
        <ele>1101.5664184315183</ele>
        <time>2016-04-28T13:31:57Z</time>
      </trkpt>
      <trkpt lat="37.8518995899505" lon="112.03498894046524">
        <ele>1100.4182669339566</ele>
        <time>2016-04-28T13:32:08Z</time>
      </trkpt>
      <trkpt lat="37.85169889550973" lon="112.03472682859379">
        <ele>1099.3985727715883</ele>
        <time>2016-04-28T13:32:18Z</time>
      </trkpt>
      <trkpt lat="37.85148182224618" lon="112.03439357528548">
        <ele>1099.9409845047219</ele>
        <time>2016-04-28T13:32:30Z</time>
      </trkpt>
      <trkpt lat="37.85125062938873" lon="112.03406654988288">
        <ele>1099.4618109880632</ele>
        <time>2016-04-28T13:32:40Z</time>
      </trkpt>
      <trkpt lat="37.85107612791541" lon="112.03374628460462">
        <ele>1098.725512157556</ele>
        <time>2016-04-28T13:32:51Z</time>
      </trkpt>
      <trkpt lat="37.85081095537312" lon="112.03344929786937">
        <ele>1097.5012661595074</ele>
        <time>2016-04-28T13:33:05Z</time>
      </trkpt>
      <trkpt lat="37.85059856406718" lon="112.0332050565576">
        <ele>1096.528205021468</ele>
        <time>2016-04-28T13:33:13Z</time>
      </trkpt>
      <trkpt lat="37.850560207593624" lon="112.0331347300506">
        <ele>1096.375354634028</ele>
        <time>2016-04-28T13:33:16.100000Z</time>
      </trkpt>
      <trkpt lat="37.850628330712794" lon="112.03323724305112">
        <ele>1095.3921629576694</ele>
        <time>2016-04-28T13:33:27.100000Z</time>
      </trkpt>
      <trkpt lat="37.850692497277095" lon="112.03329295941825">
        <ele>1095.0036594064711</ele>
        <time>2016-04-28T13:33:31Z</time>
      </trkpt>
      <trkpt lat="37.85086307508678" lon="112.03366353423499">
        <ele>1094.0559741961733</ele>
        <time>2016-04-28T13:33:45Z</time>
      </trkpt>
      <trkpt lat="37.85092902549235" lon="112.03376767266353">
        <ele>1093.9477891947672</ele>
        <time>2016-04-28T13:33:49Z</time>
      </trkpt>
      <trkpt lat="37.851032412382466" lon="112.03398731576924">
        <ele>1094.9240311572885</ele>
        <time>2016-04-28T13:33:56.200000Z</time>
      </trkpt>
      <trkpt lat="37.85120482752254" lon="112.03427322877613">
        <ele>1094.3180618232193</ele>
        <time>2016-04-28T13:34:07Z</time>
      </trkpt>
      <trkpt lat="37.85135147344291" lon="112.03444363674369">
        <ele>1093.6350519193186</ele>
        <time>2016-04-28T13:34:14.100000Z</time>
      </trkpt>
      <trkpt lat="37.85161628104061" lon="112.03466948819985">
        <ele>1092.494439605725</ele>
        <time>2016-04-28T13:34:22Z</time>
      </trkpt>
      <trkpt lat="37.85180868055769" lon="112.0348823653257">
        <ele>1091.86692774297</ele>
        <time>2016-04-28T13:34:29.100000Z</time>
      </trkpt>
      <trkpt lat="37.85205167399875" lon="112.03527135044007">
        <ele>1091.0048082707017</ele>
        <time>2016-04-28T13:34:41Z</time>
      </trkpt>
      <trkpt lat="37.8522137662307" lon="112.03556782996691">
        <ele>1090.5950208544368</ele>
        <time>2016-04-28T13:34:50.100000Z</time>
      </trkpt>
      <trkpt lat="37.85235318456162" lon="112.03581561984808">
        <ele>1091.5872080169142</ele>
        <time>2016-04-28T13:34:58.100000Z</time>
      </trkpt>
      <trkpt lat="37.8525790284715" lon="112.03611723840295">
        <ele>1092.3505257148174</ele>
        <time>2016-04-28T13:35:06Z</time>
      </trkpt>
      <trkpt lat="37.852624945647996" lon="112.03620596883562">
        <ele>1092.542067389197</ele>
        <time>2016-04-28T13:35:09.100000Z</time>
      </trkpt>
      <trkpt lat="37.85271074413177" lon="112.03629550639326">
        <ele>1092.6999257023556</ele>
        <time>2016-04-28T13:35:13.100000Z</time>
      </trkpt>
      <trkpt lat="37.85288157063001" lon="112.0365736004152">
        <ele>1092.3360258936232</ele>
        <time>2016-04-28T13:35:20Z</time>
      </trkpt>
      <trkpt lat="37.853004578408765" lon="112.03688227489889">
        <ele>1091.8586483853794</ele>
        <time>2016-04-28T13:35:28.100000Z</time>
      </trkpt>
      <trkpt lat="37.85318839611959" lon="112.03717660694895">
        <ele>1090.241136101617</ele>
        <time>2016-04-28T13:35:38Z</time>
      </trkpt>
      <trkpt lat="37.853440572677606" lon="112.03747742757989">
        <ele>1089.0777599210692</ele>
        <time>2016-04-28T13:35:47.100000Z</time>
      </trkpt>
      <trkpt lat="37.853617523199915" lon="112.03769195430122">
        <ele>1087.5776845921062</ele>
        <time>2016-04-28T13:35:54.100000Z</time>
      </trkpt>
      <trkpt lat="37.85383605178843" lon="112.0379973849527">
        <ele>1086.905552079715</ele>
        <time>2016-04-28T13:36:01Z</time>
      </trkpt>
      <trkpt lat="37.85405859756651" lon="112.03820704078846">
        <ele>1086.0898578794574</ele>
        <time>2016-04-28T13:36:08.100000Z</time>
      </trkpt>
      <trkpt lat="37.85413182963492" lon="112.03809664392385">
        <ele>1085.1304641920765</ele>
        <time>2016-04-28T13:36:12.100000Z</time>
      </trkpt>
      <trkpt lat="37.85407768528057" lon="112.0379243054787">
        <ele>1084.6436057258106</ele>
        <time>2016-04-28T13:36:16.300000Z</time>
      </trkpt>
      <trkpt lat="37.85384364504633" lon="112.03775929496408">
        <ele>1083.5285098896304</ele>
        <time>2016-04-28T13:36:24.200000Z</time>
      </trkpt>
      <trkpt lat="37.853663407490586" lon="112.03755829563826">
        <ele>1083.4225086519791</ele>
        <time>2016-04-28T13:36:31.100000Z</time>
      </trkpt>
      <trkpt lat="37.85345198881604" lon="112.03723041421888">
        <ele>1086.6972578886975</ele>
        <time>2016-04-28T13:36:41.100000Z</time>
      </trkpt>
      <trkpt lat="37.8531862176872" lon="112.0368251681589">
        <ele>1088.3406495505808</ele>
        <time>2016-04-28T13:36:53.100000Z</time>
      </trkpt>
      <trkpt lat="37.852979067981394" lon="112.03653192536456">
        <ele>1088.7909337868352</ele>
        <time>2016-04-28T13:37:00.100000Z</time>
      </trkpt>
      <trkpt lat="37.85289883582428" lon="112.03638151493271">
        <ele>1089.3170272439954</ele>
        <time>2016-04-28T13:37:04.400000Z</time>
      </trkpt>
      <trkpt lat="37.85270709486044" lon="112.03611424705966">
        <ele>1089.461632237513</ele>
        <time>2016-04-28T13:37:12.100000Z</time>
      </trkpt>
      <trkpt lat="37.85245771871858" lon="112.0357817906781">
        <ele>1088.826714624363</ele>
        <time>2016-04-28T13:37:22.100000Z</time>
      </trkpt>
      <trkpt lat="37.852295355661546" lon="112.03548422650819">
        <ele>1088.9593125318772</ele>
        <time>2016-04-28T13:37:30Z</time>
      </trkpt>
      <trkpt lat="37.852155175551964" lon="112.03533085391243">
        <ele>1089.2648349555413</ele>
        <time>2016-04-28T13:37:37Z</time>
      </trkpt>
      <trkpt lat="37.85212250305046" lon="112.03526430820499">
        <ele>1089.08418280919</ele>
        <time>2016-04-28T13:37:40.100000Z</time>
      </trkpt>
      <trkpt lat="37.85189680538684" lon="112.03501923947083">
        <ele>1088.9037829922406</ele>
        <time>2016-04-28T13:37:52Z</time>
      </trkpt>
      <trkpt lat="37.85172622078442" lon="112.03487425959338">
        <ele>1089.2163885692662</ele>
        <time>2016-04-28T13:38:02Z</time>
      </trkpt>
      <trkpt lat="37.85160729369054" lon="112.03479852776431">
        <ele>1089.1890754562448</ele>
        <time>2016-04-28T13:38:06.100000Z</time>
      </trkpt>
      <trkpt lat="37.851339549509035" lon="112.03455211605527">
        <ele>1089.245237958071</ele>
        <time>2016-04-28T13:38:16.100000Z</time>
      </trkpt>
      <trkpt lat="37.851166671930415" lon="112.03434546124716">
        <ele>1087.6953254042191</ele>
        <time>2016-04-28T13:38:24.100000Z</time>
      </trkpt>
      <trkpt lat="37.85105592218332" lon="112.03402680785614">
        <ele>1087.6407094250253</ele>
        <time>2016-04-28T13:38:31.100000Z</time>
      </trkpt>
      <trkpt lat="37.85100294790553" lon="112.03382852871589">
        <ele>1087.6152121384837</ele>
        <time>2016-04-28T13:38:35Z</time>
      </trkpt>
      <trkpt lat="37.85080156809433" lon="112.03351692590594">
        <ele>1089.2144773472987</ele>
        <time>2016-04-28T13:38:46Z</time>
      </trkpt>
      <trkpt lat="37.85063570379274" lon="112.03321749530191">
        <ele>1089.065482566889</ele>
        <time>2016-04-28T13:38:58Z</time>
      </trkpt>
      <trkpt lat="37.85068685647554" lon="112.03326942611912">
        <ele>1088.0148678802063</ele>
        <time>2016-04-28T13:39:04Z</time>
      </trkpt>
      <trkpt lat="37.85080500065477" lon="112.0336692219345">
        <ele>1085.224942452746</ele>
        <time>2016-04-28T13:39:21.100000Z</time>
      </trkpt>
      <trkpt lat="37.85092796212868" lon="112.0338718195922">
        <ele>1085.8055647242477</ele>
        <time>2016-04-28T13:39:28Z</time>
      </trkpt>
      <trkpt lat="37.85109567364379" lon="112.034195603964">
        <ele>1086.3174964952389</ele>
        <time>2016-04-28T13:39:39Z</time>
      </trkpt>
      <trkpt lat="37.85128925492401" lon="112.03448070521108">
        <ele>1086.971338164923</ele>
        <time>2016-04-28T13:39:50.100000Z</time>
      </trkpt>
      <trkpt lat="37.85134037628029" lon="112.03454670557674">
        <ele>1087.690837426473</ele>
        <time>2016-04-28T13:39:54Z</time>
      </trkpt>
      <trkpt lat="37.85154209109609" lon="112.0347208960405">
        <ele>1088.8535122425394</ele>
        <time>2016-04-28T13:40:02.100000Z</time>
      </trkpt>
      <trkpt lat="37.85180283823981" lon="112.03505874733652">
        <ele>1088.7815953159686</ele>
        <time>2016-04-28T13:40:14.100000Z</time>
      </trkpt>
      <trkpt lat="37.851972809199815" lon="112.03534981282775">
        <ele>1087.7154272048847</ele>
        <time>2016-04-28T13:40:25Z</time>
      </trkpt>
      <trkpt lat="37.85219917158316" lon="112.03565981208799">
        <ele>1086.364541075149</ele>
        <time>2016-04-28T13:40:36Z</time>
      </trkpt>
      <trkpt lat="37.852280136635315" lon="112.0357271646286">
        <ele>1086.0881103795382</ele>
        <time>2016-04-28T13:40:39Z</time>
      </trkpt>
      <trkpt lat="37.8524927923366" lon="112.03598279277749">
        <ele>1084.9613513731929</ele>
        <time>2016-04-28T13:40:46Z</time>
      </trkpt>
      <trkpt lat="37.85258284318104" lon="112.03611020400763">
        <ele>1084.1325238834509</ele>
        <time>2016-04-28T13:40:50.100000Z</time>
      </trkpt>
      <trkpt lat="37.85288825088136" lon="112.03638313944323">
        <ele>1081.4967495971262</ele>
        <time>2016-04-28T13:41:00.100000Z</time>
      </trkpt>
      <trkpt lat="37.85297749070841" lon="112.03651001177583">
        <ele>1081.4262018540085</ele>
        <time>2016-04-28T13:41:04Z</time>
      </trkpt>
      <trkpt lat="37.853098204848685" lon="112.0368719829134">
        <ele>1081.1756952076842</ele>
        <time>2016-04-28T13:41:15Z</time>
      </trkpt>
      <trkpt lat="37.853222449724534" lon="112.0372342295946">
        <ele>1081.2419872057287</ele>
        <time>2016-04-28T13:41:26.100000Z</time>
      </trkpt>
      <trkpt lat="37.853282251281726" lon="112.03742252485169">
        <ele>1081.2221854721179</ele>
        <time>2016-04-28T13:41:33Z</time>
      </trkpt>
      <trkpt lat="37.853434268308206" lon="112.03762487920723">
        <ele>1080.548320599266</ele>
        <time>2016-04-28T13:41:40Z</time>
      </trkpt>
      <trkpt lat="37.853553190784005" lon="112.037705760305">
        <ele>1080.1138150454622</ele>
        <time>2016-04-28T13:41:44.100000Z</time>
      </trkpt>
      <trkpt lat="37.85370674521674" lon="112.0378291146262">
        <ele>1079.9216117865842</ele>
        <time>2016-04-28T13:41:49.700000Z</time>
      </trkpt>
      <trkpt lat="37.8539170709521" lon="112.03804309937149">
        <ele>1079.4973723363798</ele>
        <time>2016-04-28T13:41:53Z</time>
      </trkpt>
      <trkpt lat="37.85407657128379" lon="112.03817727709075">
        <ele>1079.8600176530772</ele>
        <time>2016-04-28T13:41:59.100000Z</time>
      </trkpt>
      <trkpt lat="37.854184801580026" lon="112.0380674172568">
        <ele>1080.1709152126073</ele>
        <time>2016-04-28T13:42:06.100000Z</time>
      </trkpt>
      <trkpt lat="37.854237367289564" lon="112.03797785641052">
        <ele>1080.118010843514</ele>
        <time>2016-04-28T13:42:10Z</time>
      </trkpt>
      <trkpt lat="37.8541119487356" lon="112.03777008476162">
        <ele>1079.9961876309167</ele>
        <time>2016-04-28T13:42:17.100000Z</time>
      </trkpt>
      <trkpt lat="37.85393782946356" lon="112.0376226540136">
        <ele>1080.2834050063843</ele>
        <time>2016-04-28T13:42:24Z</time>
      </trkpt>
      <trkpt lat="37.8538803443892" lon="112.03760805110134">
        <ele>1080.3687509730603</ele>
        <time>2016-04-28T13:42:27.100000Z</time>
      </trkpt>
      <trkpt lat="37.853736415002864" lon="112.03742842215989">
        <ele>1079.9710392863983</ele>
        <time>2016-04-28T13:42:35.100000Z</time>
      </trkpt>
      <trkpt lat="37.85345480587451" lon="112.03718496178683">
        <ele>1079.3936165517512</ele>
        <time>2016-04-28T13:42:46.300000Z</time>
      </trkpt>
      <trkpt lat="37.85320437012624" lon="112.03683625827021">
        <ele>1079.2236941434371</ele>
        <time>2016-04-28T13:42:58.100000Z</time>
      </trkpt>
      <trkpt lat="37.85308668661426" lon="112.03668963806517">
        <ele>1077.630234565584</ele>
        <time>2016-04-28T13:43:05.100000Z</time>
      </trkpt>
      <trkpt lat="37.852957520027516" lon="112.03658143694497">
        <ele>1075.4566188255453</ele>
        <time>2016-04-28T13:43:12.100000Z</time>
      </trkpt>
      <trkpt lat="37.85275466040739" lon="112.03631119230357">
        <ele>1072.797156376052</ele>
        <time>2016-04-28T13:43:23.100000Z</time>
      </trkpt>
      <trkpt lat="37.852593162478875" lon="112.03610614472431">
        <ele>1069.6573981541176</ele>
        <time>2016-04-28T13:43:31Z</time>
      </trkpt>
      <trkpt lat="37.85249703142278" lon="112.03591001858697">
        <ele>1068.5079643935435</ele>
        <time>2016-04-28T13:43:38.100000Z</time>
      </trkpt>
      <trkpt lat="37.85225939672725" lon="112.03554645260564">
        <ele>1070.1065741050681</ele>
        <time>2016-04-28T13:43:51Z</time>
      </trkpt>
      <trkpt lat="37.852074231698516" lon="112.03525484559448">
        <ele>1069.580740414868</ele>
        <time>2016-04-28T13:44:02Z</time>
      </trkpt>
      <trkpt lat="37.8519188397287" lon="112.03499461914203">
        <ele>1070.8937269358933</ele>
        <time>2016-04-28T13:44:12Z</time>
      </trkpt>
      <trkpt lat="37.851682429348685" lon="112.03469139237312">
        <ele>1075.713812526907</ele>
        <time>2016-04-28T13:44:25.100000Z</time>
      </trkpt>
      <trkpt lat="37.85146073325282" lon="112.03447689728458">
        <ele>1078.3944801358252</ele>
        <time>2016-04-28T13:44:37Z</time>
      </trkpt>
      <trkpt lat="37.85121587913441" lon="112.03418963814173">
        <ele>1078.8582490028984</ele>
        <time>2016-04-28T13:44:47.200000Z</time>
      </trkpt>
      <trkpt lat="37.8511231888703" lon="112.03403464463709">
        <ele>1079.4889360200796</ele>
        <time>2016-04-28T13:44:51.100000Z</time>
      </trkpt>
      <trkpt lat="37.85108384560194" lon="112.03392238654594">
        <ele>1079.3258359405272</ele>
        <time>2016-04-28T13:44:55.100000Z</time>
      </trkpt>
      <trkpt lat="37.85089034332633" lon="112.03360645350347">
        <ele>1078.6635018165202</ele>
        <time>2016-04-28T13:45:06.200000Z</time>
      </trkpt>
      <trkpt lat="37.85064135434706" lon="112.03323697097673">
        <ele>1080.313005791426</ele>
        <time>2016-04-28T13:45:17.100000Z</time>
      </trkpt>
      <trkpt lat="37.85040972964186" lon="112.03298110237886">
        <ele>1084.6117361535992</ele>
        <time>2016-04-28T13:45:32.200000Z</time>
      </trkpt>
      <trkpt lat="37.850185890940935" lon="112.03275985934408">
        <ele>1089.518441570437</ele>
        <time>2016-04-28T13:45:43.100000Z</time>
      </trkpt>
      <trkpt lat="37.84999078659479" lon="112.03243798973116">
        <ele>1094.8996723855323</ele>
        <time>2016-04-28T13:45:57.100000Z</time>
      </trkpt>
      <trkpt lat="37.84983153770211" lon="112.03221106311048">
        <ele>1097.7498077719702</ele>
        <time>2016-04-28T13:46:04Z</time>
      </trkpt>
      <trkpt lat="37.849632337153885" lon="112.03190218426431">
        <ele>1100.2321391128673</ele>
        <time>2016-04-28T13:46:15.100000Z</time>
      </trkpt>
      <trkpt lat="37.849413924941224" lon="112.03157356568815">
        <ele>1103.5515160960772</ele>
        <time>2016-04-28T13:46:27Z</time>
      </trkpt>
      <trkpt lat="37.84936002928963" lon="112.03142480421839">
        <ele>1103.4410369764976</ele>
        <time>2016-04-28T13:46:33.200000Z</time>
      </trkpt>
      <trkpt lat="37.84918570089796" lon="112.0311546106018">
        <ele>1104.5356776304259</ele>
        <time>2016-04-28T13:46:40Z</time>
      </trkpt>
      <trkpt lat="37.8489868281541" lon="112.03060880385064">
        <ele>1105.3787683454639</ele>
        <time>2016-04-28T13:46:53Z</time>
      </trkpt>
      <trkpt lat="37.84893235425103" lon="112.03047600588096">
        <ele>1105.6881151183447</ele>
        <time>2016-04-28T13:46:57.100000Z</time>
      </trkpt>
      <trkpt lat="37.84881335887773" lon="112.03010628063447">
        <ele>1108.1835076264972</ele>
        <time>2016-04-28T13:47:08.100000Z</time>
      </trkpt>
      <trkpt lat="37.84876515353396" lon="112.02996293592328">
        <ele>1108.6724631163675</ele>
        <time>2016-04-28T13:47:11Z</time>
      </trkpt>
      <trkpt lat="37.84871688152521" lon="112.02973845090688">
        <ele>1109.9722662146453</ele>
        <time>2016-04-28T13:47:24Z</time>
      </trkpt>
      <trkpt lat="37.84856514572872" lon="112.02965949210228">
        <ele>1108.1675921605845</ele>
        <time>2016-04-28T13:47:37.100000Z</time>
      </trkpt>
      <trkpt lat="37.84835061852429" lon="112.02962760259288">
        <ele>1109.739668639294</ele>
        <time>2016-04-28T13:47:47.100000Z</time>
      </trkpt>
      <trkpt lat="37.848291456216764" lon="112.02963410096251">
        <ele>1110.5875598622508</ele>
        <time>2016-04-28T13:47:51Z</time>
      </trkpt>
      <trkpt lat="37.84806994508935" lon="112.02978991807159">
        <ele>1111.6850833540539</ele>
        <time>2016-04-28T13:48:07Z</time>
      </trkpt>
      <trkpt lat="37.84784916272752" lon="112.02987189726144">
        <ele>1112.957452381347</ele>
        <time>2016-04-28T13:48:23Z</time>
      </trkpt>
      <trkpt lat="37.847688609048596" lon="112.02995495133308">
        <ele>1116.6247319235008</ele>
        <time>2016-04-28T13:48:36.200000Z</time>
      </trkpt>
      <trkpt lat="37.84749623622802" lon="112.0299601134521">
        <ele>1118.352421372435</ele>
        <time>2016-04-28T13:48:55.800000Z</time>
      </trkpt>
      <trkpt lat="37.84740224230569" lon="112.03000799834145">
        <ele>1119.0114509079037</ele>
        <time>2016-04-28T13:49:03.800000Z</time>
      </trkpt>
      <trkpt lat="37.84728730359907" lon="112.02986114603851">
        <ele>1118.3679508195203</ele>
        <time>2016-04-28T13:49:10.700000Z</time>
      </trkpt>
      <trkpt lat="37.84723517300826" lon="112.02976865138706">
        <ele>1117.0905308285485</ele>
        <time>2016-04-28T13:49:18.100000Z</time>
      </trkpt>
      <trkpt lat="37.84719386587098" lon="112.02947249317704">
        <ele>1116.3255588649372</ele>
        <time>2016-04-28T13:49:38.800000Z</time>
      </trkpt>
      <trkpt lat="37.84720759426059" lon="112.02951549584722">
        <ele>1115.5631802863297</ele>
        <time>2016-04-28T13:49:56.400000Z</time>
      </trkpt>
    </trkseg>
  </trk>
</gpx>