<?xml version="1.0" encoding="UTF-8"?>
<gpx xmlns="http://www.topografix.com/GPX/1/1" xmlns:gpxtpx="http://www.garmin.com/xmlschemas/TrackPointExtension/v1" xmlns:xsi="http://www.w3.org/2001/XMLSchema-instance" xsi:schemaLocation="http://www.topografix.com/GPX/1/1 http://www.topografix.com/GPX/1/1/gpx.xsd" version="1.1" creator="gpx.py -- https://github.com/tkrajina/gpxpy">
  <trk>
    <name>gpx from keep</name>
    <type>Run</type>
    <trkseg>
      <trkpt lat="37.84730795659532" lon="112.02939643817096">
        <ele>1116.95</ele>
        <time>2019-06-27T23:29:23.403000Z</time>
      </trkpt>
      <trkpt lat="37.84732201645445" lon="112.02933227435054">
        <ele>1117.3</ele>
        <time>2019-06-27T23:29:26.403000Z</time>
      </trkpt>
      <trkpt lat="37.8472736220081" lon="112.02929717537482">
        <ele>1114.97</ele>
        <time>2019-06-27T23:29:29.503000Z</time>
      </trkpt>
      <trkpt lat="37.84725335626732" lon="112.02923073048541">
        <ele>1113.48</ele>
        <time>2019-06-27T23:29:32.403000Z</time>
      </trkpt>
      <trkpt lat="37.847315031594" lon="112.02904725391151">
        <ele>1112.39</ele>
        <time>2019-06-27T23:29:38.403000Z</time>
      </trkpt>
      <trkpt lat="37.8473115071866" lon="112.0286335769993">
        <ele>1115.22</ele>
        <time>2019-06-27T23:29:51.403000Z</time>
      </trkpt>
      <trkpt lat="37.84730041984814" lon="112.02832612315433">
        <ele>1116.4</ele>
        <time>2019-06-27T23:30:00.403000Z</time>
      </trkpt>
      <trkpt lat="37.847317154173105" lon="112.02822355178986">
        <ele>1115.35</ele>
        <time>2019-06-27T23:30:03.403000Z</time>
      </trkpt>
      <trkpt lat="37.847314005827876" lon="112.02803738349198">
        <ele>1114.51</ele>
        <time>2019-06-27T23:30:09.403000Z</time>
      </trkpt>
      <trkpt lat="37.84738146858662" lon="112.02765761532639">
        <ele>1112.67</ele>
        <time>2019-06-27T23:30:30.403000Z</time>
      </trkpt>
      <trkpt lat="37.8475079082109" lon="112.02731911577308">
        <ele>1096.01</ele>
        <time>2019-06-27T23:30:51.503000Z</time>
      </trkpt>
      <trkpt lat="37.84759179473304" lon="112.02709204951871">
        <ele>1094.62</ele>
        <time>2019-06-27T23:31:09.403000Z</time>
      </trkpt>
      <trkpt lat="37.84764280565566" lon="112.02699642330994">
        <ele>1089.91</ele>
        <time>2019-06-27T23:31:15.503000Z</time>
      </trkpt>
      <trkpt lat="37.847705472372596" lon="112.0269331195491">
        <ele>1088.91</ele>
        <time>2019-06-27T23:31:18.503000Z</time>
      </trkpt>
      <trkpt lat="37.84776581404601" lon="112.02683961596844">
        <ele>1090.92</ele>
        <time>2019-06-27T23:31:21.503000Z</time>
      </trkpt>
      <trkpt lat="37.84787762568778" lon="112.02661350284056">
        <ele>1094.56</ele>
        <time>2019-06-27T23:31:27.503000Z</time>
      </trkpt>
      <trkpt lat="37.8479477595494" lon="112.02653886817083">
        <ele>1095.26</ele>
        <time>2019-06-27T23:31:30.503000Z</time>
      </trkpt>
      <trkpt lat="37.848023598754146" lon="112.0264996883382">
        <ele>1099.3</ele>
        <time>2019-06-27T23:31:33.503000Z</time>
      </trkpt>
      <trkpt lat="37.84837574592731" lon="112.0265475243968">
        <ele>1102.43</ele>
        <time>2019-06-27T23:31:45.503000Z</time>
      </trkpt>
      <trkpt lat="37.84873480914447" lon="112.02656789501002">
        <ele>1105.34</ele>
        <time>2019-06-27T23:32:00.403000Z</time>
      </trkpt>
      <trkpt lat="37.84880272114764" lon="112.0265121734412">
        <ele>1112.43</ele>
        <time>2019-06-27T23:32:03.503000Z</time>
      </trkpt>
      <trkpt lat="37.848943051330416" lon="112.02622910303573">
        <ele>1105.36</ele>
        <time>2019-06-27T23:32:12.503000Z</time>
      </trkpt>
      <trkpt lat="37.84898130290687" lon="112.02601158140082">
        <ele>1106.29</ele>
        <time>2019-06-27T23:32:18.503000Z</time>
      </trkpt>
      <trkpt lat="37.849047041037444" lon="112.02568035819918">
        <ele>1110.26</ele>
        <time>2019-06-27T23:32:27.503000Z</time>
      </trkpt>
      <trkpt lat="37.84903880447388" lon="112.02524351568304">
        <ele>1108.12</ele>
        <time>2019-06-27T23:32:39.403000Z</time>
      </trkpt>
      <trkpt lat="37.84901732720826" lon="112.0248275883065">
        <ele>1108.33</ele>
        <time>2019-06-27T23:32:51.503000Z</time>
      </trkpt>
      <trkpt lat="37.84903318311617" lon="112.02449794398116">
        <ele>1107.71</ele>
        <time>2019-06-27T23:33:00.503000Z</time>
      </trkpt>
      <trkpt lat="37.849039051408845" lon="112.02427973487615">
        <ele>1104.05</ele>
        <time>2019-06-27T23:33:06.503000Z</time>
      </trkpt>
      <trkpt lat="37.84900507513474" lon="112.02388007754196">
        <ele>1098.42</ele>
        <time>2019-06-27T23:33:15.503000Z</time>
      </trkpt>
      <trkpt lat="37.84899255286252" lon="112.0236392398139">
        <ele>1099.65</ele>
        <time>2019-06-27T23:33:21.503000Z</time>
      </trkpt>
      <trkpt lat="37.84900717059538" lon="112.02354411715355">
        <ele>1101.26</ele>
        <time>2019-06-27T23:33:24.403000Z</time>
      </trkpt>
      <trkpt lat="37.84904904571625" lon="112.02320225898212">
        <ele>1102.81</ele>
        <time>2019-06-27T23:33:33.503000Z</time>
      </trkpt>
      <trkpt lat="37.84905003000886" lon="112.02309221447904">
        <ele>1103.55</ele>
        <time>2019-06-27T23:33:36.503000Z</time>
      </trkpt>
      <trkpt lat="37.84903832643093" lon="112.02285883993956">
        <ele>1104.31</ele>
        <time>2019-06-27T23:33:42.503000Z</time>
      </trkpt>
      <trkpt lat="37.84903319968381" lon="112.02241698878494">
        <ele>1103.24</ele>
        <time>2019-06-27T23:33:54.503000Z</time>
      </trkpt>
      <trkpt lat="37.849048595234756" lon="112.0220707984292">
        <ele>1102.19</ele>
        <time>2019-06-27T23:34:03.503000Z</time>
      </trkpt>
      <trkpt lat="37.84907518930748" lon="112.02165995186844">
        <ele>1102.81</ele>
        <time>2019-06-27T23:34:15.503000Z</time>
      </trkpt>
      <trkpt lat="37.849083293118404" lon="112.02122410128001">
        <ele>1102.12</ele>
        <time>2019-06-27T23:34:27.503000Z</time>
      </trkpt>
      <trkpt lat="37.849086874095875" lon="112.02080196422598">
        <ele>1102.53</ele>
        <time>2019-06-27T23:34:39.503000Z</time>
      </trkpt>
      <trkpt lat="37.84907389731919" lon="112.02034150259848">
        <ele>1101.91</ele>
        <time>2019-06-27T23:34:51.503000Z</time>
      </trkpt>
      <trkpt lat="37.849075636562084" lon="112.01989702967046">
        <ele>1103.33</ele>
        <time>2019-06-27T23:35:03.403000Z</time>
      </trkpt>
      <trkpt lat="37.849081830708876" lon="112.01947411485779">
        <ele>1106.26</ele>
        <time>2019-06-27T23:35:15.503000Z</time>
      </trkpt>
      <trkpt lat="37.84907966595397" lon="112.01934827713077">
        <ele>1105.08</ele>
        <time>2019-06-27T23:35:18.403000Z</time>
      </trkpt>
      <trkpt lat="37.84910520996356" lon="112.01899380446368">
        <ele>1104.77</ele>
        <time>2019-06-27T23:35:27.503000Z</time>
      </trkpt>
      <trkpt lat="37.8491281986833" lon="112.0186482310112">
        <ele>1105.58</ele>
        <time>2019-06-27T23:35:36.503000Z</time>
      </trkpt>
      <trkpt lat="37.849162647057376" lon="112.01847243926974">
        <ele>1103.62</ele>
        <time>2019-06-27T23:35:42.503000Z</time>
      </trkpt>
      <trkpt lat="37.84917334672015" lon="112.01829316776816">
        <ele>1102.05</ele>
        <time>2019-06-27T23:35:48.403000Z</time>
      </trkpt>
      <trkpt lat="37.84916714694243" lon="112.01819726343012">
        <ele>1100.3</ele>
        <time>2019-06-27T23:35:51.503000Z</time>
      </trkpt>
      <trkpt lat="37.84916690114487" lon="112.01785682560191">
        <ele>1100.92</ele>
        <time>2019-06-27T23:36:00.503000Z</time>
      </trkpt>
      <trkpt lat="37.849165000897436" lon="112.01775479289381">
        <ele>1100.85</ele>
        <time>2019-06-27T23:36:03.503000Z</time>
      </trkpt>
      <trkpt lat="37.84918651685236" lon="112.01737271165283">
        <ele>1108.39</ele>
        <time>2019-06-27T23:36:12.403000Z</time>
      </trkpt>
      <trkpt lat="37.849257519507496" lon="112.01693446469329">
        <ele>1107.35</ele>
        <time>2019-06-27T23:36:24.403000Z</time>
      </trkpt>
      <trkpt lat="37.84932748254753" lon="112.0165206284007">
        <ele>1107.27</ele>
        <time>2019-06-27T23:36:36.503000Z</time>
      </trkpt>
      <trkpt lat="37.84936262791576" lon="112.01620980686312">
        <ele>1109.02</ele>
        <time>2019-06-27T23:36:45.403000Z</time>
      </trkpt>
      <trkpt lat="37.849383253363264" lon="112.01611091225553">
        <ele>1110.26</ele>
        <time>2019-06-27T23:36:48.503000Z</time>
      </trkpt>
      <trkpt lat="37.84941566511073" lon="112.01578117491127">
        <ele>1110.04</ele>
        <time>2019-06-27T23:36:57.503000Z</time>
      </trkpt>
      <trkpt lat="37.849458465050446" lon="112.01534708520107">
        <ele>1107.58</ele>
        <time>2019-06-27T23:37:09.503000Z</time>
      </trkpt>
      <trkpt lat="37.849485176008216" lon="112.01500548594387">
        <ele>1105.51</ele>
        <time>2019-06-27T23:37:18.403000Z</time>
      </trkpt>
      <trkpt lat="37.849563950782645" lon="112.01458517756733">
        <ele>1105.96</ele>
        <time>2019-06-27T23:37:30.503000Z</time>
      </trkpt>
      <trkpt lat="37.84960832800205" lon="112.0141734684132">
        <ele>1108.67</ele>
        <time>2019-06-27T23:37:42.503000Z</time>
      </trkpt>
      <trkpt lat="37.849638199629126" lon="112.01404533463533">
        <ele>1110.54</ele>
        <time>2019-06-27T23:37:45.403000Z</time>
      </trkpt>
      <trkpt lat="37.84964388192507" lon="112.01369979154467">
        <ele>1109.65</ele>
        <time>2019-06-27T23:37:54.403000Z</time>
      </trkpt>
      <trkpt lat="37.849671959975716" lon="112.01328141160157">
        <ele>1110.9</ele>
        <time>2019-06-27T23:38:06.403000Z</time>
      </trkpt>
      <trkpt lat="37.849704782228116" lon="112.01292539019002">
        <ele>1108.31</ele>
        <time>2019-06-27T23:38:15.503000Z</time>
      </trkpt>
      <trkpt lat="37.84972206053658" lon="112.01249247231728">
        <ele>1105.38</ele>
        <time>2019-06-27T23:38:24.503000Z</time>
      </trkpt>
      <trkpt lat="37.84975691860606" lon="112.01206596199982">
        <ele>1107.08</ele>
        <time>2019-06-27T23:38:36.403000Z</time>
      </trkpt>
      <trkpt lat="37.84979008631449" lon="112.01173952463144">
        <ele>1104.59</ele>
        <time>2019-06-27T23:38:45.403000Z</time>
      </trkpt>
      <trkpt lat="37.84977362893065" lon="112.01140572433057">
        <ele>1106.46</ele>
        <time>2019-06-27T23:38:54.403000Z</time>
      </trkpt>
      <trkpt lat="37.849794777449105" lon="112.0112311731494">
        <ele>1112.74</ele>
        <time>2019-06-27T23:39:00.403000Z</time>
      </trkpt>
      <trkpt lat="37.8497874866527" lon="112.01104486538372">
        <ele>1110.82</ele>
        <time>2019-06-27T23:39:03.503000Z</time>
      </trkpt>
      <trkpt lat="37.84981389429689" lon="112.01070183037359">
        <ele>1112.0</ele>
        <time>2019-06-27T23:39:12.503000Z</time>
      </trkpt>
      <trkpt lat="37.84981023761558" lon="112.0102855861013">
        <ele>1105.86</ele>
        <time>2019-06-27T23:39:24.503000Z</time>
      </trkpt>
      <trkpt lat="37.849825150346035" lon="112.00989215843326">
        <ele>1108.95</ele>
        <time>2019-06-27T23:39:36.403000Z</time>
      </trkpt>
      <trkpt lat="37.84984577729267" lon="112.00964364329772">
        <ele>1111.59</ele>
        <time>2019-06-27T23:39:42.403000Z</time>
      </trkpt>
      <trkpt lat="37.849789424301896" lon="112.00929580221711">
        <ele>1112.5</ele>
        <time>2019-06-27T23:39:51.403000Z</time>
      </trkpt>
      <trkpt lat="37.84964364324613" lon="112.00898798364874">
        <ele>1113.45</ele>
        <time>2019-06-27T23:40:00.503000Z</time>
      </trkpt>
      <trkpt lat="37.849595112222" lon="112.00889836581358">
        <ele>1115.99</ele>
        <time>2019-06-27T23:40:03.503000Z</time>
      </trkpt>
      <trkpt lat="37.84941175360632" lon="112.00862130343212">
        <ele>1117.37</ele>
        <time>2019-06-27T23:40:12.503000Z</time>
      </trkpt>
      <trkpt lat="37.849213588223634" lon="112.00827133894512">
        <ele>1121.32</ele>
        <time>2019-06-27T23:40:24.503000Z</time>
      </trkpt>
      <trkpt lat="37.848999379954336" lon="112.0079351734403">
        <ele>1120.28</ele>
        <time>2019-06-27T23:40:36.503000Z</time>
      </trkpt>
      <trkpt lat="37.8487958890491" lon="112.00762773838831">
        <ele>1119.4</ele>
        <time>2019-06-27T23:40:48.503000Z</time>
      </trkpt>
      <trkpt lat="37.848566365108994" lon="112.0073153185633">
        <ele>1117.45</ele>
        <time>2019-06-27T23:41:00.503000Z</time>
      </trkpt>
      <trkpt lat="37.848400924361414" lon="112.00706557302587">
        <ele>1119.58</ele>
        <time>2019-06-27T23:41:09.403000Z</time>
      </trkpt>
      <trkpt lat="37.84819712666565" lon="112.00688309272755">
        <ele>1121.74</ele>
        <time>2019-06-27T23:41:18.503000Z</time>
      </trkpt>
      <trkpt lat="37.84794775328927" lon="112.00680438988296">
        <ele>1118.02</ele>
        <time>2019-06-27T23:41:27.503000Z</time>
      </trkpt>
      <trkpt lat="37.84775882294997" lon="112.00679928133273">
        <ele>1119.22</ele>
        <time>2019-06-27T23:41:33.503000Z</time>
      </trkpt>
      <trkpt lat="37.84741108039652" lon="112.00674194085816">
        <ele>1119.06</ele>
        <time>2019-06-27T23:41:45.503000Z</time>
      </trkpt>
      <trkpt lat="37.84724287189325" lon="112.00672636653746">
        <ele>1118.02</ele>
        <time>2019-06-27T23:41:51.503000Z</time>
      </trkpt>
      <trkpt lat="37.84717204568936" lon="112.00673123274062">
        <ele>1117.87</ele>
        <time>2019-06-27T23:41:54.503000Z</time>
      </trkpt>
      <trkpt lat="37.846867792577356" lon="112.00669370489456">
        <ele>1119.6</ele>
        <time>2019-06-27T23:42:06.403000Z</time>
      </trkpt>
      <trkpt lat="37.84658701646585" lon="112.00667542289078">
        <ele>1118.36</ele>
        <time>2019-06-27T23:42:18.503000Z</time>
      </trkpt>
      <trkpt lat="37.84636169773044" lon="112.00662802743796">
        <ele>1119.71</ele>
        <time>2019-06-27T23:42:27.403000Z</time>
      </trkpt>
      <trkpt lat="37.84604380974808" lon="112.0065621176895">
        <ele>1119.9</ele>
        <time>2019-06-27T23:42:39.503000Z</time>
      </trkpt>
      <trkpt lat="37.84573761518284" lon="112.00643466872114">
        <ele>1119.52</ele>
        <time>2019-06-27T23:42:51.503000Z</time>
      </trkpt>
      <trkpt lat="37.84542347299553" lon="112.00631877609368">
        <ele>1122.14</ele>
        <time>2019-06-27T23:43:03.503000Z</time>
      </trkpt>
      <trkpt lat="37.84524277662603" lon="112.00631637268727">
        <ele>1123.74</ele>
        <time>2019-06-27T23:43:09.403000Z</time>
      </trkpt>
      <trkpt lat="37.84514966887885" lon="112.00630064723906">
        <ele>1123.07</ele>
        <time>2019-06-27T23:43:12.503000Z</time>
      </trkpt>
      <trkpt lat="37.84482802612053" lon="112.0062122605206">
        <ele>1123.24</ele>
        <time>2019-06-27T23:43:24.403000Z</time>
      </trkpt>
      <trkpt lat="37.844745779784475" lon="112.00618308434166">
        <ele>1124.35</ele>
        <time>2019-06-27T23:43:27.503000Z</time>
      </trkpt>
      <trkpt lat="37.84459246435851" lon="112.00616190405479">
        <ele>1121.92</ele>
        <time>2019-06-27T23:43:33.403000Z</time>
      </trkpt>
      <trkpt lat="37.84426935103232" lon="112.00625913435165">
        <ele>1124.24</ele>
        <time>2019-06-27T23:43:45.403000Z</time>
      </trkpt>
      <trkpt lat="37.84404226728708" lon="112.00635535057056">
        <ele>1125.22</ele>
        <time>2019-06-27T23:43:54.403000Z</time>
      </trkpt>
      <trkpt lat="37.84381596641369" lon="112.0064994673291">
        <ele>1126.23</ele>
        <time>2019-06-27T23:44:03.503000Z</time>
      </trkpt>
      <trkpt lat="37.84351664476109" lon="112.00667660469415">
        <ele>1131.46</ele>
        <time>2019-06-27T23:44:15.403000Z</time>
      </trkpt>
      <trkpt lat="37.84323058989512" lon="112.00686407118194">
        <ele>1131.73</ele>
        <time>2019-06-27T23:44:27.503000Z</time>
      </trkpt>
      <trkpt lat="37.84294731917844" lon="112.00709409476875">
        <ele>1130.86</ele>
        <time>2019-06-27T23:44:39.403000Z</time>
      </trkpt>
      <trkpt lat="37.842710585863095" lon="112.00731970798718">
        <ele>1127.64</ele>
        <time>2019-06-27T23:44:51.503000Z</time>
      </trkpt>
      <trkpt lat="37.842650556141955" lon="112.00737104444057">
        <ele>1128.9</ele>
        <time>2019-06-27T23:44:54.503000Z</time>
      </trkpt>
      <trkpt lat="37.84238447237305" lon="112.00755981524942">
        <ele>1127.47</ele>
        <time>2019-06-27T23:45:06.503000Z</time>
      </trkpt>
      <trkpt lat="37.84208874318905" lon="112.0077671961464">
        <ele>1126.91</ele>
        <time>2019-06-27T23:45:18.503000Z</time>
      </trkpt>
      <trkpt lat="37.84187112875653" lon="112.00795085227746">
        <ele>1129.22</ele>
        <time>2019-06-27T23:45:27.503000Z</time>
      </trkpt>
      <trkpt lat="37.841657128192075" lon="112.00807586615437">
        <ele>1133.72</ele>
        <time>2019-06-27T23:45:36.403000Z</time>
      </trkpt>
      <trkpt lat="37.84139881528132" lon="112.00817042294611">
        <ele>1132.41</ele>
        <time>2019-06-27T23:45:54.503000Z</time>
      </trkpt>
      <trkpt lat="37.84136175702596" lon="112.00816201165057">
        <ele>1134.33</ele>
        <time>2019-06-27T23:45:57.503000Z</time>
      </trkpt>
      <trkpt lat="37.841326144860744" lon="112.00815304789215">
        <ele>1135.79</ele>
        <time>2019-06-27T23:46:00.403000Z</time>
      </trkpt>
      <trkpt lat="37.84099580552661" lon="112.00814156807526">
        <ele>1131.61</ele>
        <time>2019-06-27T23:46:27.503000Z</time>
      </trkpt>
      <trkpt lat="37.840848737382416" lon="112.00814364119438">
        <ele>1129.21</ele>
        <time>2019-06-27T23:46:33.403000Z</time>
      </trkpt>
      <trkpt lat="37.84052112844034" lon="112.0080362222662">
        <ele>1135.24</ele>
        <time>2019-06-27T23:46:45.503000Z</time>
      </trkpt>
      <trkpt lat="37.84035366684499" lon="112.0079858838221">
        <ele>1136.58</ele>
        <time>2019-06-27T23:46:51.503000Z</time>
      </trkpt>
      <trkpt lat="37.84009954599475" lon="112.00796283393865">
        <ele>1137.93</ele>
        <time>2019-06-27T23:47:00.503000Z</time>
      </trkpt>
      <trkpt lat="37.839771290472825" lon="112.0080403178292">
        <ele>1139.86</ele>
        <time>2019-06-27T23:47:12.403000Z</time>
      </trkpt>
      <trkpt lat="37.83946322973163" lon="112.00810601987891">
        <ele>1139.74</ele>
        <time>2019-06-27T23:47:24.503000Z</time>
      </trkpt>
      <trkpt lat="37.83914308743916" lon="112.0081374511704">
        <ele>1139.21</ele>
        <time>2019-06-27T23:47:36.503000Z</time>
      </trkpt>
      <trkpt lat="37.838984208140744" lon="112.00814272720201">
        <ele>1137.31</ele>
        <time>2019-06-27T23:47:42.503000Z</time>
      </trkpt>
      <trkpt lat="37.83863613109489" lon="112.00821595931399">
        <ele>1137.36</ele>
        <time>2019-06-27T23:47:54.403000Z</time>
      </trkpt>
      <trkpt lat="37.83847755166858" lon="112.00826196687332">
        <ele>1134.64</ele>
        <time>2019-06-27T23:48:00.403000Z</time>
      </trkpt>
      <trkpt lat="37.83839727346925" lon="112.00827310419359">
        <ele>1133.34</ele>
        <time>2019-06-27T23:48:03.503000Z</time>
      </trkpt>
      <trkpt lat="37.83808337181543" lon="112.00816417288999">
        <ele>1133.68</ele>
        <time>2019-06-27T23:48:15.503000Z</time>
      </trkpt>
      <trkpt lat="37.838006922933836" lon="112.00811960133082">
        <ele>1132.22</ele>
        <time>2019-06-27T23:48:18.503000Z</time>
      </trkpt>
      <trkpt lat="37.8379259392277" lon="112.00807177728144">
        <ele>1132.69</ele>
        <time>2019-06-27T23:48:21.503000Z</time>
      </trkpt>
      <trkpt lat="37.83759758650708" lon="112.00791768967574">
        <ele>1137.9</ele>
        <time>2019-06-27T23:48:33.503000Z</time>
      </trkpt>
      <trkpt lat="37.83734345854885" lon="112.00784508240062">
        <ele>1137.5</ele>
        <time>2019-06-27T23:48:42.403000Z</time>
      </trkpt>
      <trkpt lat="37.837031978169804" lon="112.00772418793653">
        <ele>1139.76</ele>
        <time>2019-06-27T23:48:54.503000Z</time>
      </trkpt>
      <trkpt lat="37.83696306190849" lon="112.00768951209422">
        <ele>1140.44</ele>
        <time>2019-06-27T23:48:57.403000Z</time>
      </trkpt>
      <trkpt lat="37.83666868599725" lon="112.00759520700228">
        <ele>1144.25</ele>
        <time>2019-06-27T23:49:06.503000Z</time>
      </trkpt>
      <trkpt lat="37.836398177859266" lon="112.0074982465645">
        <ele>1144.51</ele>
        <time>2019-06-27T23:49:15.503000Z</time>
      </trkpt>
      <trkpt lat="37.83618259728845" lon="112.0074322968564">
        <ele>1144.36</ele>
        <time>2019-06-27T23:49:24.503000Z</time>
      </trkpt>
      <trkpt lat="37.83586994780293" lon="112.0073724217988">
        <ele>1147.05</ele>
        <time>2019-06-27T23:49:36.403000Z</time>
      </trkpt>
      <trkpt lat="37.83560528348733" lon="112.007333116183">
        <ele>1149.0</ele>
        <time>2019-06-27T23:49:45.403000Z</time>
      </trkpt>
      <trkpt lat="37.83550829855429" lon="112.00731838220075">
        <ele>1149.14</ele>
        <time>2019-06-27T23:49:48.503000Z</time>
      </trkpt>
      <trkpt lat="37.83542517492884" lon="112.00726626035089">
        <ele>1151.03</ele>
        <time>2019-06-27T23:49:51.503000Z</time>
      </trkpt>
      <trkpt lat="37.83525771591129" lon="112.00699609085684">
        <ele>1154.06</ele>
        <time>2019-06-27T23:50:03.503000Z</time>
      </trkpt>
      <trkpt lat="37.83522770266457" lon="112.00693191950678">
        <ele>1154.06</ele>
        <time>2019-06-27T23:50:06.503000Z</time>
      </trkpt>
      <trkpt lat="37.8351573436227" lon="112.00687309353701">
        <ele>1152.98</ele>
        <time>2019-06-27T23:50:12.503000Z</time>
      </trkpt>
      <trkpt lat="37.83495712250644" lon="112.00687878014683">
        <ele>1154.41</ele>
        <time>2019-06-27T23:50:24.503000Z</time>
      </trkpt>
      <trkpt lat="37.83487212552064" lon="112.00691731229142">
        <ele>1155.37</ele>
        <time>2019-06-27T23:50:27.503000Z</time>
      </trkpt>
      <trkpt lat="37.83480979304217" lon="112.00692805859758">
        <ele>1155.33</ele>
        <time>2019-06-27T23:50:30.403000Z</time>
      </trkpt>
      <trkpt lat="37.83459076567601" lon="112.00695339199478">
        <ele>1155.01</ele>
        <time>2019-06-27T23:50:39.503000Z</time>
      </trkpt>
      <trkpt lat="37.83428106987502" lon="112.00688307642532">
        <ele>1154.47</ele>
        <time>2019-06-27T23:50:51.503000Z</time>
      </trkpt>
      <trkpt lat="37.833995166491455" lon="112.0067811771178">
        <ele>1151.68</ele>
        <time>2019-06-27T23:51:03.503000Z</time>
      </trkpt>
      <trkpt lat="37.83369340443102" lon="112.00665799458183">
        <ele>1153.27</ele>
        <time>2019-06-27T23:51:15.403000Z</time>
      </trkpt>
      <trkpt lat="37.83336369289412" lon="112.00653642977633">
        <ele>1154.06</ele>
        <time>2019-06-27T23:51:27.503000Z</time>
      </trkpt>
      <trkpt lat="37.83309567844257" lon="112.00647438253583">
        <ele>1155.98</ele>
        <time>2019-06-27T23:51:36.503000Z</time>
      </trkpt>
      <trkpt lat="37.83277975889897" lon="112.00636490386319">
        <ele>1156.03</ele>
        <time>2019-06-27T23:51:48.403000Z</time>
      </trkpt>
      <trkpt lat="37.8326990490574" lon="112.00633279531012">
        <ele>1157.15</ele>
        <time>2019-06-27T23:51:51.503000Z</time>
      </trkpt>
      <trkpt lat="37.83254833116831" lon="112.00622479737908">
        <ele>1157.31</ele>
        <time>2019-06-27T23:51:57.503000Z</time>
      </trkpt>
      <trkpt lat="37.832391603112136" lon="112.00614470839676">
        <ele>1156.49</ele>
        <time>2019-06-27T23:52:03.503000Z</time>
      </trkpt>
      <trkpt lat="37.83212835084629" lon="112.00608658457686">
        <ele>1152.21</ele>
        <time>2019-06-27T23:52:12.503000Z</time>
      </trkpt>
      <trkpt lat="37.832047820189636" lon="112.00608578585378">
        <ele>1153.9</ele>
        <time>2019-06-27T23:52:15.403000Z</time>
      </trkpt>
      <trkpt lat="37.83197293082087" lon="112.00611659597945">
        <ele>1152.17</ele>
        <time>2019-06-27T23:52:18.403000Z</time>
      </trkpt>
      <trkpt lat="37.83188814329425" lon="112.00613314006428">
        <ele>1154.65</ele>
        <time>2019-06-27T23:52:21.403000Z</time>
      </trkpt>
      <trkpt lat="37.83179919771887" lon="112.00614150675803">
        <ele>1153.72</ele>
        <time>2019-06-27T23:52:24.503000Z</time>
      </trkpt>
      <trkpt lat="37.83146315790618" lon="112.00617168231877">
        <ele>1155.5</ele>
        <time>2019-06-27T23:52:36.503000Z</time>
      </trkpt>
      <trkpt lat="37.83138220848307" lon="112.00615953031823">
        <ele>1156.82</ele>
        <time>2019-06-27T23:52:39.503000Z</time>
      </trkpt>
      <trkpt lat="37.83110716699131" lon="112.00617491384003">
        <ele>1156.32</ele>
        <time>2019-06-27T23:52:48.503000Z</time>
      </trkpt>
      <trkpt lat="37.83083298211361" lon="112.00618175271163">
        <ele>1159.27</ele>
        <time>2019-06-27T23:52:57.403000Z</time>
      </trkpt>
      <trkpt lat="37.83058678988102" lon="112.00621983708767">
        <ele>1158.12</ele>
        <time>2019-06-27T23:53:06.503000Z</time>
      </trkpt>
      <trkpt lat="37.83026187654001" lon="112.00621143962564">
        <ele>1160.84</ele>
        <time>2019-06-27T23:53:18.503000Z</time>
      </trkpt>
      <trkpt lat="37.83002923648578" lon="112.00618318416605">
        <ele>1160.15</ele>
        <time>2019-06-27T23:53:27.403000Z</time>
      </trkpt>
      <trkpt lat="37.82971096730657" lon="112.0061846338976">
        <ele>1157.45</ele>
        <time>2019-06-27T23:53:39.503000Z</time>
      </trkpt>
      <trkpt lat="37.82936522631769" lon="112.00618568658334">
        <ele>1161.67</ele>
        <time>2019-06-27T23:53:51.503000Z</time>
      </trkpt>
      <trkpt lat="37.82907724387995" lon="112.00619042771596">
        <ele>1163.19</ele>
        <time>2019-06-27T23:54:00.403000Z</time>
      </trkpt>
      <trkpt lat="37.82880609973104" lon="112.00622491425086">
        <ele>1162.35</ele>
        <time>2019-06-27T23:54:09.503000Z</time>
      </trkpt>
      <trkpt lat="37.82856883116868" lon="112.00622871613335">
        <ele>1166.94</ele>
        <time>2019-06-27T23:54:18.503000Z</time>
      </trkpt>
      <trkpt lat="37.82847205817343" lon="112.00624983276168">
        <ele>1167.55</ele>
        <time>2019-06-27T23:54:24.403000Z</time>
      </trkpt>
      <trkpt lat="37.82817857733228" lon="112.00623197932873">
        <ele>1172.69</ele>
        <time>2019-06-27T23:54:48.503000Z</time>
      </trkpt>
      <trkpt lat="37.827914829336954" lon="112.0062903254224">
        <ele>1168.87</ele>
        <time>2019-06-27T23:55:06.403000Z</time>
      </trkpt>
      <trkpt lat="37.82761025992369" lon="112.00631142959047">
        <ele>1179.01</ele>
        <time>2019-06-27T23:55:27.503000Z</time>
      </trkpt>
      <trkpt lat="37.82729376060959" lon="112.00633530404633">
        <ele>1179.46</ele>
        <time>2019-06-27T23:55:45.503000Z</time>
      </trkpt>
      <trkpt lat="37.826980190712106" lon="112.00637038674488">
        <ele>1182.1</ele>
        <time>2019-06-27T23:55:57.503000Z</time>
      </trkpt>
      <trkpt lat="37.826659012362946" lon="112.00640566281766">
        <ele>1181.0</ele>
        <time>2019-06-27T23:56:09.403000Z</time>
      </trkpt>
      <trkpt lat="37.82634533791914" lon="112.00647483975048">
        <ele>1180.89</ele>
        <time>2019-06-27T23:56:21.503000Z</time>
      </trkpt>
      <trkpt lat="37.826209156139555" lon="112.00654245533738">
        <ele>1177.7</ele>
        <time>2019-06-27T23:56:27.503000Z</time>
      </trkpt>
      <trkpt lat="37.825885375036464" lon="112.006547118641">
        <ele>1181.25</ele>
        <time>2019-06-27T23:56:39.403000Z</time>
      </trkpt>
      <trkpt lat="37.82561988745878" lon="112.00654472556735">
        <ele>1184.03</ele>
        <time>2019-06-27T23:56:48.503000Z</time>
      </trkpt>
      <trkpt lat="37.825256473836085" lon="112.00648755481501">
        <ele>1187.3</ele>
        <time>2019-06-27T23:57:00.403000Z</time>
      </trkpt>
      <trkpt lat="37.82500104067324" lon="112.00640175417976">
        <ele>1186.84</ele>
        <time>2019-06-27T23:57:09.503000Z</time>
      </trkpt>
      <trkpt lat="37.8247259395126" lon="112.00636346694594">
        <ele>1186.72</ele>
        <time>2019-06-27T23:57:18.503000Z</time>
      </trkpt>
      <trkpt lat="37.82452839934657" lon="112.00629643551868">
        <ele>1191.45</ele>
        <time>2019-06-27T23:57:24.503000Z</time>
      </trkpt>
      <trkpt lat="37.82424816182547" lon="112.00624438581588">
        <ele>1189.17</ele>
        <time>2019-06-27T23:57:33.503000Z</time>
      </trkpt>
      <trkpt lat="37.82409946070335" lon="112.00621273554735">
        <ele>1183.73</ele>
        <time>2019-06-27T23:57:39.503000Z</time>
      </trkpt>
      <trkpt lat="37.82400568164182" lon="112.00618265616464">
        <ele>1186.96</ele>
        <time>2019-06-27T23:57:45.503000Z</time>
      </trkpt>
      <trkpt lat="37.82395628212337" lon="112.00613990504078">
        <ele>1187.09</ele>
        <time>2019-06-27T23:57:51.503000Z</time>
      </trkpt>
      <trkpt lat="37.82391630490225" lon="112.00611220043025">
        <ele>1189.71</ele>
        <time>2019-06-27T23:57:57.403000Z</time>
      </trkpt>
      <trkpt lat="37.82386754640603" lon="112.00606564761222">
        <ele>1180.86</ele>
        <time>2019-06-27T23:58:12.503000Z</time>
      </trkpt>
      <trkpt lat="37.82385181571627" lon="112.00610107584329">
        <ele>1187.27</ele>
        <time>2019-06-27T23:58:18.403000Z</time>
      </trkpt>
      <trkpt lat="37.823778292097295" lon="112.00612323983769">
        <ele>1186.24</ele>
        <time>2019-06-27T23:58:24.503000Z</time>
      </trkpt>
      <trkpt lat="37.8234946743815" lon="112.00610187104839">
        <ele>1184.21</ele>
        <time>2019-06-27T23:58:36.503000Z</time>
      </trkpt>
      <trkpt lat="37.82322481137706" lon="112.00610849418027">
        <ele>1185.98</ele>
        <time>2019-06-27T23:58:45.403000Z</time>
      </trkpt>
      <trkpt lat="37.82287831026231" lon="112.00614649651668">
        <ele>1182.02</ele>
        <time>2019-06-27T23:58:57.503000Z</time>
      </trkpt>
      <trkpt lat="37.82262954069351" lon="112.00612668838473">
        <ele>1187.17</ele>
        <time>2019-06-27T23:59:06.503000Z</time>
      </trkpt>
      <trkpt lat="37.822321182542325" lon="112.00597013060275">
        <ele>1190.9</ele>
        <time>2019-06-27T23:59:18.503000Z</time>
      </trkpt>
      <trkpt lat="37.82203212417759" lon="112.00576998205605">
        <ele>1196.07</ele>
        <time>2019-06-27T23:59:30.403000Z</time>
      </trkpt>
      <trkpt lat="37.82173586988105" lon="112.00553788629942">
        <ele>1197.69</ele>
        <time>2019-06-27T23:59:42.503000Z</time>
      </trkpt>
      <trkpt lat="37.82150325934235" lon="112.00532590816651">
        <ele>1200.19</ele>
        <time>2019-06-27T23:59:51.503000Z</time>
      </trkpt>
      <trkpt lat="37.8212319524523" lon="112.00512757737673">
        <ele>1202.35</ele>
        <time>2019-06-28T00:00:00.403000Z</time>
      </trkpt>
      <trkpt lat="37.82103980708502" lon="112.00498029327998">
        <ele>1205.61</ele>
        <time>2019-06-28T00:00:06.503000Z</time>
      </trkpt>
      <trkpt lat="37.820744405137084" lon="112.00477698060403">
        <ele>1198.49</ele>
        <time>2019-06-28T00:00:15.503000Z</time>
      </trkpt>
      <trkpt lat="37.82048005260311" lon="112.00448684942413">
        <ele>1203.01</ele>
        <time>2019-06-28T00:00:24.403000Z</time>
      </trkpt>
      <trkpt lat="37.82042289163737" lon="112.0044312620132">
        <ele>1205.8</ele>
        <time>2019-06-28T00:00:27.503000Z</time>
      </trkpt>
      <trkpt lat="37.82047480102278" lon="112.00452882766803">
        <ele>1206.07</ele>
        <time>2019-06-28T00:00:48.503000Z</time>
      </trkpt>
      <trkpt lat="37.82069459242605" lon="112.0047300940357">
        <ele>1208.0</ele>
        <time>2019-06-28T00:01:00.403000Z</time>
      </trkpt>
      <trkpt lat="37.82094967787147" lon="112.00490854097372">
        <ele>1207.44</ele>
        <time>2019-06-28T00:01:24.503000Z</time>
      </trkpt>
      <trkpt lat="37.82125560534289" lon="112.00514528081835">
        <ele>1206.12</ele>
        <time>2019-06-28T00:01:39.503000Z</time>
      </trkpt>
      <trkpt lat="37.82134258056846" lon="112.00519122932123">
        <ele>1206.2</ele>
        <time>2019-06-28T00:01:42.403000Z</time>
      </trkpt>
      <trkpt lat="37.821594435061705" lon="112.00539206420959">
        <ele>1203.05</ele>
        <time>2019-06-28T00:01:54.503000Z</time>
      </trkpt>
      <trkpt lat="37.82181752678194" lon="112.00560669916669">
        <ele>1205.32</ele>
        <time>2019-06-28T00:02:03.503000Z</time>
      </trkpt>
      <trkpt lat="37.82206495597683" lon="112.0057737206493">
        <ele>1204.58</ele>
        <time>2019-06-28T00:02:12.403000Z</time>
      </trkpt>
      <trkpt lat="37.82221310892446" lon="112.00587315014481">
        <ele>1200.0</ele>
        <time>2019-06-28T00:02:18.403000Z</time>
      </trkpt>
      <trkpt lat="37.82250597339539" lon="112.00605675457489">
        <ele>1200.02</ele>
        <time>2019-06-28T00:02:30.503000Z</time>
      </trkpt>
      <trkpt lat="37.82273535200031" lon="112.0061485023772">
        <ele>1195.42</ele>
        <time>2019-06-28T00:02:39.403000Z</time>
      </trkpt>
      <trkpt lat="37.82303961459031" lon="112.0061480660471">
        <ele>1189.66</ele>
        <time>2019-06-28T00:02:48.403000Z</time>
      </trkpt>
      <trkpt lat="37.823213871232205" lon="112.00610996383497">
        <ele>1192.4</ele>
        <time>2019-06-28T00:02:54.403000Z</time>
      </trkpt>
      <trkpt lat="37.823494411618064" lon="112.0060884773344">
        <ele>1192.27</ele>
        <time>2019-06-28T00:03:03.503000Z</time>
      </trkpt>
      <trkpt lat="37.82376773351143" lon="112.00610275848283">
        <ele>1190.46</ele>
        <time>2019-06-28T00:03:12.403000Z</time>
      </trkpt>
      <trkpt lat="37.82385404781163" lon="112.00611531124976">
        <ele>1190.38</ele>
        <time>2019-06-28T00:03:15.503000Z</time>
      </trkpt>
      <trkpt lat="37.82406364439133" lon="112.00609808514061">
        <ele>1191.21</ele>
        <time>2019-06-28T00:03:30.503000Z</time>
      </trkpt>
      <trkpt lat="37.82408367036552" lon="112.00612064289564">
        <ele>1188.9</ele>
        <time>2019-06-28T00:03:36.403000Z</time>
      </trkpt>
      <trkpt lat="37.82412166687278" lon="112.00614576058199">
        <ele>1187.67</ele>
        <time>2019-06-28T00:03:42.503000Z</time>
      </trkpt>
      <trkpt lat="37.82415081994488" lon="112.0061638184075">
        <ele>1187.01</ele>
        <time>2019-06-28T00:03:45.403000Z</time>
      </trkpt>
      <trkpt lat="37.824191281887146" lon="112.00619582042305">
        <ele>1186.8</ele>
        <time>2019-06-28T00:03:48.403000Z</time>
      </trkpt>
      <trkpt lat="37.82441175612295" lon="112.00626783850107">
        <ele>1188.89</ele>
        <time>2019-06-28T00:03:57.503000Z</time>
      </trkpt>
      <trkpt lat="37.82468351982785" lon="112.00631051225857">
        <ele>1187.6</ele>
        <time>2019-06-28T00:04:06.403000Z</time>
      </trkpt>
      <trkpt lat="37.82496293046277" lon="112.00635222990263">
        <ele>1185.68</ele>
        <time>2019-06-28T00:04:15.403000Z</time>
      </trkpt>
      <trkpt lat="37.82531752304732" lon="112.00638634429815">
        <ele>1184.94</ele>
        <time>2019-06-28T00:04:27.403000Z</time>
      </trkpt>
      <trkpt lat="37.82548118372098" lon="112.00645167222712">
        <ele>1185.19</ele>
        <time>2019-06-28T00:04:33.503000Z</time>
      </trkpt>
      <trkpt lat="37.825836998330466" lon="112.00649451570902">
        <ele>1182.29</ele>
        <time>2019-06-28T00:04:45.503000Z</time>
      </trkpt>
      <trkpt lat="37.826139488204156" lon="112.00649419743232">
        <ele>1182.81</ele>
        <time>2019-06-28T00:04:54.403000Z</time>
      </trkpt>
      <trkpt lat="37.826344782045915" lon="112.00646609544188">
        <ele>1180.06</ele>
        <time>2019-06-28T00:05:00.403000Z</time>
      </trkpt>
      <trkpt lat="37.826438819674756" lon="112.00642645095256">
        <ele>1179.91</ele>
        <time>2019-06-28T00:05:03.503000Z</time>
      </trkpt>
      <trkpt lat="37.826726811231026" lon="112.00637127087245">
        <ele>1180.11</ele>
        <time>2019-06-28T00:05:12.403000Z</time>
      </trkpt>
      <trkpt lat="37.82700389222698" lon="112.00634524312778">
        <ele>1174.16</ele>
        <time>2019-06-28T00:05:21.503000Z</time>
      </trkpt>
      <trkpt lat="37.82728176910363" lon="112.0063177068829">
        <ele>1174.87</ele>
        <time>2019-06-28T00:05:30.503000Z</time>
      </trkpt>
      <trkpt lat="37.827559621287406" lon="112.00627974402644">
        <ele>1173.82</ele>
        <time>2019-06-28T00:05:39.403000Z</time>
      </trkpt>
      <trkpt lat="37.82782705406659" lon="112.00624136975661">
        <ele>1169.74</ele>
        <time>2019-06-28T00:05:48.503000Z</time>
      </trkpt>
      <trkpt lat="37.828027127560944" lon="112.00624103042122">
        <ele>1168.39</ele>
        <time>2019-06-28T00:05:54.503000Z</time>
      </trkpt>
      <trkpt lat="37.82831963573208" lon="112.00619919757662">
        <ele>1165.69</ele>
        <time>2019-06-28T00:06:03.403000Z</time>
      </trkpt>
      <trkpt lat="37.828643892515366" lon="112.0061790662944">
        <ele>1169.12</ele>
        <time>2019-06-28T00:06:12.503000Z</time>
      </trkpt>
      <trkpt lat="37.82893393614135" lon="112.00614687630012">
        <ele>1169.22</ele>
        <time>2019-06-28T00:06:21.503000Z</time>
      </trkpt>
      <trkpt lat="37.8292762653768" lon="112.00613805729738">
        <ele>1165.79</ele>
        <time>2019-06-28T00:06:33.403000Z</time>
      </trkpt>
      <trkpt lat="37.82955735025632" lon="112.00613817817538">
        <ele>1164.75</ele>
        <time>2019-06-28T00:06:42.503000Z</time>
      </trkpt>
      <trkpt lat="37.82986956550099" lon="112.00614356526101">
        <ele>1170.33</ele>
        <time>2019-06-28T00:06:51.503000Z</time>
      </trkpt>
      <trkpt lat="37.8301716010309" lon="112.00614189070969">
        <ele>1165.77</ele>
        <time>2019-06-28T00:07:00.403000Z</time>
      </trkpt>
      <trkpt lat="37.830502879284566" lon="112.00617357215708">
        <ele>1167.4</ele>
        <time>2019-06-28T00:07:09.503000Z</time>
      </trkpt>
      <trkpt lat="37.830808281053514" lon="112.00616667881957">
        <ele>1161.59</ele>
        <time>2019-06-28T00:07:18.503000Z</time>
      </trkpt>
      <trkpt lat="37.8310057291503" lon="112.0061491929481">
        <ele>1166.09</ele>
        <time>2019-06-28T00:07:24.503000Z</time>
      </trkpt>
      <trkpt lat="37.8313039790556" lon="112.00612297782054">
        <ele>1166.81</ele>
        <time>2019-06-28T00:07:33.503000Z</time>
      </trkpt>
      <trkpt lat="37.83161944528562" lon="112.00609176784809">
        <ele>1163.41</ele>
        <time>2019-06-28T00:07:42.503000Z</time>
      </trkpt>
      <trkpt lat="37.831908300466196" lon="112.00609527079165">
        <ele>1162.41</ele>
        <time>2019-06-28T00:07:51.403000Z</time>
      </trkpt>
      <trkpt lat="37.832228841211034" lon="112.00609209592832">
        <ele>1164.61</ele>
        <time>2019-06-28T00:08:00.503000Z</time>
      </trkpt>
      <trkpt lat="37.83241191310084" lon="112.00611004725644">
        <ele>1161.25</ele>
        <time>2019-06-28T00:08:06.403000Z</time>
      </trkpt>
      <trkpt lat="37.83267316165846" lon="112.00623346478507">
        <ele>1155.25</ele>
        <time>2019-06-28T00:08:15.503000Z</time>
      </trkpt>
      <trkpt lat="37.83276327073363" lon="112.00626747495514">
        <ele>1154.65</ele>
        <time>2019-06-28T00:08:18.503000Z</time>
      </trkpt>
      <trkpt lat="37.833058341048115" lon="112.00641225748667">
        <ele>1159.23</ele>
        <time>2019-06-28T00:08:27.403000Z</time>
      </trkpt>
      <trkpt lat="37.83338989746489" lon="112.00653130976373">
        <ele>1160.14</ele>
        <time>2019-06-28T00:08:36.403000Z</time>
      </trkpt>
      <trkpt lat="37.83367854688627" lon="112.00663683035684">
        <ele>1160.67</ele>
        <time>2019-06-28T00:08:45.503000Z</time>
      </trkpt>
      <trkpt lat="37.833971492396884" lon="112.0067061707711">
        <ele>1159.48</ele>
        <time>2019-06-28T00:09:03.503000Z</time>
      </trkpt>
      <trkpt lat="37.83423285333277" lon="112.00679440845695">
        <ele>1156.41</ele>
        <time>2019-06-28T00:09:24.403000Z</time>
      </trkpt>
      <trkpt lat="37.83451636719156" lon="112.00688458175242">
        <ele>1155.43</ele>
        <time>2019-06-28T00:09:39.503000Z</time>
      </trkpt>
      <trkpt lat="37.8347422898719" lon="112.00694609372665">
        <ele>1153.94</ele>
        <time>2019-06-28T00:09:57.503000Z</time>
      </trkpt>
      <trkpt lat="37.83504587632629" lon="112.00686764111275">
        <ele>1154.27</ele>
        <time>2019-06-28T00:10:09.503000Z</time>
      </trkpt>
      <trkpt lat="37.83514235824789" lon="112.00684700466141">
        <ele>1154.9</ele>
        <time>2019-06-28T00:10:12.503000Z</time>
      </trkpt>
      <trkpt lat="37.83522254402537" lon="112.00684965400826">
        <ele>1154.4</ele>
        <time>2019-06-28T00:10:15.503000Z</time>
      </trkpt>
      <trkpt lat="37.83528739196153" lon="112.00687293146625">
        <ele>1154.42</ele>
        <time>2019-06-28T00:10:18.503000Z</time>
      </trkpt>
      <trkpt lat="37.835482143185615" lon="112.00720545683954">
        <ele>1155.54</ele>
        <time>2019-06-28T00:10:30.503000Z</time>
      </trkpt>
      <trkpt lat="37.83554342954003" lon="112.00726561019991">
        <ele>1156.05</ele>
        <time>2019-06-28T00:10:33.403000Z</time>
      </trkpt>
      <trkpt lat="37.835628844234975" lon="112.0073072325689">
        <ele>1156.44</ele>
        <time>2019-06-28T00:10:36.403000Z</time>
      </trkpt>
      <trkpt lat="37.83595930206366" lon="112.00741006016821">
        <ele>1152.7</ele>
        <time>2019-06-28T00:10:48.503000Z</time>
      </trkpt>
      <trkpt lat="37.83606864409319" lon="112.00741865877761">
        <ele>1154.11</ele>
        <time>2019-06-28T00:10:51.503000Z</time>
      </trkpt>
      <trkpt lat="37.83635756917778" lon="112.0074904779549">
        <ele>1155.24</ele>
        <time>2019-06-28T00:11:00.503000Z</time>
      </trkpt>
      <trkpt lat="37.836699410726105" lon="112.00759358199699">
        <ele>1157.28</ele>
        <time>2019-06-28T00:11:12.403000Z</time>
      </trkpt>
      <trkpt lat="37.83705764739123" lon="112.007702370184">
        <ele>1157.01</ele>
        <time>2019-06-28T00:11:24.503000Z</time>
      </trkpt>
      <trkpt lat="37.837329739124776" lon="112.00779262788353">
        <ele>1153.43</ele>
        <time>2019-06-28T00:11:33.503000Z</time>
      </trkpt>
      <trkpt lat="37.83759828562658" lon="112.00791837516203">
        <ele>1153.47</ele>
        <time>2019-06-28T00:11:42.503000Z</time>
      </trkpt>
      <trkpt lat="37.8378915524608" lon="112.00803533373305">
        <ele>1151.98</ele>
        <time>2019-06-28T00:11:51.503000Z</time>
      </trkpt>
      <trkpt lat="37.83816815649661" lon="112.0081497971821">
        <ele>1146.58</ele>
        <time>2019-06-28T00:12:00.403000Z</time>
      </trkpt>
      <trkpt lat="37.838467882759346" lon="112.00821835066391">
        <ele>1141.83</ele>
        <time>2019-06-28T00:12:09.503000Z</time>
      </trkpt>
      <trkpt lat="37.838762134049524" lon="112.00820058700766">
        <ele>1142.44</ele>
        <time>2019-06-28T00:12:18.503000Z</time>
      </trkpt>
      <trkpt lat="37.83885999866135" lon="112.00818346984867">
        <ele>1142.38</ele>
        <time>2019-06-28T00:12:21.403000Z</time>
      </trkpt>
      <trkpt lat="37.83917365238347" lon="112.00812092425203">
        <ele>1143.76</ele>
        <time>2019-06-28T00:12:30.503000Z</time>
      </trkpt>
      <trkpt lat="37.839490547794085" lon="112.00810033035665">
        <ele>1145.59</ele>
        <time>2019-06-28T00:12:39.503000Z</time>
      </trkpt>
      <trkpt lat="37.83978301324226" lon="112.00806320365155">
        <ele>1144.18</ele>
        <time>2019-06-28T00:12:48.503000Z</time>
      </trkpt>
      <trkpt lat="37.84009403572877" lon="112.00801116827004">
        <ele>1145.93</ele>
        <time>2019-06-28T00:12:57.403000Z</time>
      </trkpt>
      <trkpt lat="37.84028583232451" lon="112.00799476386237">
        <ele>1144.57</ele>
        <time>2019-06-28T00:13:03.503000Z</time>
      </trkpt>
      <trkpt lat="37.84064531373148" lon="112.00806423591858">
        <ele>1142.5</ele>
        <time>2019-06-28T00:13:15.403000Z</time>
      </trkpt>
      <trkpt lat="37.84093226059323" lon="112.00811225298382">
        <ele>1144.69</ele>
        <time>2019-06-28T00:13:24.503000Z</time>
      </trkpt>
      <trkpt lat="37.84114049009408" lon="112.00813417975671">
        <ele>1143.77</ele>
        <time>2019-06-28T00:13:30.503000Z</time>
      </trkpt>
      <trkpt lat="37.841470019239004" lon="112.00809970566895">
        <ele>1144.05</ele>
        <time>2019-06-28T00:13:39.403000Z</time>
      </trkpt>
      <trkpt lat="37.841681312794826" lon="112.00803468987482">
        <ele>1141.21</ele>
        <time>2019-06-28T00:13:45.403000Z</time>
      </trkpt>
      <trkpt lat="37.84196277363971" lon="112.00785934553093">
        <ele>1139.11</ele>
        <time>2019-06-28T00:13:54.503000Z</time>
      </trkpt>
      <trkpt lat="37.8420542812958" lon="112.00778353748335">
        <ele>1140.99</ele>
        <time>2019-06-28T00:13:57.403000Z</time>
      </trkpt>
      <trkpt lat="37.842307997746424" lon="112.00757434033139">
        <ele>1141.2</ele>
        <time>2019-06-28T00:14:06.503000Z</time>
      </trkpt>
      <trkpt lat="37.84255527898586" lon="112.0073946410814">
        <ele>1143.99</ele>
        <time>2019-06-28T00:14:15.403000Z</time>
      </trkpt>
      <trkpt lat="37.84282117497735" lon="112.00721476622064">
        <ele>1143.54</ele>
        <time>2019-06-28T00:14:24.403000Z</time>
      </trkpt>
      <trkpt lat="37.84310635096059" lon="112.00703002411353">
        <ele>1137.35</ele>
        <time>2019-06-28T00:14:33.403000Z</time>
      </trkpt>
      <trkpt lat="37.843387083434344" lon="112.00680239528889">
        <ele>1137.54</ele>
        <time>2019-06-28T00:14:42.503000Z</time>
      </trkpt>
      <trkpt lat="37.84364585423785" lon="112.00661458507096">
        <ele>1136.41</ele>
        <time>2019-06-28T00:14:51.503000Z</time>
      </trkpt>
      <trkpt lat="37.843925450400114" lon="112.00640565362326">
        <ele>1131.52</ele>
        <time>2019-06-28T00:15:00.503000Z</time>
      </trkpt>
      <trkpt lat="37.84412219174271" lon="112.0062966190264">
        <ele>1131.32</ele>
        <time>2019-06-28T00:15:06.503000Z</time>
      </trkpt>
      <trkpt lat="37.84431811732284" lon="112.00620811982036">
        <ele>1133.64</ele>
        <time>2019-06-28T00:15:12.503000Z</time>
      </trkpt>
      <trkpt lat="37.84451267004065" lon="112.00611540823434">
        <ele>1131.98</ele>
        <time>2019-06-28T00:15:18.403000Z</time>
      </trkpt>
      <trkpt lat="37.84479830772455" lon="112.00614097554421">
        <ele>1129.59</ele>
        <time>2019-06-28T00:15:27.503000Z</time>
      </trkpt>
      <trkpt lat="37.84488609384498" lon="112.00614897291152">
        <ele>1129.22</ele>
        <time>2019-06-28T00:15:30.403000Z</time>
      </trkpt>
      <trkpt lat="37.84497136086087" lon="112.00616613673">
        <ele>1126.78</ele>
        <time>2019-06-28T00:15:33.403000Z</time>
      </trkpt>
      <trkpt lat="37.84530833806373" lon="112.0062548964189">
        <ele>1126.53</ele>
        <time>2019-06-28T00:15:42.503000Z</time>
      </trkpt>
      <trkpt lat="37.84565499180505" lon="112.00638173643112">
        <ele>1128.49</ele>
        <time>2019-06-28T00:15:51.503000Z</time>
      </trkpt>
      <trkpt lat="37.84598913372718" lon="112.0065083210167">
        <ele>1124.38</ele>
        <time>2019-06-28T00:16:00.503000Z</time>
      </trkpt>
      <trkpt lat="37.846216337993695" lon="112.00657941223382">
        <ele>1125.44</ele>
        <time>2019-06-28T00:16:06.403000Z</time>
      </trkpt>
      <trkpt lat="37.84656906970067" lon="112.0066222738148">
        <ele>1126.19</ele>
        <time>2019-06-28T00:16:15.503000Z</time>
      </trkpt>
      <trkpt lat="37.84688863901941" lon="112.00665120757314">
        <ele>1126.52</ele>
        <time>2019-06-28T00:16:24.403000Z</time>
      </trkpt>
      <trkpt lat="37.847205068377924" lon="112.00670058195558">
        <ele>1126.68</ele>
        <time>2019-06-28T00:16:33.503000Z</time>
      </trkpt>
      <trkpt lat="37.847530896241004" lon="112.0067520415174">
        <ele>1127.2</ele>
        <time>2019-06-28T00:16:42.503000Z</time>
      </trkpt>
      <trkpt lat="37.84782850017537" lon="112.00678633067116">
        <ele>1125.26</ele>
        <time>2019-06-28T00:16:51.503000Z</time>
      </trkpt>
      <trkpt lat="37.84815679439517" lon="112.00684830744342">
        <ele>1126.55</ele>
        <time>2019-06-28T00:17:00.503000Z</time>
      </trkpt>
      <trkpt lat="37.84826866429878" lon="112.00691081740021">
        <ele>1127.31</ele>
        <time>2019-06-28T00:17:03.503000Z</time>
      </trkpt>
      <trkpt lat="37.84837004147359" lon="112.00699649964389">
        <ele>1126.86</ele>
        <time>2019-06-28T00:17:06.403000Z</time>
      </trkpt>
      <trkpt lat="37.84845184087195" lon="112.00710737320671">
        <ele>1125.15</ele>
        <time>2019-06-28T00:17:09.503000Z</time>
      </trkpt>
      <trkpt lat="37.84871918827688" lon="112.00744324136933">
        <ele>1124.36</ele>
        <time>2019-06-28T00:17:18.503000Z</time>
      </trkpt>
      <trkpt lat="37.84891643270157" lon="112.00775301246362">
        <ele>1121.73</ele>
        <time>2019-06-28T00:17:27.403000Z</time>
      </trkpt>
      <trkpt lat="37.84916717559178" lon="112.00807909157353">
        <ele>1117.88</ele>
        <time>2019-06-28T00:17:36.403000Z</time>
      </trkpt>
      <trkpt lat="37.84936747916456" lon="112.0084109619668">
        <ele>1116.16</ele>
        <time>2019-06-28T00:17:45.503000Z</time>
      </trkpt>
      <trkpt lat="37.849428450851036" lon="112.00853928149596">
        <ele>1116.87</ele>
        <time>2019-06-28T00:17:48.403000Z</time>
      </trkpt>
      <trkpt lat="37.84963617642717" lon="112.00887846872898">
        <ele>1117.79</ele>
        <time>2019-06-28T00:17:57.503000Z</time>
      </trkpt>
      <trkpt lat="37.84982284987126" lon="112.0092362816631">
        <ele>1115.26</ele>
        <time>2019-06-28T00:18:06.403000Z</time>
      </trkpt>
      <trkpt lat="37.84987715524219" lon="112.00936398589674">
        <ele>1114.44</ele>
        <time>2019-06-28T00:18:09.403000Z</time>
      </trkpt>
      <trkpt lat="37.84993700954073" lon="112.00977553729639">
        <ele>1111.19</ele>
        <time>2019-06-28T00:18:18.403000Z</time>
      </trkpt>
      <trkpt lat="37.84989885719481" lon="112.0102212826186">
        <ele>1112.17</ele>
        <time>2019-06-28T00:18:27.403000Z</time>
      </trkpt>
      <trkpt lat="37.84988351493434" lon="112.01066033089857">
        <ele>1111.21</ele>
        <time>2019-06-28T00:18:36.503000Z</time>
      </trkpt>
      <trkpt lat="37.84985019723441" lon="112.0109430582467">
        <ele>1109.81</ele>
        <time>2019-06-28T00:18:42.503000Z</time>
      </trkpt>
      <trkpt lat="37.849844917042326" lon="112.0113687318608">
        <ele>1107.78</ele>
        <time>2019-06-28T00:18:51.503000Z</time>
      </trkpt>
      <trkpt lat="37.84982440298485" lon="112.01166687672603">
        <ele>1106.41</ele>
        <time>2019-06-28T00:18:57.403000Z</time>
      </trkpt>
      <trkpt lat="37.84975695417676" lon="112.0119828524889">
        <ele>1107.43</ele>
        <time>2019-06-28T00:19:03.503000Z</time>
      </trkpt>
      <trkpt lat="37.8497460137942" lon="112.01212381318136">
        <ele>1107.18</ele>
        <time>2019-06-28T00:19:06.403000Z</time>
      </trkpt>
      <trkpt lat="37.84973243302543" lon="112.01257890807179">
        <ele>1107.05</ele>
        <time>2019-06-28T00:19:15.503000Z</time>
      </trkpt>
      <trkpt lat="37.84972610828567" lon="112.01274123620237">
        <ele>1105.14</ele>
        <time>2019-06-28T00:19:18.503000Z</time>
      </trkpt>
      <trkpt lat="37.84969115146453" lon="112.01314676458331">
        <ele>1104.97</ele>
        <time>2019-06-28T00:19:27.503000Z</time>
      </trkpt>
      <trkpt lat="37.849654128571274" lon="112.01357484328554">
        <ele>1104.74</ele>
        <time>2019-06-28T00:19:36.403000Z</time>
      </trkpt>
      <trkpt lat="37.84962002253668" lon="112.01400557703882">
        <ele>1105.29</ele>
        <time>2019-06-28T00:19:45.403000Z</time>
      </trkpt>
      <trkpt lat="37.849617430130394" lon="112.01414791520038">
        <ele>1104.55</ele>
        <time>2019-06-28T00:19:48.403000Z</time>
      </trkpt>
      <trkpt lat="37.84957608791785" lon="112.01444692890433">
        <ele>1101.18</ele>
        <time>2019-06-28T00:19:54.403000Z</time>
      </trkpt>
      <trkpt lat="37.84956100847291" lon="112.01475032106464">
        <ele>1100.47</ele>
        <time>2019-06-28T00:20:00.503000Z</time>
      </trkpt>
      <trkpt lat="37.8495033501644" lon="112.01506434563296">
        <ele>1101.74</ele>
        <time>2019-06-28T00:20:06.403000Z</time>
      </trkpt>
      <trkpt lat="37.84947808933645" lon="112.01535569343521">
        <ele>1100.81</ele>
        <time>2019-06-28T00:20:12.403000Z</time>
      </trkpt>
      <trkpt lat="37.84941202650551" lon="112.01568144277493">
        <ele>1105.09</ele>
        <time>2019-06-28T00:20:18.503000Z</time>
      </trkpt>
      <trkpt lat="37.84938137466562" lon="112.01614570771187">
        <ele>1104.49</ele>
        <time>2019-06-28T00:20:27.503000Z</time>
      </trkpt>
      <trkpt lat="37.84935669715155" lon="112.01657680595925">
        <ele>1103.43</ele>
        <time>2019-06-28T00:20:36.403000Z</time>
      </trkpt>
      <trkpt lat="37.84931002446985" lon="112.01701862710937">
        <ele>1099.76</ele>
        <time>2019-06-28T00:20:45.503000Z</time>
      </trkpt>
      <trkpt lat="37.84924526985618" lon="112.01743595417616">
        <ele>1098.17</ele>
        <time>2019-06-28T00:20:54.503000Z</time>
      </trkpt>
      <trkpt lat="37.84919072846703" lon="112.01791511405133">
        <ele>1099.49</ele>
        <time>2019-06-28T00:21:03.503000Z</time>
      </trkpt>
      <trkpt lat="37.84917021584945" lon="112.01806073611314">
        <ele>1099.75</ele>
        <time>2019-06-28T00:21:06.403000Z</time>
      </trkpt>
      <trkpt lat="37.84915932949462" lon="112.01835016874605">
        <ele>1102.82</ele>
        <time>2019-06-28T00:21:12.403000Z</time>
      </trkpt>
      <trkpt lat="37.84916909330155" lon="112.01857419175488">
        <ele>1102.16</ele>
        <time>2019-06-28T00:21:21.403000Z</time>
      </trkpt>
      <trkpt lat="37.849157516805924" lon="112.01881770959363">
        <ele>1105.48</ele>
        <time>2019-06-28T00:21:36.503000Z</time>
      </trkpt>
      <trkpt lat="37.849120701764924" lon="112.01920505712594">
        <ele>1108.58</ele>
        <time>2019-06-28T00:21:57.403000Z</time>
      </trkpt>
      <trkpt lat="37.84909475470495" lon="112.01960246724963">
        <ele>1109.17</ele>
        <time>2019-06-28T00:22:18.403000Z</time>
      </trkpt>
      <trkpt lat="37.849105807913396" lon="112.01999463724538">
        <ele>1109.08</ele>
        <time>2019-06-28T00:22:39.403000Z</time>
      </trkpt>
      <trkpt lat="37.84911436261466" lon="112.02039293923002">
        <ele>1109.42</ele>
        <time>2019-06-28T00:23:00.403000Z</time>
      </trkpt>
      <trkpt lat="37.8491213452419" lon="112.02055855328598">
        <ele>1108.49</ele>
        <time>2019-06-28T00:23:09.403000Z</time>
      </trkpt>
      <trkpt lat="37.84909474137649" lon="112.0209416253943">
        <ele>1104.71</ele>
        <time>2019-06-28T00:23:24.503000Z</time>
      </trkpt>
      <trkpt lat="37.84908115258635" lon="112.02128405145592">
        <ele>1103.39</ele>
        <time>2019-06-28T00:23:33.503000Z</time>
      </trkpt>
      <trkpt lat="37.84908690629323" lon="112.02163904700257">
        <ele>1101.57</ele>
        <time>2019-06-28T00:23:42.403000Z</time>
      </trkpt>
      <trkpt lat="37.84909806875315" lon="112.02176107072822">
        <ele>1102.97</ele>
        <time>2019-06-28T00:23:45.503000Z</time>
      </trkpt>
      <trkpt lat="37.84910126041251" lon="112.02219554137504">
        <ele>1099.76</ele>
        <time>2019-06-28T00:24:03.503000Z</time>
      </trkpt>
      <trkpt lat="37.849076854156" lon="112.02251192703466">
        <ele>1101.69</ele>
        <time>2019-06-28T00:24:21.503000Z</time>
      </trkpt>
      <trkpt lat="37.84908553559301" lon="112.02292265763843">
        <ele>1101.79</ele>
        <time>2019-06-28T00:24:45.403000Z</time>
      </trkpt>
      <trkpt lat="37.849063914421876" lon="112.02299260998846">
        <ele>1104.38</ele>
        <time>2019-06-28T00:25:06.503000Z</time>
      </trkpt>
      <trkpt lat="37.849104332706695" lon="112.02321475838572">
        <ele>1104.27</ele>
        <time>2019-06-28T00:25:30.403000Z</time>
      </trkpt>
      <trkpt lat="37.849067624470166" lon="112.02361693973639">
        <ele>1104.86</ele>
        <time>2019-06-28T00:25:54.403000Z</time>
      </trkpt>
      <trkpt lat="37.849050557593706" lon="112.02387097527567">
        <ele>1103.73</ele>
        <time>2019-06-28T00:26:15.403000Z</time>
      </trkpt>
      <trkpt lat="37.849030000557654" lon="112.02396980323365">
        <ele>1103.04</ele>
        <time>2019-06-28T00:26:21.403000Z</time>
      </trkpt>
      <trkpt lat="37.84903027769287" lon="112.0243255876931">
        <ele>1105.15</ele>
        <time>2019-06-28T00:26:42.403000Z</time>
      </trkpt>
      <trkpt lat="37.849066180481174" lon="112.0245700821154">
        <ele>1106.9</ele>
        <time>2019-06-28T00:26:57.403000Z</time>
      </trkpt>
      <trkpt lat="37.84908578774936" lon="112.0246239118359">
        <ele>1106.21</ele>
        <time>2019-06-28T00:27:03.403000Z</time>
      </trkpt>
      <trkpt lat="37.84905975091392" lon="112.024721480082">
        <ele>1105.16</ele>
        <time>2019-06-28T00:27:09.403000Z</time>
      </trkpt>
      <trkpt lat="37.84905341209106" lon="112.02487749905015">
        <ele>1102.68</ele>
        <time>2019-06-28T00:27:18.403000Z</time>
      </trkpt>
      <trkpt lat="37.84908062372569" lon="112.02496266463804">
        <ele>1103.43</ele>
        <time>2019-06-28T00:27:24.503000Z</time>
      </trkpt>
      <trkpt lat="37.849001397567" lon="112.02520975161168">
        <ele>1097.46</ele>
        <time>2019-06-28T00:27:39.403000Z</time>
      </trkpt>
      <trkpt lat="37.84900410523175" lon="112.02555343651947">
        <ele>1093.4</ele>
        <time>2019-06-28T00:27:57.403000Z</time>
      </trkpt>
    </trkseg>
  </trk>
</gpx>