<?xml version="1.0" encoding="UTF-8"?>
<gpx xmlns="http://www.topografix.com/GPX/1/1" xmlns:gpxtpx="http://www.garmin.com/xmlschemas/TrackPointExtension/v1" xmlns:xsi="http://www.w3.org/2001/XMLSchema-instance" xsi:schemaLocation="http://www.topografix.com/GPX/1/1 http://www.topografix.com/GPX/1/1/gpx.xsd" version="1.1" creator="gpx.py -- https://github.com/tkrajina/gpxpy">
  <trk>
    <name>gpx from keep</name>
    <type>Run</type>
    <trkseg>
      <trkpt lat="37.84743461014994" lon="112.02760102334798">
        <ele>1111.77</ele>
        <time>2019-11-14T09:02:33.212000Z</time>
      </trkpt>
      <trkpt lat="37.847511211896176" lon="112.02741125428058">
        <ele>1110.82</ele>
        <time>2019-11-14T09:02:42.212000Z</time>
      </trkpt>
      <trkpt lat="37.84754935174281" lon="112.02720763302162">
        <ele>1107.94</ele>
        <time>2019-11-14T09:02:48.212000Z</time>
      </trkpt>
      <trkpt lat="37.84772565172588" lon="112.0268110423869">
        <ele>1108.64</ele>
        <time>2019-11-14T09:03:00.212000Z</time>
      </trkpt>
      <trkpt lat="37.8478267575114" lon="112.0266304758641">
        <ele>1111.46</ele>
        <time>2019-11-14T09:03:06.212000Z</time>
      </trkpt>
      <trkpt lat="37.847948205482965" lon="112.02654669826364">
        <ele>1112.97</ele>
        <time>2019-11-14T09:03:12.212000Z</time>
      </trkpt>
      <trkpt lat="37.84821581223576" lon="112.0264534474759">
        <ele>1107.65</ele>
        <time>2019-11-14T09:03:24.212000Z</time>
      </trkpt>
      <trkpt lat="37.84837996910623" lon="112.02648814987104">
        <ele>1112.31</ele>
        <time>2019-11-14T09:03:30.212000Z</time>
      </trkpt>
      <trkpt lat="37.84857050581675" lon="112.02647815223492">
        <ele>1112.82</ele>
        <time>2019-11-14T09:03:36.212000Z</time>
      </trkpt>
      <trkpt lat="37.84873041169742" lon="112.02652532188816">
        <ele>1113.31</ele>
        <time>2019-11-14T09:03:42.212000Z</time>
      </trkpt>
      <trkpt lat="37.8488266224412" lon="112.02654450427848">
        <ele>1106.0</ele>
        <time>2019-11-14T09:03:45.212000Z</time>
      </trkpt>
      <trkpt lat="37.84888904179639" lon="112.02649841094467">
        <ele>1110.41</ele>
        <time>2019-11-14T09:03:48.212000Z</time>
      </trkpt>
      <trkpt lat="37.84900244838163" lon="112.0262169822958">
        <ele>1105.71</ele>
        <time>2019-11-14T09:04:00.212000Z</time>
      </trkpt>
      <trkpt lat="37.84899486872072" lon="112.02609062440835">
        <ele>1106.88</ele>
        <time>2019-11-14T09:04:03.212000Z</time>
      </trkpt>
      <trkpt lat="37.8489960243386" lon="112.02595515961397">
        <ele>1106.81</ele>
        <time>2019-11-14T09:04:06.212000Z</time>
      </trkpt>
      <trkpt lat="37.84901463191656" lon="112.02581501783095">
        <ele>1105.83</ele>
        <time>2019-11-14T09:04:09.212000Z</time>
      </trkpt>
      <trkpt lat="37.84894677137095" lon="112.02540410483137">
        <ele>1106.51</ele>
        <time>2019-11-14T09:04:15.212000Z</time>
      </trkpt>
      <trkpt lat="37.848932413215614" lon="112.02525896622107">
        <ele>1106.32</ele>
        <time>2019-11-14T09:04:18.212000Z</time>
      </trkpt>
      <trkpt lat="37.848928122006356" lon="112.0249794148242">
        <ele>1110.81</ele>
        <time>2019-11-14T09:04:27.212000Z</time>
      </trkpt>
      <trkpt lat="37.84902510858583" lon="112.02461994483689">
        <ele>1105.87</ele>
        <time>2019-11-14T09:04:39.212000Z</time>
      </trkpt>
      <trkpt lat="37.8490532301276" lon="112.02452422219989">
        <ele>1105.82</ele>
        <time>2019-11-14T09:04:42.212000Z</time>
      </trkpt>
      <trkpt lat="37.84908598475152" lon="112.02410433304831">
        <ele>1105.04</ele>
        <time>2019-11-14T09:04:54.212000Z</time>
      </trkpt>
      <trkpt lat="37.84907256906902" lon="112.02372791102144">
        <ele>1100.96</ele>
        <time>2019-11-14T09:05:03.212000Z</time>
      </trkpt>
      <trkpt lat="37.84904659097878" lon="112.02335558056276">
        <ele>1102.44</ele>
        <time>2019-11-14T09:05:12.212000Z</time>
      </trkpt>
      <trkpt lat="37.84905812227321" lon="112.02297695661733">
        <ele>1104.14</ele>
        <time>2019-11-14T09:05:21.212000Z</time>
      </trkpt>
      <trkpt lat="37.849060754721506" lon="112.02266698400221">
        <ele>1100.11</ele>
        <time>2019-11-14T09:05:30.212000Z</time>
      </trkpt>
      <trkpt lat="37.84907690321829" lon="112.02257462459987">
        <ele>1099.11</ele>
        <time>2019-11-14T09:05:33.212000Z</time>
      </trkpt>
      <trkpt lat="37.849092207766425" lon="112.02215738627028">
        <ele>1100.57</ele>
        <time>2019-11-14T09:05:45.212000Z</time>
      </trkpt>
      <trkpt lat="37.849085770713124" lon="112.02180674663882">
        <ele>1103.22</ele>
        <time>2019-11-14T09:05:54.212000Z</time>
      </trkpt>
      <trkpt lat="37.84907913115782" lon="112.0214641699114">
        <ele>1103.39</ele>
        <time>2019-11-14T09:06:03.212000Z</time>
      </trkpt>
      <trkpt lat="37.84910062958689" lon="112.02127841135277">
        <ele>1103.53</ele>
        <time>2019-11-14T09:06:09.212000Z</time>
      </trkpt>
      <trkpt lat="37.849089162336774" lon="112.02082782841171">
        <ele>1102.96</ele>
        <time>2019-11-14T09:06:21.212000Z</time>
      </trkpt>
      <trkpt lat="37.84910413539966" lon="112.02044997181115">
        <ele>1107.63</ele>
        <time>2019-11-14T09:06:30.212000Z</time>
      </trkpt>
      <trkpt lat="37.8491189570437" lon="112.01998672589883">
        <ele>1108.72</ele>
        <time>2019-11-14T09:06:42.212000Z</time>
      </trkpt>
      <trkpt lat="37.84909924117479" lon="112.01966163621063">
        <ele>1107.81</ele>
        <time>2019-11-14T09:06:51.212000Z</time>
      </trkpt>
      <trkpt lat="37.84911920553604" lon="112.01933329634925">
        <ele>1105.25</ele>
        <time>2019-11-14T09:07:00.212000Z</time>
      </trkpt>
      <trkpt lat="37.84916163473193" lon="112.01913897688294">
        <ele>1106.51</ele>
        <time>2019-11-14T09:07:06.212000Z</time>
      </trkpt>
      <trkpt lat="37.84916941443477" lon="112.01866201651711">
        <ele>1106.96</ele>
        <time>2019-11-14T09:07:18.212000Z</time>
      </trkpt>
      <trkpt lat="37.84916932209942" lon="112.01834928123941">
        <ele>1106.26</ele>
        <time>2019-11-14T09:07:27.212000Z</time>
      </trkpt>
      <trkpt lat="37.84919767419481" lon="112.01817373583756">
        <ele>1105.98</ele>
        <time>2019-11-14T09:07:33.212000Z</time>
      </trkpt>
      <trkpt lat="37.84921444794269" lon="112.01781362475545">
        <ele>1106.72</ele>
        <time>2019-11-14T09:07:42.212000Z</time>
      </trkpt>
      <trkpt lat="37.84927264417267" lon="112.01747157662886">
        <ele>1109.37</ele>
        <time>2019-11-14T09:07:51.312000Z</time>
      </trkpt>
      <trkpt lat="37.84932199332298" lon="112.01704935850218">
        <ele>1105.73</ele>
        <time>2019-11-14T09:08:03.212000Z</time>
      </trkpt>
      <trkpt lat="37.84935689312371" lon="112.01662412129437">
        <ele>1105.68</ele>
        <time>2019-11-14T09:08:15.212000Z</time>
      </trkpt>
      <trkpt lat="37.849389475053364" lon="112.01621172697396">
        <ele>1102.78</ele>
        <time>2019-11-14T09:08:27.212000Z</time>
      </trkpt>
      <trkpt lat="37.849427232257135" lon="112.01584827995411">
        <ele>1105.75</ele>
        <time>2019-11-14T09:08:36.212000Z</time>
      </trkpt>
      <trkpt lat="37.84945466365842" lon="112.01552484891047">
        <ele>1106.01</ele>
        <time>2019-11-14T09:08:45.212000Z</time>
      </trkpt>
      <trkpt lat="37.84950618363791" lon="112.01517815548182">
        <ele>1105.44</ele>
        <time>2019-11-14T09:08:54.212000Z</time>
      </trkpt>
      <trkpt lat="37.849554956487786" lon="112.01473861173521">
        <ele>1106.77</ele>
        <time>2019-11-14T09:09:06.212000Z</time>
      </trkpt>
      <trkpt lat="37.84960800415741" lon="112.01434566469365">
        <ele>1106.04</ele>
        <time>2019-11-14T09:09:18.212000Z</time>
      </trkpt>
      <trkpt lat="37.849636561259544" lon="112.01393532693108">
        <ele>1110.32</ele>
        <time>2019-11-14T09:09:30.212000Z</time>
      </trkpt>
      <trkpt lat="37.84965801755502" lon="112.01350280789487">
        <ele>1107.93</ele>
        <time>2019-11-14T09:09:42.212000Z</time>
      </trkpt>
      <trkpt lat="37.84970092312836" lon="112.01304686737662">
        <ele>1108.68</ele>
        <time>2019-11-14T09:09:54.212000Z</time>
      </trkpt>
      <trkpt lat="37.84975194562101" lon="112.01267128666812">
        <ele>1108.91</ele>
        <time>2019-11-14T09:10:06.212000Z</time>
      </trkpt>
      <trkpt lat="37.84975975988269" lon="112.0123104888499">
        <ele>1108.98</ele>
        <time>2019-11-14T09:10:15.212000Z</time>
      </trkpt>
      <trkpt lat="37.849790336127406" lon="112.01196815356256">
        <ele>1110.02</ele>
        <time>2019-11-14T09:10:24.212000Z</time>
      </trkpt>
      <trkpt lat="37.84982190902694" lon="112.01156600316544">
        <ele>1109.51</ele>
        <time>2019-11-14T09:10:33.212000Z</time>
      </trkpt>
      <trkpt lat="37.84985555851623" lon="112.0111203290882">
        <ele>1108.33</ele>
        <time>2019-11-14T09:10:45.212000Z</time>
      </trkpt>
      <trkpt lat="37.849893028972765" lon="112.01071898109976">
        <ele>1107.07</ele>
        <time>2019-11-14T09:10:57.212000Z</time>
      </trkpt>
      <trkpt lat="37.84992090428296" lon="112.01038398487069">
        <ele>1106.43</ele>
        <time>2019-11-14T09:11:06.212000Z</time>
      </trkpt>
      <trkpt lat="37.84992659978396" lon="112.01009200536016">
        <ele>1106.05</ele>
        <time>2019-11-14T09:11:15.212000Z</time>
      </trkpt>
      <trkpt lat="37.84992587261063" lon="112.0096624087566">
        <ele>1104.1</ele>
        <time>2019-11-14T09:11:27.212000Z</time>
      </trkpt>
      <trkpt lat="37.84989270692513" lon="112.00941377983739">
        <ele>1107.3</ele>
        <time>2019-11-14T09:11:33.212000Z</time>
      </trkpt>
      <trkpt lat="37.849779547680974" lon="112.00907692433935">
        <ele>1108.49</ele>
        <time>2019-11-14T09:11:42.212000Z</time>
      </trkpt>
      <trkpt lat="37.849619941301455" lon="112.00877854343437">
        <ele>1110.7</ele>
        <time>2019-11-14T09:11:51.212000Z</time>
      </trkpt>
      <trkpt lat="37.849560824896265" lon="112.0086957289437">
        <ele>1111.9</ele>
        <time>2019-11-14T09:11:54.212000Z</time>
      </trkpt>
      <trkpt lat="37.84936704652882" lon="112.0084438479035">
        <ele>1112.73</ele>
        <time>2019-11-14T09:12:03.212000Z</time>
      </trkpt>
      <trkpt lat="37.84911393216075" lon="112.00808676198082">
        <ele>1117.49</ele>
        <time>2019-11-14T09:12:16.212000Z</time>
      </trkpt>
      <trkpt lat="37.84890404379903" lon="112.00773105478646">
        <ele>1114.53</ele>
        <time>2019-11-14T09:12:28.212000Z</time>
      </trkpt>
      <trkpt lat="37.84871868251155" lon="112.00748223879148">
        <ele>1116.92</ele>
        <time>2019-11-14T09:12:37.212000Z</time>
      </trkpt>
      <trkpt lat="37.84852999102211" lon="112.0072208523882">
        <ele>1119.6</ele>
        <time>2019-11-14T09:12:46.212000Z</time>
      </trkpt>
      <trkpt lat="37.848426824242665" lon="112.00706230255986">
        <ele>1118.24</ele>
        <time>2019-11-14T09:12:52.212000Z</time>
      </trkpt>
      <trkpt lat="37.84830418870587" lon="112.00693099490238">
        <ele>1118.53</ele>
        <time>2019-11-14T09:12:58.212000Z</time>
      </trkpt>
      <trkpt lat="37.848161004231464" lon="112.00682394915576">
        <ele>1119.16</ele>
        <time>2019-11-14T09:13:04.212000Z</time>
      </trkpt>
      <trkpt lat="37.84782667367724" lon="112.00681607179703">
        <ele>1118.51</ele>
        <time>2019-11-14T09:13:16.212000Z</time>
      </trkpt>
      <trkpt lat="37.84757196168724" lon="112.00677124125683">
        <ele>1119.44</ele>
        <time>2019-11-14T09:13:25.212000Z</time>
      </trkpt>
      <trkpt lat="37.84723987050803" lon="112.00674771285382">
        <ele>1119.12</ele>
        <time>2019-11-14T09:13:37.212000Z</time>
      </trkpt>
      <trkpt lat="37.84695630773326" lon="112.00668327133054">
        <ele>1113.8</ele>
        <time>2019-11-14T09:13:49.212000Z</time>
      </trkpt>
      <trkpt lat="37.846667006957986" lon="112.00666887312882">
        <ele>1114.78</ele>
        <time>2019-11-14T09:13:58.412000Z</time>
      </trkpt>
      <trkpt lat="37.846384604971654" lon="112.00662370287213">
        <ele>1117.98</ele>
        <time>2019-11-14T09:14:07.212000Z</time>
      </trkpt>
      <trkpt lat="37.84611620031954" lon="112.00659601192616">
        <ele>1119.91</ele>
        <time>2019-11-14T09:14:16.212000Z</time>
      </trkpt>
      <trkpt lat="37.84585191591974" lon="112.00649911605142">
        <ele>1120.35</ele>
        <time>2019-11-14T09:14:25.212000Z</time>
      </trkpt>
      <trkpt lat="37.84553968954323" lon="112.00633915333322">
        <ele>1119.89</ele>
        <time>2019-11-14T09:14:37.212000Z</time>
      </trkpt>
      <trkpt lat="37.8452645092941" lon="112.00624082602386">
        <ele>1122.52</ele>
        <time>2019-11-14T09:14:46.212000Z</time>
      </trkpt>
      <trkpt lat="37.84492937586595" lon="112.00614987677963">
        <ele>1119.66</ele>
        <time>2019-11-14T09:14:58.212000Z</time>
      </trkpt>
      <trkpt lat="37.844649553647244" lon="112.00609478605209">
        <ele>1120.38</ele>
        <time>2019-11-14T09:15:07.212000Z</time>
      </trkpt>
      <trkpt lat="37.844563443308594" lon="112.00608716640049">
        <ele>1120.18</ele>
        <time>2019-11-14T09:15:10.212000Z</time>
      </trkpt>
      <trkpt lat="37.84447667395569" lon="112.00610650839879">
        <ele>1121.04</ele>
        <time>2019-11-14T09:15:13.212000Z</time>
      </trkpt>
      <trkpt lat="37.84421109901106" lon="112.00624804961362">
        <ele>1126.25</ele>
        <time>2019-11-14T09:15:22.212000Z</time>
      </trkpt>
      <trkpt lat="37.84395167423813" lon="112.00639111100345">
        <ele>1124.02</ele>
        <time>2019-11-14T09:15:31.212000Z</time>
      </trkpt>
      <trkpt lat="37.84367778095628" lon="112.00656973494954">
        <ele>1124.63</ele>
        <time>2019-11-14T09:15:40.212000Z</time>
      </trkpt>
      <trkpt lat="37.84341072857483" lon="112.00676631022574">
        <ele>1130.1</ele>
        <time>2019-11-14T09:15:49.212000Z</time>
      </trkpt>
      <trkpt lat="37.843149905470845" lon="112.00694015418861">
        <ele>1133.05</ele>
        <time>2019-11-14T09:16:01.212000Z</time>
      </trkpt>
      <trkpt lat="37.84287252458314" lon="112.00716280183933">
        <ele>1130.95</ele>
        <time>2019-11-14T09:16:13.212000Z</time>
      </trkpt>
      <trkpt lat="37.84259587329822" lon="112.0073701187532">
        <ele>1128.56</ele>
        <time>2019-11-14T09:16:25.212000Z</time>
      </trkpt>
      <trkpt lat="37.84234604101688" lon="112.00754941371791">
        <ele>1130.71</ele>
        <time>2019-11-14T09:16:34.212000Z</time>
      </trkpt>
      <trkpt lat="37.842179526059994" lon="112.00766451349841">
        <ele>1130.44</ele>
        <time>2019-11-14T09:16:40.212000Z</time>
      </trkpt>
      <trkpt lat="37.84211174926389" lon="112.00773622929908">
        <ele>1131.85</ele>
        <time>2019-11-14T09:16:43.212000Z</time>
      </trkpt>
      <trkpt lat="37.84180457948338" lon="112.00796233869946">
        <ele>1132.77</ele>
        <time>2019-11-14T09:16:55.212000Z</time>
      </trkpt>
      <trkpt lat="37.84155624433218" lon="112.00806907895327">
        <ele>1135.03</ele>
        <time>2019-11-14T09:17:04.212000Z</time>
      </trkpt>
      <trkpt lat="37.841232349002304" lon="112.00813025137788">
        <ele>1136.57</ele>
        <time>2019-11-14T09:17:16.212000Z</time>
      </trkpt>
      <trkpt lat="37.84105910969333" lon="112.00811922079154">
        <ele>1135.84</ele>
        <time>2019-11-14T09:17:22.212000Z</time>
      </trkpt>
      <trkpt lat="37.840891562042046" lon="112.00806236708729">
        <ele>1132.92</ele>
        <time>2019-11-14T09:17:28.212000Z</time>
      </trkpt>
      <trkpt lat="37.84080845543382" lon="112.00800964842554">
        <ele>1132.94</ele>
        <time>2019-11-14T09:17:31.212000Z</time>
      </trkpt>
      <trkpt lat="37.84072255218368" lon="112.0079667688023">
        <ele>1134.39</ele>
        <time>2019-11-14T09:17:34.212000Z</time>
      </trkpt>
      <trkpt lat="37.84036459264715" lon="112.00790861793115">
        <ele>1132.11</ele>
        <time>2019-11-14T09:17:46.212000Z</time>
      </trkpt>
      <trkpt lat="37.84017301579781" lon="112.00790774005553">
        <ele>1132.54</ele>
        <time>2019-11-14T09:17:52.212000Z</time>
      </trkpt>
      <trkpt lat="37.83991932987593" lon="112.00799883915947">
        <ele>1134.99</ele>
        <time>2019-11-14T09:18:01.212000Z</time>
      </trkpt>
      <trkpt lat="37.8395635319698" lon="112.00804857619994">
        <ele>1134.33</ele>
        <time>2019-11-14T09:18:13.212000Z</time>
      </trkpt>
      <trkpt lat="37.8392841937146" lon="112.00808955188275">
        <ele>1135.8</ele>
        <time>2019-11-14T09:18:22.212000Z</time>
      </trkpt>
      <trkpt lat="37.83919862288354" lon="112.00807328147485">
        <ele>1135.57</ele>
        <time>2019-11-14T09:18:25.212000Z</time>
      </trkpt>
      <trkpt lat="37.83893123550733" lon="112.00813241841138">
        <ele>1136.17</ele>
        <time>2019-11-14T09:18:34.212000Z</time>
      </trkpt>
      <trkpt lat="37.838763208435545" lon="112.00819605477535">
        <ele>1134.24</ele>
        <time>2019-11-14T09:18:40.212000Z</time>
      </trkpt>
      <trkpt lat="37.83858302946718" lon="112.00822011828687">
        <ele>1132.27</ele>
        <time>2019-11-14T09:18:46.212000Z</time>
      </trkpt>
      <trkpt lat="37.83849167900825" lon="112.00821190852675">
        <ele>1134.28</ele>
        <time>2019-11-14T09:18:49.212000Z</time>
      </trkpt>
      <trkpt lat="37.838205807446236" lon="112.00815269718268">
        <ele>1139.65</ele>
        <time>2019-11-14T09:18:58.212000Z</time>
      </trkpt>
      <trkpt lat="37.83811785973243" lon="112.00810991022152">
        <ele>1137.67</ele>
        <time>2019-11-14T09:19:01.212000Z</time>
      </trkpt>
      <trkpt lat="37.838029912670336" lon="112.00807537525927">
        <ele>1139.76</ele>
        <time>2019-11-14T09:19:04.212000Z</time>
      </trkpt>
      <trkpt lat="37.837776824768405" lon="112.0079689000125">
        <ele>1141.09</ele>
        <time>2019-11-14T09:19:13.212000Z</time>
      </trkpt>
      <trkpt lat="37.837500965237375" lon="112.00786519747315">
        <ele>1143.94</ele>
        <time>2019-11-14T09:19:22.212000Z</time>
      </trkpt>
      <trkpt lat="37.83732181932558" lon="112.00781986640783">
        <ele>1144.81</ele>
        <time>2019-11-14T09:19:28.212000Z</time>
      </trkpt>
      <trkpt lat="37.83715871814513" lon="112.00775076369037">
        <ele>1145.37</ele>
        <time>2019-11-14T09:19:34.212000Z</time>
      </trkpt>
      <trkpt lat="37.83706870704819" lon="112.0077315904814">
        <ele>1147.0</ele>
        <time>2019-11-14T09:19:37.212000Z</time>
      </trkpt>
      <trkpt lat="37.836797500194876" lon="112.0075964512136">
        <ele>1148.78</ele>
        <time>2019-11-14T09:19:46.212000Z</time>
      </trkpt>
      <trkpt lat="37.836452948654525" lon="112.00749028864527">
        <ele>1147.47</ele>
        <time>2019-11-14T09:19:58.212000Z</time>
      </trkpt>
      <trkpt lat="37.836120902944195" lon="112.00739123995295">
        <ele>1146.05</ele>
        <time>2019-11-14T09:20:10.212000Z</time>
      </trkpt>
      <trkpt lat="37.835933868021165" lon="112.0073521913393">
        <ele>1147.97</ele>
        <time>2019-11-14T09:20:16.212000Z</time>
      </trkpt>
      <trkpt lat="37.83565492433731" lon="112.00734981642962">
        <ele>1148.96</ele>
        <time>2019-11-14T09:20:25.212000Z</time>
      </trkpt>
      <trkpt lat="37.835542584730554" lon="112.00733788694954">
        <ele>1151.24</ele>
        <time>2019-11-14T09:20:28.212000Z</time>
      </trkpt>
      <trkpt lat="37.835447157841045" lon="112.0073117656504">
        <ele>1151.87</ele>
        <time>2019-11-14T09:20:31.212000Z</time>
      </trkpt>
      <trkpt lat="37.8353771530013" lon="112.00721705993564">
        <ele>1152.1</ele>
        <time>2019-11-14T09:20:34.212000Z</time>
      </trkpt>
      <trkpt lat="37.83532466858714" lon="112.00709499002018">
        <ele>1153.52</ele>
        <time>2019-11-14T09:20:37.212000Z</time>
      </trkpt>
      <trkpt lat="37.835272646522974" lon="112.00702289380737">
        <ele>1151.6</ele>
        <time>2019-11-14T09:20:40.212000Z</time>
      </trkpt>
      <trkpt lat="37.835220974478766" lon="112.0069289651491">
        <ele>1152.02</ele>
        <time>2019-11-14T09:20:43.312000Z</time>
      </trkpt>
      <trkpt lat="37.83515692295437" lon="112.00685664591">
        <ele>1150.01</ele>
        <time>2019-11-14T09:20:46.212000Z</time>
      </trkpt>
      <trkpt lat="37.83509135900046" lon="112.00681477300445">
        <ele>1148.95</ele>
        <time>2019-11-14T09:20:49.212000Z</time>
      </trkpt>
      <trkpt lat="37.83515504767616" lon="112.00688563582229">
        <ele>1150.68</ele>
        <time>2019-11-14T09:20:55.212000Z</time>
      </trkpt>
      <trkpt lat="37.83523528975394" lon="112.00693494835063">
        <ele>1152.64</ele>
        <time>2019-11-14T09:20:58.212000Z</time>
      </trkpt>
      <trkpt lat="37.8353081631905" lon="112.00701680315107">
        <ele>1156.14</ele>
        <time>2019-11-14T09:21:01.312000Z</time>
      </trkpt>
      <trkpt lat="37.83536929414806" lon="112.00713403884966">
        <ele>1153.45</ele>
        <time>2019-11-14T09:21:07.212000Z</time>
      </trkpt>
      <trkpt lat="37.8354097405742" lon="112.0072269601958">
        <ele>1154.12</ele>
        <time>2019-11-14T09:21:10.212000Z</time>
      </trkpt>
      <trkpt lat="37.83555906544575" lon="112.00730195026001">
        <ele>1158.26</ele>
        <time>2019-11-14T09:21:13.212000Z</time>
      </trkpt>
      <trkpt lat="37.83589771833575" lon="112.00736325133488">
        <ele>1160.42</ele>
        <time>2019-11-14T09:21:25.212000Z</time>
      </trkpt>
      <trkpt lat="37.83623330252403" lon="112.00745370450986">
        <ele>1159.33</ele>
        <time>2019-11-14T09:21:37.212000Z</time>
      </trkpt>
      <trkpt lat="37.836381663587865" lon="112.00747552465036">
        <ele>1159.57</ele>
        <time>2019-11-14T09:21:43.212000Z</time>
      </trkpt>
      <trkpt lat="37.836652859092545" lon="112.00759520057898">
        <ele>1161.54</ele>
        <time>2019-11-14T09:21:52.312000Z</time>
      </trkpt>
      <trkpt lat="37.836931593154596" lon="112.00768119411072">
        <ele>1159.89</ele>
        <time>2019-11-14T09:22:01.212000Z</time>
      </trkpt>
      <trkpt lat="37.837246025182075" lon="112.00778320925781">
        <ele>1159.26</ele>
        <time>2019-11-14T09:22:10.212000Z</time>
      </trkpt>
      <trkpt lat="37.837377358166414" lon="112.00780519580886">
        <ele>1161.48</ele>
        <time>2019-11-14T09:22:13.212000Z</time>
      </trkpt>
      <trkpt lat="37.83744518665167" lon="112.0078420523344">
        <ele>1159.41</ele>
        <time>2019-11-14T09:22:16.212000Z</time>
      </trkpt>
      <trkpt lat="37.837802730750845" lon="112.00797484522282">
        <ele>1159.59</ele>
        <time>2019-11-14T09:22:28.212000Z</time>
      </trkpt>
      <trkpt lat="37.83811048923095" lon="112.008081976718">
        <ele>1157.19</ele>
        <time>2019-11-14T09:22:37.212000Z</time>
      </trkpt>
      <trkpt lat="37.838329778520226" lon="112.00820410946194">
        <ele>1148.7</ele>
        <time>2019-11-14T09:22:46.212000Z</time>
      </trkpt>
      <trkpt lat="37.838521139870274" lon="112.00822937956919">
        <ele>1150.06</ele>
        <time>2019-11-14T09:22:52.212000Z</time>
      </trkpt>
      <trkpt lat="37.83883441736413" lon="112.0081726823454">
        <ele>1151.48</ele>
        <time>2019-11-14T09:23:01.212000Z</time>
      </trkpt>
      <trkpt lat="37.83913171841678" lon="112.00813474582507">
        <ele>1149.5</ele>
        <time>2019-11-14T09:23:10.212000Z</time>
      </trkpt>
      <trkpt lat="37.83929798790099" lon="112.00810340624712">
        <ele>1145.92</ele>
        <time>2019-11-14T09:23:16.212000Z</time>
      </trkpt>
      <trkpt lat="37.839586254166946" lon="112.00809463941849">
        <ele>1141.63</ele>
        <time>2019-11-14T09:23:25.212000Z</time>
      </trkpt>
      <trkpt lat="37.83988155879831" lon="112.00804198316118">
        <ele>1145.73</ele>
        <time>2019-11-14T09:23:34.212000Z</time>
      </trkpt>
      <trkpt lat="37.84021222016859" lon="112.00799712023068">
        <ele>1143.8</ele>
        <time>2019-11-14T09:23:43.212000Z</time>
      </trkpt>
      <trkpt lat="37.840307171526916" lon="112.00799528752601">
        <ele>1142.5</ele>
        <time>2019-11-14T09:23:46.212000Z</time>
      </trkpt>
      <trkpt lat="37.84065010953582" lon="112.00807563900867">
        <ele>1140.54</ele>
        <time>2019-11-14T09:23:58.212000Z</time>
      </trkpt>
      <trkpt lat="37.840930027229774" lon="112.0081264007671">
        <ele>1140.52</ele>
        <time>2019-11-14T09:24:07.212000Z</time>
      </trkpt>
      <trkpt lat="37.84120172248197" lon="112.00815032783682">
        <ele>1140.82</ele>
        <time>2019-11-14T09:24:16.212000Z</time>
      </trkpt>
      <trkpt lat="37.84138764921982" lon="112.00814025586648">
        <ele>1138.17</ele>
        <time>2019-11-14T09:24:22.212000Z</time>
      </trkpt>
      <trkpt lat="37.84169881633138" lon="112.00805474508543">
        <ele>1138.97</ele>
        <time>2019-11-14T09:24:31.212000Z</time>
      </trkpt>
      <trkpt lat="37.84196316072554" lon="112.0078979511143">
        <ele>1135.47</ele>
        <time>2019-11-14T09:24:40.212000Z</time>
      </trkpt>
      <trkpt lat="37.84213678104245" lon="112.00775714731182">
        <ele>1135.56</ele>
        <time>2019-11-14T09:24:46.212000Z</time>
      </trkpt>
      <trkpt lat="37.84239373202369" lon="112.00757348151424">
        <ele>1133.16</ele>
        <time>2019-11-14T09:24:55.212000Z</time>
      </trkpt>
      <trkpt lat="37.84262820325636" lon="112.007352632949">
        <ele>1134.05</ele>
        <time>2019-11-14T09:25:04.212000Z</time>
      </trkpt>
      <trkpt lat="37.84270716995215" lon="112.00728914839469">
        <ele>1134.6</ele>
        <time>2019-11-14T09:25:07.212000Z</time>
      </trkpt>
      <trkpt lat="37.842875322921415" lon="112.00718684915627">
        <ele>1134.12</ele>
        <time>2019-11-14T09:25:13.212000Z</time>
      </trkpt>
      <trkpt lat="37.84313690146225" lon="112.00697841122702">
        <ele>1136.14</ele>
        <time>2019-11-14T09:25:22.212000Z</time>
      </trkpt>
      <trkpt lat="37.84337906357689" lon="112.00681239722913">
        <ele>1131.66</ele>
        <time>2019-11-14T09:25:31.212000Z</time>
      </trkpt>
      <trkpt lat="37.84346617082501" lon="112.00674868400479">
        <ele>1132.03</ele>
        <time>2019-11-14T09:25:34.212000Z</time>
      </trkpt>
      <trkpt lat="37.84363322373294" lon="112.00660110210512">
        <ele>1133.49</ele>
        <time>2019-11-14T09:25:40.212000Z</time>
      </trkpt>
      <trkpt lat="37.84388475084507" lon="112.0064028767838">
        <ele>1131.87</ele>
        <time>2019-11-14T09:25:49.212000Z</time>
      </trkpt>
      <trkpt lat="37.84414651084179" lon="112.00625165913871">
        <ele>1133.04</ele>
        <time>2019-11-14T09:25:58.212000Z</time>
      </trkpt>
      <trkpt lat="37.844420195446745" lon="112.00611938917737">
        <ele>1132.86</ele>
        <time>2019-11-14T09:26:07.212000Z</time>
      </trkpt>
      <trkpt lat="37.844599961031385" lon="112.00608987404861">
        <ele>1130.57</ele>
        <time>2019-11-14T09:26:13.212000Z</time>
      </trkpt>
      <trkpt lat="37.84492110092697" lon="112.0062093446422">
        <ele>1129.32</ele>
        <time>2019-11-14T09:26:25.212000Z</time>
      </trkpt>
      <trkpt lat="37.845277940995736" lon="112.0062669373502">
        <ele>1132.62</ele>
        <time>2019-11-14T09:26:34.212000Z</time>
      </trkpt>
      <trkpt lat="37.84541009317498" lon="112.00630359579064">
        <ele>1135.63</ele>
        <time>2019-11-14T09:26:37.212000Z</time>
      </trkpt>
      <trkpt lat="37.845738977513506" lon="112.00644395747105">
        <ele>1131.71</ele>
        <time>2019-11-14T09:26:49.212000Z</time>
      </trkpt>
      <trkpt lat="37.846052711283455" lon="112.00653561034378">
        <ele>1135.28</ele>
        <time>2019-11-14T09:26:58.212000Z</time>
      </trkpt>
      <trkpt lat="37.84640146379351" lon="112.0065934907646">
        <ele>1136.23</ele>
        <time>2019-11-14T09:27:07.212000Z</time>
      </trkpt>
      <trkpt lat="37.846713675268084" lon="112.00663795285544">
        <ele>1136.03</ele>
        <time>2019-11-14T09:27:16.312000Z</time>
      </trkpt>
      <trkpt lat="37.84704468229992" lon="112.00667002486503">
        <ele>1136.84</ele>
        <time>2019-11-14T09:27:25.212000Z</time>
      </trkpt>
      <trkpt lat="37.84738250658334" lon="112.00669258557924">
        <ele>1136.51</ele>
        <time>2019-11-14T09:27:34.212000Z</time>
      </trkpt>
      <trkpt lat="37.84770822781942" lon="112.006731113404">
        <ele>1139.23</ele>
        <time>2019-11-14T09:27:43.212000Z</time>
      </trkpt>
      <trkpt lat="37.847988813390614" lon="112.00677675225614">
        <ele>1135.83</ele>
        <time>2019-11-14T09:27:52.212000Z</time>
      </trkpt>
      <trkpt lat="37.84829274308942" lon="112.00681972528085">
        <ele>1137.0</ele>
        <time>2019-11-14T09:28:01.212000Z</time>
      </trkpt>
      <trkpt lat="37.84838790859271" lon="112.00685434426201">
        <ele>1135.93</ele>
        <time>2019-11-14T09:28:04.212000Z</time>
      </trkpt>
      <trkpt lat="37.84857076148493" lon="112.00702435066005">
        <ele>1136.4</ele>
        <time>2019-11-14T09:28:10.212000Z</time>
      </trkpt>
      <trkpt lat="37.8485212372961" lon="112.0071333164848">
        <ele>1125.11</ele>
        <time>2019-11-14T09:28:13.212000Z</time>
      </trkpt>
      <trkpt lat="37.84854411155897" lon="112.00723317310147">
        <ele>1123.59</ele>
        <time>2019-11-14T09:28:16.212000Z</time>
      </trkpt>
      <trkpt lat="37.84874418538855" lon="112.00754672310924">
        <ele>1123.06</ele>
        <time>2019-11-14T09:28:25.212000Z</time>
      </trkpt>
      <trkpt lat="37.848950189667455" lon="112.00785829358986">
        <ele>1119.42</ele>
        <time>2019-11-14T09:28:34.212000Z</time>
      </trkpt>
      <trkpt lat="37.849136963294015" lon="112.00814544308301">
        <ele>1121.66</ele>
        <time>2019-11-14T09:28:43.212000Z</time>
      </trkpt>
      <trkpt lat="37.849326937711204" lon="112.00843945363857">
        <ele>1117.3</ele>
        <time>2019-11-14T09:28:52.212000Z</time>
      </trkpt>
      <trkpt lat="37.84951762426108" lon="112.00876598735302">
        <ele>1119.05</ele>
        <time>2019-11-14T09:29:01.212000Z</time>
      </trkpt>
      <trkpt lat="37.84965102519068" lon="112.00897544284359">
        <ele>1118.89</ele>
        <time>2019-11-14T09:29:07.212000Z</time>
      </trkpt>
      <trkpt lat="37.84980588210143" lon="112.00929148722378">
        <ele>1115.55</ele>
        <time>2019-11-14T09:29:16.212000Z</time>
      </trkpt>
      <trkpt lat="37.84988602576405" lon="112.00954023728745">
        <ele>1113.88</ele>
        <time>2019-11-14T09:29:22.212000Z</time>
      </trkpt>
      <trkpt lat="37.84990989753809" lon="112.0099258601756">
        <ele>1111.25</ele>
        <time>2019-11-14T09:29:31.212000Z</time>
      </trkpt>
      <trkpt lat="37.849926252225366" lon="112.01031894122036">
        <ele>1107.11</ele>
        <time>2019-11-14T09:29:40.212000Z</time>
      </trkpt>
      <trkpt lat="37.84989099513066" lon="112.01073382294962">
        <ele>1108.4</ele>
        <time>2019-11-14T09:29:49.212000Z</time>
      </trkpt>
      <trkpt lat="37.849851542540364" lon="112.01113986979344">
        <ele>1108.78</ele>
        <time>2019-11-14T09:29:58.212000Z</time>
      </trkpt>
      <trkpt lat="37.849824953840674" lon="112.01152185146468">
        <ele>1112.1</ele>
        <time>2019-11-14T09:30:07.212000Z</time>
      </trkpt>
      <trkpt lat="37.84979314845222" lon="112.01191152394584">
        <ele>1111.53</ele>
        <time>2019-11-14T09:30:16.212000Z</time>
      </trkpt>
      <trkpt lat="37.84975853234738" lon="112.01227854667006">
        <ele>1110.77</ele>
        <time>2019-11-14T09:30:25.212000Z</time>
      </trkpt>
      <trkpt lat="37.849727535191285" lon="112.01264805758862">
        <ele>1110.55</ele>
        <time>2019-11-14T09:30:34.212000Z</time>
      </trkpt>
      <trkpt lat="37.849686221572156" lon="112.01303249568167">
        <ele>1110.79</ele>
        <time>2019-11-14T09:30:43.212000Z</time>
      </trkpt>
      <trkpt lat="37.84963859038069" lon="112.01338816292221">
        <ele>1111.94</ele>
        <time>2019-11-14T09:30:52.312000Z</time>
      </trkpt>
      <trkpt lat="37.84961761229138" lon="112.01374970302359">
        <ele>1109.64</ele>
        <time>2019-11-14T09:31:01.212000Z</time>
      </trkpt>
      <trkpt lat="37.84958214405725" lon="112.01416286163666">
        <ele>1110.62</ele>
        <time>2019-11-14T09:31:10.212000Z</time>
      </trkpt>
      <trkpt lat="37.84955594123156" lon="112.01445656223723">
        <ele>1111.66</ele>
        <time>2019-11-14T09:31:16.212000Z</time>
      </trkpt>
      <trkpt lat="37.84952152589887" lon="112.01469866201919">
        <ele>1109.26</ele>
        <time>2019-11-14T09:31:22.212000Z</time>
      </trkpt>
      <trkpt lat="37.849500643687115" lon="112.01505757026948">
        <ele>1105.55</ele>
        <time>2019-11-14T09:31:31.212000Z</time>
      </trkpt>
      <trkpt lat="37.84948571141789" lon="112.0152924428116">
        <ele>1105.39</ele>
        <time>2019-11-14T09:31:37.212000Z</time>
      </trkpt>
      <trkpt lat="37.84944325254188" lon="112.01566600817509">
        <ele>1103.55</ele>
        <time>2019-11-14T09:31:46.212000Z</time>
      </trkpt>
      <trkpt lat="37.84940255730316" lon="112.01602863230292">
        <ele>1106.86</ele>
        <time>2019-11-14T09:31:55.212000Z</time>
      </trkpt>
      <trkpt lat="37.849353839833206" lon="112.01637629452591">
        <ele>1104.72</ele>
        <time>2019-11-14T09:32:04.212000Z</time>
      </trkpt>
      <trkpt lat="37.84931955593355" lon="112.01682203377767">
        <ele>1106.73</ele>
        <time>2019-11-14T09:32:16.212000Z</time>
      </trkpt>
      <trkpt lat="37.84925875331978" lon="112.01724642106447">
        <ele>1108.16</ele>
        <time>2019-11-14T09:32:25.212000Z</time>
      </trkpt>
      <trkpt lat="37.84920554910704" lon="112.0176200148114">
        <ele>1107.6</ele>
        <time>2019-11-14T09:32:34.212000Z</time>
      </trkpt>
      <trkpt lat="37.84918473526534" lon="112.01774444259657">
        <ele>1106.37</ele>
        <time>2019-11-14T09:32:37.212000Z</time>
      </trkpt>
      <trkpt lat="37.849203069854525" lon="112.01806731754813">
        <ele>1105.14</ele>
        <time>2019-11-14T09:32:46.212000Z</time>
      </trkpt>
      <trkpt lat="37.84914909824626" lon="112.01843532553058">
        <ele>1105.39</ele>
        <time>2019-11-14T09:32:52.312000Z</time>
      </trkpt>
      <trkpt lat="37.849172373632435" lon="112.01829535198488">
        <ele>1105.17</ele>
        <time>2019-11-14T09:32:58.212000Z</time>
      </trkpt>
      <trkpt lat="37.84918907994133" lon="112.0179776124834">
        <ele>1109.74</ele>
        <time>2019-11-14T09:33:07.212000Z</time>
      </trkpt>
      <trkpt lat="37.84921931975538" lon="112.01769530430576">
        <ele>1111.82</ele>
        <time>2019-11-14T09:33:13.212000Z</time>
      </trkpt>
      <trkpt lat="37.84922058843669" lon="112.01736321900519">
        <ele>1112.96</ele>
        <time>2019-11-14T09:33:19.212000Z</time>
      </trkpt>
      <trkpt lat="37.84925201085568" lon="112.01701148723006">
        <ele>1110.43</ele>
        <time>2019-11-14T09:33:28.212000Z</time>
      </trkpt>
      <trkpt lat="37.849311903444296" lon="112.01657511173082">
        <ele>1114.26</ele>
        <time>2019-11-14T09:33:40.212000Z</time>
      </trkpt>
      <trkpt lat="37.84934777161609" lon="112.01623029728441">
        <ele>1113.67</ele>
        <time>2019-11-14T09:33:49.212000Z</time>
      </trkpt>
      <trkpt lat="37.84939854982949" lon="112.01580726078767">
        <ele>1111.07</ele>
        <time>2019-11-14T09:34:01.212000Z</time>
      </trkpt>
      <trkpt lat="37.84944035667292" lon="112.01545617224814">
        <ele>1109.55</ele>
        <time>2019-11-14T09:34:10.212000Z</time>
      </trkpt>
      <trkpt lat="37.849472408443425" lon="112.01523043195574">
        <ele>1111.15</ele>
        <time>2019-11-14T09:34:16.212000Z</time>
      </trkpt>
      <trkpt lat="37.84949489869679" lon="112.01482190922148">
        <ele>1111.48</ele>
        <time>2019-11-14T09:34:25.212000Z</time>
      </trkpt>
      <trkpt lat="37.84953143053219" lon="112.01445933669379">
        <ele>1112.25</ele>
        <time>2019-11-14T09:34:34.212000Z</time>
      </trkpt>
      <trkpt lat="37.84958562510362" lon="112.01402072658446">
        <ele>1115.13</ele>
        <time>2019-11-14T09:34:46.212000Z</time>
      </trkpt>
      <trkpt lat="37.84963329438457" lon="112.01358141368961">
        <ele>1117.06</ele>
        <time>2019-11-14T09:34:58.212000Z</time>
      </trkpt>
      <trkpt lat="37.84965242111063" lon="112.01323624062421">
        <ele>1116.12</ele>
        <time>2019-11-14T09:35:07.212000Z</time>
      </trkpt>
      <trkpt lat="37.849697660915936" lon="112.01278765290719">
        <ele>1116.08</ele>
        <time>2019-11-14T09:35:19.212000Z</time>
      </trkpt>
      <trkpt lat="37.84971925595588" lon="112.01240021807637">
        <ele>1115.16</ele>
        <time>2019-11-14T09:35:28.212000Z</time>
      </trkpt>
      <trkpt lat="37.84973833789992" lon="112.0120233885801">
        <ele>1114.05</ele>
        <time>2019-11-14T09:35:37.212000Z</time>
      </trkpt>
      <trkpt lat="37.84975790850564" lon="112.01164671674604">
        <ele>1116.54</ele>
        <time>2019-11-14T09:35:46.212000Z</time>
      </trkpt>
      <trkpt lat="37.849779743721804" lon="112.01133755900901">
        <ele>1116.22</ele>
        <time>2019-11-14T09:35:55.212000Z</time>
      </trkpt>
      <trkpt lat="37.84978178633927" lon="112.01112375050663">
        <ele>1113.78</ele>
        <time>2019-11-14T09:36:01.212000Z</time>
      </trkpt>
      <trkpt lat="37.84981971721398" lon="112.01080747885626">
        <ele>1115.54</ele>
        <time>2019-11-14T09:36:10.212000Z</time>
      </trkpt>
      <trkpt lat="37.84983675045859" lon="112.01043891014925">
        <ele>1117.87</ele>
        <time>2019-11-14T09:36:19.212000Z</time>
      </trkpt>
      <trkpt lat="37.8498462855951" lon="112.01007439960294">
        <ele>1118.41</ele>
        <time>2019-11-14T09:36:28.212000Z</time>
      </trkpt>
      <trkpt lat="37.84984838623273" lon="112.00970924574112">
        <ele>1114.73</ele>
        <time>2019-11-14T09:36:37.312000Z</time>
      </trkpt>
      <trkpt lat="37.849850367729594" lon="112.00958679823346">
        <ele>1117.62</ele>
        <time>2019-11-14T09:36:40.212000Z</time>
      </trkpt>
      <trkpt lat="37.849814485895855" lon="112.0093347037731">
        <ele>1117.39</ele>
        <time>2019-11-14T09:36:46.212000Z</time>
      </trkpt>
      <trkpt lat="37.84968716633848" lon="112.0090207536789">
        <ele>1117.76</ele>
        <time>2019-11-14T09:36:55.212000Z</time>
      </trkpt>
      <trkpt lat="37.84951873782692" lon="112.00875312322454">
        <ele>1118.68</ele>
        <time>2019-11-14T09:37:04.212000Z</time>
      </trkpt>
      <trkpt lat="37.84946822736825" lon="112.00867320536211">
        <ele>1119.7</ele>
        <time>2019-11-14T09:37:07.212000Z</time>
      </trkpt>
      <trkpt lat="37.849401517484324" lon="112.00858251694292">
        <ele>1117.62</ele>
        <time>2019-11-14T09:37:10.212000Z</time>
      </trkpt>
      <trkpt lat="37.849232081156224" lon="112.0083159324609">
        <ele>1118.94</ele>
        <time>2019-11-14T09:37:19.212000Z</time>
      </trkpt>
      <trkpt lat="37.849040183355655" lon="112.00803248366921">
        <ele>1118.98</ele>
        <time>2019-11-14T09:37:28.212000Z</time>
      </trkpt>
      <trkpt lat="37.84885550937684" lon="112.00773981812117">
        <ele>1119.81</ele>
        <time>2019-11-14T09:37:37.212000Z</time>
      </trkpt>
      <trkpt lat="37.8486410727076" lon="112.00743629838414">
        <ele>1122.62</ele>
        <time>2019-11-14T09:37:46.212000Z</time>
      </trkpt>
      <trkpt lat="37.84846136981776" lon="112.00712860038512">
        <ele>1124.79</ele>
        <time>2019-11-14T09:37:55.212000Z</time>
      </trkpt>
      <trkpt lat="37.84834409603958" lon="112.00695185194134">
        <ele>1122.85</ele>
        <time>2019-11-14T09:38:01.212000Z</time>
      </trkpt>
      <trkpt lat="37.84817459910775" lon="112.00678063060312">
        <ele>1118.9</ele>
        <time>2019-11-14T09:38:10.212000Z</time>
      </trkpt>
      <trkpt lat="37.84785827023359" lon="112.00670573491496">
        <ele>1116.94</ele>
        <time>2019-11-14T09:38:22.212000Z</time>
      </trkpt>
      <trkpt lat="37.84777392305157" lon="112.00670871739074">
        <ele>1114.34</ele>
        <time>2019-11-14T09:38:25.212000Z</time>
      </trkpt>
      <trkpt lat="37.84768186669294" lon="112.00672096968472">
        <ele>1114.1</ele>
        <time>2019-11-14T09:38:28.212000Z</time>
      </trkpt>
      <trkpt lat="37.847585626084104" lon="112.00672667243295">
        <ele>1114.8</ele>
        <time>2019-11-14T09:38:31.212000Z</time>
      </trkpt>
      <trkpt lat="37.847384778763775" lon="112.00674179618558">
        <ele>1112.51</ele>
        <time>2019-11-14T09:38:37.212000Z</time>
      </trkpt>
      <trkpt lat="37.84730518968431" lon="112.00673467188784">
        <ele>1110.42</ele>
        <time>2019-11-14T09:38:40.212000Z</time>
      </trkpt>
      <trkpt lat="37.847048751589305" lon="112.00668423049594">
        <ele>1109.59</ele>
        <time>2019-11-14T09:38:49.212000Z</time>
      </trkpt>
      <trkpt lat="37.84687797488499" lon="112.00665153892764">
        <ele>1109.7</ele>
        <time>2019-11-14T09:38:55.212000Z</time>
      </trkpt>
      <trkpt lat="37.846583140946606" lon="112.00659846156593">
        <ele>1113.14</ele>
        <time>2019-11-14T09:39:04.212000Z</time>
      </trkpt>
      <trkpt lat="37.84629024025723" lon="112.00658764279952">
        <ele>1118.72</ele>
        <time>2019-11-14T09:39:13.212000Z</time>
      </trkpt>
      <trkpt lat="37.84619172650801" lon="112.00657514315625">
        <ele>1118.53</ele>
        <time>2019-11-14T09:39:16.312000Z</time>
      </trkpt>
      <trkpt lat="37.84609484866253" lon="112.00654662639218">
        <ele>1119.3</ele>
        <time>2019-11-14T09:39:19.212000Z</time>
      </trkpt>
      <trkpt lat="37.846012818961356" lon="112.00650377842467">
        <ele>1119.04</ele>
        <time>2019-11-14T09:39:22.212000Z</time>
      </trkpt>
      <trkpt lat="37.845917519582756" lon="112.00645723497513">
        <ele>1123.34</ele>
        <time>2019-11-14T09:39:25.212000Z</time>
      </trkpt>
      <trkpt lat="37.84581281149246" lon="112.00642930698271">
        <ele>1125.65</ele>
        <time>2019-11-14T09:39:28.212000Z</time>
      </trkpt>
      <trkpt lat="37.84551943858341" lon="112.00633245087906">
        <ele>1130.39</ele>
        <time>2019-11-14T09:39:37.212000Z</time>
      </trkpt>
      <trkpt lat="37.845431436138746" lon="112.00631070469542">
        <ele>1131.0</ele>
        <time>2019-11-14T09:39:40.212000Z</time>
      </trkpt>
      <trkpt lat="37.84534503649631" lon="112.00626908199531">
        <ele>1127.18</ele>
        <time>2019-11-14T09:39:43.212000Z</time>
      </trkpt>
      <trkpt lat="37.84525510392968" lon="112.00624959106777">
        <ele>1123.36</ele>
        <time>2019-11-14T09:39:46.212000Z</time>
      </trkpt>
      <trkpt lat="37.84501011208758" lon="112.00615310259592">
        <ele>1126.88</ele>
        <time>2019-11-14T09:39:55.212000Z</time>
      </trkpt>
      <trkpt lat="37.84473621779509" lon="112.00608876499206">
        <ele>1129.61</ele>
        <time>2019-11-14T09:40:04.212000Z</time>
      </trkpt>
      <trkpt lat="37.844655302185856" lon="112.0060599283442">
        <ele>1128.0</ele>
        <time>2019-11-14T09:40:07.212000Z</time>
      </trkpt>
      <trkpt lat="37.84444906621495" lon="112.00607526978008">
        <ele>1130.28</ele>
        <time>2019-11-14T09:40:13.212000Z</time>
      </trkpt>
      <trkpt lat="37.84425752917562" lon="112.00615794355589">
        <ele>1124.74</ele>
        <time>2019-11-14T09:40:19.212000Z</time>
      </trkpt>
      <trkpt lat="37.84396600259386" lon="112.00638288953134">
        <ele>1122.28</ele>
        <time>2019-11-14T09:40:28.212000Z</time>
      </trkpt>
      <trkpt lat="37.84365160382785" lon="112.00660961747005">
        <ele>1125.86</ele>
        <time>2019-11-14T09:40:37.212000Z</time>
      </trkpt>
      <trkpt lat="37.84335070093311" lon="112.00685192032168">
        <ele>1124.52</ele>
        <time>2019-11-14T09:40:49.212000Z</time>
      </trkpt>
      <trkpt lat="37.843059959443" lon="112.00707914657339">
        <ele>1128.66</ele>
        <time>2019-11-14T09:41:01.212000Z</time>
      </trkpt>
      <trkpt lat="37.84282424327771" lon="112.00726635176204">
        <ele>1126.71</ele>
        <time>2019-11-14T09:41:10.212000Z</time>
      </trkpt>
      <trkpt lat="37.842681344451826" lon="112.00740127609932">
        <ele>1122.33</ele>
        <time>2019-11-14T09:41:16.212000Z</time>
      </trkpt>
      <trkpt lat="37.84260715838842" lon="112.00745606807364">
        <ele>1123.5</ele>
        <time>2019-11-14T09:41:19.212000Z</time>
      </trkpt>
      <trkpt lat="37.84252349158503" lon="112.00749227369008">
        <ele>1120.49</ele>
        <time>2019-11-14T09:41:22.212000Z</time>
      </trkpt>
      <trkpt lat="37.842208039358354" lon="112.0077141603391">
        <ele>1122.55</ele>
        <time>2019-11-14T09:41:34.212000Z</time>
      </trkpt>
      <trkpt lat="37.841939110569776" lon="112.00789075632548">
        <ele>1124.72</ele>
        <time>2019-11-14T09:41:43.212000Z</time>
      </trkpt>
      <trkpt lat="37.841673705122815" lon="112.00807249607391">
        <ele>1123.82</ele>
        <time>2019-11-14T09:41:52.212000Z</time>
      </trkpt>
      <trkpt lat="37.84157518780718" lon="112.00811741927141">
        <ele>1125.46</ele>
        <time>2019-11-14T09:41:55.212000Z</time>
      </trkpt>
      <trkpt lat="37.8412718775036" lon="112.00816616461557">
        <ele>1130.55</ele>
        <time>2019-11-14T09:42:04.212000Z</time>
      </trkpt>
      <trkpt lat="37.84108551669335" lon="112.00815027068658">
        <ele>1131.36</ele>
        <time>2019-11-14T09:42:10.212000Z</time>
      </trkpt>
      <trkpt lat="37.841012115032406" lon="112.00814506930507">
        <ele>1133.67</ele>
        <time>2019-11-14T09:42:13.212000Z</time>
      </trkpt>
      <trkpt lat="37.84127651804937" lon="112.00815133774093">
        <ele>1133.01</ele>
        <time>2019-11-14T09:42:25.212000Z</time>
      </trkpt>
      <trkpt lat="37.84161959463652" lon="112.00807456876525">
        <ele>1132.14</ele>
        <time>2019-11-14T09:42:37.212000Z</time>
      </trkpt>
      <trkpt lat="37.84170274343917" lon="112.00804802600553">
        <ele>1132.79</ele>
        <time>2019-11-14T09:42:40.212000Z</time>
      </trkpt>
      <trkpt lat="37.841935895294775" lon="112.00787031070182">
        <ele>1133.39</ele>
        <time>2019-11-14T09:42:49.212000Z</time>
      </trkpt>
      <trkpt lat="37.842186648690664" lon="112.00772247760047">
        <ele>1131.56</ele>
        <time>2019-11-14T09:42:58.212000Z</time>
      </trkpt>
      <trkpt lat="37.84226702699436" lon="112.00768383406057">
        <ele>1131.69</ele>
        <time>2019-11-14T09:43:01.212000Z</time>
      </trkpt>
      <trkpt lat="37.84256479631518" lon="112.00743961390738">
        <ele>1131.83</ele>
        <time>2019-11-14T09:43:13.212000Z</time>
      </trkpt>
      <trkpt lat="37.84281054899911" lon="112.0072672595946">
        <ele>1130.7</ele>
        <time>2019-11-14T09:43:22.212000Z</time>
      </trkpt>
      <trkpt lat="37.8430555701335" lon="112.00705409272977">
        <ele>1133.16</ele>
        <time>2019-11-14T09:43:31.212000Z</time>
      </trkpt>
      <trkpt lat="37.843295701100004" lon="112.00683077555203">
        <ele>1132.18</ele>
        <time>2019-11-14T09:43:40.212000Z</time>
      </trkpt>
      <trkpt lat="37.84355066514022" lon="112.00667800314208">
        <ele>1132.12</ele>
        <time>2019-11-14T09:43:49.212000Z</time>
      </trkpt>
      <trkpt lat="37.84380632761891" lon="112.00648169810954">
        <ele>1129.3</ele>
        <time>2019-11-14T09:43:58.212000Z</time>
      </trkpt>
      <trkpt lat="37.843885265017335" lon="112.00641269299119">
        <ele>1127.33</ele>
        <time>2019-11-14T09:44:01.212000Z</time>
      </trkpt>
      <trkpt lat="37.844158780284424" lon="112.00628297227716">
        <ele>1124.0</ele>
        <time>2019-11-14T09:44:10.212000Z</time>
      </trkpt>
      <trkpt lat="37.84449186520571" lon="112.00614025031895">
        <ele>1124.1</ele>
        <time>2019-11-14T09:44:22.212000Z</time>
      </trkpt>
      <trkpt lat="37.844783027695996" lon="112.00620207137193">
        <ele>1125.46</ele>
        <time>2019-11-14T09:44:31.212000Z</time>
      </trkpt>
      <trkpt lat="37.84507165052339" lon="112.00627236300119">
        <ele>1126.4</ele>
        <time>2019-11-14T09:44:40.212000Z</time>
      </trkpt>
      <trkpt lat="37.84541562414747" lon="112.00636189534828">
        <ele>1122.84</ele>
        <time>2019-11-14T09:44:52.212000Z</time>
      </trkpt>
      <trkpt lat="37.845685417877014" lon="112.00645436863682">
        <ele>1123.82</ele>
        <time>2019-11-14T09:45:01.212000Z</time>
      </trkpt>
      <trkpt lat="37.845968692152205" lon="112.00655936265906">
        <ele>1125.45</ele>
        <time>2019-11-14T09:45:10.212000Z</time>
      </trkpt>
      <trkpt lat="37.84623987502112" lon="112.00662752448615">
        <ele>1121.78</ele>
        <time>2019-11-14T09:45:19.212000Z</time>
      </trkpt>
      <trkpt lat="37.84653166668489" lon="112.00666438411616">
        <ele>1121.94</ele>
        <time>2019-11-14T09:45:28.212000Z</time>
      </trkpt>
      <trkpt lat="37.84682128838421" lon="112.0067019838238">
        <ele>1121.75</ele>
        <time>2019-11-14T09:45:37.212000Z</time>
      </trkpt>
      <trkpt lat="37.847142649976476" lon="112.00673616301721">
        <ele>1120.12</ele>
        <time>2019-11-14T09:45:46.212000Z</time>
      </trkpt>
      <trkpt lat="37.84748259239286" lon="112.00679029335261">
        <ele>1119.36</ele>
        <time>2019-11-14T09:45:58.212000Z</time>
      </trkpt>
      <trkpt lat="37.84782274437355" lon="112.00683330297089">
        <ele>1114.46</ele>
        <time>2019-11-14T09:46:10.212000Z</time>
      </trkpt>
      <trkpt lat="37.84803741563277" lon="112.00686054274264">
        <ele>1117.53</ele>
        <time>2019-11-14T09:46:16.212000Z</time>
      </trkpt>
      <trkpt lat="37.84825502927854" lon="112.00694573635114">
        <ele>1117.45</ele>
        <time>2019-11-14T09:46:22.212000Z</time>
      </trkpt>
      <trkpt lat="37.84834954236171" lon="112.0070185503396">
        <ele>1118.33</ele>
        <time>2019-11-14T09:46:25.212000Z</time>
      </trkpt>
      <trkpt lat="37.84854830467872" lon="112.00730565806462">
        <ele>1117.83</ele>
        <time>2019-11-14T09:46:34.212000Z</time>
      </trkpt>
      <trkpt lat="37.848750418336586" lon="112.00761258773623">
        <ele>1120.4</ele>
        <time>2019-11-14T09:46:43.212000Z</time>
      </trkpt>
      <trkpt lat="37.8489297308945" lon="112.0078851157453">
        <ele>1120.16</ele>
        <time>2019-11-14T09:46:52.312000Z</time>
      </trkpt>
      <trkpt lat="37.849112282947516" lon="112.00813855279972">
        <ele>1119.82</ele>
        <time>2019-11-14T09:47:01.212000Z</time>
      </trkpt>
      <trkpt lat="37.849286657406765" lon="112.00843386358912">
        <ele>1121.18</ele>
        <time>2019-11-14T09:47:10.212000Z</time>
      </trkpt>
      <trkpt lat="37.849490303051624" lon="112.00874269576714">
        <ele>1119.26</ele>
        <time>2019-11-14T09:47:19.212000Z</time>
      </trkpt>
      <trkpt lat="37.84967690856184" lon="112.00903933776884">
        <ele>1118.19</ele>
        <time>2019-11-14T09:47:28.212000Z</time>
      </trkpt>
      <trkpt lat="37.84979226946294" lon="112.00924270331859">
        <ele>1116.56</ele>
        <time>2019-11-14T09:47:34.212000Z</time>
      </trkpt>
      <trkpt lat="37.849848129316406" lon="112.00960467310867">
        <ele>1115.94</ele>
        <time>2019-11-14T09:47:43.212000Z</time>
      </trkpt>
      <trkpt lat="37.84986233389579" lon="112.01003650031377">
        <ele>1113.88</ele>
        <time>2019-11-14T09:47:52.212000Z</time>
      </trkpt>
      <trkpt lat="37.84986988484881" lon="112.01039135187744">
        <ele>1111.28</ele>
        <time>2019-11-14T09:48:01.212000Z</time>
      </trkpt>
      <trkpt lat="37.849845248911684" lon="112.0107962051961">
        <ele>1112.03</ele>
        <time>2019-11-14T09:48:10.212000Z</time>
      </trkpt>
      <trkpt lat="37.849812955455505" lon="112.01120558824582">
        <ele>1112.61</ele>
        <time>2019-11-14T09:48:19.212000Z</time>
      </trkpt>
      <trkpt lat="37.84979172977491" lon="112.0115775945914">
        <ele>1112.05</ele>
        <time>2019-11-14T09:48:28.212000Z</time>
      </trkpt>
      <trkpt lat="37.84978157160255" lon="112.01190204697868">
        <ele>1110.67</ele>
        <time>2019-11-14T09:48:37.212000Z</time>
      </trkpt>
      <trkpt lat="37.849750986173845" lon="112.01211431878069">
        <ele>1110.35</ele>
        <time>2019-11-14T09:48:43.212000Z</time>
      </trkpt>
      <trkpt lat="37.84970913460437" lon="112.01251852098432">
        <ele>1109.3</ele>
        <time>2019-11-14T09:48:52.212000Z</time>
      </trkpt>
      <trkpt lat="37.849682403620946" lon="112.01291857370401">
        <ele>1111.12</ele>
        <time>2019-11-14T09:49:01.212000Z</time>
      </trkpt>
      <trkpt lat="37.84965719212753" lon="112.01330050549457">
        <ele>1108.65</ele>
        <time>2019-11-14T09:49:10.212000Z</time>
      </trkpt>
      <trkpt lat="37.849658070690495" lon="112.0134644021812">
        <ele>1109.74</ele>
        <time>2019-11-14T09:49:13.212000Z</time>
      </trkpt>
      <trkpt lat="37.84963825925021" lon="112.0136034202665">
        <ele>1110.19</ele>
        <time>2019-11-14T09:49:16.212000Z</time>
      </trkpt>
      <trkpt lat="37.84960419090504" lon="112.01371996753365">
        <ele>1109.27</ele>
        <time>2019-11-14T09:49:19.212000Z</time>
      </trkpt>
      <trkpt lat="37.84958354448274" lon="112.01413954596399">
        <ele>1111.24</ele>
        <time>2019-11-14T09:49:28.212000Z</time>
      </trkpt>
      <trkpt lat="37.84952677427058" lon="112.01457102303038">
        <ele>1110.25</ele>
        <time>2019-11-14T09:49:37.212000Z</time>
      </trkpt>
      <trkpt lat="37.8494742658104" lon="112.01496723791628">
        <ele>1115.35</ele>
        <time>2019-11-14T09:49:46.212000Z</time>
      </trkpt>
      <trkpt lat="37.84941502984108" lon="112.01544236759453">
        <ele>1111.61</ele>
        <time>2019-11-14T09:49:58.212000Z</time>
      </trkpt>
      <trkpt lat="37.84939087394798" lon="112.01579908741651">
        <ele>1107.82</ele>
        <time>2019-11-14T09:50:07.212000Z</time>
      </trkpt>
      <trkpt lat="37.84934263594189" lon="112.01615491574363">
        <ele>1108.04</ele>
        <time>2019-11-14T09:50:16.212000Z</time>
      </trkpt>
      <trkpt lat="37.84929058642392" lon="112.01650296377268">
        <ele>1105.66</ele>
        <time>2019-11-14T09:50:25.212000Z</time>
      </trkpt>
      <trkpt lat="37.84927365424265" lon="112.0166207915863">
        <ele>1107.67</ele>
        <time>2019-11-14T09:50:28.212000Z</time>
      </trkpt>
      <trkpt lat="37.849277364946445" lon="112.0168640507275">
        <ele>1105.11</ele>
        <time>2019-11-14T09:50:34.212000Z</time>
      </trkpt>
      <trkpt lat="37.84924111889329" lon="112.01727040543477">
        <ele>1104.07</ele>
        <time>2019-11-14T09:50:43.212000Z</time>
      </trkpt>
      <trkpt lat="37.84922660409994" lon="112.01739434336739">
        <ele>1104.24</ele>
        <time>2019-11-14T09:50:46.212000Z</time>
      </trkpt>
      <trkpt lat="37.849183107709294" lon="112.01761148965097">
        <ele>1103.1</ele>
        <time>2019-11-14T09:50:52.212000Z</time>
      </trkpt>
      <trkpt lat="37.849169882163594" lon="112.01774297243679">
        <ele>1102.91</ele>
        <time>2019-11-14T09:50:55.212000Z</time>
      </trkpt>
      <trkpt lat="37.84916649129563" lon="112.01801517591281">
        <ele>1104.05</ele>
        <time>2019-11-14T09:51:01.212000Z</time>
      </trkpt>
      <trkpt lat="37.84913597887264" lon="112.01837169339258">
        <ele>1105.28</ele>
        <time>2019-11-14T09:51:10.212000Z</time>
      </trkpt>
      <trkpt lat="37.84911195085699" lon="112.01849845270873">
        <ele>1104.99</ele>
        <time>2019-11-14T09:51:13.212000Z</time>
      </trkpt>
      <trkpt lat="37.849104120210185" lon="112.0189175410587">
        <ele>1104.0</ele>
        <time>2019-11-14T09:51:22.212000Z</time>
      </trkpt>
      <trkpt lat="37.84910010598726" lon="112.01928597859705">
        <ele>1104.02</ele>
        <time>2019-11-14T09:51:31.212000Z</time>
      </trkpt>
      <trkpt lat="37.84910797445587" lon="112.0196942037877">
        <ele>1106.27</ele>
        <time>2019-11-14T09:51:40.212000Z</time>
      </trkpt>
      <trkpt lat="37.84906951334291" lon="112.02003667087311">
        <ele>1104.69</ele>
        <time>2019-11-14T09:51:49.212000Z</time>
      </trkpt>
      <trkpt lat="37.849073584652004" lon="112.02030966271789">
        <ele>1102.62</ele>
        <time>2019-11-14T09:51:55.212000Z</time>
      </trkpt>
      <trkpt lat="37.849062276973044" lon="112.0206871650295">
        <ele>1104.19</ele>
        <time>2019-11-14T09:52:04.212000Z</time>
      </trkpt>
      <trkpt lat="37.849081716106866" lon="112.02094750959363">
        <ele>1103.74</ele>
        <time>2019-11-14T09:52:10.212000Z</time>
      </trkpt>
      <trkpt lat="37.84907341658245" lon="112.02136956660945">
        <ele>1103.19</ele>
        <time>2019-11-14T09:52:19.212000Z</time>
      </trkpt>
      <trkpt lat="37.84905123247776" lon="112.02175643353603">
        <ele>1104.85</ele>
        <time>2019-11-14T09:52:28.212000Z</time>
      </trkpt>
      <trkpt lat="37.84902161562342" lon="112.02198153548959">
        <ele>1102.13</ele>
        <time>2019-11-14T09:52:34.212000Z</time>
      </trkpt>
      <trkpt lat="37.84903734284407" lon="112.02242089188677">
        <ele>1103.09</ele>
        <time>2019-11-14T09:52:43.212000Z</time>
      </trkpt>
      <trkpt lat="37.84904985780684" lon="112.0227816035787">
        <ele>1102.66</ele>
        <time>2019-11-14T09:52:52.212000Z</time>
      </trkpt>
      <trkpt lat="37.84905338933667" lon="112.02318866429522">
        <ele>1097.09</ele>
        <time>2019-11-14T09:53:04.212000Z</time>
      </trkpt>
      <trkpt lat="37.84902162746656" lon="112.02356319062173">
        <ele>1099.39</ele>
        <time>2019-11-14T09:53:13.212000Z</time>
      </trkpt>
      <trkpt lat="37.849026228810644" lon="112.02393295148242">
        <ele>1106.06</ele>
        <time>2019-11-14T09:53:22.212000Z</time>
      </trkpt>
      <trkpt lat="37.849041971007516" lon="112.02421095073713">
        <ele>1097.7</ele>
        <time>2019-11-14T09:53:31.212000Z</time>
      </trkpt>
      <trkpt lat="37.849034879735925" lon="112.02458239908836">
        <ele>1104.83</ele>
        <time>2019-11-14T09:53:49.212000Z</time>
      </trkpt>
      <trkpt lat="37.84897334899042" lon="112.02471718861013">
        <ele>1106.91</ele>
        <time>2019-11-14T09:53:58.812000Z</time>
      </trkpt>
      <trkpt lat="37.848954035088305" lon="112.02475288688625">
        <ele>1108.32</ele>
        <time>2019-11-14T09:54:01.212000Z</time>
      </trkpt>
      <trkpt lat="37.848984078593254" lon="112.02499881228752">
        <ele>1108.6</ele>
        <time>2019-11-14T09:54:13.212000Z</time>
      </trkpt>
      <trkpt lat="37.84894594635668" lon="112.02512859690968">
        <ele>1109.37</ele>
        <time>2019-11-14T09:54:22.212000Z</time>
      </trkpt>
      <trkpt lat="37.848989313296684" lon="112.02525135954748">
        <ele>1107.79</ele>
        <time>2019-11-14T09:54:28.212000Z</time>
      </trkpt>
      <trkpt lat="37.84900063754049" lon="112.02535429883862">
        <ele>1106.46</ele>
        <time>2019-11-14T09:54:34.212000Z</time>
      </trkpt>
      <trkpt lat="37.8490247854446" lon="112.02541115935412">
        <ele>1106.37</ele>
        <time>2019-11-14T09:54:37.212000Z</time>
      </trkpt>
    </trkseg>
  </trk>
</gpx>