<?xml version="1.0" encoding="UTF-8"?>
<gpx xmlns="http://www.topografix.com/GPX/1/1" xmlns:gpxtpx="http://www.garmin.com/xmlschemas/TrackPointExtension/v1" xmlns:xsi="http://www.w3.org/2001/XMLSchema-instance" xsi:schemaLocation="http://www.topografix.com/GPX/1/1 http://www.topografix.com/GPX/1/1/gpx.xsd" version="1.1" creator="gpx.py -- https://github.com/tkrajina/gpxpy">
  <trk>
    <name>gpx from keep</name>
    <type>Run</type>
    <trkseg>
      <trkpt lat="37.84471139457059" lon="112.0061188069347">
        <ele>1131.08</ele>
        <time>2019-04-19T08:04:26.045000Z</time>
      </trkpt>
      <trkpt lat="37.84502571707061" lon="112.00618064776089">
        <ele>1131.36</ele>
        <time>2019-04-19T08:04:38.045000Z</time>
      </trkpt>
      <trkpt lat="37.84520424777502" lon="112.00619627703828">
        <ele>1132.13</ele>
        <time>2019-04-19T08:04:44.045000Z</time>
      </trkpt>
      <trkpt lat="37.845466471000194" lon="112.00627770960615">
        <ele>1130.71</ele>
        <time>2019-04-19T08:04:53.045000Z</time>
      </trkpt>
      <trkpt lat="37.84572577499652" lon="112.00637849346283">
        <ele>1131.2</ele>
        <time>2019-04-19T08:05:02.045000Z</time>
      </trkpt>
      <trkpt lat="37.845896758488934" lon="112.00646639740445">
        <ele>1128.47</ele>
        <time>2019-04-19T08:05:08.045000Z</time>
      </trkpt>
      <trkpt lat="37.84607165953569" lon="112.00649029727246">
        <ele>1128.35</ele>
        <time>2019-04-19T08:05:14.045000Z</time>
      </trkpt>
      <trkpt lat="37.84640491461311" lon="112.00661425207015">
        <ele>1123.96</ele>
        <time>2019-04-19T08:05:26.045000Z</time>
      </trkpt>
      <trkpt lat="37.84671148236092" lon="112.00667344523534">
        <ele>1115.45</ele>
        <time>2019-04-19T08:05:38.045000Z</time>
      </trkpt>
      <trkpt lat="37.847045406130725" lon="112.00670908211826">
        <ele>1121.18</ele>
        <time>2019-04-19T08:05:47.045000Z</time>
      </trkpt>
      <trkpt lat="37.84738566055206" lon="112.00674626138104">
        <ele>1116.68</ele>
        <time>2019-04-19T08:05:59.045000Z</time>
      </trkpt>
      <trkpt lat="37.84768872265261" lon="112.00679314159153">
        <ele>1120.7</ele>
        <time>2019-04-19T08:06:08.045000Z</time>
      </trkpt>
      <trkpt lat="37.84799725412664" lon="112.00682420072046">
        <ele>1124.27</ele>
        <time>2019-04-19T08:06:17.045000Z</time>
      </trkpt>
      <trkpt lat="37.848290319701505" lon="112.00695538666243">
        <ele>1125.02</ele>
        <time>2019-04-19T08:06:26.045000Z</time>
      </trkpt>
      <trkpt lat="37.84853556921804" lon="112.00717842942777">
        <ele>1122.65</ele>
        <time>2019-04-19T08:06:35.045000Z</time>
      </trkpt>
      <trkpt lat="37.848567794616415" lon="112.00730389775839">
        <ele>1122.24</ele>
        <time>2019-04-19T08:06:38.045000Z</time>
      </trkpt>
      <trkpt lat="37.848676441903294" lon="112.00746912826756">
        <ele>1123.09</ele>
        <time>2019-04-19T08:06:44.045000Z</time>
      </trkpt>
      <trkpt lat="37.848755565224764" lon="112.00754286272787">
        <ele>1127.79</ele>
        <time>2019-04-19T08:06:47.045000Z</time>
      </trkpt>
      <trkpt lat="37.84891813836492" lon="112.007830551869">
        <ele>1126.88</ele>
        <time>2019-04-19T08:06:56.045000Z</time>
      </trkpt>
      <trkpt lat="37.84910612978543" lon="112.00807215789516">
        <ele>1128.58</ele>
        <time>2019-04-19T08:07:05.045000Z</time>
      </trkpt>
      <trkpt lat="37.849247786752024" lon="112.00821589733715">
        <ele>1129.22</ele>
        <time>2019-04-19T08:07:11.045000Z</time>
      </trkpt>
      <trkpt lat="37.84930326342157" lon="112.00835250719066">
        <ele>1130.8</ele>
        <time>2019-04-19T08:07:14.045000Z</time>
      </trkpt>
      <trkpt lat="37.84947450874679" lon="112.00865817925514">
        <ele>1130.43</ele>
        <time>2019-04-19T08:07:23.045000Z</time>
      </trkpt>
      <trkpt lat="37.849678041501605" lon="112.00890427686231">
        <ele>1129.55</ele>
        <time>2019-04-19T08:07:32.045000Z</time>
      </trkpt>
      <trkpt lat="37.849726976564256" lon="112.0090006441608">
        <ele>1127.35</ele>
        <time>2019-04-19T08:07:35.045000Z</time>
      </trkpt>
      <trkpt lat="37.84975957302362" lon="112.00912261376695">
        <ele>1124.48</ele>
        <time>2019-04-19T08:07:38.045000Z</time>
      </trkpt>
      <trkpt lat="37.849819399160786" lon="112.00923672256845">
        <ele>1121.81</ele>
        <time>2019-04-19T08:07:41.045000Z</time>
      </trkpt>
      <trkpt lat="37.849876448013944" lon="112.00958091082292">
        <ele>1120.17</ele>
        <time>2019-04-19T08:07:50.045000Z</time>
      </trkpt>
      <trkpt lat="37.84990185889487" lon="112.00994954231834">
        <ele>1123.36</ele>
        <time>2019-04-19T08:07:59.045000Z</time>
      </trkpt>
      <trkpt lat="37.849911868066165" lon="112.01027721121089">
        <ele>1127.88</ele>
        <time>2019-04-19T08:08:08.045000Z</time>
      </trkpt>
      <trkpt lat="37.8498958618678" lon="112.010671177183">
        <ele>1127.01</ele>
        <time>2019-04-19T08:08:17.045000Z</time>
      </trkpt>
      <trkpt lat="37.84986246020404" lon="112.01112321990145">
        <ele>1126.43</ele>
        <time>2019-04-19T08:08:29.045000Z</time>
      </trkpt>
      <trkpt lat="37.849839537394686" lon="112.0115411905605">
        <ele>1123.24</ele>
        <time>2019-04-19T08:08:41.045000Z</time>
      </trkpt>
      <trkpt lat="37.84983246497838" lon="112.01180396666038">
        <ele>1122.65</ele>
        <time>2019-04-19T08:08:47.045000Z</time>
      </trkpt>
      <trkpt lat="37.84977978290766" lon="112.01221079838686">
        <ele>1123.26</ele>
        <time>2019-04-19T08:08:56.045000Z</time>
      </trkpt>
      <trkpt lat="37.84972818126517" lon="112.01247154588856">
        <ele>1121.42</ele>
        <time>2019-04-19T08:09:02.045000Z</time>
      </trkpt>
      <trkpt lat="37.849730219487384" lon="112.01258642791711">
        <ele>1123.23</ele>
        <time>2019-04-19T08:09:05.045000Z</time>
      </trkpt>
      <trkpt lat="37.84970019415909" lon="112.01292570430246">
        <ele>1118.41</ele>
        <time>2019-04-19T08:09:14.045000Z</time>
      </trkpt>
      <trkpt lat="37.849690251513906" lon="112.01329208425504">
        <ele>1114.75</ele>
        <time>2019-04-19T08:09:23.045000Z</time>
      </trkpt>
      <trkpt lat="37.84965008022398" lon="112.01353759185062">
        <ele>1115.4</ele>
        <time>2019-04-19T08:09:29.045000Z</time>
      </trkpt>
      <trkpt lat="37.84960794938258" lon="112.01365645557168">
        <ele>1116.86</ele>
        <time>2019-04-19T08:09:32.045000Z</time>
      </trkpt>
      <trkpt lat="37.84958079197966" lon="112.01381808409694">
        <ele>1117.19</ele>
        <time>2019-04-19T08:09:35.045000Z</time>
      </trkpt>
      <trkpt lat="37.84959066132066" lon="112.0139365175014">
        <ele>1117.94</ele>
        <time>2019-04-19T08:09:38.045000Z</time>
      </trkpt>
      <trkpt lat="37.84956143947312" lon="112.01428836843465">
        <ele>1117.49</ele>
        <time>2019-04-19T08:09:47.045000Z</time>
      </trkpt>
      <trkpt lat="37.84955268970476" lon="112.01465711201882">
        <ele>1120.75</ele>
        <time>2019-04-19T08:09:56.045000Z</time>
      </trkpt>
      <trkpt lat="37.84954079296658" lon="112.0149350255202">
        <ele>1114.16</ele>
        <time>2019-04-19T08:10:02.045000Z</time>
      </trkpt>
      <trkpt lat="37.84947332807263" lon="112.01534584646237">
        <ele>1115.62</ele>
        <time>2019-04-19T08:10:11.045000Z</time>
      </trkpt>
      <trkpt lat="37.849432078624815" lon="112.01569496048785">
        <ele>1113.98</ele>
        <time>2019-04-19T08:10:20.045000Z</time>
      </trkpt>
      <trkpt lat="37.8494144356112" lon="112.01599718908705">
        <ele>1118.97</ele>
        <time>2019-04-19T08:10:29.045000Z</time>
      </trkpt>
      <trkpt lat="37.84942087777908" lon="112.01613159631346">
        <ele>1122.86</ele>
        <time>2019-04-19T08:10:32.045000Z</time>
      </trkpt>
      <trkpt lat="37.84937750899577" lon="112.01647215106391">
        <ele>1120.71</ele>
        <time>2019-04-19T08:10:41.045000Z</time>
      </trkpt>
      <trkpt lat="37.84936397207563" lon="112.01671958389161">
        <ele>1124.89</ele>
        <time>2019-04-19T08:10:47.045000Z</time>
      </trkpt>
      <trkpt lat="37.8493101759912" lon="112.01707730239355">
        <ele>1126.39</ele>
        <time>2019-04-19T08:10:56.045000Z</time>
      </trkpt>
      <trkpt lat="37.84929945674743" lon="112.01718923768702">
        <ele>1125.16</ele>
        <time>2019-04-19T08:10:59.045000Z</time>
      </trkpt>
      <trkpt lat="37.84925104943716" lon="112.01732068609108">
        <ele>1124.93</ele>
        <time>2019-04-19T08:11:02.045000Z</time>
      </trkpt>
      <trkpt lat="37.849231791033205" lon="112.01743980263475">
        <ele>1124.25</ele>
        <time>2019-04-19T08:11:05.045000Z</time>
      </trkpt>
      <trkpt lat="37.84924020021642" lon="112.01773582362252">
        <ele>1123.11</ele>
        <time>2019-04-19T08:11:14.045000Z</time>
      </trkpt>
      <trkpt lat="37.849198088350946" lon="112.01811615763404">
        <ele>1123.79</ele>
        <time>2019-04-19T08:11:23.045000Z</time>
      </trkpt>
      <trkpt lat="37.8491880632532" lon="112.01855430067292">
        <ele>1120.03</ele>
        <time>2019-04-19T08:11:35.045000Z</time>
      </trkpt>
      <trkpt lat="37.84914554137676" lon="112.01891904443691">
        <ele>1121.36</ele>
        <time>2019-04-19T08:11:44.045000Z</time>
      </trkpt>
      <trkpt lat="37.84910241128364" lon="112.01929390059531">
        <ele>1118.49</ele>
        <time>2019-04-19T08:11:53.045000Z</time>
      </trkpt>
      <trkpt lat="37.84909366139509" lon="112.01966368657573">
        <ele>1113.28</ele>
        <time>2019-04-19T08:12:02.045000Z</time>
      </trkpt>
      <trkpt lat="37.84911810343664" lon="112.01995425089369">
        <ele>1112.0</ele>
        <time>2019-04-19T08:12:11.045000Z</time>
      </trkpt>
      <trkpt lat="37.84907757950405" lon="112.0203656952993">
        <ele>1110.4</ele>
        <time>2019-04-19T08:12:20.045000Z</time>
      </trkpt>
      <trkpt lat="37.849085574665814" lon="112.02058698011194">
        <ele>1112.32</ele>
        <time>2019-04-19T08:12:26.045000Z</time>
      </trkpt>
      <trkpt lat="37.849050846670444" lon="112.02095182865615">
        <ele>1110.66</ele>
        <time>2019-04-19T08:12:35.045000Z</time>
      </trkpt>
      <trkpt lat="37.84905583710985" lon="112.02121237070922">
        <ele>1110.32</ele>
        <time>2019-04-19T08:12:41.045000Z</time>
      </trkpt>
      <trkpt lat="37.84908259902732" lon="112.0215662283374">
        <ele>1111.12</ele>
        <time>2019-04-19T08:12:50.045000Z</time>
      </trkpt>
      <trkpt lat="37.84911696736454" lon="112.0219676646531">
        <ele>1112.14</ele>
        <time>2019-04-19T08:13:02.045000Z</time>
      </trkpt>
      <trkpt lat="37.849134969069766" lon="112.02230869190872">
        <ele>1111.37</ele>
        <time>2019-04-19T08:13:11.045000Z</time>
      </trkpt>
      <trkpt lat="37.84909877125407" lon="112.02248841281366">
        <ele>1110.08</ele>
        <time>2019-04-19T08:13:14.045000Z</time>
      </trkpt>
      <trkpt lat="37.84908275634876" lon="112.02292865870541">
        <ele>1107.81</ele>
        <time>2019-04-19T08:13:26.045000Z</time>
      </trkpt>
      <trkpt lat="37.8491088921008" lon="112.02336608493847">
        <ele>1107.72</ele>
        <time>2019-04-19T08:13:38.045000Z</time>
      </trkpt>
      <trkpt lat="37.84909678738072" lon="112.02348476601286">
        <ele>1108.82</ele>
        <time>2019-04-19T08:13:41.045000Z</time>
      </trkpt>
      <trkpt lat="37.84911742527391" lon="112.02369975401457">
        <ele>1109.52</ele>
        <time>2019-04-19T08:13:47.045000Z</time>
      </trkpt>
      <trkpt lat="37.849086825030575" lon="112.02394239981778">
        <ele>1107.25</ele>
        <time>2019-04-19T08:13:53.045000Z</time>
      </trkpt>
      <trkpt lat="37.84908936715608" lon="112.02403436246075">
        <ele>1106.23</ele>
        <time>2019-04-19T08:13:56.045000Z</time>
      </trkpt>
      <trkpt lat="37.849054318700404" lon="112.02414145587653">
        <ele>1104.61</ele>
        <time>2019-04-19T08:13:59.045000Z</time>
      </trkpt>
      <trkpt lat="37.84904097651286" lon="112.02424115633686">
        <ele>1105.8</ele>
        <time>2019-04-19T08:14:02.045000Z</time>
      </trkpt>
      <trkpt lat="37.849046323097234" lon="112.02433229919265">
        <ele>1107.24</ele>
        <time>2019-04-19T08:14:05.045000Z</time>
      </trkpt>
      <trkpt lat="37.84907525866288" lon="112.02436152018579">
        <ele>1105.83</ele>
        <time>2019-04-19T08:14:11.045000Z</time>
      </trkpt>
      <trkpt lat="37.849071257319636" lon="112.0242570729618">
        <ele>1105.0</ele>
        <time>2019-04-19T08:14:14.045000Z</time>
      </trkpt>
      <trkpt lat="37.849059608970265" lon="112.02399504429663">
        <ele>1104.61</ele>
        <time>2019-04-19T08:14:20.045000Z</time>
      </trkpt>
      <trkpt lat="37.8490221447454" lon="112.0236962442878">
        <ele>1099.54</ele>
        <time>2019-04-19T08:14:29.045000Z</time>
      </trkpt>
      <trkpt lat="37.84901945072298" lon="112.0233558839852">
        <ele>1099.95</ele>
        <time>2019-04-19T08:14:38.045000Z</time>
      </trkpt>
      <trkpt lat="37.84906534772629" lon="112.02301868451029">
        <ele>1103.81</ele>
        <time>2019-04-19T08:14:47.045000Z</time>
      </trkpt>
      <trkpt lat="37.84906139029765" lon="112.0228013668804">
        <ele>1105.9</ele>
        <time>2019-04-19T08:14:53.045000Z</time>
      </trkpt>
      <trkpt lat="37.849075686391856" lon="112.02269035762076">
        <ele>1107.34</ele>
        <time>2019-04-19T08:14:56.045000Z</time>
      </trkpt>
      <trkpt lat="37.84908907460555" lon="112.0222726862438">
        <ele>1104.92</ele>
        <time>2019-04-19T08:15:08.045000Z</time>
      </trkpt>
      <trkpt lat="37.84906984226557" lon="112.021925908118">
        <ele>1105.97</ele>
        <time>2019-04-19T08:15:17.045000Z</time>
      </trkpt>
      <trkpt lat="37.84909101900391" lon="112.02148201440968">
        <ele>1107.97</ele>
        <time>2019-04-19T08:15:29.045000Z</time>
      </trkpt>
      <trkpt lat="37.84909052683351" lon="112.02112451613641">
        <ele>1109.07</ele>
        <time>2019-04-19T08:15:38.045000Z</time>
      </trkpt>
      <trkpt lat="37.849122739505205" lon="112.02071624028733">
        <ele>1107.03</ele>
        <time>2019-04-19T08:15:50.045000Z</time>
      </trkpt>
      <trkpt lat="37.849101832759914" lon="112.02057018729964">
        <ele>1105.62</ele>
        <time>2019-04-19T08:15:53.045000Z</time>
      </trkpt>
      <trkpt lat="37.84912060026178" lon="112.0204603197727">
        <ele>1104.82</ele>
        <time>2019-04-19T08:15:56.045000Z</time>
      </trkpt>
      <trkpt lat="37.84910074834608" lon="112.02035530344988">
        <ele>1101.02</ele>
        <time>2019-04-19T08:15:59.045000Z</time>
      </trkpt>
      <trkpt lat="37.84909786781748" lon="112.01999382719522">
        <ele>1104.44</ele>
        <time>2019-04-19T08:16:08.045000Z</time>
      </trkpt>
      <trkpt lat="37.84908385972722" lon="112.01955688043148">
        <ele>1101.85</ele>
        <time>2019-04-19T08:16:20.045000Z</time>
      </trkpt>
      <trkpt lat="37.84908583260858" lon="112.01930633261668">
        <ele>1102.8</ele>
        <time>2019-04-19T08:16:26.045000Z</time>
      </trkpt>
      <trkpt lat="37.84910702513473" lon="112.01895488009076">
        <ele>1105.24</ele>
        <time>2019-04-19T08:16:35.045000Z</time>
      </trkpt>
      <trkpt lat="37.84915065018338" lon="112.01852492676709">
        <ele>1105.9</ele>
        <time>2019-04-19T08:16:47.045000Z</time>
      </trkpt>
      <trkpt lat="37.849173516663235" lon="112.0180996755231">
        <ele>1109.75</ele>
        <time>2019-04-19T08:16:59.045000Z</time>
      </trkpt>
      <trkpt lat="37.84921429340479" lon="112.01766732431291">
        <ele>1108.96</ele>
        <time>2019-04-19T08:17:11.045000Z</time>
      </trkpt>
      <trkpt lat="37.84923305325368" lon="112.01756434983078">
        <ele>1108.27</ele>
        <time>2019-04-19T08:17:14.045000Z</time>
      </trkpt>
      <trkpt lat="37.849217382313455" lon="112.01735052049852">
        <ele>1106.66</ele>
        <time>2019-04-19T08:17:20.045000Z</time>
      </trkpt>
      <trkpt lat="37.84924364081307" lon="112.01702371577902">
        <ele>1112.5</ele>
        <time>2019-04-19T08:17:29.045000Z</time>
      </trkpt>
      <trkpt lat="37.84935025017972" lon="112.01659264719507">
        <ele>1110.0</ele>
        <time>2019-04-19T08:17:41.045000Z</time>
      </trkpt>
      <trkpt lat="37.84938967809458" lon="112.01624501128939">
        <ele>1110.52</ele>
        <time>2019-04-19T08:17:50.045000Z</time>
      </trkpt>
      <trkpt lat="37.84942922732382" lon="112.01590487714385">
        <ele>1110.98</ele>
        <time>2019-04-19T08:17:59.045000Z</time>
      </trkpt>
      <trkpt lat="37.84944018862788" lon="112.01580750465142">
        <ele>1111.46</ele>
        <time>2019-04-19T08:18:02.045000Z</time>
      </trkpt>
      <trkpt lat="37.84943126851798" lon="112.0156937603441">
        <ele>1111.86</ele>
        <time>2019-04-19T08:18:05.045000Z</time>
      </trkpt>
      <trkpt lat="37.84949661843467" lon="112.01523406244254">
        <ele>1112.2</ele>
        <time>2019-04-19T08:18:17.045000Z</time>
      </trkpt>
      <trkpt lat="37.84955282081957" lon="112.0147904679745">
        <ele>1112.07</ele>
        <time>2019-04-19T08:18:29.045000Z</time>
      </trkpt>
      <trkpt lat="37.84961547615924" lon="112.01449247188924">
        <ele>1109.73</ele>
        <time>2019-04-19T08:18:38.045000Z</time>
      </trkpt>
      <trkpt lat="37.849623438239384" lon="112.01439564040915">
        <ele>1109.92</ele>
        <time>2019-04-19T08:18:41.045000Z</time>
      </trkpt>
      <trkpt lat="37.84961703936269" lon="112.01416255327504">
        <ele>1112.21</ele>
        <time>2019-04-19T08:18:47.045000Z</time>
      </trkpt>
      <trkpt lat="37.84965092404359" lon="112.01397034080352">
        <ele>1109.6</ele>
        <time>2019-04-19T08:18:53.045000Z</time>
      </trkpt>
      <trkpt lat="37.84964251072914" lon="112.0135442226629">
        <ele>1108.74</ele>
        <time>2019-04-19T08:19:05.045000Z</time>
      </trkpt>
      <trkpt lat="37.849671883589664" lon="112.01318714291962">
        <ele>1113.34</ele>
        <time>2019-04-19T08:19:14.045000Z</time>
      </trkpt>
      <trkpt lat="37.84970808708839" lon="112.01282934389529">
        <ele>1114.29</ele>
        <time>2019-04-19T08:19:23.045000Z</time>
      </trkpt>
      <trkpt lat="37.84971956991613" lon="112.01259249865699">
        <ele>1115.23</ele>
        <time>2019-04-19T08:19:29.045000Z</time>
      </trkpt>
      <trkpt lat="37.8497626613387" lon="112.01233113095815">
        <ele>1117.65</ele>
        <time>2019-04-19T08:19:35.045000Z</time>
      </trkpt>
      <trkpt lat="37.84976058612595" lon="112.01211352860922">
        <ele>1118.62</ele>
        <time>2019-04-19T08:19:41.045000Z</time>
      </trkpt>
      <trkpt lat="37.84981139648284" lon="112.01167796431834">
        <ele>1120.43</ele>
        <time>2019-04-19T08:19:53.045000Z</time>
      </trkpt>
      <trkpt lat="37.849844947450634" lon="112.0112361708791">
        <ele>1122.08</ele>
        <time>2019-04-19T08:20:05.045000Z</time>
      </trkpt>
      <trkpt lat="37.84985217125291" lon="112.01113972157299">
        <ele>1120.49</ele>
        <time>2019-04-19T08:20:08.045000Z</time>
      </trkpt>
      <trkpt lat="37.84983453347832" lon="112.01101791016332">
        <ele>1122.53</ele>
        <time>2019-04-19T08:20:11.045000Z</time>
      </trkpt>
      <trkpt lat="37.84986416099064" lon="112.01065727620106">
        <ele>1123.07</ele>
        <time>2019-04-19T08:20:20.045000Z</time>
      </trkpt>
      <trkpt lat="37.8499148657678" lon="112.01023839771068">
        <ele>1120.37</ele>
        <time>2019-04-19T08:20:32.045000Z</time>
      </trkpt>
      <trkpt lat="37.84990982133531" lon="112.0098173707576">
        <ele>1117.03</ele>
        <time>2019-04-19T08:20:44.045000Z</time>
      </trkpt>
      <trkpt lat="37.84991016019863" lon="112.00961970379998">
        <ele>1117.31</ele>
        <time>2019-04-19T08:20:50.045000Z</time>
      </trkpt>
      <trkpt lat="37.84984009327222" lon="112.00931268865827">
        <ele>1124.59</ele>
        <time>2019-04-19T08:20:59.045000Z</time>
      </trkpt>
      <trkpt lat="37.8497060097627" lon="112.00906172931192">
        <ele>1125.2</ele>
        <time>2019-04-19T08:21:08.045000Z</time>
      </trkpt>
      <trkpt lat="37.849643147583194" lon="112.0090211866167">
        <ele>1126.15</ele>
        <time>2019-04-19T08:21:11.045000Z</time>
      </trkpt>
      <trkpt lat="37.84946456360435" lon="112.0087538768956">
        <ele>1126.39</ele>
        <time>2019-04-19T08:21:20.045000Z</time>
      </trkpt>
      <trkpt lat="37.849295709459604" lon="112.00847523669482">
        <ele>1123.44</ele>
        <time>2019-04-19T08:21:29.045000Z</time>
      </trkpt>
      <trkpt lat="37.84909826420332" lon="112.00816502491942">
        <ele>1122.5</ele>
        <time>2019-04-19T08:21:41.045000Z</time>
      </trkpt>
      <trkpt lat="37.84891882040725" lon="112.0078747650908">
        <ele>1122.58</ele>
        <time>2019-04-19T08:21:50.045000Z</time>
      </trkpt>
      <trkpt lat="37.84880739241355" lon="112.00770206361081">
        <ele>1125.24</ele>
        <time>2019-04-19T08:21:56.045000Z</time>
      </trkpt>
      <trkpt lat="37.84858625990855" lon="112.00742520603542">
        <ele>1122.92</ele>
        <time>2019-04-19T08:22:08.045000Z</time>
      </trkpt>
      <trkpt lat="37.848384383434556" lon="112.00704369170428">
        <ele>1122.22</ele>
        <time>2019-04-19T08:22:20.045000Z</time>
      </trkpt>
      <trkpt lat="37.848315530272124" lon="112.00696876731936">
        <ele>1124.54</ele>
        <time>2019-04-19T08:22:23.045000Z</time>
      </trkpt>
      <trkpt lat="37.84815790689707" lon="112.00688942351866">
        <ele>1122.7</ele>
        <time>2019-04-19T08:22:29.045000Z</time>
      </trkpt>
      <trkpt lat="37.8478593934523" lon="112.00680995108446">
        <ele>1125.09</ele>
        <time>2019-04-19T08:22:38.045000Z</time>
      </trkpt>
      <trkpt lat="37.84756554116638" lon="112.00675841047635">
        <ele>1124.75</ele>
        <time>2019-04-19T08:22:47.045000Z</time>
      </trkpt>
      <trkpt lat="37.84742948125557" lon="112.00676300206321">
        <ele>1123.27</ele>
        <time>2019-04-19T08:22:53.045000Z</time>
      </trkpt>
      <trkpt lat="37.84735314056177" lon="112.00674707174142">
        <ele>1122.74</ele>
        <time>2019-04-19T08:22:56.045000Z</time>
      </trkpt>
      <trkpt lat="37.84721920090818" lon="112.00675803372494">
        <ele>1121.55</ele>
        <time>2019-04-19T08:23:02.045000Z</time>
      </trkpt>
      <trkpt lat="37.846910229358095" lon="112.00672479447083">
        <ele>1125.81</ele>
        <time>2019-04-19T08:23:14.345000Z</time>
      </trkpt>
      <trkpt lat="37.846569897124" lon="112.00667476442872">
        <ele>1130.31</ele>
        <time>2019-04-19T08:23:27.045000Z</time>
      </trkpt>
      <trkpt lat="37.846223934291714" lon="112.00660931346114">
        <ele>1126.91</ele>
        <time>2019-04-19T08:23:39.045000Z</time>
      </trkpt>
      <trkpt lat="37.84606634365795" lon="112.00659601409252">
        <ele>1125.59</ele>
        <time>2019-04-19T08:23:45.045000Z</time>
      </trkpt>
      <trkpt lat="37.84574396986681" lon="112.0065047512883">
        <ele>1125.8</ele>
        <time>2019-04-19T08:23:57.045000Z</time>
      </trkpt>
      <trkpt lat="37.845577287036576" lon="112.00643449839892">
        <ele>1129.38</ele>
        <time>2019-04-19T08:24:03.045000Z</time>
      </trkpt>
      <trkpt lat="37.84542162325242" lon="112.0063382138065">
        <ele>1134.27</ele>
        <time>2019-04-19T08:24:09.045000Z</time>
      </trkpt>
      <trkpt lat="37.84522940152731" lon="112.00629612299123">
        <ele>1132.8</ele>
        <time>2019-04-19T08:24:15.045000Z</time>
      </trkpt>
      <trkpt lat="37.84498083096962" lon="112.00628592470244">
        <ele>1130.16</ele>
        <time>2019-04-19T08:24:24.045000Z</time>
      </trkpt>
      <trkpt lat="37.84471352715589" lon="112.00618883121167">
        <ele>1134.03</ele>
        <time>2019-04-19T08:24:33.045000Z</time>
      </trkpt>
      <trkpt lat="37.844631265672255" lon="112.00615026961756">
        <ele>1135.58</ele>
        <time>2019-04-19T08:24:36.045000Z</time>
      </trkpt>
      <trkpt lat="37.844540155135206" lon="112.00613741968981">
        <ele>1135.36</ele>
        <time>2019-04-19T08:24:39.045000Z</time>
      </trkpt>
      <trkpt lat="37.84434524721807" lon="112.00619743521773">
        <ele>1134.68</ele>
        <time>2019-04-19T08:24:45.045000Z</time>
      </trkpt>
      <trkpt lat="37.84410422239268" lon="112.00633981634178">
        <ele>1135.87</ele>
        <time>2019-04-19T08:24:54.045000Z</time>
      </trkpt>
      <trkpt lat="37.84395065347116" lon="112.00637101974881">
        <ele>1137.06</ele>
        <time>2019-04-19T08:25:00.045000Z</time>
      </trkpt>
      <trkpt lat="37.84381089708714" lon="112.00646785718655">
        <ele>1139.48</ele>
        <time>2019-04-19T08:25:06.045000Z</time>
      </trkpt>
      <trkpt lat="37.84358525442732" lon="112.00665944161112">
        <ele>1139.55</ele>
        <time>2019-04-19T08:25:15.045000Z</time>
      </trkpt>
      <trkpt lat="37.84329834218242" lon="112.00685734728363">
        <ele>1138.23</ele>
        <time>2019-04-19T08:25:27.045000Z</time>
      </trkpt>
      <trkpt lat="37.84302858231619" lon="112.00710656653806">
        <ele>1136.81</ele>
        <time>2019-04-19T08:25:39.045000Z</time>
      </trkpt>
      <trkpt lat="37.84275701180708" lon="112.0073331946643">
        <ele>1139.53</ele>
        <time>2019-04-19T08:25:51.045000Z</time>
      </trkpt>
      <trkpt lat="37.84253092933172" lon="112.0075085490814">
        <ele>1138.78</ele>
        <time>2019-04-19T08:26:00.045000Z</time>
      </trkpt>
      <trkpt lat="37.84235582149456" lon="112.00755998437596">
        <ele>1138.96</ele>
        <time>2019-04-19T08:26:06.045000Z</time>
      </trkpt>
      <trkpt lat="37.84211824929895" lon="112.0077368992862">
        <ele>1140.2</ele>
        <time>2019-04-19T08:26:15.045000Z</time>
      </trkpt>
      <trkpt lat="37.84205359397451" lon="112.00783993737399">
        <ele>1140.37</ele>
        <time>2019-04-19T08:26:18.045000Z</time>
      </trkpt>
      <trkpt lat="37.84197370682867" lon="112.00790283272761">
        <ele>1140.54</ele>
        <time>2019-04-19T08:26:21.045000Z</time>
      </trkpt>
      <trkpt lat="37.84172794292151" lon="112.00803668492517">
        <ele>1143.27</ele>
        <time>2019-04-19T08:26:30.045000Z</time>
      </trkpt>
      <trkpt lat="37.84150426564462" lon="112.00809752156489">
        <ele>1147.94</ele>
        <time>2019-04-19T08:26:39.045000Z</time>
      </trkpt>
      <trkpt lat="37.84142541764098" lon="112.00814060553247">
        <ele>1145.83</ele>
        <time>2019-04-19T08:26:42.045000Z</time>
      </trkpt>
      <trkpt lat="37.84115278773253" lon="112.00814651854526">
        <ele>1148.42</ele>
        <time>2019-04-19T08:26:51.045000Z</time>
      </trkpt>
      <trkpt lat="37.84081361536274" lon="112.00810175838969">
        <ele>1143.48</ele>
        <time>2019-04-19T08:27:03.045000Z</time>
      </trkpt>
      <trkpt lat="37.840591503513444" lon="112.00806603781747">
        <ele>1143.8</ele>
        <time>2019-04-19T08:27:12.045000Z</time>
      </trkpt>
      <trkpt lat="37.840519914304394" lon="112.00808378981512">
        <ele>1141.59</ele>
        <time>2019-04-19T08:27:15.045000Z</time>
      </trkpt>
      <trkpt lat="37.840321931193806" lon="112.0080208870011">
        <ele>1136.99</ele>
        <time>2019-04-19T08:27:39.045000Z</time>
      </trkpt>
      <trkpt lat="37.840183171478" lon="112.00802897890853">
        <ele>1137.33</ele>
        <time>2019-04-19T08:27:45.045000Z</time>
      </trkpt>
      <trkpt lat="37.839881992028154" lon="112.00804510294283">
        <ele>1138.62</ele>
        <time>2019-04-19T08:28:12.045000Z</time>
      </trkpt>
      <trkpt lat="37.839881992028154" lon="112.00804510294283">
        <ele>1138.62</ele>
        <time>2019-04-19T08:28:14.845000Z</time>
      </trkpt>
      <trkpt lat="37.83974560392408" lon="112.0080871773609">
        <ele>1138.72</ele>
        <time>2019-04-19T08:28:21.045000Z</time>
      </trkpt>
      <trkpt lat="37.83941562416139" lon="112.00809703120375">
        <ele>1142.86</ele>
        <time>2019-04-19T08:28:45.045000Z</time>
      </trkpt>
      <trkpt lat="37.83909358656967" lon="112.00815229837409">
        <ele>1142.93</ele>
        <time>2019-04-19T08:29:09.045000Z</time>
      </trkpt>
    </trkseg>
  </trk>
</gpx>