<?xml version="1.0" encoding="UTF-8"?>
<gpx xmlns="http://www.topografix.com/GPX/1/1" xmlns:gpxtpx="http://www.garmin.com/xmlschemas/TrackPointExtension/v1" xmlns:xsi="http://www.w3.org/2001/XMLSchema-instance" xsi:schemaLocation="http://www.topografix.com/GPX/1/1 http://www.topografix.com/GPX/1/1/gpx.xsd" version="1.1" creator="gpx.py -- https://github.com/tkrajina/gpxpy">
  <trk>
    <name>gpx from keep</name>
    <type>Run</type>
    <trkseg>
      <trkpt lat="37.846688096668295" lon="112.02938275905774">
        <ele>1179.0</ele>
        <time>2017-04-14T23:26:37.700000Z</time>
      </trkpt>
      <trkpt lat="37.84675113796267" lon="112.02934434527438">
        <ele>1178.9</ele>
        <time>2017-04-14T23:26:40.700000Z</time>
      </trkpt>
      <trkpt lat="37.846722668797334" lon="112.02930692929719">
        <ele>1178.9</ele>
        <time>2017-04-14T23:26:43.700000Z</time>
      </trkpt>
      <trkpt lat="37.84686911494096" lon="112.0292391312649">
        <ele>1178.8</ele>
        <time>2017-04-14T23:26:46.700000Z</time>
      </trkpt>
      <trkpt lat="37.847087734224786" lon="112.02906275107918">
        <ele>1178.7</ele>
        <time>2017-04-14T23:27:00.300000Z</time>
      </trkpt>
      <trkpt lat="37.847081231348106" lon="112.02895240305104">
        <ele>1178.7</ele>
        <time>2017-04-14T23:27:06.700000Z</time>
      </trkpt>
      <trkpt lat="37.84714786267213" lon="112.02888937740173">
        <ele>1177.3</ele>
        <time>2017-04-14T23:27:09.700000Z</time>
      </trkpt>
      <trkpt lat="37.84728128418383" lon="112.02880768205137">
        <ele>1175.59</ele>
        <time>2017-04-14T23:27:12.600000Z</time>
      </trkpt>
      <trkpt lat="37.84736602676414" lon="112.02866432795771">
        <ele>1167.4</ele>
        <time>2017-04-14T23:27:24.700000Z</time>
      </trkpt>
      <trkpt lat="37.84744123730983" lon="112.02842902010538">
        <ele>1158.2</ele>
        <time>2017-04-14T23:27:42.600000Z</time>
      </trkpt>
      <trkpt lat="37.84745270513877" lon="112.02829433131191">
        <ele>1154.9</ele>
        <time>2017-04-14T23:27:54.700000Z</time>
      </trkpt>
      <trkpt lat="37.847399273414844" lon="112.02807581009827">
        <ele>1150.9</ele>
        <time>2017-04-14T23:28:12.600000Z</time>
      </trkpt>
      <trkpt lat="37.847359358500206" lon="112.0279825084257">
        <ele>1149.3</ele>
        <time>2017-04-14T23:28:18.600000Z</time>
      </trkpt>
      <trkpt lat="37.84735777903289" lon="112.02775235392738">
        <ele>1147.09</ele>
        <time>2017-04-14T23:28:27.600000Z</time>
      </trkpt>
      <trkpt lat="37.84737947423562" lon="112.02765066192816">
        <ele>1145.9</ele>
        <time>2017-04-14T23:28:30.600000Z</time>
      </trkpt>
      <trkpt lat="37.84753272450616" lon="112.02735071594167">
        <ele>1143.2</ele>
        <time>2017-04-14T23:28:39.600000Z</time>
      </trkpt>
      <trkpt lat="37.84771078774845" lon="112.02700398315368">
        <ele>1139.8</ele>
        <time>2017-04-14T23:28:51.600000Z</time>
      </trkpt>
      <trkpt lat="37.84786090486993" lon="112.02665888041163">
        <ele>1135.4</ele>
        <time>2017-04-14T23:29:03.600000Z</time>
      </trkpt>
      <trkpt lat="37.847974240912706" lon="112.02658233208369">
        <ele>1135.0</ele>
        <time>2017-04-14T23:29:09.600000Z</time>
      </trkpt>
      <trkpt lat="37.84809770954079" lon="112.0265739335929">
        <ele>1134.7</ele>
        <time>2017-04-14T23:29:15.700000Z</time>
      </trkpt>
      <trkpt lat="37.84823754595731" lon="112.02663557721702">
        <ele>1134.0</ele>
        <time>2017-04-14T23:29:21.600000Z</time>
      </trkpt>
      <trkpt lat="37.84836748246674" lon="112.02664394526168">
        <ele>1131.09</ele>
        <time>2017-04-14T23:29:27.600000Z</time>
      </trkpt>
      <trkpt lat="37.848644191899" lon="112.02655061004758">
        <ele>1132.3</ele>
        <time>2017-04-14T23:29:36.600000Z</time>
      </trkpt>
      <trkpt lat="37.84868074275064" lon="112.02647569386363">
        <ele>1132.3</ele>
        <time>2017-04-14T23:29:39.700000Z</time>
      </trkpt>
      <trkpt lat="37.848762568979716" lon="112.02641375348206">
        <ele>1131.0</ele>
        <time>2017-04-14T23:29:42.600000Z</time>
      </trkpt>
      <trkpt lat="37.84885246837062" lon="112.02637723346152">
        <ele>1128.8</ele>
        <time>2017-04-14T23:29:45.600000Z</time>
      </trkpt>
      <trkpt lat="37.848994226218316" lon="112.02622225558211">
        <ele>1125.09</ele>
        <time>2017-04-14T23:29:51.600000Z</time>
      </trkpt>
      <trkpt lat="37.849007338002615" lon="112.02587717825304">
        <ele>1120.7</ele>
        <time>2017-04-14T23:30:00.600000Z</time>
      </trkpt>
      <trkpt lat="37.84904396038813" lon="112.02577549082947">
        <ele>1118.9</ele>
        <time>2017-04-14T23:30:03.700000Z</time>
      </trkpt>
      <trkpt lat="37.84905566637849" lon="112.0256570399432">
        <ele>1117.9</ele>
        <time>2017-04-14T23:30:06.700000Z</time>
      </trkpt>
      <trkpt lat="37.849013949891784" lon="112.02552886041563">
        <ele>1116.7</ele>
        <time>2017-04-14T23:30:09.600000Z</time>
      </trkpt>
      <trkpt lat="37.84900720697278" lon="112.02510185367197">
        <ele>1111.5</ele>
        <time>2017-04-14T23:30:21.600000Z</time>
      </trkpt>
      <trkpt lat="37.848999114677326" lon="112.0248787529535">
        <ele>1110.9</ele>
        <time>2017-04-14T23:30:27.600000Z</time>
      </trkpt>
      <trkpt lat="37.849037346014846" lon="112.02478518133393">
        <ele>1111.2</ele>
        <time>2017-04-14T23:30:30.600000Z</time>
      </trkpt>
      <trkpt lat="37.848968949627334" lon="112.02459021406443">
        <ele>1109.7</ele>
        <time>2017-04-14T23:30:36.600000Z</time>
      </trkpt>
      <trkpt lat="37.84893539270345" lon="112.02425165046334">
        <ele>1108.0</ele>
        <time>2017-04-14T23:30:45.600000Z</time>
      </trkpt>
      <trkpt lat="37.848916911233204" lon="112.02416187336878">
        <ele>1107.4</ele>
        <time>2017-04-14T23:30:48.600000Z</time>
      </trkpt>
      <trkpt lat="37.8489189045398" lon="112.02372001110685">
        <ele>1107.9</ele>
        <time>2017-04-14T23:31:00.600000Z</time>
      </trkpt>
      <trkpt lat="37.84893388534926" lon="112.02359670004904">
        <ele>1108.59</ele>
        <time>2017-04-14T23:31:03.600000Z</time>
      </trkpt>
      <trkpt lat="37.84897548262858" lon="112.02346311054846">
        <ele>1110.09</ele>
        <time>2017-04-14T23:31:06.600000Z</time>
      </trkpt>
      <trkpt lat="37.848996905037254" lon="112.02306316894526">
        <ele>1108.9</ele>
        <time>2017-04-14T23:31:18.600000Z</time>
      </trkpt>
      <trkpt lat="37.84904715832022" lon="112.02293985611172">
        <ele>1109.8</ele>
        <time>2017-04-14T23:31:21.700000Z</time>
      </trkpt>
      <trkpt lat="37.84907203673723" lon="112.02256804261287">
        <ele>1109.0</ele>
        <time>2017-04-14T23:31:30.600000Z</time>
      </trkpt>
      <trkpt lat="37.84906877436804" lon="112.02236983587952">
        <ele>1108.7</ele>
        <time>2017-04-14T23:31:36.600000Z</time>
      </trkpt>
      <trkpt lat="37.84909855944358" lon="112.02219136576166">
        <ele>1107.8</ele>
        <time>2017-04-14T23:31:42.600000Z</time>
      </trkpt>
      <trkpt lat="37.84909364009399" lon="112.02200451829086">
        <ele>1108.3</ele>
        <time>2017-04-14T23:31:48.600000Z</time>
      </trkpt>
      <trkpt lat="37.849118646040935" lon="112.02188797236937">
        <ele>1108.9</ele>
        <time>2017-04-14T23:31:51.600000Z</time>
      </trkpt>
      <trkpt lat="37.849120037730955" lon="112.0214764247121">
        <ele>1108.0</ele>
        <time>2017-04-14T23:32:03.700000Z</time>
      </trkpt>
      <trkpt lat="37.849138544381915" lon="112.02105811999922">
        <ele>1106.0</ele>
        <time>2017-04-14T23:32:15.600000Z</time>
      </trkpt>
      <trkpt lat="37.849168466038456" lon="112.02073283353961">
        <ele>1103.09</ele>
        <time>2017-04-14T23:32:24.600000Z</time>
      </trkpt>
      <trkpt lat="37.849173540022704" lon="112.02046595717866">
        <ele>1100.9</ele>
        <time>2017-04-14T23:32:33.600000Z</time>
      </trkpt>
      <trkpt lat="37.84922815005946" lon="112.02014256583863">
        <ele>1095.2</ele>
        <time>2017-04-14T23:32:45.600000Z</time>
      </trkpt>
      <trkpt lat="37.84920850031478" lon="112.01998763653481">
        <ele>1091.9</ele>
        <time>2017-04-14T23:32:51.700000Z</time>
      </trkpt>
      <trkpt lat="37.84921150308982" lon="112.01988272645224">
        <ele>1090.5</ele>
        <time>2017-04-14T23:32:54.600000Z</time>
      </trkpt>
      <trkpt lat="37.8492917500396" lon="112.01951256094102">
        <ele>1088.59</ele>
        <time>2017-04-14T23:33:03.600000Z</time>
      </trkpt>
      <trkpt lat="37.849341609205624" lon="112.01933923999688">
        <ele>1093.7</ele>
        <time>2017-04-14T23:33:06.700000Z</time>
      </trkpt>
      <trkpt lat="37.84938007760572" lon="112.01896935526358">
        <ele>1096.7</ele>
        <time>2017-04-14T23:33:15.600000Z</time>
      </trkpt>
      <trkpt lat="37.84938980521965" lon="112.01888607749302">
        <ele>1096.4</ele>
        <time>2017-04-14T23:33:18.600000Z</time>
      </trkpt>
      <trkpt lat="37.84936148456172" lon="112.01882605695508">
        <ele>1098.09</ele>
        <time>2017-04-14T23:33:24.600000Z</time>
      </trkpt>
      <trkpt lat="37.84937148875539" lon="112.01844915086696">
        <ele>1098.3</ele>
        <time>2017-04-14T23:33:39.600000Z</time>
      </trkpt>
      <trkpt lat="37.84937624221991" lon="112.01801060417867">
        <ele>1102.5</ele>
        <time>2017-04-14T23:33:48.600000Z</time>
      </trkpt>
      <trkpt lat="37.84938470810831" lon="112.01789407293167">
        <ele>1103.0</ele>
        <time>2017-04-14T23:33:51.600000Z</time>
      </trkpt>
      <trkpt lat="37.84937138121315" lon="112.01751907121205">
        <ele>1111.8</ele>
        <time>2017-04-14T23:34:00.600000Z</time>
      </trkpt>
      <trkpt lat="37.84941956031192" lon="112.01717407630652">
        <ele>1110.09</ele>
        <time>2017-04-14T23:34:09.600000Z</time>
      </trkpt>
      <trkpt lat="37.84943980456155" lon="112.0169223634441">
        <ele>1112.09</ele>
        <time>2017-04-14T23:34:15.700000Z</time>
      </trkpt>
      <trkpt lat="37.84943460036446" lon="112.0165557509834">
        <ele>1115.4</ele>
        <time>2017-04-14T23:34:24.600000Z</time>
      </trkpt>
      <trkpt lat="37.84944444808061" lon="112.01633567536398">
        <ele>1115.59</ele>
        <time>2017-04-14T23:34:30.600000Z</time>
      </trkpt>
      <trkpt lat="37.849432723380886" lon="112.01597366493239">
        <ele>1116.8</ele>
        <time>2017-04-14T23:34:39.600000Z</time>
      </trkpt>
      <trkpt lat="37.84948626721416" lon="112.015653825385">
        <ele>1115.5</ele>
        <time>2017-04-14T23:34:48.600000Z</time>
      </trkpt>
      <trkpt lat="37.84950436203302" lon="112.01530209061384">
        <ele>1117.3</ele>
        <time>2017-04-14T23:34:57.700000Z</time>
      </trkpt>
      <trkpt lat="37.849527562220835" lon="112.01487357806312">
        <ele>1122.0</ele>
        <time>2017-04-14T23:35:09.700000Z</time>
      </trkpt>
      <trkpt lat="37.84957790070185" lon="112.01444371463695">
        <ele>1123.9</ele>
        <time>2017-04-14T23:35:21.700000Z</time>
      </trkpt>
      <trkpt lat="37.84959428423843" lon="112.01412362025137">
        <ele>1126.2</ele>
        <time>2017-04-14T23:35:30.600000Z</time>
      </trkpt>
      <trkpt lat="37.84960099529104" lon="112.01367700771137">
        <ele>1130.7</ele>
        <time>2017-04-14T23:35:42.600000Z</time>
      </trkpt>
      <trkpt lat="37.84961769121116" lon="112.01325013320546">
        <ele>1133.8</ele>
        <time>2017-04-14T23:35:54.600000Z</time>
      </trkpt>
      <trkpt lat="37.84968591432959" lon="112.01283190721425">
        <ele>1132.4</ele>
        <time>2017-04-14T23:36:06.600000Z</time>
      </trkpt>
      <trkpt lat="37.84971242172912" lon="112.0123917924331">
        <ele>1131.0</ele>
        <time>2017-04-14T23:36:18.600000Z</time>
      </trkpt>
      <trkpt lat="37.84974899978509" lon="112.01194167791574">
        <ele>1133.3</ele>
        <time>2017-04-14T23:36:30.600000Z</time>
      </trkpt>
      <trkpt lat="37.84976252887262" lon="112.011488326119">
        <ele>1133.09</ele>
        <time>2017-04-14T23:36:42.600000Z</time>
      </trkpt>
      <trkpt lat="37.84978225111877" lon="112.01114500215047">
        <ele>1132.8</ele>
        <time>2017-04-14T23:36:51.600000Z</time>
      </trkpt>
      <trkpt lat="37.84983751142141" lon="112.0108035684504">
        <ele>1134.4</ele>
        <time>2017-04-14T23:37:00.600000Z</time>
      </trkpt>
      <trkpt lat="37.84986915305007" lon="112.01037509426665">
        <ele>1133.9</ele>
        <time>2017-04-14T23:37:12.600000Z</time>
      </trkpt>
      <trkpt lat="37.84988741706748" lon="112.01006827146213">
        <ele>1134.9</ele>
        <time>2017-04-14T23:37:21.600000Z</time>
      </trkpt>
      <trkpt lat="37.84987072580684" lon="112.00965467647632">
        <ele>1133.0</ele>
        <time>2017-04-14T23:37:33.600000Z</time>
      </trkpt>
      <trkpt lat="37.84982730549386" lon="112.00938165521129">
        <ele>1130.2</ele>
        <time>2017-04-14T23:37:42.700000Z</time>
      </trkpt>
      <trkpt lat="37.849663927747294" lon="112.00902971575324">
        <ele>1127.3</ele>
        <time>2017-04-14T23:37:54.700000Z</time>
      </trkpt>
      <trkpt lat="37.84949729015247" lon="112.00877157965138">
        <ele>1129.4</ele>
        <time>2017-04-14T23:38:03.700000Z</time>
      </trkpt>
      <trkpt lat="37.84931081409398" lon="112.00852480039048">
        <ele>1133.9</ele>
        <time>2017-04-14T23:38:12.700000Z</time>
      </trkpt>
      <trkpt lat="37.849083942061185" lon="112.00817665786998">
        <ele>1132.3</ele>
        <time>2017-04-14T23:38:24.700000Z</time>
      </trkpt>
      <trkpt lat="37.84897730302446" lon="112.0079979911328">
        <ele>1132.9</ele>
        <time>2017-04-14T23:38:30.600000Z</time>
      </trkpt>
      <trkpt lat="37.84891727443201" lon="112.00792960825544">
        <ele>1133.3</ele>
        <time>2017-04-14T23:38:33.700000Z</time>
      </trkpt>
      <trkpt lat="37.84883056760686" lon="112.00789150402743">
        <ele>1124.2</ele>
        <time>2017-04-14T23:38:39.600000Z</time>
      </trkpt>
      <trkpt lat="37.84864234829491" lon="112.00759309822983">
        <ele>1119.8</ele>
        <time>2017-04-14T23:38:51.600000Z</time>
      </trkpt>
      <trkpt lat="37.84843076753129" lon="112.00730469816845">
        <ele>1116.8</ele>
        <time>2017-04-14T23:39:03.700000Z</time>
      </trkpt>
      <trkpt lat="37.848302166734705" lon="112.00721307724031">
        <ele>1115.8</ele>
        <time>2017-04-14T23:39:09.700000Z</time>
      </trkpt>
      <trkpt lat="37.84801719168492" lon="112.00715472359386">
        <ele>1115.3</ele>
        <time>2017-04-14T23:39:21.700000Z</time>
      </trkpt>
      <trkpt lat="37.8477523532581" lon="112.00707636444474">
        <ele>1120.2</ele>
        <time>2017-04-14T23:39:30.700000Z</time>
      </trkpt>
      <trkpt lat="37.847442275057496" lon="112.00697476391218">
        <ele>1125.9</ele>
        <time>2017-04-14T23:39:42.700000Z</time>
      </trkpt>
      <trkpt lat="37.84709716326375" lon="112.00688479112183">
        <ele>1131.59</ele>
        <time>2017-04-14T23:39:54.600000Z</time>
      </trkpt>
      <trkpt lat="37.846760604880416" lon="112.0068380673072">
        <ele>1137.3</ele>
        <time>2017-04-14T23:40:06.700000Z</time>
      </trkpt>
      <trkpt lat="37.846432146511276" lon="112.00680458782895">
        <ele>1139.7</ele>
        <time>2017-04-14T23:40:18.700000Z</time>
      </trkpt>
      <trkpt lat="37.84616229549557" lon="112.00676974981586">
        <ele>1141.5</ele>
        <time>2017-04-14T23:40:27.700000Z</time>
      </trkpt>
      <trkpt lat="37.84590746645734" lon="112.00670139141346">
        <ele>1141.2</ele>
        <time>2017-04-14T23:40:36.700000Z</time>
      </trkpt>
      <trkpt lat="37.84559559291754" lon="112.00665628663631">
        <ele>1136.0</ele>
        <time>2017-04-14T23:40:48.600000Z</time>
      </trkpt>
      <trkpt lat="37.84530729857763" lon="112.00661955871509">
        <ele>1131.0</ele>
        <time>2017-04-14T23:41:00.700000Z</time>
      </trkpt>
      <trkpt lat="37.84523214537859" lon="112.00661956767927">
        <ele>1129.7</ele>
        <time>2017-04-14T23:41:03.600000Z</time>
      </trkpt>
      <trkpt lat="37.844940448087826" lon="112.00654121231607">
        <ele>1129.2</ele>
        <time>2017-04-14T23:41:15.700000Z</time>
      </trkpt>
      <trkpt lat="37.84479214480107" lon="112.00650635992822">
        <ele>1128.2</ele>
        <time>2017-04-14T23:41:21.700000Z</time>
      </trkpt>
      <trkpt lat="37.844740526427515" lon="112.00652961280053">
        <ele>1126.2</ele>
        <time>2017-04-14T23:41:24.600000Z</time>
      </trkpt>
      <trkpt lat="37.84446566334587" lon="112.00653802521579">
        <ele>1132.59</ele>
        <time>2017-04-14T23:41:36.700000Z</time>
      </trkpt>
      <trkpt lat="37.84415544613534" lon="112.00657455417355">
        <ele>1137.09</ele>
        <time>2017-04-14T23:41:48.600000Z</time>
      </trkpt>
      <trkpt lat="37.84398740962731" lon="112.00660647090557">
        <ele>1141.4</ele>
        <time>2017-04-14T23:41:54.600000Z</time>
      </trkpt>
      <trkpt lat="37.84391891045364" lon="112.00664972884815">
        <ele>1142.3</ele>
        <time>2017-04-14T23:41:57.700000Z</time>
      </trkpt>
      <trkpt lat="37.84375404119258" lon="112.00671137948486">
        <ele>1143.4</ele>
        <time>2017-04-14T23:42:03.700000Z</time>
      </trkpt>
      <trkpt lat="37.84345558668869" lon="112.00689793020078">
        <ele>1144.3</ele>
        <time>2017-04-14T23:42:15.700000Z</time>
      </trkpt>
      <trkpt lat="37.84316039238001" lon="112.00708312947059">
        <ele>1146.2</ele>
        <time>2017-04-14T23:42:27.700000Z</time>
      </trkpt>
      <trkpt lat="37.84285893427536" lon="112.00727643940239">
        <ele>1149.8</ele>
        <time>2017-04-14T23:42:39.700000Z</time>
      </trkpt>
      <trkpt lat="37.84261223648541" lon="112.00748488096875">
        <ele>1152.2</ele>
        <time>2017-04-14T23:42:54.600000Z</time>
      </trkpt>
      <trkpt lat="37.84235730743195" lon="112.00763304388356">
        <ele>1153.2</ele>
        <time>2017-04-14T23:43:06.700000Z</time>
      </trkpt>
      <trkpt lat="37.842230639311644" lon="112.00771307231082">
        <ele>1154.09</ele>
        <time>2017-04-14T23:43:12.700000Z</time>
      </trkpt>
      <trkpt lat="37.84190900757469" lon="112.00784799822013">
        <ele>1160.5</ele>
        <time>2017-04-14T23:43:24.600000Z</time>
      </trkpt>
      <trkpt lat="37.84164903249397" lon="112.00795966983738">
        <ele>1165.0</ele>
        <time>2017-04-14T23:43:33.700000Z</time>
      </trkpt>
      <trkpt lat="37.84140383167284" lon="112.00802971109508">
        <ele>1168.7</ele>
        <time>2017-04-14T23:43:42.700000Z</time>
      </trkpt>
      <trkpt lat="37.84109054173551" lon="112.00800487934274">
        <ele>1175.09</ele>
        <time>2017-04-14T23:43:54.700000Z</time>
      </trkpt>
      <trkpt lat="37.841010525173765" lon="112.00799813097487">
        <ele>1176.4</ele>
        <time>2017-04-14T23:43:57.700000Z</time>
      </trkpt>
      <trkpt lat="37.84085876913628" lon="112.00793813882122">
        <ele>1179.3</ele>
        <time>2017-04-14T23:44:03.600000Z</time>
      </trkpt>
      <trkpt lat="37.84052375047811" lon="112.00792141918252">
        <ele>1179.3</ele>
        <time>2017-04-14T23:44:15.700000Z</time>
      </trkpt>
      <trkpt lat="37.84028038030524" lon="112.00792307011862">
        <ele>1175.4</ele>
        <time>2017-04-14T23:44:24.700000Z</time>
      </trkpt>
      <trkpt lat="37.839949091040815" lon="112.00802123454443">
        <ele>1168.2</ele>
        <time>2017-04-14T23:44:36.700000Z</time>
      </trkpt>
      <trkpt lat="37.8396789396128" lon="112.00808803504636">
        <ele>1164.9</ele>
        <time>2017-04-14T23:44:45.600000Z</time>
      </trkpt>
      <trkpt lat="37.839380626453476" lon="112.00813645740594">
        <ele>1162.09</ele>
        <time>2017-04-14T23:44:57.700000Z</time>
      </trkpt>
      <trkpt lat="37.83961403243793" lon="112.00810966815604">
        <ele>1166.9</ele>
        <time>2017-04-14T23:45:22.800000Z</time>
      </trkpt>
      <trkpt lat="37.83967407604227" lon="112.00808127770168">
        <ele>1168.9</ele>
        <time>2017-04-14T23:45:28.700000Z</time>
      </trkpt>
      <trkpt lat="37.83973232377568" lon="112.00801801660822">
        <ele>1168.4</ele>
        <time>2017-04-14T23:45:35.700000Z</time>
      </trkpt>
      <trkpt lat="37.840063988214375" lon="112.00797634827381">
        <ele>1167.4</ele>
        <time>2017-04-14T23:45:59.700000Z</time>
      </trkpt>
      <trkpt lat="37.84035225732466" lon="112.00802145675506">
        <ele>1168.7</ele>
        <time>2017-04-14T23:46:11.700000Z</time>
      </trkpt>
      <trkpt lat="37.840622354323564" lon="112.00806467521642">
        <ele>1170.2</ele>
        <time>2017-04-14T23:46:20.600000Z</time>
      </trkpt>
      <trkpt lat="37.84089578556626" lon="112.00808140223896">
        <ele>1170.4</ele>
        <time>2017-04-14T23:46:32.700000Z</time>
      </trkpt>
      <trkpt lat="37.84125736795148" lon="112.0081064985747">
        <ele>1167.7</ele>
        <time>2017-04-14T23:46:44.600000Z</time>
      </trkpt>
      <trkpt lat="37.841475576041255" lon="112.00808133305314">
        <ele>1166.5</ele>
        <time>2017-04-14T23:46:50.600000Z</time>
      </trkpt>
      <trkpt lat="37.841754014463845" lon="112.00796479332304">
        <ele>1167.8</ele>
        <time>2017-04-14T23:46:59.700000Z</time>
      </trkpt>
      <trkpt lat="37.84203714512099" lon="112.00772985495581">
        <ele>1169.2</ele>
        <time>2017-04-14T23:47:11.600000Z</time>
      </trkpt>
      <trkpt lat="37.84233560800313" lon="112.00753978783433">
        <ele>1167.3</ele>
        <time>2017-04-14T23:47:23.700000Z</time>
      </trkpt>
      <trkpt lat="37.84247725777322" lon="112.00743975457019">
        <ele>1168.09</ele>
        <time>2017-04-14T23:47:29.600000Z</time>
      </trkpt>
      <trkpt lat="37.842657203570305" lon="112.00723456486814">
        <ele>1160.7</ele>
        <time>2017-04-14T23:47:41.700000Z</time>
      </trkpt>
      <trkpt lat="37.8429639307853" lon="112.00700287003383">
        <ele>1155.2</ele>
        <time>2017-04-14T23:47:53.600000Z</time>
      </trkpt>
      <trkpt lat="37.84318888468131" lon="112.0068079481324">
        <ele>1152.7</ele>
        <time>2017-04-14T23:48:02.600000Z</time>
      </trkpt>
      <trkpt lat="37.84344234680155" lon="112.00660626560426">
        <ele>1152.3</ele>
        <time>2017-04-14T23:48:11.700000Z</time>
      </trkpt>
      <trkpt lat="37.84375876804509" lon="112.00639971056303">
        <ele>1155.7</ele>
        <time>2017-04-14T23:48:20.700000Z</time>
      </trkpt>
      <trkpt lat="37.84397204531565" lon="112.00629967041877">
        <ele>1158.09</ele>
        <time>2017-04-14T23:48:26.700000Z</time>
      </trkpt>
      <trkpt lat="37.84426562594227" lon="112.00620124269501">
        <ele>1160.59</ele>
        <time>2017-04-14T23:48:35.700000Z</time>
      </trkpt>
      <trkpt lat="37.84435225801941" lon="112.00617312018493">
        <ele>1160.8</ele>
        <time>2017-04-14T23:48:38.600000Z</time>
      </trkpt>
      <trkpt lat="37.84462243947558" lon="112.00618795498116">
        <ele>1161.4</ele>
        <time>2017-04-14T23:48:47.600000Z</time>
      </trkpt>
      <trkpt lat="37.84491402392033" lon="112.00621305898754">
        <ele>1161.59</ele>
        <time>2017-04-14T23:48:56.600000Z</time>
      </trkpt>
      <trkpt lat="37.84522554679602" lon="112.0062846538881">
        <ele>1162.4</ele>
        <time>2017-04-14T23:49:05.700000Z</time>
      </trkpt>
      <trkpt lat="37.845508784118486" lon="112.00637949889654">
        <ele>1160.9</ele>
        <time>2017-04-14T23:49:14.700000Z</time>
      </trkpt>
      <trkpt lat="37.845818884628244" lon="112.0064732595811">
        <ele>1157.4</ele>
        <time>2017-04-14T23:49:23.600000Z</time>
      </trkpt>
      <trkpt lat="37.846133905136384" lon="112.00655485581291">
        <ele>1151.9</ele>
        <time>2017-04-14T23:49:35.700000Z</time>
      </trkpt>
      <trkpt lat="37.84638046354618" lon="112.0065761809571">
        <ele>1150.2</ele>
        <time>2017-04-14T23:49:44.600000Z</time>
      </trkpt>
      <trkpt lat="37.84665231193628" lon="112.00657804070613">
        <ele>1149.0</ele>
        <time>2017-04-14T23:49:56.700000Z</time>
      </trkpt>
      <trkpt lat="37.8470306867506" lon="112.00661313599065">
        <ele>1146.9</ele>
        <time>2017-04-14T23:50:08.700000Z</time>
      </trkpt>
      <trkpt lat="37.84739073568579" lon="112.00669797073878">
        <ele>1148.5</ele>
        <time>2017-04-14T23:50:17.700000Z</time>
      </trkpt>
      <trkpt lat="37.84767217361564" lon="112.00675956816801">
        <ele>1151.5</ele>
        <time>2017-04-14T23:50:26.700000Z</time>
      </trkpt>
      <trkpt lat="37.84798558618896" lon="112.00683467742464">
        <ele>1152.4</ele>
        <time>2017-04-14T23:50:35.600000Z</time>
      </trkpt>
      <trkpt lat="37.84823903290123" lon="112.00700305165584">
        <ele>1151.5</ele>
        <time>2017-04-14T23:50:44.600000Z</time>
      </trkpt>
      <trkpt lat="37.84845052444441" lon="112.00722981896482">
        <ele>1149.3</ele>
        <time>2017-04-14T23:50:53.600000Z</time>
      </trkpt>
      <trkpt lat="37.848615825363474" lon="112.00738820306212">
        <ele>1146.2</ele>
        <time>2017-04-14T23:50:59.600000Z</time>
      </trkpt>
      <trkpt lat="37.84881391060683" lon="112.00765308767632">
        <ele>1141.59</ele>
        <time>2017-04-14T23:51:08.700000Z</time>
      </trkpt>
      <trkpt lat="37.848968956660684" lon="112.00788472960795">
        <ele>1138.59</ele>
        <time>2017-04-14T23:51:17.600000Z</time>
      </trkpt>
      <trkpt lat="37.84916234239374" lon="112.00808798450798">
        <ele>1128.9</ele>
        <time>2017-04-14T23:51:26.600000Z</time>
      </trkpt>
      <trkpt lat="37.84938893714944" lon="112.00843801879978">
        <ele>1125.0</ele>
        <time>2017-04-14T23:51:38.700000Z</time>
      </trkpt>
      <trkpt lat="37.84956895082363" lon="112.00875994734243">
        <ele>1125.59</ele>
        <time>2017-04-14T23:51:47.600000Z</time>
      </trkpt>
      <trkpt lat="37.84972747294998" lon="112.00900997473542">
        <ele>1127.3</ele>
        <time>2017-04-14T23:51:56.600000Z</time>
      </trkpt>
      <trkpt lat="37.84984743967163" lon="112.00917810024661">
        <ele>1127.5</ele>
        <time>2017-04-14T23:52:02.600000Z</time>
      </trkpt>
      <trkpt lat="37.84988725449617" lon="112.0092932526307">
        <ele>1128.4</ele>
        <time>2017-04-14T23:52:05.700000Z</time>
      </trkpt>
      <trkpt lat="37.849914124592885" lon="112.00965845582637">
        <ele>1132.5</ele>
        <time>2017-04-14T23:52:14.600000Z</time>
      </trkpt>
      <trkpt lat="37.84991420644735" lon="112.00999987587484">
        <ele>1133.7</ele>
        <time>2017-04-14T23:52:23.700000Z</time>
      </trkpt>
      <trkpt lat="37.84991917938163" lon="112.01043185704704">
        <ele>1132.2</ele>
        <time>2017-04-14T23:52:35.700000Z</time>
      </trkpt>
      <trkpt lat="37.849910647829724" lon="112.01065839302308">
        <ele>1132.3</ele>
        <time>2017-04-14T23:52:41.600000Z</time>
      </trkpt>
      <trkpt lat="37.84993391900778" lon="112.01086492173448">
        <ele>1130.4</ele>
        <time>2017-04-14T23:52:47.600000Z</time>
      </trkpt>
      <trkpt lat="37.849904276615455" lon="112.01126014873914">
        <ele>1131.2</ele>
        <time>2017-04-14T23:52:56.700000Z</time>
      </trkpt>
      <trkpt lat="37.849877587884315" lon="112.01166673235494">
        <ele>1130.0</ele>
        <time>2017-04-14T23:53:05.600000Z</time>
      </trkpt>
      <trkpt lat="37.84985446719471" lon="112.01206007227117">
        <ele>1128.5</ele>
        <time>2017-04-14T23:53:14.600000Z</time>
      </trkpt>
      <trkpt lat="37.84981266677572" lon="112.01244017090464">
        <ele>1128.4</ele>
        <time>2017-04-14T23:53:23.600000Z</time>
      </trkpt>
      <trkpt lat="37.849787718914584" lon="112.01281026784044">
        <ele>1127.59</ele>
        <time>2017-04-14T23:53:32.600000Z</time>
      </trkpt>
      <trkpt lat="37.84974929511322" lon="112.01315009089177">
        <ele>1129.3</ele>
        <time>2017-04-14T23:53:41.600000Z</time>
      </trkpt>
      <trkpt lat="37.84970085499215" lon="112.01357696829625">
        <ele>1130.9</ele>
        <time>2017-04-14T23:53:53.700000Z</time>
      </trkpt>
      <trkpt lat="37.84966757404921" lon="112.01401682438672">
        <ele>1131.4</ele>
        <time>2017-04-14T23:54:05.700000Z</time>
      </trkpt>
      <trkpt lat="37.84964433499274" lon="112.01436206127735">
        <ele>1130.7</ele>
        <time>2017-04-14T23:54:14.700000Z</time>
      </trkpt>
      <trkpt lat="37.849634422137285" lon="112.01460213282694">
        <ele>1130.7</ele>
        <time>2017-04-14T23:54:20.700000Z</time>
      </trkpt>
      <trkpt lat="37.84957423172899" lon="112.01496711431928">
        <ele>1132.5</ele>
        <time>2017-04-14T23:54:29.700000Z</time>
      </trkpt>
      <trkpt lat="37.849521155572155" lon="112.0154069862692">
        <ele>1133.3</ele>
        <time>2017-04-14T23:54:41.700000Z</time>
      </trkpt>
      <trkpt lat="37.84947787170462" lon="112.01574385525656">
        <ele>1131.59</ele>
        <time>2017-04-14T23:54:50.600000Z</time>
      </trkpt>
      <trkpt lat="37.84942801243568" lon="112.01610397858597">
        <ele>1130.3</ele>
        <time>2017-04-14T23:54:59.700000Z</time>
      </trkpt>
      <trkpt lat="37.84938795111751" lon="112.01645410041972">
        <ele>1129.4</ele>
        <time>2017-04-14T23:55:08.700000Z</time>
      </trkpt>
      <trkpt lat="37.849369616909165" lon="112.01679719312386">
        <ele>1125.2</ele>
        <time>2017-04-14T23:55:17.700000Z</time>
      </trkpt>
      <trkpt lat="37.849334667873286" lon="112.01716408291742">
        <ele>1125.2</ele>
        <time>2017-04-14T23:55:32.700000Z</time>
      </trkpt>
      <trkpt lat="37.849271423478555" lon="112.01727061501138">
        <ele>1124.4</ele>
        <time>2017-04-14T23:55:38.600000Z</time>
      </trkpt>
      <trkpt lat="37.84921980223062" lon="112.01748907844612">
        <ele>1125.09</ele>
        <time>2017-04-14T23:55:50.700000Z</time>
      </trkpt>
      <trkpt lat="37.84921813638193" lon="112.017792433388">
        <ele>1125.5</ele>
        <time>2017-04-14T23:56:05.700000Z</time>
      </trkpt>
      <trkpt lat="37.84920290649164" lon="112.01799899894975">
        <ele>1126.5</ele>
        <time>2017-04-14T23:56:17.700000Z</time>
      </trkpt>
      <trkpt lat="37.849214587552005" lon="112.01809065379581">
        <ele>1127.09</ele>
        <time>2017-04-14T23:56:23.600000Z</time>
      </trkpt>
      <trkpt lat="37.84928828884588" lon="112.01773753977241">
        <ele>1129.09</ele>
        <time>2017-04-14T23:56:45.600000Z</time>
      </trkpt>
      <trkpt lat="37.84939318420763" lon="112.01748419103718">
        <ele>1130.8</ele>
        <time>2017-04-14T23:56:54.700000Z</time>
      </trkpt>
      <trkpt lat="37.849364730826835" lon="112.01737550642278">
        <ele>1130.59</ele>
        <time>2017-04-14T23:56:57.700000Z</time>
      </trkpt>
      <trkpt lat="37.84937475524813" lon="112.01728412099123">
        <ele>1130.7</ele>
        <time>2017-04-14T23:57:00.700000Z</time>
      </trkpt>
      <trkpt lat="37.849341136316426" lon="112.01689074259008">
        <ele>1129.9</ele>
        <time>2017-04-14T23:57:12.700000Z</time>
      </trkpt>
      <trkpt lat="37.84931457343537" lon="112.01678557406636">
        <ele>1128.3</ele>
        <time>2017-04-14T23:57:15.800000Z</time>
      </trkpt>
      <trkpt lat="37.84928800321808" lon="112.0165871305963">
        <ele>1126.59</ele>
        <time>2017-04-14T23:57:21.700000Z</time>
      </trkpt>
      <trkpt lat="37.849341212457325" lon="112.01638408237658">
        <ele>1126.3</ele>
        <time>2017-04-14T23:57:27.700000Z</time>
      </trkpt>
      <trkpt lat="37.8493680275394" lon="112.01601720045139">
        <ele>1130.8</ele>
        <time>2017-04-14T23:57:39.700000Z</time>
      </trkpt>
      <trkpt lat="37.84940633408836" lon="112.01561733682003">
        <ele>1136.0</ele>
        <time>2017-04-14T23:57:51.700000Z</time>
      </trkpt>
      <trkpt lat="37.84946604477354" lon="112.01522882919681">
        <ele>1136.59</ele>
        <time>2017-04-14T23:58:03.700000Z</time>
      </trkpt>
      <trkpt lat="37.84953443472038" lon="112.01484221643553">
        <ele>1135.8</ele>
        <time>2017-04-14T23:58:15.700000Z</time>
      </trkpt>
      <trkpt lat="37.84957430233046" lon="112.01446858720816">
        <ele>1134.8</ele>
        <time>2017-04-14T23:58:27.600000Z</time>
      </trkpt>
      <trkpt lat="37.849585901531036" lon="112.01411388874949">
        <ele>1134.7</ele>
        <time>2017-04-14T23:58:39.700000Z</time>
      </trkpt>
      <trkpt lat="37.849627691663585" lon="112.0137337769587">
        <ele>1135.7</ele>
        <time>2017-04-14T23:58:51.700000Z</time>
      </trkpt>
      <trkpt lat="37.84961926256684" lon="112.0135518360517">
        <ele>1135.7</ele>
        <time>2017-04-14T23:58:57.600000Z</time>
      </trkpt>
      <trkpt lat="37.84969092399036" lon="112.01316361496602">
        <ele>1133.0</ele>
        <time>2017-04-14T23:59:09.700000Z</time>
      </trkpt>
      <trkpt lat="37.84976910013149" lon="112.0127751258911">
        <ele>1131.5</ele>
        <time>2017-04-14T23:59:21.700000Z</time>
      </trkpt>
      <trkpt lat="37.849857626968635" lon="112.01237339211403">
        <ele>1128.2</ele>
        <time>2017-04-14T23:59:33.700000Z</time>
      </trkpt>
      <trkpt lat="37.849907625011205" lon="112.01216009027829">
        <ele>1127.5</ele>
        <time>2017-04-14T23:59:39.700000Z</time>
      </trkpt>
      <trkpt lat="37.849957372238805" lon="112.01175350003301">
        <ele>1128.9</ele>
        <time>2017-04-14T23:59:51.700000Z</time>
      </trkpt>
      <trkpt lat="37.849919022295715" lon="112.0115066900495">
        <ele>1128.8</ele>
        <time>2017-04-14T23:59:57.700000Z</time>
      </trkpt>
      <trkpt lat="37.849932486404455" lon="112.01107659046954">
        <ele>1132.5</ele>
        <time>2017-04-15T00:00:09.700000Z</time>
      </trkpt>
      <trkpt lat="37.84990913064979" lon="112.01071326995134">
        <ele>1134.7</ele>
        <time>2017-04-15T00:00:21.600000Z</time>
      </trkpt>
      <trkpt lat="37.84990247344374" lon="112.01029993935215">
        <ele>1134.8</ele>
        <time>2017-04-15T00:00:33.700000Z</time>
      </trkpt>
      <trkpt lat="37.849915846466224" lon="112.00990336956556">
        <ele>1130.09</ele>
        <time>2017-04-15T00:00:51.600000Z</time>
      </trkpt>
      <trkpt lat="37.84992753151189" lon="112.00980469962282">
        <ele>1128.59</ele>
        <time>2017-04-15T00:00:57.700000Z</time>
      </trkpt>
      <trkpt lat="37.84991577790776" lon="112.00964980526572">
        <ele>1127.3</ele>
        <time>2017-04-15T00:01:03.700000Z</time>
      </trkpt>
      <trkpt lat="37.849924157434636" lon="112.00956816652597">
        <ele>1126.8</ele>
        <time>2017-04-15T00:01:06.700000Z</time>
      </trkpt>
      <trkpt lat="37.84980909066841" lon="112.00921000279119">
        <ele>1126.0</ele>
        <time>2017-04-15T00:01:18.600000Z</time>
      </trkpt>
      <trkpt lat="37.84965560478759" lon="112.00899998144507">
        <ele>1125.9</ele>
        <time>2017-04-15T00:01:27.700000Z</time>
      </trkpt>
      <trkpt lat="37.84953900913116" lon="112.00888483879064">
        <ele>1125.3</ele>
        <time>2017-04-15T00:01:33.700000Z</time>
      </trkpt>
      <trkpt lat="37.849365446521325" lon="112.00858318274877">
        <ele>1123.8</ele>
        <time>2017-04-15T00:01:45.600000Z</time>
      </trkpt>
      <trkpt lat="37.84923721915054" lon="112.00836478067194">
        <ele>1121.3</ele>
        <time>2017-04-15T00:01:54.600000Z</time>
      </trkpt>
      <trkpt lat="37.84904406483736" lon="112.00808313292286">
        <ele>1118.3</ele>
        <time>2017-04-15T00:02:06.700000Z</time>
      </trkpt>
      <trkpt lat="37.84887230587544" lon="112.0078147293266">
        <ele>1114.59</ele>
        <time>2017-04-15T00:02:18.700000Z</time>
      </trkpt>
      <trkpt lat="37.8487224502426" lon="112.00757119317176">
        <ele>1116.9</ele>
        <time>2017-04-15T00:02:27.700000Z</time>
      </trkpt>
      <trkpt lat="37.84850710571079" lon="112.00727117017199">
        <ele>1127.4</ele>
        <time>2017-04-15T00:02:39.700000Z</time>
      </trkpt>
      <trkpt lat="37.84826545465652" lon="112.00696790789027">
        <ele>1133.0</ele>
        <time>2017-04-15T00:02:51.700000Z</time>
      </trkpt>
      <trkpt lat="37.84795889307418" lon="112.00686982115516">
        <ele>1140.59</ele>
        <time>2017-04-15T00:03:03.700000Z</time>
      </trkpt>
      <trkpt lat="37.847644054728036" lon="112.00681795883885">
        <ele>1147.8</ele>
        <time>2017-04-15T00:03:15.700000Z</time>
      </trkpt>
      <trkpt lat="37.84736386871777" lon="112.00679150171696">
        <ele>1152.4</ele>
        <time>2017-04-15T00:03:27.700000Z</time>
      </trkpt>
      <trkpt lat="37.84704717561715" lon="112.00672477254744">
        <ele>1159.09</ele>
        <time>2017-04-15T00:03:39.700000Z</time>
      </trkpt>
      <trkpt lat="37.846710612498086" lon="112.0066796707051">
        <ele>1161.5</ele>
        <time>2017-04-15T00:03:54.700000Z</time>
      </trkpt>
      <trkpt lat="37.846422297817874" lon="112.00664970055594">
        <ele>1165.0</ele>
        <time>2017-04-15T00:04:12.700000Z</time>
      </trkpt>
      <trkpt lat="37.846175695911406" lon="112.00664297219399">
        <ele>1165.8</ele>
        <time>2017-04-15T00:04:30.700000Z</time>
      </trkpt>
      <trkpt lat="37.84586868266795" lon="112.00651461115451">
        <ele>1165.8</ele>
        <time>2017-04-15T00:04:51.700000Z</time>
      </trkpt>
      <trkpt lat="37.84579877859476" lon="112.00648299315667">
        <ele>1164.9</ele>
        <time>2017-04-15T00:04:57.700000Z</time>
      </trkpt>
      <trkpt lat="37.84572549474785" lon="112.00649300338686">
        <ele>1163.2</ele>
        <time>2017-04-15T00:05:03.700000Z</time>
      </trkpt>
      <trkpt lat="37.845645557811096" lon="112.00645949442197">
        <ele>1162.5</ele>
        <time>2017-04-15T00:05:09.700000Z</time>
      </trkpt>
      <trkpt lat="37.845573946142366" lon="112.00645463737597">
        <ele>1161.9</ele>
        <time>2017-04-15T00:05:15.700000Z</time>
      </trkpt>
      <trkpt lat="37.8453488539474" lon="112.00633140278619">
        <ele>1162.3</ele>
        <time>2017-04-15T00:05:33.700000Z</time>
      </trkpt>
      <trkpt lat="37.845052244256784" lon="112.0062627794687">
        <ele>1161.59</ele>
        <time>2017-04-15T00:05:54.600000Z</time>
      </trkpt>
      <trkpt lat="37.84492885653913" lon="112.00624306157948">
        <ele>1162.0</ele>
        <time>2017-04-15T00:06:03.600000Z</time>
      </trkpt>
      <trkpt lat="37.844847291060326" lon="112.00620982323194">
        <ele>1162.3</ele>
        <time>2017-04-15T00:06:09.600000Z</time>
      </trkpt>
      <trkpt lat="37.84477404189903" lon="112.00620821011044">
        <ele>1162.59</ele>
        <time>2017-04-15T00:06:15.600000Z</time>
      </trkpt>
      <trkpt lat="37.84461219416607" lon="112.00616633145317">
        <ele>1163.3</ele>
        <time>2017-04-15T00:06:27.700000Z</time>
      </trkpt>
      <trkpt lat="37.84438875115641" lon="112.00621798720061">
        <ele>1162.4</ele>
        <time>2017-04-15T00:06:45.600000Z</time>
      </trkpt>
      <trkpt lat="37.844067372690894" lon="112.00635804599827">
        <ele>1161.0</ele>
        <time>2017-04-15T00:07:00.700000Z</time>
      </trkpt>
      <trkpt lat="37.84381403958149" lon="112.00651620776796">
        <ele>1164.4</ele>
        <time>2017-04-15T00:07:12.700000Z</time>
      </trkpt>
      <trkpt lat="37.84355550680329" lon="112.0066895079448">
        <ele>1167.3</ele>
        <time>2017-04-15T00:07:24.600000Z</time>
      </trkpt>
      <trkpt lat="37.84328217964373" lon="112.00691119618082">
        <ele>1165.0</ele>
        <time>2017-04-15T00:07:39.700000Z</time>
      </trkpt>
      <trkpt lat="37.84305066869535" lon="112.00712152699641">
        <ele>1163.3</ele>
        <time>2017-04-15T00:07:51.700000Z</time>
      </trkpt>
      <trkpt lat="37.8427507100942" lon="112.00735808707996">
        <ele>1163.8</ele>
        <time>2017-04-15T00:08:00.600000Z</time>
      </trkpt>
      <trkpt lat="37.84243888351235" lon="112.00757140234028">
        <ele>1164.0</ele>
        <time>2017-04-15T00:08:09.600000Z</time>
      </trkpt>
      <trkpt lat="37.84212730399228" lon="112.00779309805266">
        <ele>1162.59</ele>
        <time>2017-04-15T00:08:18.700000Z</time>
      </trkpt>
      <trkpt lat="37.84181718978356" lon="112.00797830160937">
        <ele>1161.0</ele>
        <time>2017-04-15T00:08:27.700000Z</time>
      </trkpt>
      <trkpt lat="37.84149540092254" lon="112.00807484308065">
        <ele>1160.7</ele>
        <time>2017-04-15T00:08:36.700000Z</time>
      </trkpt>
      <trkpt lat="37.84129560832209" lon="112.00811135971894">
        <ele>1159.2</ele>
        <time>2017-04-15T00:08:42.700000Z</time>
      </trkpt>
      <trkpt lat="37.841117357340664" lon="112.00811138098973">
        <ele>1158.59</ele>
        <time>2017-04-15T00:08:48.700000Z</time>
      </trkpt>
      <trkpt lat="37.841170464556896" lon="112.00813489224399">
        <ele>1161.4</ele>
        <time>2017-04-15T00:09:09.600000Z</time>
      </trkpt>
      <trkpt lat="37.84149743852681" lon="112.00811971546459">
        <ele>1169.3</ele>
        <time>2017-04-15T00:09:39.700000Z</time>
      </trkpt>
      <trkpt lat="37.84178376492591" lon="112.00799641680761">
        <ele>1173.0</ele>
        <time>2017-04-15T00:09:57.700000Z</time>
      </trkpt>
      <trkpt lat="37.84182238953481" lon="112.00796316326529">
        <ele>1174.2</ele>
        <time>2017-04-15T00:10:03.700000Z</time>
      </trkpt>
      <trkpt lat="37.84190410368133" lon="112.00794639389626">
        <ele>1175.2</ele>
        <time>2017-04-15T00:10:09.700000Z</time>
      </trkpt>
      <trkpt lat="37.84206063611764" lon="112.00776796664768">
        <ele>1175.5</ele>
        <time>2017-04-15T00:10:24.700000Z</time>
      </trkpt>
      <trkpt lat="37.84224241952412" lon="112.00767468612754">
        <ele>1175.09</ele>
        <time>2017-04-15T00:10:37.600000Z</time>
      </trkpt>
      <trkpt lat="37.84249399557118" lon="112.00746786526581">
        <ele>1175.0</ele>
        <time>2017-04-15T00:11:01.600000Z</time>
      </trkpt>
      <trkpt lat="37.84258042486872" lon="112.00741649523673">
        <ele>1174.9</ele>
        <time>2017-04-15T00:11:07.600000Z</time>
      </trkpt>
      <trkpt lat="37.842842218446684" lon="112.00714966442203">
        <ele>1174.4</ele>
        <time>2017-04-15T00:11:22.600000Z</time>
      </trkpt>
      <trkpt lat="37.843113891337985" lon="112.00693662560455">
        <ele>1173.7</ele>
        <time>2017-04-15T00:11:34.600000Z</time>
      </trkpt>
      <trkpt lat="37.843190550574825" lon="112.00688633839424">
        <ele>1174.09</ele>
        <time>2017-04-15T00:11:37.700000Z</time>
      </trkpt>
      <trkpt lat="37.84321406188133" lon="112.00682632633283">
        <ele>1173.7</ele>
        <time>2017-04-15T00:11:40.600000Z</time>
      </trkpt>
      <trkpt lat="37.843332137472906" lon="112.00671656572405">
        <ele>1173.3</ele>
        <time>2017-04-15T00:11:46.600000Z</time>
      </trkpt>
      <trkpt lat="37.843628985400855" lon="112.00652298760531">
        <ele>1172.59</ele>
        <time>2017-04-15T00:11:58.700000Z</time>
      </trkpt>
      <trkpt lat="37.843878772086015" lon="112.0063713136846">
        <ele>1174.09</ele>
        <time>2017-04-15T00:12:07.700000Z</time>
      </trkpt>
      <trkpt lat="37.84417876207412" lon="112.00621612007598">
        <ele>1176.2</ele>
        <time>2017-04-15T00:12:19.700000Z</time>
      </trkpt>
      <trkpt lat="37.84440873103532" lon="112.00615959798364">
        <ele>1175.09</ele>
        <time>2017-04-15T00:12:28.700000Z</time>
      </trkpt>
      <trkpt lat="37.8447487357903" lon="112.00623308160527">
        <ele>1173.7</ele>
        <time>2017-04-15T00:12:37.700000Z</time>
      </trkpt>
      <trkpt lat="37.84501880769053" lon="112.00628467854415">
        <ele>1174.09</ele>
        <time>2017-04-15T00:12:46.700000Z</time>
      </trkpt>
      <trkpt lat="37.845308960724054" lon="112.00633492157333">
        <ele>1170.2</ele>
        <time>2017-04-15T00:12:58.600000Z</time>
      </trkpt>
      <trkpt lat="37.845607421352646" lon="112.00641976335052">
        <ele>1169.3</ele>
        <time>2017-04-15T00:13:10.700000Z</time>
      </trkpt>
      <trkpt lat="37.84589569943701" lon="112.00655299205056">
        <ele>1164.0</ele>
        <time>2017-04-15T00:13:22.600000Z</time>
      </trkpt>
      <trkpt lat="37.84610571690694" lon="112.0066364930751">
        <ele>1161.2</ele>
        <time>2017-04-15T00:13:31.700000Z</time>
      </trkpt>
      <trkpt lat="37.84638239572434" lon="112.00665619278313">
        <ele>1161.9</ele>
        <time>2017-04-15T00:13:40.700000Z</time>
      </trkpt>
      <trkpt lat="37.846575474455825" lon="112.00668806647458">
        <ele>1161.4</ele>
        <time>2017-04-15T00:13:46.700000Z</time>
      </trkpt>
      <trkpt lat="37.84685900456799" lon="112.00668478891721">
        <ele>1158.7</ele>
        <time>2017-04-15T00:13:55.600000Z</time>
      </trkpt>
      <trkpt lat="37.8471388885628" lon="112.00672151786988">
        <ele>1157.5</ele>
        <time>2017-04-15T00:14:04.700000Z</time>
      </trkpt>
      <trkpt lat="37.84743742955218" lon="112.00677959922913">
        <ele>1155.9</ele>
        <time>2017-04-15T00:14:13.600000Z</time>
      </trkpt>
      <trkpt lat="37.84753722715272" lon="112.00679472477559">
        <ele>1155.59</ele>
        <time>2017-04-15T00:14:16.600000Z</time>
      </trkpt>
      <trkpt lat="37.847625433188554" lon="112.0067847127215">
        <ele>1155.0</ele>
        <time>2017-04-15T00:14:19.700000Z</time>
      </trkpt>
      <trkpt lat="37.84794574842686" lon="112.00681954471692">
        <ele>1154.2</ele>
        <time>2017-04-15T00:14:31.600000Z</time>
      </trkpt>
      <trkpt lat="37.8481190168284" lon="112.00685304271217">
        <ele>1152.5</ele>
        <time>2017-04-15T00:14:37.700000Z</time>
      </trkpt>
      <trkpt lat="37.84829044990865" lon="112.00695628147844">
        <ele>1151.5</ele>
        <time>2017-04-15T00:14:43.700000Z</time>
      </trkpt>
      <trkpt lat="37.84854563679794" lon="112.00726954369297">
        <ele>1148.09</ele>
        <time>2017-04-15T00:14:55.600000Z</time>
      </trkpt>
      <trkpt lat="37.84875724152606" lon="112.00754983415789">
        <ele>1147.2</ele>
        <time>2017-04-15T00:15:04.700000Z</time>
      </trkpt>
      <trkpt lat="37.848975694591964" lon="112.00789986650386">
        <ele>1146.3</ele>
        <time>2017-04-15T00:15:16.600000Z</time>
      </trkpt>
      <trkpt lat="37.84916561733144" lon="112.00817313399561">
        <ele>1146.3</ele>
        <time>2017-04-15T00:15:25.700000Z</time>
      </trkpt>
      <trkpt lat="37.849332286522234" lon="112.0084199142337">
        <ele>1144.5</ele>
        <time>2017-04-15T00:15:34.700000Z</time>
      </trkpt>
      <trkpt lat="37.84952563511593" lon="112.00872805478703">
        <ele>1138.3</ele>
        <time>2017-04-15T00:15:46.600000Z</time>
      </trkpt>
      <trkpt lat="37.84973924882623" lon="112.00906484849791">
        <ele>1137.5</ele>
        <time>2017-04-15T00:15:58.700000Z</time>
      </trkpt>
      <trkpt lat="37.849845783584136" lon="112.00927974147596">
        <ele>1137.3</ele>
        <time>2017-04-15T00:16:04.600000Z</time>
      </trkpt>
      <trkpt lat="37.849925677140725" lon="112.00960493034509">
        <ele>1136.3</ele>
        <time>2017-04-15T00:16:13.600000Z</time>
      </trkpt>
      <trkpt lat="37.849970810830875" lon="112.00994147883966">
        <ele>1136.3</ele>
        <time>2017-04-15T00:16:22.700000Z</time>
      </trkpt>
      <trkpt lat="37.84994907569281" lon="112.01032155994146">
        <ele>1135.9</ele>
        <time>2017-04-15T00:16:34.700000Z</time>
      </trkpt>
      <trkpt lat="37.84987918513577" lon="112.01065515283892">
        <ele>1135.3</ele>
        <time>2017-04-15T00:16:52.700000Z</time>
      </trkpt>
      <trkpt lat="37.8498723912028" lon="112.01075166106456">
        <ele>1135.3</ele>
        <time>2017-04-15T00:16:58.700000Z</time>
      </trkpt>
      <trkpt lat="37.849844162966356" lon="112.01084844235231">
        <ele>1135.09</ele>
        <time>2017-04-15T00:17:04.700000Z</time>
      </trkpt>
      <trkpt lat="37.84984901121957" lon="112.01095332976351">
        <ele>1135.3</ele>
        <time>2017-04-15T00:17:10.700000Z</time>
      </trkpt>
      <trkpt lat="37.849810922566085" lon="112.01117500548435">
        <ele>1135.59</ele>
        <time>2017-04-15T00:17:22.700000Z</time>
      </trkpt>
      <trkpt lat="37.849855919967645" lon="112.0112817810584">
        <ele>1136.09</ele>
        <time>2017-04-15T00:17:28.700000Z</time>
      </trkpt>
      <trkpt lat="37.84982914792484" lon="112.01171702025354">
        <ele>1136.3</ele>
        <time>2017-04-15T00:17:52.700000Z</time>
      </trkpt>
      <trkpt lat="37.84977922185588" lon="112.01209171057235">
        <ele>1137.59</ele>
        <time>2017-04-15T00:18:10.700000Z</time>
      </trkpt>
      <trkpt lat="37.84976761487499" lon="112.01244504237435">
        <ele>1137.8</ele>
        <time>2017-04-15T00:18:28.700000Z</time>
      </trkpt>
      <trkpt lat="37.84972767759142" lon="112.01283839038054">
        <ele>1137.5</ele>
        <time>2017-04-15T00:18:40.700000Z</time>
      </trkpt>
      <trkpt lat="37.84970763479388" lon="112.01292030588733">
        <ele>1136.8</ele>
        <time>2017-04-15T00:18:43.700000Z</time>
      </trkpt>
      <trkpt lat="37.84968747615137" lon="112.0132301195268">
        <ele>1136.8</ele>
        <time>2017-04-15T00:18:52.700000Z</time>
      </trkpt>
      <trkpt lat="37.84967928734507" lon="112.01362347010549">
        <ele>1136.5</ele>
        <time>2017-04-15T00:19:04.700000Z</time>
      </trkpt>
      <trkpt lat="37.8496727275841" lon="112.01382866280417">
        <ele>1136.5</ele>
        <time>2017-04-15T00:19:10.600000Z</time>
      </trkpt>
      <trkpt lat="37.849649426484724" lon="112.01391193213266">
        <ele>1134.7</ele>
        <time>2017-04-15T00:19:13.700000Z</time>
      </trkpt>
      <trkpt lat="37.849617585260575" lon="112.01432367496594">
        <ele>1131.5</ele>
        <time>2017-04-15T00:19:25.700000Z</time>
      </trkpt>
      <trkpt lat="37.8496094108742" lon="112.01443046375317">
        <ele>1131.3</ele>
        <time>2017-04-15T00:19:28.700000Z</time>
      </trkpt>
      <trkpt lat="37.849627825463976" lon="112.014631872151">
        <ele>1128.7</ele>
        <time>2017-04-15T00:19:34.700000Z</time>
      </trkpt>
      <trkpt lat="37.84958428432179" lon="112.01505714056644">
        <ele>1128.59</ele>
        <time>2017-04-15T00:19:46.700000Z</time>
      </trkpt>
      <trkpt lat="37.84954444986663" lon="112.01542050123913">
        <ele>1128.2</ele>
        <time>2017-04-15T00:19:57.700000Z</time>
      </trkpt>
      <trkpt lat="37.8494945369631" lon="112.01579873581561">
        <ele>1126.7</ele>
        <time>2017-04-15T00:20:09.700000Z</time>
      </trkpt>
      <trkpt lat="37.84944620240397" lon="112.01619535802477">
        <ele>1125.5</ele>
        <time>2017-04-15T00:20:21.700000Z</time>
      </trkpt>
      <trkpt lat="37.849409557337886" lon="112.01648897451537">
        <ele>1124.2</ele>
        <time>2017-04-15T00:20:30.700000Z</time>
      </trkpt>
      <trkpt lat="37.8494096980967" lon="112.0169191226727">
        <ele>1123.9</ele>
        <time>2017-04-15T00:20:42.700000Z</time>
      </trkpt>
      <trkpt lat="37.84939320445727" lon="112.01728411878086">
        <ele>1127.0</ele>
        <time>2017-04-15T00:20:51.700000Z</time>
      </trkpt>
      <trkpt lat="37.849371456576826" lon="112.01739578321099">
        <ele>1127.0</ele>
        <time>2017-04-15T00:20:54.700000Z</time>
      </trkpt>
      <trkpt lat="37.84932967442138" lon="112.01749230970509">
        <ele>1126.0</ele>
        <time>2017-04-15T00:20:57.700000Z</time>
      </trkpt>
      <trkpt lat="37.84932798005965" lon="112.0177091461448">
        <ele>1125.2</ele>
        <time>2017-04-15T00:21:03.700000Z</time>
      </trkpt>
      <trkpt lat="37.84929796886193" lon="112.01805901020734">
        <ele>1124.3</ele>
        <time>2017-04-15T00:21:12.700000Z</time>
      </trkpt>
      <trkpt lat="37.849264952604145" lon="112.01851432411756">
        <ele>1122.9</ele>
        <time>2017-04-15T00:21:24.700000Z</time>
      </trkpt>
      <trkpt lat="37.84922809430513" lon="112.01888934141876">
        <ele>1122.9</ele>
        <time>2017-04-15T00:21:33.700000Z</time>
      </trkpt>
      <trkpt lat="37.84917985356363" lon="112.01926084882793">
        <ele>1123.2</ele>
        <time>2017-04-15T00:21:42.700000Z</time>
      </trkpt>
      <trkpt lat="37.849176539857886" lon="112.0193795466596">
        <ele>1123.7</ele>
        <time>2017-04-15T00:21:45.700000Z</time>
      </trkpt>
      <trkpt lat="37.8491564852691" lon="112.01946931593893">
        <ele>1124.59</ele>
        <time>2017-04-15T00:21:48.600000Z</time>
      </trkpt>
      <trkpt lat="37.849191524001846" lon="112.01965100920602">
        <ele>1126.59</ele>
        <time>2017-04-15T00:22:00.700000Z</time>
      </trkpt>
      <trkpt lat="37.849191514110196" lon="112.01975267365528">
        <ele>1127.2</ele>
        <time>2017-04-15T00:22:06.700000Z</time>
      </trkpt>
      <trkpt lat="37.84912671564966" lon="112.01993275797147">
        <ele>1128.3</ele>
        <time>2017-04-15T00:22:15.700000Z</time>
      </trkpt>
      <trkpt lat="37.849148121357274" lon="112.02004118029672">
        <ele>1128.0</ele>
        <time>2017-04-15T00:22:21.700000Z</time>
      </trkpt>
      <trkpt lat="37.849131604910944" lon="112.02042297025156">
        <ele>1127.8</ele>
        <time>2017-04-15T00:22:45.700000Z</time>
      </trkpt>
      <trkpt lat="37.849128489975264" lon="112.02066794435245">
        <ele>1128.4</ele>
        <time>2017-04-15T00:22:57.700000Z</time>
      </trkpt>
      <trkpt lat="37.84908838002014" lon="112.02084965261356">
        <ele>1129.5</ele>
        <time>2017-04-15T00:23:06.700000Z</time>
      </trkpt>
      <trkpt lat="37.84912011811371" lon="112.0210497399872">
        <ele>1130.9</ele>
        <time>2017-04-15T00:23:18.700000Z</time>
      </trkpt>
      <trkpt lat="37.84914013766804" lon="112.02146803997755">
        <ele>1125.59</ele>
        <time>2017-04-15T00:23:42.700000Z</time>
      </trkpt>
      <trkpt lat="37.849138641559506" lon="112.02191798446577">
        <ele>1127.2</ele>
        <time>2017-04-15T00:24:06.700000Z</time>
      </trkpt>
      <trkpt lat="37.849133413568936" lon="112.0220448033891">
        <ele>1127.4</ele>
        <time>2017-04-15T00:24:12.700000Z</time>
      </trkpt>
      <trkpt lat="37.849111695310704" lon="112.02214972212631">
        <ele>1127.8</ele>
        <time>2017-04-15T00:24:18.700000Z</time>
      </trkpt>
      <trkpt lat="37.84912701567197" lon="112.02220298968324">
        <ele>1128.3</ele>
        <time>2017-04-15T00:24:24.700000Z</time>
      </trkpt>
      <trkpt lat="37.84911700887622" lon="112.02229141285713">
        <ele>1129.0</ele>
        <time>2017-04-15T00:24:39.600000Z</time>
      </trkpt>
      <trkpt lat="37.84898181043584" lon="112.02242311605929">
        <ele>1129.0</ele>
        <time>2017-04-15T00:24:51.700000Z</time>
      </trkpt>
      <trkpt lat="37.84895695431567" lon="112.02248477143671">
        <ele>1129.4</ele>
        <time>2017-04-15T00:25:06.700000Z</time>
      </trkpt>
      <trkpt lat="37.84902681545622" lon="112.02233495874536">
        <ele>1129.5</ele>
        <time>2017-04-15T00:25:27.700000Z</time>
      </trkpt>
      <trkpt lat="37.84907189934661" lon="112.02231791786805">
        <ele>1129.5</ele>
        <time>2017-04-15T00:25:36.700000Z</time>
      </trkpt>
      <trkpt lat="37.84909368877317" lon="112.02268810055736">
        <ele>1129.5</ele>
        <time>2017-04-15T00:26:01.600000Z</time>
      </trkpt>
      <trkpt lat="37.84910374182096" lon="112.0227832827891">
        <ele>1129.9</ele>
        <time>2017-04-15T00:26:07.700000Z</time>
      </trkpt>
      <trkpt lat="37.84913209905743" lon="112.02283168243015">
        <ele>1130.3</ele>
        <time>2017-04-15T00:26:13.700000Z</time>
      </trkpt>
      <trkpt lat="37.84915037524071" lon="112.02299662968852">
        <ele>1131.09</ele>
        <time>2017-04-15T00:26:25.700000Z</time>
      </trkpt>
      <trkpt lat="37.84912871980288" lon="112.02317997050879">
        <ele>1131.59</ele>
        <time>2017-04-15T00:26:37.600000Z</time>
      </trkpt>
      <trkpt lat="37.849053735717696" lon="112.02342010544491">
        <ele>1132.09</ele>
        <time>2017-04-15T00:26:49.600000Z</time>
      </trkpt>
      <trkpt lat="37.84901224955089" lon="112.0237148620015">
        <ele>1132.8</ele>
        <time>2017-04-15T00:27:04.700000Z</time>
      </trkpt>
      <trkpt lat="37.84901720348005" lon="112.02379003700476">
        <ele>1132.8</ele>
        <time>2017-04-15T00:27:07.700000Z</time>
      </trkpt>
      <trkpt lat="37.84897733765005" lon="112.02388522841116">
        <ele>1132.4</ele>
        <time>2017-04-15T00:27:10.700000Z</time>
      </trkpt>
      <trkpt lat="37.84896881220624" lon="112.0240299028142">
        <ele>1132.0</ele>
        <time>2017-04-15T00:27:16.700000Z</time>
      </trkpt>
      <trkpt lat="37.8489822220634" lon="112.02408831157382">
        <ele>1131.9</ele>
        <time>2017-04-15T00:27:19.700000Z</time>
      </trkpt>
      <trkpt lat="37.84895883997864" lon="112.02420865089576">
        <ele>1131.5</ele>
        <time>2017-04-15T00:27:25.700000Z</time>
      </trkpt>
      <trkpt lat="37.849022458408" lon="112.02446527251713">
        <ele>1130.09</ele>
        <time>2017-04-15T00:27:34.700000Z</time>
      </trkpt>
      <trkpt lat="37.8489671929143" lon="112.02484360151504">
        <ele>1126.3</ele>
        <time>2017-04-15T00:27:52.700000Z</time>
      </trkpt>
      <trkpt lat="37.84897377573302" lon="112.02502181132415">
        <ele>1124.59</ele>
        <time>2017-04-15T00:28:01.700000Z</time>
      </trkpt>
      <trkpt lat="37.84891060407856" lon="112.0253136105362">
        <ele>1121.8</ele>
        <time>2017-04-15T00:28:19.700000Z</time>
      </trkpt>
      <trkpt lat="37.84894052166847" lon="112.02538878631816">
        <ele>1120.2</ele>
        <time>2017-04-15T00:28:25.700000Z</time>
      </trkpt>
      <trkpt lat="37.84893412346614" lon="112.0254488225474">
        <ele>1119.5</ele>
        <time>2017-04-15T00:28:28.600000Z</time>
      </trkpt>
      <trkpt lat="37.848965705454994" lon="112.02551020648264">
        <ele>1118.8</ele>
        <time>2017-04-15T00:28:31.700000Z</time>
      </trkpt>
      <trkpt lat="37.848989055797034" lon="112.02560674762204">
        <ele>1117.5</ele>
        <time>2017-04-15T00:28:37.600000Z</time>
      </trkpt>
      <trkpt lat="37.84900079981523" lon="112.02578387944463">
        <ele>1116.7</ele>
        <time>2017-04-15T00:28:46.700000Z</time>
      </trkpt>
      <trkpt lat="37.849022570446245" lon="112.02586230255493">
        <ele>1117.59</ele>
        <time>2017-04-15T00:28:49.600000Z</time>
      </trkpt>
      <trkpt lat="37.84902423958867" lon="112.02605377014396">
        <ele>1119.2</ele>
        <time>2017-04-15T00:28:55.700000Z</time>
      </trkpt>
      <trkpt lat="37.848972293752794" lon="112.02620549112451">
        <ele>1121.0</ele>
        <time>2017-04-15T00:29:04.700000Z</time>
      </trkpt>
      <trkpt lat="37.84891402824598" lon="112.02628392493776">
        <ele>1121.4</ele>
        <time>2017-04-15T00:29:10.700000Z</time>
      </trkpt>
      <trkpt lat="37.84887908302185" lon="112.02636722404097">
        <ele>1121.2</ele>
        <time>2017-04-15T00:29:16.600000Z</time>
      </trkpt>
      <trkpt lat="37.84874915277631" lon="112.02646054104072">
        <ele>1122.59</ele>
        <time>2017-04-15T00:29:28.700000Z</time>
      </trkpt>
      <trkpt lat="37.84860769507689" lon="112.02650058307441">
        <ele>1122.3</ele>
        <time>2017-04-15T00:29:46.600000Z</time>
      </trkpt>
      <trkpt lat="37.84848890842443" lon="112.0264822074693">
        <ele>1122.3</ele>
        <time>2017-04-15T00:29:58.700000Z</time>
      </trkpt>
      <trkpt lat="37.84836085585568" lon="112.0265839082489">
        <ele>1122.9</ele>
        <time>2017-04-15T00:30:13.600000Z</time>
      </trkpt>
      <trkpt lat="37.848255747410086" lon="112.02652226055594">
        <ele>1124.0</ele>
        <time>2017-04-15T00:30:16.700000Z</time>
      </trkpt>
      <trkpt lat="37.84815433317357" lon="112.0265006375739">
        <ele>1124.4</ele>
        <time>2017-04-15T00:30:19.600000Z</time>
      </trkpt>
    </trkseg>
  </trk>
</gpx>