<?xml version="1.0" encoding="UTF-8"?>
<gpx xmlns="http://www.topografix.com/GPX/1/1" xmlns:gpxtpx="http://www.garmin.com/xmlschemas/TrackPointExtension/v1" xmlns:xsi="http://www.w3.org/2001/XMLSchema-instance" xsi:schemaLocation="http://www.topografix.com/GPX/1/1 http://www.topografix.com/GPX/1/1/gpx.xsd" version="1.1" creator="gpx.py -- https://github.com/tkrajina/gpxpy">
  <trk>
    <name>gpx from keep</name>
    <type>Run</type>
    <trkseg>
      <trkpt lat="37.847286281737006" lon="112.02872762691307">
        <ele>1101.72</ele>
        <time>2019-05-31T08:39:41.756000Z</time>
      </trkpt>
      <trkpt lat="37.84733823151435" lon="112.02814043445356">
        <ele>1097.89</ele>
        <time>2019-05-31T08:39:59.756000Z</time>
      </trkpt>
      <trkpt lat="37.847348407573165" lon="112.02785050490654">
        <ele>1105.41</ele>
        <time>2019-05-31T08:40:08.756000Z</time>
      </trkpt>
      <trkpt lat="37.84737684678879" lon="112.02777880001442">
        <ele>1106.99</ele>
        <time>2019-05-31T08:40:11.756000Z</time>
      </trkpt>
      <trkpt lat="37.847385545260515" lon="112.02770207431891">
        <ele>1106.76</ele>
        <time>2019-05-31T08:40:14.756000Z</time>
      </trkpt>
      <trkpt lat="37.84744273364634" lon="112.02755749445627">
        <ele>1103.38</ele>
        <time>2019-05-31T08:40:20.756000Z</time>
      </trkpt>
      <trkpt lat="37.84754493429178" lon="112.02717018966028">
        <ele>1101.45</ele>
        <time>2019-05-31T08:40:32.756000Z</time>
      </trkpt>
      <trkpt lat="37.847755913840736" lon="112.02681201233871">
        <ele>1099.98</ele>
        <time>2019-05-31T08:40:44.756000Z</time>
      </trkpt>
      <trkpt lat="37.84788032832966" lon="112.02656675283852">
        <ele>1098.12</ele>
        <time>2019-05-31T08:40:53.756000Z</time>
      </trkpt>
      <trkpt lat="37.84815260804706" lon="112.0264944078976">
        <ele>1097.83</ele>
        <time>2019-05-31T08:41:05.756000Z</time>
      </trkpt>
      <trkpt lat="37.848243748669695" lon="112.02650808920885">
        <ele>1098.62</ele>
        <time>2019-05-31T08:41:08.756000Z</time>
      </trkpt>
      <trkpt lat="37.84850520872891" lon="112.02653255094351">
        <ele>1101.56</ele>
        <time>2019-05-31T08:41:17.756000Z</time>
      </trkpt>
      <trkpt lat="37.84856987829877" lon="112.02653954116603">
        <ele>1101.79</ele>
        <time>2019-05-31T08:41:20.756000Z</time>
      </trkpt>
      <trkpt lat="37.848757591089324" lon="112.02653559847984">
        <ele>1099.92</ele>
        <time>2019-05-31T08:41:26.756000Z</time>
      </trkpt>
      <trkpt lat="37.848841255085425" lon="112.0265174589681">
        <ele>1101.16</ele>
        <time>2019-05-31T08:41:29.756000Z</time>
      </trkpt>
      <trkpt lat="37.848897593136414" lon="112.02634994355503">
        <ele>1100.78</ele>
        <time>2019-05-31T08:41:35.756000Z</time>
      </trkpt>
      <trkpt lat="37.848930644341884" lon="112.02624032210261">
        <ele>1102.33</ele>
        <time>2019-05-31T08:41:38.756000Z</time>
      </trkpt>
      <trkpt lat="37.84896195886296" lon="112.02614037898199">
        <ele>1106.22</ele>
        <time>2019-05-31T08:41:41.756000Z</time>
      </trkpt>
      <trkpt lat="37.84898831765128" lon="112.02606350772426">
        <ele>1103.54</ele>
        <time>2019-05-31T08:41:44.756000Z</time>
      </trkpt>
      <trkpt lat="37.849021253898144" lon="112.0259674928392">
        <ele>1102.49</ele>
        <time>2019-05-31T08:41:47.756000Z</time>
      </trkpt>
      <trkpt lat="37.84904459499456" lon="112.0258702898647">
        <ele>1099.48</ele>
        <time>2019-05-31T08:41:50.756000Z</time>
      </trkpt>
      <trkpt lat="37.8490572835681" lon="112.02577071413592">
        <ele>1099.58</ele>
        <time>2019-05-31T08:41:53.756000Z</time>
      </trkpt>
      <trkpt lat="37.849077080896095" lon="112.02568023764098">
        <ele>1102.88</ele>
        <time>2019-05-31T08:41:56.756000Z</time>
      </trkpt>
      <trkpt lat="37.84907056852712" lon="112.02557826954303">
        <ele>1104.08</ele>
        <time>2019-05-31T08:41:59.756000Z</time>
      </trkpt>
      <trkpt lat="37.84905096071703" lon="112.02538050020664">
        <ele>1102.4</ele>
        <time>2019-05-31T08:42:05.756000Z</time>
      </trkpt>
      <trkpt lat="37.84904683378062" lon="112.02524248859518">
        <ele>1102.47</ele>
        <time>2019-05-31T08:42:08.756000Z</time>
      </trkpt>
      <trkpt lat="37.84904265593842" lon="112.02510133057977">
        <ele>1104.02</ele>
        <time>2019-05-31T08:42:11.756000Z</time>
      </trkpt>
      <trkpt lat="37.84904899508626" lon="112.02498508518912">
        <ele>1102.99</ele>
        <time>2019-05-31T08:42:14.756000Z</time>
      </trkpt>
      <trkpt lat="37.84906164513452" lon="112.02488792602212">
        <ele>1100.86</ele>
        <time>2019-05-31T08:42:17.756000Z</time>
      </trkpt>
      <trkpt lat="37.84906009521291" lon="112.02445404078776">
        <ele>1099.94</ele>
        <time>2019-05-31T08:42:29.756000Z</time>
      </trkpt>
      <trkpt lat="37.8490653069414" lon="112.02434573849597">
        <ele>1101.76</ele>
        <time>2019-05-31T08:42:32.756000Z</time>
      </trkpt>
      <trkpt lat="37.8490506531472" lon="112.02424357352609">
        <ele>1101.15</ele>
        <time>2019-05-31T08:42:35.756000Z</time>
      </trkpt>
      <trkpt lat="37.84903765771668" lon="112.02387252283974">
        <ele>1104.88</ele>
        <time>2019-05-31T08:42:44.756000Z</time>
      </trkpt>
      <trkpt lat="37.84903122984808" lon="112.02351538342415">
        <ele>1101.73</ele>
        <time>2019-05-31T08:42:53.756000Z</time>
      </trkpt>
      <trkpt lat="37.84905053696029" lon="112.02327077886511">
        <ele>1103.19</ele>
        <time>2019-05-31T08:42:59.756000Z</time>
      </trkpt>
      <trkpt lat="37.84905299609199" lon="112.022876860169">
        <ele>1101.28</ele>
        <time>2019-05-31T08:43:11.756000Z</time>
      </trkpt>
      <trkpt lat="37.849058311098155" lon="112.02247920820604">
        <ele>1099.82</ele>
        <time>2019-05-31T08:43:23.756000Z</time>
      </trkpt>
      <trkpt lat="37.8490540482942" lon="112.02208419395345">
        <ele>1098.74</ele>
        <time>2019-05-31T08:43:35.756000Z</time>
      </trkpt>
      <trkpt lat="37.84904732752315" lon="112.02184635328511">
        <ele>1098.05</ele>
        <time>2019-05-31T08:43:41.756000Z</time>
      </trkpt>
      <trkpt lat="37.849071562846255" lon="112.02154170057482">
        <ele>1096.05</ele>
        <time>2019-05-31T08:43:50.756000Z</time>
      </trkpt>
      <trkpt lat="37.84907738401471" lon="112.02132168573591">
        <ele>1092.53</ele>
        <time>2019-05-31T08:43:56.756000Z</time>
      </trkpt>
      <trkpt lat="37.84910133827776" lon="112.02110781590345">
        <ele>1094.64</ele>
        <time>2019-05-31T08:44:02.756000Z</time>
      </trkpt>
      <trkpt lat="37.84908508186374" lon="112.02076512441171">
        <ele>1099.83</ele>
        <time>2019-05-31T08:44:11.756000Z</time>
      </trkpt>
      <trkpt lat="37.84908342264028" lon="112.0203412529116">
        <ele>1101.36</ele>
        <time>2019-05-31T08:44:23.756000Z</time>
      </trkpt>
      <trkpt lat="37.84906192743595" lon="112.01994645449005">
        <ele>1103.17</ele>
        <time>2019-05-31T08:44:35.756000Z</time>
      </trkpt>
      <trkpt lat="37.849060423613516" lon="112.01959269608935">
        <ele>1104.97</ele>
        <time>2019-05-31T08:44:53.756000Z</time>
      </trkpt>
      <trkpt lat="37.849061371498316" lon="112.0194716451393">
        <ele>1102.85</ele>
        <time>2019-05-31T08:44:59.756000Z</time>
      </trkpt>
      <trkpt lat="37.84910404362794" lon="112.01908997345674">
        <ele>1105.0</ele>
        <time>2019-05-31T08:45:23.756000Z</time>
      </trkpt>
      <trkpt lat="37.84912385955975" lon="112.01900125131941">
        <ele>1104.88</ele>
        <time>2019-05-31T08:45:26.756000Z</time>
      </trkpt>
      <trkpt lat="37.849156791284145" lon="112.01865387243716">
        <ele>1105.92</ele>
        <time>2019-05-31T08:45:35.756000Z</time>
      </trkpt>
      <trkpt lat="37.8491672633601" lon="112.01826390901026">
        <ele>1108.48</ele>
        <time>2019-05-31T08:45:59.756000Z</time>
      </trkpt>
      <trkpt lat="37.84917028818148" lon="112.01791630960638">
        <ele>1108.51</ele>
        <time>2019-05-31T08:46:17.756000Z</time>
      </trkpt>
      <trkpt lat="37.849214245388346" lon="112.01748441895319">
        <ele>1103.96</ele>
        <time>2019-05-31T08:46:29.756000Z</time>
      </trkpt>
      <trkpt lat="37.84928332946968" lon="112.0170908892143">
        <ele>1101.01</ele>
        <time>2019-05-31T08:46:41.756000Z</time>
      </trkpt>
      <trkpt lat="37.84933441100863" lon="112.01665773429023">
        <ele>1099.58</ele>
        <time>2019-05-31T08:46:53.756000Z</time>
      </trkpt>
      <trkpt lat="37.84934751062505" lon="112.01653051232785">
        <ele>1100.83</ele>
        <time>2019-05-31T08:46:56.756000Z</time>
      </trkpt>
      <trkpt lat="37.84939430411136" lon="112.01613680386919">
        <ele>1101.69</ele>
        <time>2019-05-31T08:47:08.756000Z</time>
      </trkpt>
      <trkpt lat="37.84942724448021" lon="112.01573238069668">
        <ele>1102.5</ele>
        <time>2019-05-31T08:47:20.756000Z</time>
      </trkpt>
      <trkpt lat="37.84948271047456" lon="112.01529629761268">
        <ele>1103.01</ele>
        <time>2019-05-31T08:47:32.756000Z</time>
      </trkpt>
      <trkpt lat="37.84953430886119" lon="112.01488406564158">
        <ele>1103.11</ele>
        <time>2019-05-31T08:47:44.756000Z</time>
      </trkpt>
      <trkpt lat="37.84957746328025" lon="112.01446137802903">
        <ele>1104.09</ele>
        <time>2019-05-31T08:47:56.756000Z</time>
      </trkpt>
      <trkpt lat="37.84960517296226" lon="112.01404474793941">
        <ele>1105.59</ele>
        <time>2019-05-31T08:48:08.756000Z</time>
      </trkpt>
      <trkpt lat="37.84963553717829" lon="112.01364960324615">
        <ele>1100.64</ele>
        <time>2019-05-31T08:48:20.756000Z</time>
      </trkpt>
      <trkpt lat="37.84966495606381" lon="112.01324447201702">
        <ele>1103.93</ele>
        <time>2019-05-31T08:48:32.756000Z</time>
      </trkpt>
      <trkpt lat="37.84969201243061" lon="112.01305506064622">
        <ele>1105.67</ele>
        <time>2019-05-31T08:48:38.756000Z</time>
      </trkpt>
      <trkpt lat="37.84972805587594" lon="112.01263267675417">
        <ele>1103.42</ele>
        <time>2019-05-31T08:48:50.756000Z</time>
      </trkpt>
      <trkpt lat="37.8497391627888" lon="112.01221023781558">
        <ele>1104.16</ele>
        <time>2019-05-31T08:49:02.756000Z</time>
      </trkpt>
      <trkpt lat="37.849784289819645" lon="112.01187330412725">
        <ele>1106.59</ele>
        <time>2019-05-31T08:49:11.756000Z</time>
      </trkpt>
      <trkpt lat="37.84980726615832" lon="112.01175730946571">
        <ele>1105.14</ele>
        <time>2019-05-31T08:49:14.756000Z</time>
      </trkpt>
      <trkpt lat="37.84983561450559" lon="112.0113358572412">
        <ele>1104.09</ele>
        <time>2019-05-31T08:49:26.756000Z</time>
      </trkpt>
      <trkpt lat="37.849826265450716" lon="112.01120707069924">
        <ele>1104.91</ele>
        <time>2019-05-31T08:49:29.756000Z</time>
      </trkpt>
      <trkpt lat="37.849853759842894" lon="112.01081517936393">
        <ele>1104.34</ele>
        <time>2019-05-31T08:49:41.756000Z</time>
      </trkpt>
      <trkpt lat="37.84985255310136" lon="112.01072441738665">
        <ele>1104.07</ele>
        <time>2019-05-31T08:49:44.756000Z</time>
      </trkpt>
      <trkpt lat="37.84986979437423" lon="112.01062619142381">
        <ele>1103.11</ele>
        <time>2019-05-31T08:49:47.756000Z</time>
      </trkpt>
      <trkpt lat="37.849874749438015" lon="112.01052222129873">
        <ele>1100.14</ele>
        <time>2019-05-31T08:49:50.756000Z</time>
      </trkpt>
      <trkpt lat="37.849851597454624" lon="112.01031782572757">
        <ele>1099.72</ele>
        <time>2019-05-31T08:49:56.756000Z</time>
      </trkpt>
      <trkpt lat="37.84986943009403" lon="112.00994869588297">
        <ele>1102.68</ele>
        <time>2019-05-31T08:50:08.756000Z</time>
      </trkpt>
      <trkpt lat="37.84988240059288" lon="112.00977128044067">
        <ele>1103.45</ele>
        <time>2019-05-31T08:50:14.756000Z</time>
      </trkpt>
      <trkpt lat="37.84987383412346" lon="112.00957420219564">
        <ele>1106.1</ele>
        <time>2019-05-31T08:50:20.756000Z</time>
      </trkpt>
      <trkpt lat="37.84983125577337" lon="112.00934882391478">
        <ele>1105.43</ele>
        <time>2019-05-31T08:50:26.756000Z</time>
      </trkpt>
      <trkpt lat="37.849674902999304" lon="112.00900395334723">
        <ele>1104.69</ele>
        <time>2019-05-31T08:50:38.756000Z</time>
      </trkpt>
      <trkpt lat="37.84947134483471" lon="112.00869109778995">
        <ele>1105.21</ele>
        <time>2019-05-31T08:50:50.756000Z</time>
      </trkpt>
      <trkpt lat="37.849264361955264" lon="112.00835232791813">
        <ele>1108.75</ele>
        <time>2019-05-31T08:51:02.756000Z</time>
      </trkpt>
      <trkpt lat="37.84906351632059" lon="112.00800942604722">
        <ele>1110.08</ele>
        <time>2019-05-31T08:51:14.756000Z</time>
      </trkpt>
      <trkpt lat="37.84884280333464" lon="112.00769853772451">
        <ele>1111.4</ele>
        <time>2019-05-31T08:51:26.756000Z</time>
      </trkpt>
      <trkpt lat="37.84861984216914" lon="112.00737656167453">
        <ele>1113.61</ele>
        <time>2019-05-31T08:51:38.756000Z</time>
      </trkpt>
      <trkpt lat="37.84840576963044" lon="112.00705976106799">
        <ele>1110.85</ele>
        <time>2019-05-31T08:51:50.756000Z</time>
      </trkpt>
      <trkpt lat="37.84829214345947" lon="112.00691438911751">
        <ele>1112.07</ele>
        <time>2019-05-31T08:51:56.756000Z</time>
      </trkpt>
      <trkpt lat="37.84815250109977" lon="112.00682143744605">
        <ele>1112.16</ele>
        <time>2019-05-31T08:52:02.756000Z</time>
      </trkpt>
      <trkpt lat="37.84782778628791" lon="112.00677058840714">
        <ele>1115.88</ele>
        <time>2019-05-31T08:52:14.756000Z</time>
      </trkpt>
      <trkpt lat="37.84766892021202" lon="112.00677090353089">
        <ele>1115.48</ele>
        <time>2019-05-31T08:52:20.756000Z</time>
      </trkpt>
      <trkpt lat="37.84735150411987" lon="112.0067219171856">
        <ele>1116.71</ele>
        <time>2019-05-31T08:52:32.756000Z</time>
      </trkpt>
      <trkpt lat="37.847010966556276" lon="112.0066883050395">
        <ele>1116.1</ele>
        <time>2019-05-31T08:52:44.756000Z</time>
      </trkpt>
      <trkpt lat="37.846694105494564" lon="112.00666987561144">
        <ele>1118.57</ele>
        <time>2019-05-31T08:52:56.756000Z</time>
      </trkpt>
      <trkpt lat="37.84636311025073" lon="112.00661007579087">
        <ele>1120.76</ele>
        <time>2019-05-31T08:53:08.756000Z</time>
      </trkpt>
      <trkpt lat="37.84605378792727" lon="112.00654980152237">
        <ele>1115.6</ele>
        <time>2019-05-31T08:53:20.756000Z</time>
      </trkpt>
      <trkpt lat="37.845819291733456" lon="112.00646117516658">
        <ele>1115.22</ele>
        <time>2019-05-31T08:53:29.756000Z</time>
      </trkpt>
      <trkpt lat="37.84552289740318" lon="112.00636786257189">
        <ele>1117.59</ele>
        <time>2019-05-31T08:53:41.756000Z</time>
      </trkpt>
      <trkpt lat="37.84519917049611" lon="112.00627458381635">
        <ele>1119.86</ele>
        <time>2019-05-31T08:53:53.756000Z</time>
      </trkpt>
      <trkpt lat="37.844880548532444" lon="112.0061856531523">
        <ele>1123.71</ele>
        <time>2019-05-31T08:54:05.756000Z</time>
      </trkpt>
      <trkpt lat="37.844651134089204" lon="112.00612887834761">
        <ele>1122.67</ele>
        <time>2019-05-31T08:54:14.756000Z</time>
      </trkpt>
      <trkpt lat="37.844491832386616" lon="112.00612723024621">
        <ele>1125.68</ele>
        <time>2019-05-31T08:54:20.756000Z</time>
      </trkpt>
      <trkpt lat="37.84425590915851" lon="112.00623508750013">
        <ele>1125.93</ele>
        <time>2019-05-31T08:54:29.756000Z</time>
      </trkpt>
      <trkpt lat="37.84395987981514" lon="112.00637776144363">
        <ele>1122.33</ele>
        <time>2019-05-31T08:54:41.756000Z</time>
      </trkpt>
      <trkpt lat="37.843677233145094" lon="112.00652953001638">
        <ele>1122.72</ele>
        <time>2019-05-31T08:54:53.756000Z</time>
      </trkpt>
      <trkpt lat="37.84341030522124" lon="112.00671746254058">
        <ele>1123.78</ele>
        <time>2019-05-31T08:55:05.756000Z</time>
      </trkpt>
      <trkpt lat="37.843134531967756" lon="112.00693352116456">
        <ele>1123.09</ele>
        <time>2019-05-31T08:55:17.756000Z</time>
      </trkpt>
      <trkpt lat="37.84285412698758" lon="112.00716373656712">
        <ele>1122.63</ele>
        <time>2019-05-31T08:55:29.756000Z</time>
      </trkpt>
      <trkpt lat="37.84260572091194" lon="112.00736365862939">
        <ele>1118.16</ele>
        <time>2019-05-31T08:55:41.756000Z</time>
      </trkpt>
      <trkpt lat="37.842333099323405" lon="112.0075549558294">
        <ele>1117.52</ele>
        <time>2019-05-31T08:55:53.756000Z</time>
      </trkpt>
      <trkpt lat="37.84205854084518" lon="112.00775143862188">
        <ele>1121.14</ele>
        <time>2019-05-31T08:56:05.756000Z</time>
      </trkpt>
      <trkpt lat="37.84176397797157" lon="112.00796669388163">
        <ele>1119.97</ele>
        <time>2019-05-31T08:56:17.756000Z</time>
      </trkpt>
      <trkpt lat="37.841603215505124" lon="112.00806329850678">
        <ele>1121.16</ele>
        <time>2019-05-31T08:56:23.756000Z</time>
      </trkpt>
      <trkpt lat="37.84129180687371" lon="112.0081412888619">
        <ele>1125.35</ele>
        <time>2019-05-31T08:56:35.756000Z</time>
      </trkpt>
      <trkpt lat="37.84095963255707" lon="112.0081163084859">
        <ele>1122.54</ele>
        <time>2019-05-31T08:56:47.756000Z</time>
      </trkpt>
      <trkpt lat="37.84080071721768" lon="112.00808621320655">
        <ele>1120.87</ele>
        <time>2019-05-31T08:56:53.756000Z</time>
      </trkpt>
      <trkpt lat="37.84049395346982" lon="112.0080306361139">
        <ele>1121.98</ele>
        <time>2019-05-31T08:57:05.756000Z</time>
      </trkpt>
      <trkpt lat="37.84018944470973" lon="112.00798124499559">
        <ele>1122.32</ele>
        <time>2019-05-31T08:57:17.756000Z</time>
      </trkpt>
      <trkpt lat="37.83987428590252" lon="112.0080147682337">
        <ele>1127.11</ele>
        <time>2019-05-31T08:57:29.756000Z</time>
      </trkpt>
      <trkpt lat="37.83979609995789" lon="112.0080353040065">
        <ele>1127.89</ele>
        <time>2019-05-31T08:57:32.756000Z</time>
      </trkpt>
      <trkpt lat="37.83949435589565" lon="112.00808146553626">
        <ele>1128.24</ele>
        <time>2019-05-31T08:57:44.756000Z</time>
      </trkpt>
      <trkpt lat="37.83916645239606" lon="112.0081196392334">
        <ele>1130.99</ele>
        <time>2019-05-31T08:57:56.756000Z</time>
      </trkpt>
      <trkpt lat="37.83884785501943" lon="112.00818073712439">
        <ele>1127.79</ele>
        <time>2019-05-31T08:58:08.756000Z</time>
      </trkpt>
      <trkpt lat="37.83853253980926" lon="112.00821989373104">
        <ele>1139.69</ele>
        <time>2019-05-31T08:58:20.756000Z</time>
      </trkpt>
      <trkpt lat="37.83837257520943" lon="112.00821504354944">
        <ele>1139.18</ele>
        <time>2019-05-31T08:58:26.756000Z</time>
      </trkpt>
      <trkpt lat="37.83806100493381" lon="112.00813407914737">
        <ele>1138.35</ele>
        <time>2019-05-31T08:58:38.756000Z</time>
      </trkpt>
      <trkpt lat="37.83776413388296" lon="112.00802232770205">
        <ele>1140.83</ele>
        <time>2019-05-31T08:58:50.756000Z</time>
      </trkpt>
      <trkpt lat="37.837482123429005" lon="112.00789712460572">
        <ele>1136.55</ele>
        <time>2019-05-31T08:59:11.756000Z</time>
      </trkpt>
      <trkpt lat="37.83716981704536" lon="112.00776316778261">
        <ele>1140.05</ele>
        <time>2019-05-31T08:59:35.756000Z</time>
      </trkpt>
      <trkpt lat="37.8368801528648" lon="112.00767557419081">
        <ele>1141.1</ele>
        <time>2019-05-31T08:59:53.756000Z</time>
      </trkpt>
      <trkpt lat="37.83668440694541" lon="112.00759008371631">
        <ele>1137.7</ele>
        <time>2019-05-31T09:00:02.756000Z</time>
      </trkpt>
      <trkpt lat="37.83638244451213" lon="112.0074965968256">
        <ele>1143.75</ele>
        <time>2019-05-31T09:00:14.756000Z</time>
      </trkpt>
      <trkpt lat="37.836093821907994" lon="112.0074218937344">
        <ele>1147.42</ele>
        <time>2019-05-31T09:00:26.756000Z</time>
      </trkpt>
      <trkpt lat="37.83580193975767" lon="112.00735944402402">
        <ele>1147.65</ele>
        <time>2019-05-31T09:00:38.756000Z</time>
      </trkpt>
      <trkpt lat="37.835584829285544" lon="112.00732004809768">
        <ele>1146.23</ele>
        <time>2019-05-31T09:00:47.756000Z</time>
      </trkpt>
      <trkpt lat="37.83550564713396" lon="112.00729242142614">
        <ele>1145.43</ele>
        <time>2019-05-31T09:00:50.756000Z</time>
      </trkpt>
      <trkpt lat="37.83544005516637" lon="112.00724834078659">
        <ele>1142.07</ele>
        <time>2019-05-31T09:00:53.756000Z</time>
      </trkpt>
      <trkpt lat="37.83531084827385" lon="112.0069921083721">
        <ele>1139.17</ele>
        <time>2019-05-31T09:01:02.756000Z</time>
      </trkpt>
      <trkpt lat="37.8352565144634" lon="112.00692340943635">
        <ele>1137.22</ele>
        <time>2019-05-31T09:01:05.756000Z</time>
      </trkpt>
      <trkpt lat="37.83519269101009" lon="112.0068707616464">
        <ele>1138.68</ele>
        <time>2019-05-31T09:01:08.756000Z</time>
      </trkpt>
      <trkpt lat="37.835051224666394" lon="112.00685211680278">
        <ele>1139.42</ele>
        <time>2019-05-31T09:01:14.756000Z</time>
      </trkpt>
      <trkpt lat="37.83483733079538" lon="112.00690877826926">
        <ele>1142.31</ele>
        <time>2019-05-31T09:01:23.756000Z</time>
      </trkpt>
      <trkpt lat="37.834749277014915" lon="112.00694419903671">
        <ele>1140.39</ele>
        <time>2019-05-31T09:01:26.756000Z</time>
      </trkpt>
      <trkpt lat="37.83466888534743" lon="112.0069478815485">
        <ele>1141.54</ele>
        <time>2019-05-31T09:01:29.756000Z</time>
      </trkpt>
      <trkpt lat="37.83458484028083" lon="112.00693666835186">
        <ele>1144.09</ele>
        <time>2019-05-31T09:01:32.756000Z</time>
      </trkpt>
      <trkpt lat="37.83427514056114" lon="112.00685419888565">
        <ele>1148.93</ele>
        <time>2019-05-31T09:01:44.756000Z</time>
      </trkpt>
      <trkpt lat="37.834194806554294" lon="112.00681646005553">
        <ele>1147.96</ele>
        <time>2019-05-31T09:01:47.756000Z</time>
      </trkpt>
      <trkpt lat="37.83389330614773" lon="112.00670241391875">
        <ele>1150.2</ele>
        <time>2019-05-31T09:01:59.756000Z</time>
      </trkpt>
      <trkpt lat="37.833602008979426" lon="112.0066030373365">
        <ele>1153.22</ele>
        <time>2019-05-31T09:02:11.756000Z</time>
      </trkpt>
      <trkpt lat="37.83330296539568" lon="112.00649787076105">
        <ele>1156.91</ele>
        <time>2019-05-31T09:02:23.756000Z</time>
      </trkpt>
      <trkpt lat="37.83301254690615" lon="112.00639708745301">
        <ele>1155.5</ele>
        <time>2019-05-31T09:02:35.756000Z</time>
      </trkpt>
      <trkpt lat="37.83273691790874" lon="112.00629569954206">
        <ele>1153.6</ele>
        <time>2019-05-31T09:02:47.756000Z</time>
      </trkpt>
      <trkpt lat="37.832442756679875" lon="112.00618050905672">
        <ele>1154.65</ele>
        <time>2019-05-31T09:02:59.756000Z</time>
      </trkpt>
      <trkpt lat="37.8321274888759" lon="112.00612065178555">
        <ele>1155.15</ele>
        <time>2019-05-31T09:03:11.756000Z</time>
      </trkpt>
      <trkpt lat="37.83180412938159" lon="112.00613719267339">
        <ele>1155.68</ele>
        <time>2019-05-31T09:03:23.756000Z</time>
      </trkpt>
      <trkpt lat="37.83149426505905" lon="112.00614662515079">
        <ele>1157.23</ele>
        <time>2019-05-31T09:03:35.756000Z</time>
      </trkpt>
      <trkpt lat="37.831184639190944" lon="112.00615708094773">
        <ele>1159.46</ele>
        <time>2019-05-31T09:03:47.756000Z</time>
      </trkpt>
      <trkpt lat="37.8308611425037" lon="112.00617452725429">
        <ele>1160.74</ele>
        <time>2019-05-31T09:03:59.756000Z</time>
      </trkpt>
      <trkpt lat="37.830542316053695" lon="112.00617327798645">
        <ele>1157.83</ele>
        <time>2019-05-31T09:04:11.756000Z</time>
      </trkpt>
      <trkpt lat="37.830238006959554" lon="112.00615680528341">
        <ele>1158.98</ele>
        <time>2019-05-31T09:04:23.756000Z</time>
      </trkpt>
      <trkpt lat="37.82994353807893" lon="112.00613484969642">
        <ele>1158.29</ele>
        <time>2019-05-31T09:04:35.756000Z</time>
      </trkpt>
      <trkpt lat="37.829629052450606" lon="112.00613696390134">
        <ele>1162.89</ele>
        <time>2019-05-31T09:04:47.756000Z</time>
      </trkpt>
      <trkpt lat="37.82932010011142" lon="112.00615787167438">
        <ele>1164.01</ele>
        <time>2019-05-31T09:04:59.756000Z</time>
      </trkpt>
      <trkpt lat="37.82902869584105" lon="112.00617616792172">
        <ele>1167.3</ele>
        <time>2019-05-31T09:05:20.756000Z</time>
      </trkpt>
      <trkpt lat="37.8287162158579" lon="112.00618240123248">
        <ele>1168.23</ele>
        <time>2019-05-31T09:05:44.756000Z</time>
      </trkpt>
      <trkpt lat="37.82840942647921" lon="112.00620481548765">
        <ele>1165.96</ele>
        <time>2019-05-31T09:06:02.756000Z</time>
      </trkpt>
      <trkpt lat="37.82814320190163" lon="112.00624600516934">
        <ele>1167.33</ele>
        <time>2019-05-31T09:06:14.756000Z</time>
      </trkpt>
      <trkpt lat="37.82783533430947" lon="112.00629329586539">
        <ele>1166.04</ele>
        <time>2019-05-31T09:06:26.756000Z</time>
      </trkpt>
      <trkpt lat="37.82753768228343" lon="112.00631569530081">
        <ele>1169.85</ele>
        <time>2019-05-31T09:06:38.756000Z</time>
      </trkpt>
      <trkpt lat="37.82723051494443" lon="112.00635822457177">
        <ele>1171.8</ele>
        <time>2019-05-31T09:06:50.756000Z</time>
      </trkpt>
      <trkpt lat="37.826928840761" lon="112.00638855782576">
        <ele>1173.64</ele>
        <time>2019-05-31T09:07:02.756000Z</time>
      </trkpt>
      <trkpt lat="37.82664752066202" lon="112.00641971145504">
        <ele>1176.05</ele>
        <time>2019-05-31T09:07:14.756000Z</time>
      </trkpt>
      <trkpt lat="37.82635720795102" lon="112.00649302881777">
        <ele>1181.6</ele>
        <time>2019-05-31T09:07:26.756000Z</time>
      </trkpt>
      <trkpt lat="37.826215534199555" lon="112.006534774407">
        <ele>1183.35</ele>
        <time>2019-05-31T09:07:32.756000Z</time>
      </trkpt>
      <trkpt lat="37.825914186985294" lon="112.0065201092876">
        <ele>1180.91</ele>
        <time>2019-05-31T09:07:44.756000Z</time>
      </trkpt>
      <trkpt lat="37.82576601417398" lon="112.00649445576168">
        <ele>1180.12</ele>
        <time>2019-05-31T09:07:50.756000Z</time>
      </trkpt>
      <trkpt lat="37.82545502802313" lon="112.00648925635501">
        <ele>1182.25</ele>
        <time>2019-05-31T09:08:02.756000Z</time>
      </trkpt>
      <trkpt lat="37.82513505151013" lon="112.00642813378407">
        <ele>1184.21</ele>
        <time>2019-05-31T09:08:14.756000Z</time>
      </trkpt>
      <trkpt lat="37.82482364910629" lon="112.00636297563025">
        <ele>1184.5</ele>
        <time>2019-05-31T09:08:26.756000Z</time>
      </trkpt>
      <trkpt lat="37.824497821930734" lon="112.00630033154813">
        <ele>1187.32</ele>
        <time>2019-05-31T09:08:38.756000Z</time>
      </trkpt>
      <trkpt lat="37.82416965691148" lon="112.006216005314">
        <ele>1185.62</ele>
        <time>2019-05-31T09:08:50.756000Z</time>
      </trkpt>
      <trkpt lat="37.82390297034368" lon="112.00614684745979">
        <ele>1185.16</ele>
        <time>2019-05-31T09:08:59.756000Z</time>
      </trkpt>
      <trkpt lat="37.82365687358568" lon="112.00609645478414">
        <ele>1187.3</ele>
        <time>2019-05-31T09:09:08.756000Z</time>
      </trkpt>
      <trkpt lat="37.82332414974989" lon="112.00607161001747">
        <ele>1181.62</ele>
        <time>2019-05-31T09:09:20.756000Z</time>
      </trkpt>
      <trkpt lat="37.8229978889547" lon="112.00610410161903">
        <ele>1178.53</ele>
        <time>2019-05-31T09:09:32.756000Z</time>
      </trkpt>
      <trkpt lat="37.82266873720295" lon="112.00610573208255">
        <ele>1182.59</ele>
        <time>2019-05-31T09:09:44.756000Z</time>
      </trkpt>
      <trkpt lat="37.822403450442806" lon="112.00597919244281">
        <ele>1186.76</ele>
        <time>2019-05-31T09:09:59.756000Z</time>
      </trkpt>
      <trkpt lat="37.82212525783493" lon="112.00580619019041">
        <ele>1196.48</ele>
        <time>2019-05-31T09:10:17.756000Z</time>
      </trkpt>
      <trkpt lat="37.821943497449546" lon="112.00568317871884">
        <ele>1189.37</ele>
        <time>2019-05-31T09:10:26.756000Z</time>
      </trkpt>
      <trkpt lat="37.82168946089306" lon="112.00546846944064">
        <ele>1191.92</ele>
        <time>2019-05-31T09:10:38.756000Z</time>
      </trkpt>
      <trkpt lat="37.82144053355327" lon="112.00524195171383">
        <ele>1192.93</ele>
        <time>2019-05-31T09:10:50.756000Z</time>
      </trkpt>
      <trkpt lat="37.82119238163312" lon="112.00502707699607">
        <ele>1196.38</ele>
        <time>2019-05-31T09:11:02.756000Z</time>
      </trkpt>
      <trkpt lat="37.82091637569116" lon="112.00485039572608">
        <ele>1199.5</ele>
        <time>2019-05-31T09:11:14.756000Z</time>
      </trkpt>
      <trkpt lat="37.820687373934646" lon="112.00468773458127">
        <ele>1199.0</ele>
        <time>2019-05-31T09:11:26.756000Z</time>
      </trkpt>
      <trkpt lat="37.82049531279421" lon="112.0044696788846">
        <ele>1203.13</ele>
        <time>2019-05-31T09:11:44.756000Z</time>
      </trkpt>
      <trkpt lat="37.8205076618585" lon="112.00452097609427">
        <ele>1203.88</ele>
        <time>2019-05-31T09:11:53.756000Z</time>
      </trkpt>
      <trkpt lat="37.820693116230466" lon="112.00473017099351">
        <ele>1200.82</ele>
        <time>2019-05-31T09:12:02.756000Z</time>
      </trkpt>
      <trkpt lat="37.82097608529012" lon="112.00494230186496">
        <ele>1199.1</ele>
        <time>2019-05-31T09:12:14.756000Z</time>
      </trkpt>
      <trkpt lat="37.82121992412961" lon="112.00510096807858">
        <ele>1198.74</ele>
        <time>2019-05-31T09:12:23.756000Z</time>
      </trkpt>
      <trkpt lat="37.821452264328684" lon="112.00528133143256">
        <ele>1198.91</ele>
        <time>2019-05-31T09:12:32.756000Z</time>
      </trkpt>
      <trkpt lat="37.821711315272246" lon="112.00550904335464">
        <ele>1198.09</ele>
        <time>2019-05-31T09:12:44.756000Z</time>
      </trkpt>
      <trkpt lat="37.821998042540876" lon="112.0057386072931">
        <ele>1195.5</ele>
        <time>2019-05-31T09:12:56.756000Z</time>
      </trkpt>
      <trkpt lat="37.82224792018475" lon="112.00591789247125">
        <ele>1201.51</ele>
        <time>2019-05-31T09:13:05.756000Z</time>
      </trkpt>
      <trkpt lat="37.82251824672819" lon="112.00607441394635">
        <ele>1200.72</ele>
        <time>2019-05-31T09:13:14.756000Z</time>
      </trkpt>
      <trkpt lat="37.82279053841262" lon="112.00616924507578">
        <ele>1194.43</ele>
        <time>2019-05-31T09:13:23.756000Z</time>
      </trkpt>
      <trkpt lat="37.822957622395286" lon="112.00619229119579">
        <ele>1190.44</ele>
        <time>2019-05-31T09:13:29.756000Z</time>
      </trkpt>
      <trkpt lat="37.82323291912118" lon="112.00614249487586">
        <ele>1186.28</ele>
        <time>2019-05-31T09:13:38.756000Z</time>
      </trkpt>
      <trkpt lat="37.82358526797617" lon="112.0060773359738">
        <ele>1181.09</ele>
        <time>2019-05-31T09:13:50.756000Z</time>
      </trkpt>
      <trkpt lat="37.8238450814041" lon="112.00608344722679">
        <ele>1180.44</ele>
        <time>2019-05-31T09:13:59.756000Z</time>
      </trkpt>
      <trkpt lat="37.82411222878481" lon="112.0061537874847">
        <ele>1180.6</ele>
        <time>2019-05-31T09:14:08.756000Z</time>
      </trkpt>
      <trkpt lat="37.82438204334953" lon="112.00624206556928">
        <ele>1183.46</ele>
        <time>2019-05-31T09:14:17.756000Z</time>
      </trkpt>
      <trkpt lat="37.82463941313844" lon="112.00632286540645">
        <ele>1185.0</ele>
        <time>2019-05-31T09:14:26.756000Z</time>
      </trkpt>
      <trkpt lat="37.82492060873441" lon="112.0063610906459">
        <ele>1178.57</ele>
        <time>2019-05-31T09:14:38.756000Z</time>
      </trkpt>
      <trkpt lat="37.82526802647958" lon="112.0064246779038">
        <ele>1180.0</ele>
        <time>2019-05-31T09:14:50.756000Z</time>
      </trkpt>
      <trkpt lat="37.825545086643494" lon="112.00648302774002">
        <ele>1179.48</ele>
        <time>2019-05-31T09:14:59.756000Z</time>
      </trkpt>
      <trkpt lat="37.825830982350816" lon="112.00650014425626">
        <ele>1176.93</ele>
        <time>2019-05-31T09:15:08.756000Z</time>
      </trkpt>
      <trkpt lat="37.82611519070636" lon="112.00653165752179">
        <ele>1177.15</ele>
        <time>2019-05-31T09:15:17.756000Z</time>
      </trkpt>
      <trkpt lat="37.82645397791246" lon="112.00646076357405">
        <ele>1173.89</ele>
        <time>2019-05-31T09:15:29.756000Z</time>
      </trkpt>
      <trkpt lat="37.82652871310865" lon="112.00643938770298">
        <ele>1174.21</ele>
        <time>2019-05-31T09:15:32.756000Z</time>
      </trkpt>
      <trkpt lat="37.82682667368138" lon="112.00638823911957">
        <ele>1176.86</ele>
        <time>2019-05-31T09:15:41.756000Z</time>
      </trkpt>
      <trkpt lat="37.82711658348902" lon="112.00635855286774">
        <ele>1173.0</ele>
        <time>2019-05-31T09:15:50.756000Z</time>
      </trkpt>
      <trkpt lat="37.8273932034339" lon="112.00632609979499">
        <ele>1173.2</ele>
        <time>2019-05-31T09:15:59.756000Z</time>
      </trkpt>
      <trkpt lat="37.82773715322585" lon="112.00628237803312">
        <ele>1172.03</ele>
        <time>2019-05-31T09:16:11.756000Z</time>
      </trkpt>
      <trkpt lat="37.82807927837042" lon="112.00624417327055">
        <ele>1170.52</ele>
        <time>2019-05-31T09:16:23.756000Z</time>
      </trkpt>
      <trkpt lat="37.82835396093416" lon="112.00621578186592">
        <ele>1169.48</ele>
        <time>2019-05-31T09:16:32.756000Z</time>
      </trkpt>
      <trkpt lat="37.82864902497529" lon="112.0061955709125">
        <ele>1168.51</ele>
        <time>2019-05-31T09:16:41.756000Z</time>
      </trkpt>
      <trkpt lat="37.828951951233556" lon="112.00618396340832">
        <ele>1169.28</ele>
        <time>2019-05-31T09:16:50.756000Z</time>
      </trkpt>
      <trkpt lat="37.82931433774002" lon="112.00616017116837">
        <ele>1167.55</ele>
        <time>2019-05-31T09:17:02.756000Z</time>
      </trkpt>
      <trkpt lat="37.829597727171915" lon="112.00616980743033">
        <ele>1167.41</ele>
        <time>2019-05-31T09:17:11.756000Z</time>
      </trkpt>
      <trkpt lat="37.82994969817478" lon="112.00615218058701">
        <ele>1164.08</ele>
        <time>2019-05-31T09:17:23.756000Z</time>
      </trkpt>
      <trkpt lat="37.8302279356721" lon="112.00615815243503">
        <ele>1162.96</ele>
        <time>2019-05-31T09:17:32.756000Z</time>
      </trkpt>
      <trkpt lat="37.830510163897316" lon="112.00617532439004">
        <ele>1161.67</ele>
        <time>2019-05-31T09:17:41.756000Z</time>
      </trkpt>
      <trkpt lat="37.830781418127444" lon="112.00617583100049">
        <ele>1158.43</ele>
        <time>2019-05-31T09:17:50.756000Z</time>
      </trkpt>
      <trkpt lat="37.8310647277304" lon="112.00615696103154">
        <ele>1159.7</ele>
        <time>2019-05-31T09:17:59.756000Z</time>
      </trkpt>
      <trkpt lat="37.83124246958942" lon="112.00616061340494">
        <ele>1157.32</ele>
        <time>2019-05-31T09:18:05.756000Z</time>
      </trkpt>
      <trkpt lat="37.831513170265886" lon="112.00612759231991">
        <ele>1156.66</ele>
        <time>2019-05-31T09:18:14.756000Z</time>
      </trkpt>
      <trkpt lat="37.83186913047778" lon="112.0061288355868">
        <ele>1155.33</ele>
        <time>2019-05-31T09:18:26.756000Z</time>
      </trkpt>
      <trkpt lat="37.832222207928034" lon="112.0061261559068">
        <ele>1153.42</ele>
        <time>2019-05-31T09:18:38.756000Z</time>
      </trkpt>
      <trkpt lat="37.83246165160386" lon="112.00617495015716">
        <ele>1156.05</ele>
        <time>2019-05-31T09:18:47.756000Z</time>
      </trkpt>
      <trkpt lat="37.8327151008762" lon="112.00628029629786">
        <ele>1156.54</ele>
        <time>2019-05-31T09:18:56.756000Z</time>
      </trkpt>
      <trkpt lat="37.83279952420619" lon="112.00633155788154">
        <ele>1155.91</ele>
        <time>2019-05-31T09:18:59.756000Z</time>
      </trkpt>
      <trkpt lat="37.83298443745055" lon="112.00640926928725">
        <ele>1157.97</ele>
        <time>2019-05-31T09:19:05.756000Z</time>
      </trkpt>
      <trkpt lat="37.833266776117185" lon="112.00649775575138">
        <ele>1155.36</ele>
        <time>2019-05-31T09:19:14.756000Z</time>
      </trkpt>
      <trkpt lat="37.83359808998017" lon="112.00661488248102">
        <ele>1158.56</ele>
        <time>2019-05-31T09:19:26.756000Z</time>
      </trkpt>
      <trkpt lat="37.83393757075836" lon="112.00670628368238">
        <ele>1153.63</ele>
        <time>2019-05-31T09:19:38.756000Z</time>
      </trkpt>
      <trkpt lat="37.834272959657426" lon="112.00681881874347">
        <ele>1149.59</ele>
        <time>2019-05-31T09:19:50.756000Z</time>
      </trkpt>
      <trkpt lat="37.83444223778296" lon="112.00688626339888">
        <ele>1151.06</ele>
        <time>2019-05-31T09:19:56.756000Z</time>
      </trkpt>
      <trkpt lat="37.83463389726473" lon="112.00692491919304">
        <ele>1150.7</ele>
        <time>2019-05-31T09:20:02.756000Z</time>
      </trkpt>
      <trkpt lat="37.83482716104774" lon="112.00692030234643">
        <ele>1150.06</ele>
        <time>2019-05-31T09:20:08.756000Z</time>
      </trkpt>
      <trkpt lat="37.83499078980794" lon="112.00688166092878">
        <ele>1151.46</ele>
        <time>2019-05-31T09:20:14.756000Z</time>
      </trkpt>
      <trkpt lat="37.83508930147784" lon="112.0068760206339">
        <ele>1150.5</ele>
        <time>2019-05-31T09:20:17.756000Z</time>
      </trkpt>
      <trkpt lat="37.8351843942805" lon="112.00687511610913">
        <ele>1149.21</ele>
        <time>2019-05-31T09:20:20.756000Z</time>
      </trkpt>
      <trkpt lat="37.83526422770915" lon="112.00689238819486">
        <ele>1148.29</ele>
        <time>2019-05-31T09:20:23.756000Z</time>
      </trkpt>
      <trkpt lat="37.83539236081664" lon="112.00703890265174">
        <ele>1149.16</ele>
        <time>2019-05-31T09:20:29.756000Z</time>
      </trkpt>
      <trkpt lat="37.835444131547355" lon="112.00712902490127">
        <ele>1150.93</ele>
        <time>2019-05-31T09:20:32.756000Z</time>
      </trkpt>
      <trkpt lat="37.8354915153705" lon="112.00722459475988">
        <ele>1151.35</ele>
        <time>2019-05-31T09:20:35.756000Z</time>
      </trkpt>
      <trkpt lat="37.835572052162824" lon="112.00729812755048">
        <ele>1151.61</ele>
        <time>2019-05-31T09:20:38.756000Z</time>
      </trkpt>
      <trkpt lat="37.83565412379064" lon="112.00732451169266">
        <ele>1150.83</ele>
        <time>2019-05-31T09:20:41.756000Z</time>
      </trkpt>
      <trkpt lat="37.835966518582836" lon="112.00739725858064">
        <ele>1148.53</ele>
        <time>2019-05-31T09:20:53.756000Z</time>
      </trkpt>
      <trkpt lat="37.83605362204852" lon="112.00741457940275">
        <ele>1149.21</ele>
        <time>2019-05-31T09:20:56.756000Z</time>
      </trkpt>
      <trkpt lat="37.83615305195471" lon="112.00743010075165">
        <ele>1148.87</ele>
        <time>2019-05-31T09:20:59.756000Z</time>
      </trkpt>
      <trkpt lat="37.836440068958" lon="112.00749951149757">
        <ele>1150.2</ele>
        <time>2019-05-31T09:21:08.756000Z</time>
      </trkpt>
      <trkpt lat="37.836705553646624" lon="112.00758902821481">
        <ele>1149.29</ele>
        <time>2019-05-31T09:21:17.756000Z</time>
      </trkpt>
      <trkpt lat="37.837028533955426" lon="112.00771072676933">
        <ele>1146.28</ele>
        <time>2019-05-31T09:21:29.756000Z</time>
      </trkpt>
      <trkpt lat="37.837300326421406" lon="112.00780336965494">
        <ele>1146.17</ele>
        <time>2019-05-31T09:21:38.756000Z</time>
      </trkpt>
      <trkpt lat="37.837649619939015" lon="112.00794240442423">
        <ele>1144.1</ele>
        <time>2019-05-31T09:21:50.756000Z</time>
      </trkpt>
      <trkpt lat="37.83791658974753" lon="112.00804631186044">
        <ele>1141.78</ele>
        <time>2019-05-31T09:21:59.756000Z</time>
      </trkpt>
      <trkpt lat="37.83820140690291" lon="112.00817029858703">
        <ele>1139.91</ele>
        <time>2019-05-31T09:22:08.756000Z</time>
      </trkpt>
      <trkpt lat="37.83839800278542" lon="112.00822405280039">
        <ele>1139.24</ele>
        <time>2019-05-31T09:22:14.756000Z</time>
      </trkpt>
      <trkpt lat="37.83867084631799" lon="112.00820377473416">
        <ele>1136.92</ele>
        <time>2019-05-31T09:22:23.756000Z</time>
      </trkpt>
      <trkpt lat="37.83876529827344" lon="112.00818686288267">
        <ele>1134.55</ele>
        <time>2019-05-31T09:22:26.756000Z</time>
      </trkpt>
      <trkpt lat="37.838857649349166" lon="112.00816676580205">
        <ele>1133.51</ele>
        <time>2019-05-31T09:22:29.756000Z</time>
      </trkpt>
      <trkpt lat="37.8391609755351" lon="112.00812425899667">
        <ele>1132.84</ele>
        <time>2019-05-31T09:22:38.756000Z</time>
      </trkpt>
      <trkpt lat="37.83934445530094" lon="112.00809535302699">
        <ele>1130.1</ele>
        <time>2019-05-31T09:22:44.756000Z</time>
      </trkpt>
      <trkpt lat="37.83955010821339" lon="112.00808095342586">
        <ele>1129.74</ele>
        <time>2019-05-31T09:22:50.756000Z</time>
      </trkpt>
      <trkpt lat="37.83991046786841" lon="112.00801528259758">
        <ele>1130.67</ele>
        <time>2019-05-31T09:23:02.756000Z</time>
      </trkpt>
      <trkpt lat="37.84018340814371" lon="112.00797358939131">
        <ele>1131.85</ele>
        <time>2019-05-31T09:23:11.756000Z</time>
      </trkpt>
      <trkpt lat="37.84044668439494" lon="112.00800597173824">
        <ele>1130.31</ele>
        <time>2019-05-31T09:23:20.756000Z</time>
      </trkpt>
      <trkpt lat="37.84060701395554" lon="112.00806500396398">
        <ele>1128.82</ele>
        <time>2019-05-31T09:23:26.756000Z</time>
      </trkpt>
      <trkpt lat="37.84090848627143" lon="112.00812060080698">
        <ele>1130.68</ele>
        <time>2019-05-31T09:23:38.756000Z</time>
      </trkpt>
      <trkpt lat="37.84119050584871" lon="112.00814733108949">
        <ele>1130.62</ele>
        <time>2019-05-31T09:23:47.756000Z</time>
      </trkpt>
      <trkpt lat="37.84154183948334" lon="112.00809631621138">
        <ele>1130.41</ele>
        <time>2019-05-31T09:23:59.756000Z</time>
      </trkpt>
      <trkpt lat="37.84179791118628" lon="112.00798692877335">
        <ele>1129.24</ele>
        <time>2019-05-31T09:24:08.756000Z</time>
      </trkpt>
      <trkpt lat="37.842065325233676" lon="112.00785119796757">
        <ele>1127.76</ele>
        <time>2019-05-31T09:24:17.756000Z</time>
      </trkpt>
      <trkpt lat="37.84221311341021" lon="112.00772528151758">
        <ele>1127.88</ele>
        <time>2019-05-31T09:24:23.756000Z</time>
      </trkpt>
      <trkpt lat="37.84229848954468" lon="112.0076756787166">
        <ele>1127.42</ele>
        <time>2019-05-31T09:24:26.756000Z</time>
      </trkpt>
      <trkpt lat="37.84236556880778" lon="112.00759211176835">
        <ele>1127.57</ele>
        <time>2019-05-31T09:24:29.756000Z</time>
      </trkpt>
      <trkpt lat="37.8425208208229" lon="112.00748856808448">
        <ele>1127.21</ele>
        <time>2019-05-31T09:24:35.756000Z</time>
      </trkpt>
      <trkpt lat="37.8425935066211" lon="112.00745132836492">
        <ele>1124.89</ele>
        <time>2019-05-31T09:24:38.756000Z</time>
      </trkpt>
      <trkpt lat="37.84284315784272" lon="112.0072731498553">
        <ele>1132.34</ele>
        <time>2019-05-31T09:24:47.756000Z</time>
      </trkpt>
      <trkpt lat="37.84306312407679" lon="112.0071221522649">
        <ele>1123.89</ele>
        <time>2019-05-31T09:24:56.756000Z</time>
      </trkpt>
      <trkpt lat="37.8432889582107" lon="112.00689820854923">
        <ele>1124.98</ele>
        <time>2019-05-31T09:25:05.756000Z</time>
      </trkpt>
      <trkpt lat="37.84351773156696" lon="112.00670734457711">
        <ele>1123.07</ele>
        <time>2019-05-31T09:25:14.756000Z</time>
      </trkpt>
      <trkpt lat="37.84375245128392" lon="112.00651237291164">
        <ele>1125.6</ele>
        <time>2019-05-31T09:25:23.756000Z</time>
      </trkpt>
      <trkpt lat="37.84390271899306" lon="112.00638050651986">
        <ele>1126.6</ele>
        <time>2019-05-31T09:25:29.756000Z</time>
      </trkpt>
      <trkpt lat="37.844235921762774" lon="112.00620050403408">
        <ele>1125.51</ele>
        <time>2019-05-31T09:25:41.756000Z</time>
      </trkpt>
      <trkpt lat="37.844475456239394" lon="112.00609874204729">
        <ele>1123.89</ele>
        <time>2019-05-31T09:25:50.756000Z</time>
      </trkpt>
      <trkpt lat="37.84475516745341" lon="112.00610125212617">
        <ele>1124.44</ele>
        <time>2019-05-31T09:25:59.756000Z</time>
      </trkpt>
      <trkpt lat="37.84506886875101" lon="112.00616850243834">
        <ele>1120.34</ele>
        <time>2019-05-31T09:26:11.756000Z</time>
      </trkpt>
      <trkpt lat="37.84540793009782" lon="112.00628646964685">
        <ele>1119.39</ele>
        <time>2019-05-31T09:26:23.756000Z</time>
      </trkpt>
      <trkpt lat="37.84575030615109" lon="112.00640494743743">
        <ele>1117.85</ele>
        <time>2019-05-31T09:26:35.756000Z</time>
      </trkpt>
      <trkpt lat="37.84601491720312" lon="112.00651172215332">
        <ele>1117.68</ele>
        <time>2019-05-31T09:26:44.756000Z</time>
      </trkpt>
      <trkpt lat="37.846176539120535" lon="112.00656458074744">
        <ele>1119.5</ele>
        <time>2019-05-31T09:26:50.756000Z</time>
      </trkpt>
      <trkpt lat="37.84646462787935" lon="112.00661914323744">
        <ele>1118.99</ele>
        <time>2019-05-31T09:26:59.756000Z</time>
      </trkpt>
      <trkpt lat="37.846656938335876" lon="112.00662384225363">
        <ele>1121.16</ele>
        <time>2019-05-31T09:27:05.756000Z</time>
      </trkpt>
      <trkpt lat="37.847023811879936" lon="112.00666324927246">
        <ele>1117.79</ele>
        <time>2019-05-31T09:27:17.756000Z</time>
      </trkpt>
      <trkpt lat="37.8473715559875" lon="112.00670981440219">
        <ele>1118.95</ele>
        <time>2019-05-31T09:27:29.756000Z</time>
      </trkpt>
      <trkpt lat="37.84764073372689" lon="112.00674339900232">
        <ele>1118.75</ele>
        <time>2019-05-31T09:27:38.756000Z</time>
      </trkpt>
      <trkpt lat="37.84791772984311" lon="112.00677002698139">
        <ele>1117.32</ele>
        <time>2019-05-31T09:27:47.756000Z</time>
      </trkpt>
      <trkpt lat="37.848202399617016" lon="112.00682316514377">
        <ele>1116.2</ele>
        <time>2019-05-31T09:27:56.756000Z</time>
      </trkpt>
      <trkpt lat="37.848288016483416" lon="112.0068770714687">
        <ele>1115.64</ele>
        <time>2019-05-31T09:27:59.756000Z</time>
      </trkpt>
      <trkpt lat="37.84842207265091" lon="112.0070242700388">
        <ele>1118.54</ele>
        <time>2019-05-31T09:28:05.756000Z</time>
      </trkpt>
      <trkpt lat="37.84863263752667" lon="112.00736995173472">
        <ele>1119.44</ele>
        <time>2019-05-31T09:28:17.756000Z</time>
      </trkpt>
      <trkpt lat="37.84881847926558" lon="112.00763219849351">
        <ele>1119.79</ele>
        <time>2019-05-31T09:28:26.756000Z</time>
      </trkpt>
      <trkpt lat="37.849053843640064" lon="112.00794225876759">
        <ele>1115.04</ele>
        <time>2019-05-31T09:28:38.756000Z</time>
      </trkpt>
      <trkpt lat="37.849247609636166" lon="112.00827558185738">
        <ele>1114.03</ele>
        <time>2019-05-31T09:28:50.756000Z</time>
      </trkpt>
      <trkpt lat="37.84942668260714" lon="112.00853665021455">
        <ele>1112.74</ele>
        <time>2019-05-31T09:28:59.756000Z</time>
      </trkpt>
      <trkpt lat="37.849586717855814" lon="112.00883504218933">
        <ele>1113.74</ele>
        <time>2019-05-31T09:29:08.756000Z</time>
      </trkpt>
      <trkpt lat="37.849762692642024" lon="112.00911538314683">
        <ele>1112.54</ele>
        <time>2019-05-31T09:29:17.756000Z</time>
      </trkpt>
      <trkpt lat="37.84983836420843" lon="112.00932999011172">
        <ele>1113.99</ele>
        <time>2019-05-31T09:29:23.756000Z</time>
      </trkpt>
      <trkpt lat="37.849897013866595" lon="112.00968538952884">
        <ele>1111.49</ele>
        <time>2019-05-31T09:29:32.756000Z</time>
      </trkpt>
      <trkpt lat="37.84989557425924" lon="112.01004235051381">
        <ele>1112.48</ele>
        <time>2019-05-31T09:29:41.756000Z</time>
      </trkpt>
      <trkpt lat="37.84988377513594" lon="112.01039597216358">
        <ele>1111.12</ele>
        <time>2019-05-31T09:29:50.756000Z</time>
      </trkpt>
      <trkpt lat="37.849877248091836" lon="112.01077212670782">
        <ele>1110.4</ele>
        <time>2019-05-31T09:29:59.756000Z</time>
      </trkpt>
      <trkpt lat="37.84984558072824" lon="112.01113160086045">
        <ele>1111.68</ele>
        <time>2019-05-31T09:30:08.756000Z</time>
      </trkpt>
      <trkpt lat="37.84980093303339" lon="112.01147557449836">
        <ele>1114.9</ele>
        <time>2019-05-31T09:30:17.756000Z</time>
      </trkpt>
      <trkpt lat="37.84976531375224" lon="112.01193371032204">
        <ele>1113.02</ele>
        <time>2019-05-31T09:30:29.756000Z</time>
      </trkpt>
      <trkpt lat="37.849743967611225" lon="112.01227833567843">
        <ele>1110.44</ele>
        <time>2019-05-31T09:30:38.756000Z</time>
      </trkpt>
      <trkpt lat="37.84972310252528" lon="112.01262870244028">
        <ele>1112.0</ele>
        <time>2019-05-31T09:30:47.756000Z</time>
      </trkpt>
      <trkpt lat="37.84970247868816" lon="112.01298700088618">
        <ele>1108.4</ele>
        <time>2019-05-31T09:30:56.756000Z</time>
      </trkpt>
      <trkpt lat="37.84968402214454" lon="112.01343193976774">
        <ele>1104.26</ele>
        <time>2019-05-31T09:31:08.756000Z</time>
      </trkpt>
      <trkpt lat="37.84963488823007" lon="112.0137697381024">
        <ele>1105.96</ele>
        <time>2019-05-31T09:31:17.756000Z</time>
      </trkpt>
      <trkpt lat="37.849585187689655" lon="112.01414200119599">
        <ele>1107.54</ele>
        <time>2019-05-31T09:31:26.756000Z</time>
      </trkpt>
      <trkpt lat="37.84954185579738" lon="112.01448871214158">
        <ele>1106.84</ele>
        <time>2019-05-31T09:31:35.756000Z</time>
      </trkpt>
      <trkpt lat="37.8495107590027" lon="112.0148882901532">
        <ele>1103.6</ele>
        <time>2019-05-31T09:31:44.756000Z</time>
      </trkpt>
      <trkpt lat="37.849477230164055" lon="112.01525430511865">
        <ele>1100.82</ele>
        <time>2019-05-31T09:31:53.756000Z</time>
      </trkpt>
      <trkpt lat="37.84943391835169" lon="112.01569186007934">
        <ele>1100.39</ele>
        <time>2019-05-31T09:32:05.756000Z</time>
      </trkpt>
      <trkpt lat="37.84939742007047" lon="112.01604672560526">
        <ele>1099.69</ele>
        <time>2019-05-31T09:32:14.756000Z</time>
      </trkpt>
      <trkpt lat="37.8493565813734" lon="112.01638986047679">
        <ele>1100.22</ele>
        <time>2019-05-31T09:32:23.756000Z</time>
      </trkpt>
      <trkpt lat="37.849323085486475" lon="112.01675615914631">
        <ele>1101.35</ele>
        <time>2019-05-31T09:32:32.756000Z</time>
      </trkpt>
      <trkpt lat="37.84926853759625" lon="112.01719826920869">
        <ele>1099.19</ele>
        <time>2019-05-31T09:32:44.756000Z</time>
      </trkpt>
      <trkpt lat="37.8492123800249" lon="112.01753167550184">
        <ele>1099.32</ele>
        <time>2019-05-31T09:32:53.756000Z</time>
      </trkpt>
      <trkpt lat="37.849195658490956" lon="112.01791920977526">
        <ele>1102.5</ele>
        <time>2019-05-31T09:33:02.756000Z</time>
      </trkpt>
      <trkpt lat="37.84916977833009" lon="112.01831249595152">
        <ele>1104.38</ele>
        <time>2019-05-31T09:33:11.756000Z</time>
      </trkpt>
      <trkpt lat="37.849114643875154" lon="112.01875278029603">
        <ele>1103.03</ele>
        <time>2019-05-31T09:33:23.756000Z</time>
      </trkpt>
      <trkpt lat="37.84911746073626" lon="112.01900770780567">
        <ele>1104.4</ele>
        <time>2019-05-31T09:33:29.756000Z</time>
      </trkpt>
      <trkpt lat="37.84915035442236" lon="112.01922966052281">
        <ele>1105.72</ele>
        <time>2019-05-31T09:33:35.756000Z</time>
      </trkpt>
      <trkpt lat="37.84911926615879" lon="112.0196156190173">
        <ele>1104.5</ele>
        <time>2019-05-31T09:33:44.756000Z</time>
      </trkpt>
      <trkpt lat="37.849106709011075" lon="112.01982393095278">
        <ele>1105.73</ele>
        <time>2019-05-31T09:33:50.756000Z</time>
      </trkpt>
      <trkpt lat="37.849111729594334" lon="112.02018872730461">
        <ele>1107.03</ele>
        <time>2019-05-31T09:33:59.756000Z</time>
      </trkpt>
      <trkpt lat="37.84910824285144" lon="112.0205709473594">
        <ele>1108.6</ele>
        <time>2019-05-31T09:34:08.756000Z</time>
      </trkpt>
      <trkpt lat="37.84911520485436" lon="112.02093577546869">
        <ele>1105.38</ele>
        <time>2019-05-31T09:34:23.756000Z</time>
      </trkpt>
      <trkpt lat="37.84911666268862" lon="112.02117432395956">
        <ele>1104.61</ele>
        <time>2019-05-31T09:34:29.756000Z</time>
      </trkpt>
      <trkpt lat="37.84908247946283" lon="112.02156987893987">
        <ele>1104.58</ele>
        <time>2019-05-31T09:34:38.756000Z</time>
      </trkpt>
      <trkpt lat="37.84908016186245" lon="112.02192251745427">
        <ele>1103.73</ele>
        <time>2019-05-31T09:34:47.756000Z</time>
      </trkpt>
      <trkpt lat="37.84908529362165" lon="112.02226470492884">
        <ele>1104.69</ele>
        <time>2019-05-31T09:35:05.856000Z</time>
      </trkpt>
      <trkpt lat="37.849042257373284" lon="112.02253803182175">
        <ele>1101.68</ele>
        <time>2019-05-31T09:35:26.756000Z</time>
      </trkpt>
      <trkpt lat="37.849065689391864" lon="112.0229528430631">
        <ele>1100.94</ele>
        <time>2019-05-31T09:35:50.756000Z</time>
      </trkpt>
      <trkpt lat="37.84905451148064" lon="112.02304834977775">
        <ele>1103.13</ele>
        <time>2019-05-31T09:35:56.756000Z</time>
      </trkpt>
      <trkpt lat="37.84906702334438" lon="112.02345366079166">
        <ele>1101.34</ele>
        <time>2019-05-31T09:36:20.756000Z</time>
      </trkpt>
      <trkpt lat="37.84909606064049" lon="112.02381761528072">
        <ele>1103.42</ele>
        <time>2019-05-31T09:36:44.756000Z</time>
      </trkpt>
      <trkpt lat="37.84911185150357" lon="112.0239765236715">
        <ele>1103.21</ele>
        <time>2019-05-31T09:36:56.756000Z</time>
      </trkpt>
      <trkpt lat="37.849098063051" lon="112.0240641896147">
        <ele>1102.8</ele>
        <time>2019-05-31T09:37:02.756000Z</time>
      </trkpt>
      <trkpt lat="37.84909374897396" lon="112.02422594366983">
        <ele>1103.55</ele>
        <time>2019-05-31T09:37:14.756000Z</time>
      </trkpt>
      <trkpt lat="37.849079324332855" lon="112.02430675685933">
        <ele>1105.75</ele>
        <time>2019-05-31T09:37:20.756000Z</time>
      </trkpt>
      <trkpt lat="37.84908559905725" lon="112.0244103426451">
        <ele>1106.12</ele>
        <time>2019-05-31T09:37:26.756000Z</time>
      </trkpt>
      <trkpt lat="37.8490533313722" lon="112.02450239980794">
        <ele>1104.58</ele>
        <time>2019-05-31T09:37:32.756000Z</time>
      </trkpt>
      <trkpt lat="37.84905930391761" lon="112.02459563688046">
        <ele>1102.48</ele>
        <time>2019-05-31T09:37:38.756000Z</time>
      </trkpt>
      <trkpt lat="37.849021175757244" lon="112.0246581151305">
        <ele>1104.52</ele>
        <time>2019-05-31T09:37:44.756000Z</time>
      </trkpt>
      <trkpt lat="37.84905671774646" lon="112.02484555308733">
        <ele>1102.77</ele>
        <time>2019-05-31T09:37:56.756000Z</time>
      </trkpt>
      <trkpt lat="37.849049536825945" lon="112.02520411009792">
        <ele>1103.47</ele>
        <time>2019-05-31T09:38:20.756000Z</time>
      </trkpt>
      <trkpt lat="37.849045677129375" lon="112.02527880418108">
        <ele>1102.32</ele>
        <time>2019-05-31T09:38:26.756000Z</time>
      </trkpt>
      <trkpt lat="37.84899585456983" lon="112.02533287484113">
        <ele>1102.9</ele>
        <time>2019-05-31T09:38:32.656000Z</time>
      </trkpt>
      <trkpt lat="37.84899635025857" lon="112.02539343897617">
        <ele>1101.35</ele>
        <time>2019-05-31T09:38:38.756000Z</time>
      </trkpt>
      <trkpt lat="37.84895655642795" lon="112.02543655802342">
        <ele>1100.51</ele>
        <time>2019-05-31T09:38:41.756000Z</time>
      </trkpt>
      <trkpt lat="37.84894082970753" lon="112.0254981356255">
        <ele>1101.9</ele>
        <time>2019-05-31T09:38:44.656000Z</time>
      </trkpt>
      <trkpt lat="37.8489715053369" lon="112.02555436700369">
        <ele>1102.47</ele>
        <time>2019-05-31T09:38:47.756000Z</time>
      </trkpt>
      <trkpt lat="37.84894928230627" lon="112.02595980476296">
        <ele>1100.07</ele>
        <time>2019-05-31T09:39:14.756000Z</time>
      </trkpt>
      <trkpt lat="37.848936455537185" lon="112.02605318288954">
        <ele>1097.89</ele>
        <time>2019-05-31T09:39:23.856000Z</time>
      </trkpt>
    </trkseg>
  </trk>
</gpx>