<?xml version="1.0" encoding="UTF-8"?>
<gpx xmlns="http://www.topografix.com/GPX/1/1" xmlns:gpxtpx="http://www.garmin.com/xmlschemas/TrackPointExtension/v1" xmlns:xsi="http://www.w3.org/2001/XMLSchema-instance" xsi:schemaLocation="http://www.topografix.com/GPX/1/1 http://www.topografix.com/GPX/1/1/gpx.xsd" version="1.1" creator="gpx.py -- https://github.com/tkrajina/gpxpy">
  <trk>
    <name>gpx from keep</name>
    <type>Run</type>
    <trkseg>
      <trkpt lat="37.84679886956839" lon="112.02953387581785">
        <ele>0.0</ele>
        <time>2016-08-12T01:36:11.400000Z</time>
      </trkpt>
      <trkpt lat="37.84679886956839" lon="112.02953387581785">
        <ele>0.0</ele>
        <time>2016-08-12T01:37:11.700000Z</time>
      </trkpt>
      <trkpt lat="37.84679886956839" lon="112.02953387581785">
        <ele>0.0</ele>
        <time>2016-08-12T01:38:12.200000Z</time>
      </trkpt>
      <trkpt lat="37.84704092072604" lon="112.0292282807339">
        <ele>1190.0805378791679</ele>
        <time>2016-08-12T01:38:25.400000Z</time>
      </trkpt>
      <trkpt lat="37.84720913842006" lon="112.02933374199438">
        <ele>1151.5654234829071</ele>
        <time>2016-08-12T01:38:38Z</time>
      </trkpt>
      <trkpt lat="37.847293051621484" lon="112.02941027384884">
        <ele>1111.4856145182434</ele>
        <time>2016-08-12T01:38:49Z</time>
      </trkpt>
      <trkpt lat="37.8472909499406" lon="112.02916847797557">
        <ele>1110.469065780114</ele>
        <time>2016-08-12T01:38:58.900000Z</time>
      </trkpt>
      <trkpt lat="37.847360350694935" lon="112.02876250561056">
        <ele>1109.3974929838214</ele>
        <time>2016-08-12T01:39:06Z</time>
      </trkpt>
      <trkpt lat="37.8473241677456" lon="112.02858806351357">
        <ele>1109.661224910507</ele>
        <time>2016-08-12T01:39:10Z</time>
      </trkpt>
      <trkpt lat="37.847358290649616" lon="112.0281875127366">
        <ele>1114.7253641487819</ele>
        <time>2016-08-12T01:39:19.900000Z</time>
      </trkpt>
      <trkpt lat="37.847415167783524" lon="112.02780265095056">
        <ele>1112.2987996380973</ele>
        <time>2016-08-12T01:39:33Z</time>
      </trkpt>
      <trkpt lat="37.847473222723416" lon="112.02748865153049">
        <ele>1112.033810378825</ele>
        <time>2016-08-12T01:39:40Z</time>
      </trkpt>
      <trkpt lat="37.84746450485724" lon="112.02729230759037">
        <ele>1111.358456793963</ele>
        <time>2016-08-12T01:39:44Z</time>
      </trkpt>
      <trkpt lat="37.8475668698886" lon="112.0269466663596">
        <ele>1112.1647002181985</ele>
        <time>2016-08-12T01:39:52Z</time>
      </trkpt>
      <trkpt lat="37.84762992458323" lon="112.02679953782587">
        <ele>1112.412059145338</ele>
        <time>2016-08-12T01:39:56Z</time>
      </trkpt>
      <trkpt lat="37.84771162159891" lon="112.02668269717472">
        <ele>1112.4210575142813</ele>
        <time>2016-08-12T01:40:00Z</time>
      </trkpt>
      <trkpt lat="37.847788054979766" lon="112.02660777586506">
        <ele>1112.4554079377133</ele>
        <time>2016-08-12T01:40:03Z</time>
      </trkpt>
      <trkpt lat="37.847830387045526" lon="112.02650067651544">
        <ele>1112.7350703412149</ele>
        <time>2016-08-12T01:40:06Z</time>
      </trkpt>
      <trkpt lat="37.84795299522887" lon="112.0264060080754">
        <ele>1113.1036043352663</ele>
        <time>2016-08-12T01:40:10Z</time>
      </trkpt>
      <trkpt lat="37.84828593766308" lon="112.02649359032567">
        <ele>1113.4379646604575</ele>
        <time>2016-08-12T01:40:21Z</time>
      </trkpt>
      <trkpt lat="37.848549349665554" lon="112.02650572844043">
        <ele>1112.8263450105796</ele>
        <time>2016-08-12T01:40:29Z</time>
      </trkpt>
      <trkpt lat="37.84869897505661" lon="112.0265589871033">
        <ele>1112.2520190764442</ele>
        <time>2016-08-12T01:40:33Z</time>
      </trkpt>
      <trkpt lat="37.848860081477525" lon="112.02657925074878">
        <ele>1111.9358247139128</ele>
        <time>2016-08-12T01:40:37Z</time>
      </trkpt>
      <trkpt lat="37.84898122734271" lon="112.02652514818045">
        <ele>1111.775566687513</ele>
        <time>2016-08-12T01:40:41Z</time>
      </trkpt>
      <trkpt lat="37.849009170979556" lon="112.02642156656351">
        <ele>1111.3615405397168</ele>
        <time>2016-08-12T01:40:45Z</time>
      </trkpt>
      <trkpt lat="37.84901886192372" lon="112.02624280584536">
        <ele>1111.324739807414</ele>
        <time>2016-08-12T01:40:51Z</time>
      </trkpt>
      <trkpt lat="37.84906173439545" lon="112.02603321254027">
        <ele>1112.0587746243016</ele>
        <time>2016-08-12T01:40:58Z</time>
      </trkpt>
      <trkpt lat="37.84901626231025" lon="112.02557807861172">
        <ele>1114.8394392377925</ele>
        <time>2016-08-12T01:41:06Z</time>
      </trkpt>
      <trkpt lat="37.84899962462826" lon="112.02519920854552">
        <ele>1116.6352777557565</ele>
        <time>2016-08-12T01:41:10Z</time>
      </trkpt>
      <trkpt lat="37.84899725055727" lon="112.02486550233894">
        <ele>1115.8750104046103</ele>
        <time>2016-08-12T01:41:14Z</time>
      </trkpt>
      <trkpt lat="37.849012633940276" lon="112.02469134712986">
        <ele>1115.8316691625016</ele>
        <time>2016-08-12T01:41:21Z</time>
      </trkpt>
      <trkpt lat="37.84897555654986" lon="112.0245542470497">
        <ele>1115.7227322398232</ele>
        <time>2016-08-12T01:41:25Z</time>
      </trkpt>
      <trkpt lat="37.848946628786365" lon="112.02420946362145">
        <ele>1116.407386377761</ele>
        <time>2016-08-12T01:41:35Z</time>
      </trkpt>
      <trkpt lat="37.84896413853363" lon="112.02395121179374">
        <ele>1114.0863680041307</ele>
        <time>2016-08-12T01:41:42.900000Z</time>
      </trkpt>
      <trkpt lat="37.848938361616874" lon="112.0237489432471">
        <ele>1113.8363326763194</ele>
        <time>2016-08-12T01:41:47Z</time>
      </trkpt>
      <trkpt lat="37.84896755118552" lon="112.0235880427423">
        <ele>1112.3311909779886</ele>
        <time>2016-08-12T01:41:51Z</time>
      </trkpt>
      <trkpt lat="37.8490421985209" lon="112.02347310783523">
        <ele>1112.1351453070756</ele>
        <time>2016-08-12T01:41:55Z</time>
      </trkpt>
      <trkpt lat="37.84905867120575" lon="112.02319863729103">
        <ele>1111.3626991310614</ele>
        <time>2016-08-12T01:42:02Z</time>
      </trkpt>
      <trkpt lat="37.849095463264206" lon="112.02303638651767">
        <ele>1111.1547876530176</ele>
        <time>2016-08-12T01:42:06Z</time>
      </trkpt>
      <trkpt lat="37.84907927814792" lon="112.02259913846495">
        <ele>1109.719626779304</ele>
        <time>2016-08-12T01:42:17Z</time>
      </trkpt>
      <trkpt lat="37.84907806264906" lon="112.02234630957578">
        <ele>1109.1812094274394</ele>
        <time>2016-08-12T01:42:24Z</time>
      </trkpt>
      <trkpt lat="37.84905226862227" lon="112.02225329369412">
        <ele>1109.1443639380782</ele>
        <time>2016-08-12T01:42:28Z</time>
      </trkpt>
      <trkpt lat="37.849095437587785" lon="112.02234225142479">
        <ele>1109.4195130394141</ele>
        <time>2016-08-12T01:42:32Z</time>
      </trkpt>
      <trkpt lat="37.84911232755413" lon="112.02281897561753">
        <ele>1107.989693056637</ele>
        <time>2016-08-12T01:42:43Z</time>
      </trkpt>
      <trkpt lat="37.84910759890379" lon="112.0231645596156">
        <ele>1105.5200964956027</ele>
        <time>2016-08-12T01:42:50Z</time>
      </trkpt>
      <trkpt lat="37.849107862558355" lon="112.02326839756185">
        <ele>1105.5815993045721</ele>
        <time>2016-08-12T01:42:53Z</time>
      </trkpt>
      <trkpt lat="37.84913044514728" lon="112.02334573272297">
        <ele>1104.9986108888597</ele>
        <time>2016-08-12T01:42:57Z</time>
      </trkpt>
      <trkpt lat="37.84917397220515" lon="112.02320105714786">
        <ele>1104.5826263847864</ele>
        <time>2016-08-12T01:43:01Z</time>
      </trkpt>
      <trkpt lat="37.849145746302845" lon="112.0228013950791">
        <ele>1103.2862690780412</ele>
        <time>2016-08-12T01:43:09Z</time>
      </trkpt>
      <trkpt lat="37.84911935314891" lon="112.02252801684669">
        <ele>1103.1727721148386</ele>
        <time>2016-08-12T01:43:16Z</time>
      </trkpt>
      <trkpt lat="37.84911596669163" lon="112.0220753609209">
        <ele>1102.4004087845303</ele>
        <time>2016-08-12T01:43:26Z</time>
      </trkpt>
      <trkpt lat="37.849087474562126" lon="112.02177738238144">
        <ele>1101.3609135776687</ele>
        <time>2016-08-12T01:43:33Z</time>
      </trkpt>
      <trkpt lat="37.849103545491744" lon="112.02165434872535">
        <ele>1101.5670594751389</ele>
        <time>2016-08-12T01:43:36Z</time>
      </trkpt>
      <trkpt lat="37.84910457590479" lon="112.02147534497735">
        <ele>1102.0161898138585</ele>
        <time>2016-08-12T01:43:39Z</time>
      </trkpt>
      <trkpt lat="37.84908095089447" lon="112.02128417728201">
        <ele>1104.9726701052018</ele>
        <time>2016-08-12T01:43:43Z</time>
      </trkpt>
      <trkpt lat="37.849075377942796" lon="112.02094104703257">
        <ele>1106.499940800127</ele>
        <time>2016-08-12T01:43:50Z</time>
      </trkpt>
      <trkpt lat="37.849045820469385" lon="112.02073744491423">
        <ele>1107.0502228135601</ele>
        <time>2016-08-12T01:43:53.900000Z</time>
      </trkpt>
      <trkpt lat="37.84911692580458" lon="112.02053193914854">
        <ele>1107.7002278761897</ele>
        <time>2016-08-12T01:44:01Z</time>
      </trkpt>
      <trkpt lat="37.849164735715405" lon="112.02031318830441">
        <ele>1107.3097998945295</ele>
        <time>2016-08-12T01:44:09Z</time>
      </trkpt>
      <trkpt lat="37.849161702615056" lon="112.02003550054833">
        <ele>1109.0604224344938</ele>
        <time>2016-08-12T01:44:21Z</time>
      </trkpt>
      <trkpt lat="37.84918227784783" lon="112.01995330063951">
        <ele>1109.7113253317507</ele>
        <time>2016-08-12T01:44:27Z</time>
      </trkpt>
      <trkpt lat="37.84923883464623" lon="112.01990840980557">
        <ele>1110.2639783599907</ele>
        <time>2016-08-12T01:44:39Z</time>
      </trkpt>
      <trkpt lat="37.849204523030785" lon="112.0196596599298">
        <ele>1110.4939692136022</ele>
        <time>2016-08-12T01:44:53Z</time>
      </trkpt>
      <trkpt lat="37.84917128307374" lon="112.01951419768291">
        <ele>1109.4608868955324</ele>
        <time>2016-08-12T01:45:04Z</time>
      </trkpt>
      <trkpt lat="37.84920728267452" lon="112.01905589732073">
        <ele>1109.5198569411843</ele>
        <time>2016-08-12T01:45:26Z</time>
      </trkpt>
      <trkpt lat="37.84919410906009" lon="112.01862275340497">
        <ele>1111.2079374077496</ele>
        <time>2016-08-12T01:45:36Z</time>
      </trkpt>
      <trkpt lat="37.849194840343856" lon="112.01836075944654">
        <ele>1112.0024700706022</ele>
        <time>2016-08-12T01:45:50.900000Z</time>
      </trkpt>
      <trkpt lat="37.849167046330784" lon="112.01830668789627">
        <ele>1111.508919351901</ele>
        <time>2016-08-12T01:45:58Z</time>
      </trkpt>
      <trkpt lat="37.84919609293552" lon="112.018106878379">
        <ele>1110.4718941797262</ele>
        <time>2016-08-12T01:46:05Z</time>
      </trkpt>
      <trkpt lat="37.84918707408103" lon="112.01793654494348">
        <ele>1109.8127783453444</ele>
        <time>2016-08-12T01:46:09Z</time>
      </trkpt>
      <trkpt lat="37.84924086921403" lon="112.0177161862065">
        <ele>1110.1033425745838</ele>
        <time>2016-08-12T01:46:17Z</time>
      </trkpt>
      <trkpt lat="37.84928175769034" lon="112.01726196202539">
        <ele>1111.492256822222</ele>
        <time>2016-08-12T01:46:29Z</time>
      </trkpt>
      <trkpt lat="37.84932050440153" lon="112.01689507089584">
        <ele>1112.1567865689703</ele>
        <time>2016-08-12T01:46:40Z</time>
      </trkpt>
      <trkpt lat="37.84933711476555" lon="112.01648979427792">
        <ele>1113.1245084615457</ele>
        <time>2016-08-12T01:46:51Z</time>
      </trkpt>
      <trkpt lat="37.8493667847034" lon="112.016359746802">
        <ele>1113.619872576651</ele>
        <time>2016-08-12T01:46:55Z</time>
      </trkpt>
      <trkpt lat="37.84940244165782" lon="112.0159366294338">
        <ele>1115.0000933134374</ele>
        <time>2016-08-12T01:47:06Z</time>
      </trkpt>
      <trkpt lat="37.84940662498573" lon="112.0158011795605">
        <ele>1115.8467089239361</ele>
        <time>2016-08-12T01:47:10Z</time>
      </trkpt>
      <trkpt lat="37.84938230320377" lon="112.0156719517339">
        <ele>1118.2597596086894</ele>
        <time>2016-08-12T01:47:13Z</time>
      </trkpt>
      <trkpt lat="37.849387835857065" lon="112.01544404089972">
        <ele>1118.9031476493155</ele>
        <time>2016-08-12T01:47:19Z</time>
      </trkpt>
      <trkpt lat="37.8494368692779" lon="112.0150896005824">
        <ele>1119.4641808036433</ele>
        <time>2016-08-12T01:47:29Z</time>
      </trkpt>
      <trkpt lat="37.84949578979867" lon="112.01469406858983">
        <ele>1119.889366252022</ele>
        <time>2016-08-12T01:47:40Z</time>
      </trkpt>
      <trkpt lat="37.849540486014526" lon="112.01443452724004">
        <ele>1119.441806866677</ele>
        <time>2016-08-12T01:47:48Z</time>
      </trkpt>
      <trkpt lat="37.849546454690234" lon="112.01405657987091">
        <ele>1119.8207276045528</ele>
        <time>2016-08-12T01:47:59Z</time>
      </trkpt>
      <trkpt lat="37.84955637368965" lon="112.01362672894466">
        <ele>1120.9009093360237</ele>
        <time>2016-08-12T01:48:10Z</time>
      </trkpt>
      <trkpt lat="37.849604890769534" lon="112.01317308722379">
        <ele>1121.1593808662853</ele>
        <time>2016-08-12T01:48:25Z</time>
      </trkpt>
      <trkpt lat="37.84965011316956" lon="112.01273404850133">
        <ele>1120.9800550021403</ele>
        <time>2016-08-12T01:48:37Z</time>
      </trkpt>
      <trkpt lat="37.84964508617052" lon="112.01240910209647">
        <ele>1120.8222780952092</ele>
        <time>2016-08-12T01:48:46Z</time>
      </trkpt>
      <trkpt lat="37.849676718895125" lon="112.01216687629777">
        <ele>1120.7906875468668</ele>
        <time>2016-08-12T01:48:54Z</time>
      </trkpt>
      <trkpt lat="37.84975396836101" lon="112.01181921561114">
        <ele>1120.7296136356128</ele>
        <time>2016-08-12T01:49:04Z</time>
      </trkpt>
      <trkpt lat="37.84975952308726" lon="112.0116818851632">
        <ele>1120.6847802289822</ele>
        <time>2016-08-12T01:49:08Z</time>
      </trkpt>
      <trkpt lat="37.84975488392804" lon="112.01122583448237">
        <ele>1121.185628794948</ele>
        <time>2016-08-12T01:49:20Z</time>
      </trkpt>
      <trkpt lat="37.84975306935036" lon="112.01082547522653">
        <ele>1122.3383755170764</ele>
        <time>2016-08-12T01:49:31Z</time>
      </trkpt>
      <trkpt lat="37.84978955167504" lon="112.01041159797278">
        <ele>1123.4189090223142</ele>
        <time>2016-08-12T01:49:43Z</time>
      </trkpt>
      <trkpt lat="37.84980009746595" lon="112.01005368430266">
        <ele>1124.0875830543182</ele>
        <time>2016-08-12T01:49:54.100000Z</time>
      </trkpt>
      <trkpt lat="37.849796118194746" lon="112.00965360409279">
        <ele>1125.0048932508128</ele>
        <time>2016-08-12T01:50:05Z</time>
      </trkpt>
      <trkpt lat="37.849785243382094" lon="112.0093846337836">
        <ele>1125.7307262348231</ele>
        <time>2016-08-12T01:50:13Z</time>
      </trkpt>
      <trkpt lat="37.8497269986732" lon="112.00917081594602">
        <ele>1125.1039515964637</ele>
        <time>2016-08-12T01:50:21Z</time>
      </trkpt>
      <trkpt lat="37.849536144383606" lon="112.00884429109394">
        <ele>1122.5537323906597</ele>
        <time>2016-08-12T01:50:35Z</time>
      </trkpt>
      <trkpt lat="37.849357668752916" lon="112.00855263763556">
        <ele>1121.655530490658</ele>
        <time>2016-08-12T01:50:47Z</time>
      </trkpt>
      <trkpt lat="37.849164845878775" lon="112.00825044486992">
        <ele>1119.3039212177698</ele>
        <time>2016-08-12T01:51:00Z</time>
      </trkpt>
      <trkpt lat="37.84897934796838" lon="112.00794879330142">
        <ele>1118.4461185411483</ele>
        <time>2016-08-12T01:51:11Z</time>
      </trkpt>
      <trkpt lat="37.848773977253764" lon="112.00767012229484">
        <ele>1118.7595894479025</ele>
        <time>2016-08-12T01:51:22Z</time>
      </trkpt>
      <trkpt lat="37.84857838273488" lon="112.0073887481583">
        <ele>1120.0780490087548</ele>
        <time>2016-08-12T01:51:32Z</time>
      </trkpt>
      <trkpt lat="37.848378212219394" lon="112.00709548197906">
        <ele>1121.0807115116195</ele>
        <time>2016-08-12T01:51:44Z</time>
      </trkpt>
      <trkpt lat="37.84823158572216" lon="112.00695277444183">
        <ele>1121.089156503752</ele>
        <time>2016-08-12T01:51:51Z</time>
      </trkpt>
      <trkpt lat="37.84814032577862" lon="112.00689493852592">
        <ele>1121.0583922364165</ele>
        <time>2016-08-12T01:51:55Z</time>
      </trkpt>
      <trkpt lat="37.84782164718961" lon="112.00685713286815">
        <ele>1121.165425806012</ele>
        <time>2016-08-12T01:52:05.900000Z</time>
      </trkpt>
      <trkpt lat="37.84775460345689" lon="112.00686714240821">
        <ele>1121.2027032393578</ele>
        <time>2016-08-12T01:52:09Z</time>
      </trkpt>
      <trkpt lat="37.84760581668802" lon="112.00681228685387">
        <ele>1121.4083637393255</ele>
        <time>2016-08-12T01:52:13Z</time>
      </trkpt>
      <trkpt lat="37.84732792590207" lon="112.00674393116816">
        <ele>1122.3848161896976</ele>
        <time>2016-08-12T01:52:24Z</time>
      </trkpt>
      <trkpt lat="37.84726887736494" lon="112.00671123053078">
        <ele>1122.69811064742</ele>
        <time>2016-08-12T01:52:27Z</time>
      </trkpt>
      <trkpt lat="37.84705404613123" lon="112.00669530779035">
        <ele>1123.799720063714</ele>
        <time>2016-08-12T01:52:34Z</time>
      </trkpt>
      <trkpt lat="37.84684309700643" lon="112.00665127222673">
        <ele>1124.7153783565732</ele>
        <time>2016-08-12T01:52:42Z</time>
      </trkpt>
      <trkpt lat="37.84647005667299" lon="112.00664699174773">
        <ele>1126.5316540403264</ele>
        <time>2016-08-12T01:52:56Z</time>
      </trkpt>
      <trkpt lat="37.846121534278566" lon="112.00660918977428">
        <ele>1126.5446196726398</ele>
        <time>2016-08-12T01:53:11Z</time>
      </trkpt>
      <trkpt lat="37.84582906638739" lon="112.00651623774355">
        <ele>1126.5411905634464</ele>
        <time>2016-08-12T01:53:22Z</time>
      </trkpt>
      <trkpt lat="37.8455292643793" lon="112.00642626011904">
        <ele>1126.6396760596956</ele>
        <time>2016-08-12T01:53:33Z</time>
      </trkpt>
      <trkpt lat="37.84543235252062" lon="112.00635328793584">
        <ele>1126.9793411367996</ele>
        <time>2016-08-12T01:53:37Z</time>
      </trkpt>
      <trkpt lat="37.84520477353155" lon="112.00624519115073">
        <ele>1127.391299776612</ele>
        <time>2016-08-12T01:53:45Z</time>
      </trkpt>
      <trkpt lat="37.8449054508203" lon="112.00617656823637">
        <ele>1129.1356302000047</ele>
        <time>2016-08-12T01:53:56Z</time>
      </trkpt>
      <trkpt lat="37.84480994124359" lon="112.00617928272008">
        <ele>1129.9045947582686</ele>
        <time>2016-08-12T01:54:00Z</time>
      </trkpt>
      <trkpt lat="37.84450739599417" lon="112.0060995775757">
        <ele>1131.125426890428</ele>
        <time>2016-08-12T01:54:11Z</time>
      </trkpt>
      <trkpt lat="37.84445292216457" lon="112.00607958120187">
        <ele>1131.288722388818</ele>
        <time>2016-08-12T01:54:14Z</time>
      </trkpt>
      <trkpt lat="37.84419815820174" lon="112.00617151670544">
        <ele>1131.6025585779535</ele>
        <time>2016-08-12T01:54:24Z</time>
      </trkpt>
      <trkpt lat="37.84386847677522" lon="112.00636644933067">
        <ele>1130.5299119753747</ele>
        <time>2016-08-12T01:54:39Z</time>
      </trkpt>
      <trkpt lat="37.84377937558932" lon="112.00640376275868">
        <ele>1130.1616018917555</ele>
        <time>2016-08-12T01:54:43Z</time>
      </trkpt>
      <trkpt lat="37.8437058517633" lon="112.0064943255114">
        <ele>1130.0858182160562</ele>
        <time>2016-08-12T01:54:46Z</time>
      </trkpt>
      <trkpt lat="37.84364785958604" lon="112.0065624507247">
        <ele>1130.066042571044</ele>
        <time>2016-08-12T01:54:49Z</time>
      </trkpt>
      <trkpt lat="37.843389027446605" lon="112.00674521195548">
        <ele>1129.6058817146861</ele>
        <time>2016-08-12T01:54:59Z</time>
      </trkpt>
      <trkpt lat="37.843216043336646" lon="112.00688984941063">
        <ele>1129.2829239124935</ele>
        <time>2016-08-12T01:55:06Z</time>
      </trkpt>
      <trkpt lat="37.84298596243349" lon="112.00698421584275">
        <ele>1128.3477589997894</ele>
        <time>2016-08-12T01:55:17Z</time>
      </trkpt>
      <trkpt lat="37.84270880723206" lon="112.00721617739886">
        <ele>1128.192001431452</ele>
        <time>2016-08-12T01:55:27Z</time>
      </trkpt>
      <trkpt lat="37.84249400359631" lon="112.00746516212084">
        <ele>1128.8095467458074</ele>
        <time>2016-08-12T01:55:38Z</time>
      </trkpt>
      <trkpt lat="37.84242115751914" lon="112.00751058364617">
        <ele>1129.4799527303926</ele>
        <time>2016-08-12T01:55:42Z</time>
      </trkpt>
      <trkpt lat="37.84221554415039" lon="112.00749709244938">
        <ele>1130.2966338023857</ele>
        <time>2016-08-12T01:55:50Z</time>
      </trkpt>
      <trkpt lat="37.84212188581103" lon="112.00751602564327">
        <ele>1130.4904319618545</ele>
        <time>2016-08-12T01:55:54Z</time>
      </trkpt>
      <trkpt lat="37.84184852573088" lon="112.0077496104948">
        <ele>1131.127974062968</ele>
        <time>2016-08-12T01:56:05Z</time>
      </trkpt>
      <trkpt lat="37.84173865337545" lon="112.00783828717238">
        <ele>1132.3230812622323</ele>
        <time>2016-08-12T01:56:09Z</time>
      </trkpt>
      <trkpt lat="37.84166665111031" lon="112.00787370716164">
        <ele>1133.5314280125563</ele>
        <time>2016-08-12T01:56:13Z</time>
      </trkpt>
      <trkpt lat="37.84160896023238" lon="112.0079321023471">
        <ele>1134.5096115231115</ele>
        <time>2016-08-12T01:56:17Z</time>
      </trkpt>
      <trkpt lat="37.84138040209062" lon="112.00806242222556">
        <ele>1135.68798486035</ele>
        <time>2016-08-12T01:56:25Z</time>
      </trkpt>
      <trkpt lat="37.841086944155784" lon="112.00812030508372">
        <ele>1136.4956088752933</ele>
        <time>2016-08-12T01:56:37.100000Z</time>
      </trkpt>
      <trkpt lat="37.84098755889498" lon="112.00814924088333">
        <ele>1136.4853168651264</ele>
        <time>2016-08-12T01:56:41Z</time>
      </trkpt>
      <trkpt lat="37.8407993014778" lon="112.00813845065876">
        <ele>1136.4171892770535</ele>
        <time>2016-08-12T01:56:49Z</time>
      </trkpt>
      <trkpt lat="37.84045989626468" lon="112.00804550210427">
        <ele>1136.7573330786145</ele>
        <time>2016-08-12T01:57:02Z</time>
      </trkpt>
      <trkpt lat="37.840262248764205" lon="112.00799903121067">
        <ele>1137.2740268588134</ele>
        <time>2016-08-12T01:57:10Z</time>
      </trkpt>
      <trkpt lat="37.840052220168396" lon="112.00801067988755">
        <ele>1138.244374124524</ele>
        <time>2016-08-12T01:57:18Z</time>
      </trkpt>
      <trkpt lat="37.83996910954838" lon="112.00804096528006">
        <ele>1138.62256434466</ele>
        <time>2016-08-12T01:57:21Z</time>
      </trkpt>
      <trkpt lat="37.83962712748791" lon="112.0079937006599">
        <ele>1140.6946787472104</ele>
        <time>2016-08-12T01:57:32Z</time>
      </trkpt>
      <trkpt lat="37.839312445337555" lon="112.00798103332652">
        <ele>1144.433578051595</ele>
        <time>2016-08-12T01:57:47Z</time>
      </trkpt>
      <trkpt lat="37.83927105084671" lon="112.00803347970117">
        <ele>1145.2950971822524</ele>
        <time>2016-08-12T01:57:51Z</time>
      </trkpt>
      <trkpt lat="37.839448657310356" lon="112.00806778875076">
        <ele>1146.275441627486</ele>
        <time>2016-08-12T01:57:58Z</time>
      </trkpt>
      <trkpt lat="37.83979225370661" lon="112.00802801117679">
        <ele>1148.612248201579</ele>
        <time>2016-08-12T01:58:13Z</time>
      </trkpt>
      <trkpt lat="37.84006763680939" lon="112.00802689705108">
        <ele>1148.8585386215625</ele>
        <time>2016-08-12T01:58:24Z</time>
      </trkpt>
      <trkpt lat="37.840414984355135" lon="112.00809470514444">
        <ele>1147.2097833155517</ele>
        <time>2016-08-12T01:58:38Z</time>
      </trkpt>
      <trkpt lat="37.84068285089709" lon="112.00815819771454">
        <ele>1146.0601802048425</ele>
        <time>2016-08-12T01:58:48Z</time>
      </trkpt>
      <trkpt lat="37.8409976990458" lon="112.00820654695764">
        <ele>1145.0046981228859</ele>
        <time>2016-08-12T01:59:00Z</time>
      </trkpt>
      <trkpt lat="37.84131051921151" lon="112.00820677994477">
        <ele>1144.5169747549044</ele>
        <time>2016-08-12T01:59:11Z</time>
      </trkpt>
      <trkpt lat="37.8414142150336" lon="112.0081881156656">
        <ele>1144.5045182991814</ele>
        <time>2016-08-12T01:59:15Z</time>
      </trkpt>
      <trkpt lat="37.841576086565695" lon="112.0081305187652">
        <ele>1144.2501615924743</ele>
        <time>2016-08-12T01:59:19Z</time>
      </trkpt>
      <trkpt lat="37.84186049556811" lon="112.00792180031301">
        <ele>1143.6372666266145</ele>
        <time>2016-08-12T01:59:31Z</time>
      </trkpt>
      <trkpt lat="37.8421354549745" lon="112.00769767569092">
        <ele>1143.7311714675086</ele>
        <time>2016-08-12T01:59:42Z</time>
      </trkpt>
      <trkpt lat="37.842392334399236" lon="112.00753221225516">
        <ele>1142.9429597047824</ele>
        <time>2016-08-12T01:59:53Z</time>
      </trkpt>
      <trkpt lat="37.84271071428253" lon="112.00730484002223">
        <ele>1142.3374883380359</ele>
        <time>2016-08-12T02:00:05Z</time>
      </trkpt>
      <trkpt lat="37.84281046120868" lon="112.0072456294381">
        <ele>1142.2766026521836</ele>
        <time>2016-08-12T02:00:09Z</time>
      </trkpt>
      <trkpt lat="37.8430157302436" lon="112.00700989198138">
        <ele>1142.5929033577502</ele>
        <time>2016-08-12T02:00:19Z</time>
      </trkpt>
      <trkpt lat="37.843156652808375" lon="112.0068809361961">
        <ele>1142.3434041618314</ele>
        <time>2016-08-12T02:00:26Z</time>
      </trkpt>
      <trkpt lat="37.84341571650831" lon="112.00671141983838">
        <ele>1141.4633928631163</ele>
        <time>2016-08-12T02:00:36Z</time>
      </trkpt>
      <trkpt lat="37.84368027041056" lon="112.00652054869268">
        <ele>1140.334339207859</ele>
        <time>2016-08-12T02:00:47Z</time>
      </trkpt>
      <trkpt lat="37.84398701387529" lon="112.00637508511727">
        <ele>1139.238764491047</ele>
        <time>2016-08-12T02:00:57.100000Z</time>
      </trkpt>
      <trkpt lat="37.844242423411885" lon="112.00624854963395">
        <ele>1138.5356361291576</ele>
        <time>2016-08-12T02:01:08Z</time>
      </trkpt>
      <trkpt lat="37.84452251601473" lon="112.00612417390369">
        <ele>1137.8045191004292</ele>
        <time>2016-08-12T02:01:18Z</time>
      </trkpt>
      <trkpt lat="37.84463454893522" lon="112.00613037765498">
        <ele>1137.263707073654</ele>
        <time>2016-08-12T02:01:22Z</time>
      </trkpt>
      <trkpt lat="37.84494517309926" lon="112.00623035508292">
        <ele>1135.9026237014061</ele>
        <time>2016-08-12T02:01:33Z</time>
      </trkpt>
      <trkpt lat="37.845264187124194" lon="112.00633735970285">
        <ele>1132.9011803762933</ele>
        <time>2016-08-12T02:01:46Z</time>
      </trkpt>
      <trkpt lat="37.84552678874076" lon="112.00643761344745">
        <ele>1129.9664389579175</ele>
        <time>2016-08-12T02:01:58Z</time>
      </trkpt>
      <trkpt lat="37.84583320926209" lon="112.00658273369496">
        <ele>1127.8241997928264</ele>
        <time>2016-08-12T02:02:10Z</time>
      </trkpt>
      <trkpt lat="37.84612955044285" lon="112.00665054640984">
        <ele>1126.8736944426962</ele>
        <time>2016-08-12T02:02:20Z</time>
      </trkpt>
      <trkpt lat="37.84640754396809" lon="112.00668430214895">
        <ele>1126.5001593714721</ele>
        <time>2016-08-12T02:02:27Z</time>
      </trkpt>
      <trkpt lat="37.84677484569943" lon="112.00670236919058">
        <ele>1126.210288644384</ele>
        <time>2016-08-12T02:02:39Z</time>
      </trkpt>
      <trkpt lat="37.84709673307634" lon="112.00675585245455">
        <ele>1126.1582718454817</ele>
        <time>2016-08-12T02:02:53Z</time>
      </trkpt>
      <trkpt lat="37.84742788134869" lon="112.00679717062552">
        <ele>1125.539737160923</ele>
        <time>2016-08-12T02:03:04Z</time>
      </trkpt>
      <trkpt lat="37.84770313308169" lon="112.00684065798247">
        <ele>1124.1786883598588</ele>
        <time>2016-08-12T02:03:14.900000Z</time>
      </trkpt>
      <trkpt lat="37.84796186945887" lon="112.00687252391971">
        <ele>1122.8094704057005</ele>
        <time>2016-08-12T02:03:25Z</time>
      </trkpt>
      <trkpt lat="37.84807707396611" lon="112.0069071101159">
        <ele>1122.346728202023</ele>
        <time>2016-08-12T02:03:29Z</time>
      </trkpt>
      <trkpt lat="37.84818486462966" lon="112.00697143156606">
        <ele>1121.841742605149</ele>
        <time>2016-08-12T02:03:33Z</time>
      </trkpt>
      <trkpt lat="37.848290136376164" lon="112.00706170339119">
        <ele>1121.5634203330858</ele>
        <time>2016-08-12T02:03:37Z</time>
      </trkpt>
      <trkpt lat="37.848476880890416" lon="112.00730793642997">
        <ele>1121.1572779838446</ele>
        <time>2016-08-12T02:03:45Z</time>
      </trkpt>
      <trkpt lat="37.848729067806374" lon="112.00762687724398">
        <ele>1121.0113666695738</ele>
        <time>2016-08-12T02:03:56Z</time>
      </trkpt>
      <trkpt lat="37.84892413813574" lon="112.00790230550265">
        <ele>1120.9784449176645</ele>
        <time>2016-08-12T02:04:06.900000Z</time>
      </trkpt>
      <trkpt lat="37.84906838446689" lon="112.00820801653842">
        <ele>1120.1128447278286</ele>
        <time>2016-08-12T02:04:17Z</time>
      </trkpt>
      <trkpt lat="37.849258288269105" lon="112.00848804332013">
        <ele>1118.6019437623036</ele>
        <time>2016-08-12T02:04:27Z</time>
      </trkpt>
      <trkpt lat="37.849479010888935" lon="112.00880591246425">
        <ele>1117.6690901085572</ele>
        <time>2016-08-12T02:04:38Z</time>
      </trkpt>
      <trkpt lat="37.8496460485365" lon="112.00911243616973">
        <ele>1117.5614769531744</ele>
        <time>2016-08-12T02:04:49Z</time>
      </trkpt>
      <trkpt lat="37.84979702762444" lon="112.00934462464433">
        <ele>1117.692379225902</ele>
        <time>2016-08-12T02:04:56Z</time>
      </trkpt>
      <trkpt lat="37.84985362664124" lon="112.00947248052776">
        <ele>1117.771544351215</ele>
        <time>2016-08-12T02:05:00Z</time>
      </trkpt>
      <trkpt lat="37.84990019018404" lon="112.00978388790206">
        <ele>1117.6945355617752</ele>
        <time>2016-08-12T02:05:10Z</time>
      </trkpt>
      <trkpt lat="37.849918122161334" lon="112.01023722167314">
        <ele>1117.7530175387146</ele>
        <time>2016-08-12T02:05:22Z</time>
      </trkpt>
      <trkpt lat="37.84990036567173" lon="112.01064893274925">
        <ele>1118.0559015237027</ele>
        <time>2016-08-12T02:05:34Z</time>
      </trkpt>
      <trkpt lat="37.84987762226024" lon="112.01091115485958">
        <ele>1118.0723288939676</ele>
        <time>2016-08-12T02:05:42Z</time>
      </trkpt>
      <trkpt lat="37.84982680991331" lon="112.01130908805642">
        <ele>1117.314013640855</ele>
        <time>2016-08-12T02:05:52Z</time>
      </trkpt>
      <trkpt lat="37.84979538167275" lon="112.01175946675264">
        <ele>1116.1641439421103</ele>
        <time>2016-08-12T02:06:03Z</time>
      </trkpt>
      <trkpt lat="37.84976618609297" lon="112.01200277165819">
        <ele>1115.6478967787637</ele>
        <time>2016-08-12T02:06:10Z</time>
      </trkpt>
      <trkpt lat="37.849768764328246" lon="112.01214253501992">
        <ele>1115.3531367457642</ele>
        <time>2016-08-12T02:06:14Z</time>
      </trkpt>
      <trkpt lat="37.84974890481274" lon="112.0122544567428">
        <ele>1115.0306760325032</ele>
        <time>2016-08-12T02:06:17Z</time>
      </trkpt>
      <trkpt lat="37.84972739441544" lon="112.01265510018965">
        <ele>1114.342089531771</ele>
        <time>2016-08-12T02:06:28Z</time>
      </trkpt>
      <trkpt lat="37.849676722428505" lon="112.01300817033389">
        <ele>1113.5157931322717</ele>
        <time>2016-08-12T02:06:38Z</time>
      </trkpt>
      <trkpt lat="37.8496328444971" lon="112.01345207756695">
        <ele>1112.531169345458</ele>
        <time>2016-08-12T02:06:52Z</time>
      </trkpt>
      <trkpt lat="37.84960493694705" lon="112.01381569432482">
        <ele>1111.8411000441256</ele>
        <time>2016-08-12T02:07:02Z</time>
      </trkpt>
      <trkpt lat="37.84955931293476" lon="112.01430286510448">
        <ele>1111.1944580414843</ele>
        <time>2016-08-12T02:07:14Z</time>
      </trkpt>
      <trkpt lat="37.8495214144203" lon="112.01455699788696">
        <ele>1111.2792420701521</ele>
        <time>2016-08-12T02:07:20.900000Z</time>
      </trkpt>
      <trkpt lat="37.84951700365783" lon="112.01477084573744">
        <ele>1111.0268058445713</ele>
        <time>2016-08-12T02:07:27Z</time>
      </trkpt>
      <trkpt lat="37.84948880289452" lon="112.01514501680198">
        <ele>1110.9002425898063</ele>
        <time>2016-08-12T02:07:38Z</time>
      </trkpt>
      <trkpt lat="37.84942300727157" lon="112.0155740778141">
        <ele>1110.1460540530115</ele>
        <time>2016-08-12T02:07:52Z</time>
      </trkpt>
      <trkpt lat="37.84938730887153" lon="112.01591527293307">
        <ele>1109.621551664761</ele>
        <time>2016-08-12T02:08:01.900000Z</time>
      </trkpt>
      <trkpt lat="37.84935295392757" lon="112.01616617031048">
        <ele>1109.0340841387122</ele>
        <time>2016-08-12T02:08:10Z</time>
      </trkpt>
      <trkpt lat="37.849332082300336" lon="112.01644653698209">
        <ele>1108.537774826734</ele>
        <time>2016-08-12T02:08:17Z</time>
      </trkpt>
      <trkpt lat="37.84929469115901" lon="112.01671663370178">
        <ele>1108.7152856454468</ele>
        <time>2016-08-12T02:08:24Z</time>
      </trkpt>
      <trkpt lat="37.84928582484944" lon="112.01707027172274">
        <ele>1109.0917808264428</ele>
        <time>2016-08-12T02:08:35Z</time>
      </trkpt>
      <trkpt lat="37.84924452368736" lon="112.01738119855035">
        <ele>1109.1344195351678</ele>
        <time>2016-08-12T02:08:45Z</time>
      </trkpt>
      <trkpt lat="37.849292042917114" lon="112.01707811158724">
        <ele>1108.8984003904993</ele>
        <time>2016-08-12T02:08:56Z</time>
      </trkpt>
      <trkpt lat="37.84930135651552" lon="112.01685424814671">
        <ele>1109.2598967188324</ele>
        <time>2016-08-12T02:09:03Z</time>
      </trkpt>
      <trkpt lat="37.84933201301499" lon="112.01675880595639">
        <ele>1109.4514663932225</ele>
        <time>2016-08-12T02:09:07Z</time>
      </trkpt>
      <trkpt lat="37.849345562512156" lon="112.01628512972857">
        <ele>1110.46840429291</ele>
        <time>2016-08-12T02:09:21Z</time>
      </trkpt>
      <trkpt lat="37.849377880557995" lon="112.01589148253633">
        <ele>1110.5059382351278</ele>
        <time>2016-08-12T02:09:33Z</time>
      </trkpt>
      <trkpt lat="37.849420525163296" lon="112.01549297133465">
        <ele>1110.7691434860055</ele>
        <time>2016-08-12T02:09:44Z</time>
      </trkpt>
      <trkpt lat="37.84946146523691" lon="112.01512231038485">
        <ele>1111.6601571453866</ele>
        <time>2016-08-12T02:09:53.900000Z</time>
      </trkpt>
      <trkpt lat="37.849503398917534" lon="112.01468974206688">
        <ele>1112.7727455848596</ele>
        <time>2016-08-12T02:10:08Z</time>
      </trkpt>
      <trkpt lat="37.84951305957602" lon="112.01434828920098">
        <ele>1113.4818136236356</ele>
        <time>2016-08-12T02:10:18.100000Z</time>
      </trkpt>
      <trkpt lat="37.84958322481665" lon="112.01391248074613">
        <ele>1113.425731740578</ele>
        <time>2016-08-12T02:10:34Z</time>
      </trkpt>
      <trkpt lat="37.84962986711211" lon="112.01354372446137">
        <ele>1113.2392558478016</ele>
        <time>2016-08-12T02:10:46Z</time>
      </trkpt>
      <trkpt lat="37.849657745836524" lon="112.0131906531303">
        <ele>1112.5898333440825</ele>
        <time>2016-08-12T02:10:57Z</time>
      </trkpt>
      <trkpt lat="37.84969355879673" lon="112.01281541556068">
        <ele>1112.4669716785245</ele>
        <time>2016-08-12T02:11:07Z</time>
      </trkpt>
      <trkpt lat="37.84969343029731" lon="112.01267240595452">
        <ele>1112.4607740291578</ele>
        <time>2016-08-12T02:11:11Z</time>
      </trkpt>
      <trkpt lat="37.84968443750188" lon="112.01231177590486">
        <ele>1112.5819178779018</ele>
        <time>2016-08-12T02:11:21Z</time>
      </trkpt>
      <trkpt lat="37.84972656187939" lon="112.0119138360778">
        <ele>1112.9470438751778</ele>
        <time>2016-08-12T02:11:33Z</time>
      </trkpt>
      <trkpt lat="37.84975740231656" lon="112.01147859474983">
        <ele>1113.6848750421912</ele>
        <time>2016-08-12T02:11:47Z</time>
      </trkpt>
      <trkpt lat="37.849770922332965" lon="112.01112229569674">
        <ele>1114.2859584415853</ele>
        <time>2016-08-12T02:11:58Z</time>
      </trkpt>
      <trkpt lat="37.84978909368137" lon="112.01075329299364">
        <ele>1114.7053541700234</ele>
        <time>2016-08-12T02:12:09Z</time>
      </trkpt>
      <trkpt lat="37.84983260597284" lon="112.01034779558476">
        <ele>1114.4621477453557</ele>
        <time>2016-08-12T02:12:22.900000Z</time>
      </trkpt>
      <trkpt lat="37.849840262125525" lon="112.00995771394986">
        <ele>1114.2861439224905</ele>
        <time>2016-08-12T02:12:35Z</time>
      </trkpt>
      <trkpt lat="37.84985485676072" lon="112.0096076420407">
        <ele>1114.0570042647437</ele>
        <time>2016-08-12T02:12:46Z</time>
      </trkpt>
      <trkpt lat="37.849846176339994" lon="112.00942274200537">
        <ele>1114.1809358981059</ele>
        <time>2016-08-12T02:12:52Z</time>
      </trkpt>
      <trkpt lat="37.84976979106556" lon="112.00919622107409">
        <ele>1115.1281349604253</ele>
        <time>2016-08-12T02:12:59.900000Z</time>
      </trkpt>
      <trkpt lat="37.84958565164609" lon="112.00889267251159">
        <ele>1116.5029707769822</ele>
        <time>2016-08-12T02:13:12Z</time>
      </trkpt>
      <trkpt lat="37.849413606643" lon="112.00862832029149">
        <ele>1116.7503097235422</ele>
        <time>2016-08-12T02:13:23Z</time>
      </trkpt>
      <trkpt lat="37.84920435662116" lon="112.00828450017804">
        <ele>1116.2447350611233</ele>
        <time>2016-08-12T02:13:37.900000Z</time>
      </trkpt>
      <trkpt lat="37.84897994666177" lon="112.00792987109102">
        <ele>1117.4557904581272</ele>
        <time>2016-08-12T02:13:52Z</time>
      </trkpt>
      <trkpt lat="37.8487635428496" lon="112.00762065588535">
        <ele>1118.1053891076795</ele>
        <time>2016-08-12T02:14:04Z</time>
      </trkpt>
      <trkpt lat="37.848548517630796" lon="112.0073044138038">
        <ele>1118.7411221286166</ele>
        <time>2016-08-12T02:14:17Z</time>
      </trkpt>
      <trkpt lat="37.84835612942691" lon="112.00704007050395">
        <ele>1119.4844689762922</ele>
        <time>2016-08-12T02:14:28Z</time>
      </trkpt>
      <trkpt lat="37.84823464171906" lon="112.00692871628841">
        <ele>1120.7814552998996</ele>
        <time>2016-08-12T02:14:34Z</time>
      </trkpt>
      <trkpt lat="37.8480880398389" lon="112.00686899481141">
        <ele>1121.892155860147</ele>
        <time>2016-08-12T02:14:41Z</time>
      </trkpt>
      <trkpt lat="37.84774088400975" lon="112.00682767851112">
        <ele>1123.462627623386</ele>
        <time>2016-08-12T02:14:52.900000Z</time>
      </trkpt>
      <trkpt lat="37.84744664851299" lon="112.00678149031069">
        <ele>1124.285173988786</ele>
        <time>2016-08-12T02:15:03.900000Z</time>
      </trkpt>
      <trkpt lat="37.84715352731261" lon="112.00672557079464">
        <ele>1124.6892826374647</ele>
        <time>2016-08-12T02:15:15Z</time>
      </trkpt>
      <trkpt lat="37.84683703155927" lon="112.00668371029334">
        <ele>1125.6919213846452</ele>
        <time>2016-08-12T02:15:30Z</time>
      </trkpt>
      <trkpt lat="37.8464914629032" lon="112.00665617977288">
        <ele>1126.126577302861</ele>
        <time>2016-08-12T02:15:41.900000Z</time>
      </trkpt>
      <trkpt lat="37.84631080494189" lon="112.00664430763307">
        <ele>1126.7231341431482</ele>
        <time>2016-08-12T02:15:49Z</time>
      </trkpt>
      <trkpt lat="37.84602807036509" lon="112.00656270744967">
        <ele>1127.8954546658035</ele>
        <time>2016-08-12T02:16:00Z</time>
      </trkpt>
      <trkpt lat="37.845830985701795" lon="112.00650947974924">
        <ele>1128.845309146046</ele>
        <time>2016-08-12T02:16:08Z</time>
      </trkpt>
      <trkpt lat="37.845478663737495" lon="112.00638112434964">
        <ele>1129.497867942007</ele>
        <time>2016-08-12T02:16:22.900000Z</time>
      </trkpt>
      <trkpt lat="37.84513712031222" lon="112.00627763638046">
        <ele>1130.3618790019252</ele>
        <time>2016-08-12T02:16:36Z</time>
      </trkpt>
      <trkpt lat="37.84484186403176" lon="112.00621009418863">
        <ele>1129.627949330367</ele>
        <time>2016-08-12T02:16:47Z</time>
      </trkpt>
      <trkpt lat="37.84454797086316" lon="112.00614038942062">
        <ele>1129.1643084918478</ele>
        <time>2016-08-12T02:17:02Z</time>
      </trkpt>
      <trkpt lat="37.84440867781187" lon="112.00617743840661">
        <ele>1129.1291732049633</ele>
        <time>2016-08-12T02:17:13Z</time>
      </trkpt>
      <trkpt lat="37.84423026359536" lon="112.00623206219777">
        <ele>1128.6529413857304</ele>
        <time>2016-08-12T02:17:24Z</time>
      </trkpt>
      <trkpt lat="37.84407367973326" lon="112.00633560951516">
        <ele>1128.1095282088509</ele>
        <time>2016-08-12T02:17:35Z</time>
      </trkpt>
      <trkpt lat="37.84401175394141" lon="112.00635805263134">
        <ele>1128.1479084877637</ele>
        <time>2016-08-12T02:17:38.900000Z</time>
      </trkpt>
      <trkpt lat="37.843966728409455" lon="112.00635400335035">
        <ele>1128.2575342359728</ele>
        <time>2016-08-12T02:17:42Z</time>
      </trkpt>
      <trkpt lat="37.84372771291297" lon="112.00644188267249">
        <ele>1129.1591555705866</ele>
        <time>2016-08-12T02:17:59Z</time>
      </trkpt>
      <trkpt lat="37.843445097763876" lon="112.00668465551001">
        <ele>1129.753346264241</ele>
        <time>2016-08-12T02:18:25Z</time>
      </trkpt>
      <trkpt lat="37.84321013080091" lon="112.00687092827155">
        <ele>1131.103533797401</ele>
        <time>2016-08-12T02:18:44Z</time>
      </trkpt>
      <trkpt lat="37.84306838946064" lon="112.00700150601068">
        <ele>1132.1742629400062</ele>
        <time>2016-08-12T02:18:56Z</time>
      </trkpt>
      <trkpt lat="37.84280627928718" lon="112.0071921078834">
        <ele>1133.9531728153902</ele>
        <time>2016-08-12T02:19:18Z</time>
      </trkpt>
      <trkpt lat="37.84250221675253" lon="112.00744029222106">
        <ele>1133.4870156301117</ele>
        <time>2016-08-12T02:19:40.900000Z</time>
      </trkpt>
      <trkpt lat="37.84235673012286" lon="112.00755330105079">
        <ele>1134.0002492511535</ele>
        <time>2016-08-12T02:19:51Z</time>
      </trkpt>
      <trkpt lat="37.842079447131916" lon="112.00773741874254">
        <ele>1134.9870182937664</ele>
        <time>2016-08-12T02:20:15.100000Z</time>
      </trkpt>
      <trkpt lat="37.84180671279161" lon="112.00794316172092">
        <ele>1133.707627389612</ele>
        <time>2016-08-12T02:20:37Z</time>
      </trkpt>
      <trkpt lat="37.841548077596045" lon="112.00806050999877">
        <ele>1135.7410893129872</ele>
        <time>2016-08-12T02:20:56.900000Z</time>
      </trkpt>
      <trkpt lat="37.84130034944755" lon="112.00815947561384">
        <ele>1137.219945348284</ele>
        <time>2016-08-12T02:21:16Z</time>
      </trkpt>
      <trkpt lat="37.841064835954434" lon="112.00816491006455">
        <ele>1138.2730186854315</ele>
        <time>2016-08-12T02:21:31.900000Z</time>
      </trkpt>
      <trkpt lat="37.84095448863436" lon="112.00813924309189">
        <ele>1139.1837995352494</ele>
        <time>2016-08-12T02:21:38.900000Z</time>
      </trkpt>
      <trkpt lat="37.840993985517535" lon="112.00817789375215">
        <ele>1139.7958412569812</ele>
        <time>2016-08-12T02:21:46Z</time>
      </trkpt>
      <trkpt lat="37.84133606640599" lon="112.00819190943544">
        <ele>1139.7726209030286</ele>
        <time>2016-08-12T02:21:58Z</time>
      </trkpt>
      <trkpt lat="37.8415934736515" lon="112.00812267749289">
        <ele>1139.4637536110993</ele>
        <time>2016-08-12T02:22:08Z</time>
      </trkpt>
      <trkpt lat="37.84186982083397" lon="112.00797937659516">
        <ele>1138.9189991231613</ele>
        <time>2016-08-12T02:22:19Z</time>
      </trkpt>
      <trkpt lat="37.842187102143434" lon="112.00775605767073">
        <ele>1138.8559672423014</ele>
        <time>2016-08-12T02:22:30Z</time>
      </trkpt>
      <trkpt lat="37.84242828715411" lon="112.00757653958652">
        <ele>1139.241068880689</ele>
        <time>2016-08-12T02:22:42Z</time>
      </trkpt>
      <trkpt lat="37.84266408810943" lon="112.00738296630323">
        <ele>1139.4816333764165</ele>
        <time>2016-08-12T02:22:53Z</time>
      </trkpt>
      <trkpt lat="37.84295377618941" lon="112.00713316201544">
        <ele>1139.9488667514322</ele>
        <time>2016-08-12T02:23:07Z</time>
      </trkpt>
      <trkpt lat="37.843213550870374" lon="112.00690687937225">
        <ele>1139.5339160069734</ele>
        <time>2016-08-12T02:23:19Z</time>
      </trkpt>
      <trkpt lat="37.843452113211804" lon="112.00669762961694">
        <ele>1138.6149848783373</ele>
        <time>2016-08-12T02:23:30Z</time>
      </trkpt>
      <trkpt lat="37.84374849107411" lon="112.00647972365668">
        <ele>1136.9285936273122</ele>
        <time>2016-08-12T02:23:43Z</time>
      </trkpt>
      <trkpt lat="37.84402569315258" lon="112.00632372160027">
        <ele>1135.6990624835346</ele>
        <time>2016-08-12T02:23:54.900000Z</time>
      </trkpt>
      <trkpt lat="37.8443090421555" lon="112.00619907504179">
        <ele>1134.664381501162</ele>
        <time>2016-08-12T02:24:06Z</time>
      </trkpt>
      <trkpt lat="37.844510298951796" lon="112.00612687845242">
        <ele>1133.744236605423</ele>
        <time>2016-08-12T02:24:13Z</time>
      </trkpt>
      <trkpt lat="37.844697451974596" lon="112.00614415592409">
        <ele>1132.8480772628866</ele>
        <time>2016-08-12T02:24:20.100000Z</time>
      </trkpt>
      <trkpt lat="37.845035702338215" lon="112.0062600783447">
        <ele>1130.2102078103517</ele>
        <time>2016-08-12T02:24:34Z</time>
      </trkpt>
      <trkpt lat="37.8453143385932" lon="112.0063511395308">
        <ele>1126.6920619462792</ele>
        <time>2016-08-12T02:24:45Z</time>
      </trkpt>
      <trkpt lat="37.84559946389989" lon="112.0064497687454">
        <ele>1124.148641337189</ele>
        <time>2016-08-12T02:24:55.100000Z</time>
      </trkpt>
      <trkpt lat="37.845939057707604" lon="112.00657028676997">
        <ele>1122.9872610064303</ele>
        <time>2016-08-12T02:25:07Z</time>
      </trkpt>
      <trkpt lat="37.846185714305655" lon="112.00664972877694">
        <ele>1122.5671055158148</ele>
        <time>2016-08-12T02:25:15Z</time>
      </trkpt>
      <trkpt lat="37.846490814833295" lon="112.00669159062018">
        <ele>1122.52801327818</ele>
        <time>2016-08-12T02:25:26Z</time>
      </trkpt>
      <trkpt lat="37.84686516746427" lon="112.00671073806764">
        <ele>1121.548009556921</ele>
        <time>2016-08-12T02:25:41Z</time>
      </trkpt>
      <trkpt lat="37.847169996035824" lon="112.0067528702879">
        <ele>1121.4619634871458</ele>
        <time>2016-08-12T02:25:52Z</time>
      </trkpt>
      <trkpt lat="37.84748402996978" lon="112.00680148891415">
        <ele>1121.0173645780876</ele>
        <time>2016-08-12T02:26:03Z</time>
      </trkpt>
      <trkpt lat="37.84777562637757" lon="112.00682280875408">
        <ele>1120.5412428178006</ele>
        <time>2016-08-12T02:26:14Z</time>
      </trkpt>
      <trkpt lat="37.848074438864444" lon="112.00688089016114">
        <ele>1119.7917142171434</ele>
        <time>2016-08-12T02:26:25Z</time>
      </trkpt>
      <trkpt lat="37.84815301630517" lon="112.00691548073112">
        <ele>1119.403116347163</ele>
        <time>2016-08-12T02:26:28Z</time>
      </trkpt>
      <trkpt lat="37.84827266188541" lon="112.00700764295574">
        <ele>1119.029031611889</ele>
        <time>2016-08-12T02:26:32Z</time>
      </trkpt>
      <trkpt lat="37.848396667564316" lon="112.00718468307275">
        <ele>1118.1589833368894</ele>
        <time>2016-08-12T02:26:40Z</time>
      </trkpt>
      <trkpt lat="37.84867361640374" lon="112.00747902173386">
        <ele>1117.8648606090076</ele>
        <time>2016-08-12T02:26:52Z</time>
      </trkpt>
      <trkpt lat="37.84889839348326" lon="112.00780066979533">
        <ele>1118.0527009748205</ele>
        <time>2016-08-12T02:27:07Z</time>
      </trkpt>
      <trkpt lat="37.84895975689546" lon="112.00787635090926">
        <ele>1118.2533588999015</ele>
        <time>2016-08-12T02:27:10Z</time>
      </trkpt>
      <trkpt lat="37.84913685907492" lon="112.00817286711134">
        <ele>1118.4846014830564</ele>
        <time>2016-08-12T02:27:20.900000Z</time>
      </trkpt>
      <trkpt lat="37.84930128342586" lon="112.00844478722475">
        <ele>1117.856461998336</ele>
        <time>2016-08-12T02:27:32Z</time>
      </trkpt>
      <trkpt lat="37.84952149757984" lon="112.008751032456">
        <ele>1116.4498873054977</ele>
        <time>2016-08-12T02:27:43Z</time>
      </trkpt>
      <trkpt lat="37.849697828983665" lon="112.00903403684086">
        <ele>1115.40052966741</ele>
        <time>2016-08-12T02:27:53Z</time>
      </trkpt>
      <trkpt lat="37.84983845497511" lon="112.00928082363974">
        <ele>1114.9643605647825</ele>
        <time>2016-08-12T02:28:01Z</time>
      </trkpt>
      <trkpt lat="37.84988906034723" lon="112.0094170601053">
        <ele>1114.85787489441</ele>
        <time>2016-08-12T02:28:05Z</time>
      </trkpt>
      <trkpt lat="37.84991073400543" lon="112.00979659189338">
        <ele>1115.8199164137088</ele>
        <time>2016-08-12T02:28:15.900000Z</time>
      </trkpt>
      <trkpt lat="37.849870029274285" lon="112.01016883482762">
        <ele>1115.188016396029</ele>
        <time>2016-08-12T02:28:36Z</time>
      </trkpt>
      <trkpt lat="37.84985266245905" lon="112.01053999612338">
        <ele>1114.5835514397768</ele>
        <time>2016-08-12T02:28:58Z</time>
      </trkpt>
      <trkpt lat="37.84981801607227" lon="112.01097577087373">
        <ele>1114.411670309099</ele>
        <time>2016-08-12T02:29:21Z</time>
      </trkpt>
      <trkpt lat="37.84979194711434" lon="112.01135531900499">
        <ele>1115.5788601890583</ele>
        <time>2016-08-12T02:29:42Z</time>
      </trkpt>
      <trkpt lat="37.849780332826846" lon="112.01180299238696">
        <ele>1115.6286796449674</ele>
        <time>2016-08-12T02:30:00Z</time>
      </trkpt>
      <trkpt lat="37.84973913163829" lon="112.01216308412533">
        <ele>1115.537096287377</ele>
        <time>2016-08-12T02:30:11Z</time>
      </trkpt>
      <trkpt lat="37.84970651176786" lon="112.01255859173618">
        <ele>1114.5369405653325</ele>
        <time>2016-08-12T02:30:22Z</time>
      </trkpt>
      <trkpt lat="37.84966278855597" lon="112.01294788599236">
        <ele>1112.873204006459</ele>
        <time>2016-08-12T02:30:30Z</time>
      </trkpt>
      <trkpt lat="37.84962093849062" lon="112.01297141064245">
        <ele>1112.5993924548395</ele>
        <time>2016-08-12T02:30:34Z</time>
      </trkpt>
      <trkpt lat="37.84948557964144" lon="112.01296250558646">
        <ele>1113.0118145887363</ele>
        <time>2016-08-12T02:30:49Z</time>
      </trkpt>
      <trkpt lat="37.849432868510256" lon="112.01298900529275">
        <ele>1112.9123969932125</ele>
        <time>2016-08-12T02:30:57Z</time>
      </trkpt>
      <trkpt lat="37.84957456291493" lon="112.01296492801035">
        <ele>1110.925262745312</ele>
        <time>2016-08-12T02:31:24.900000Z</time>
      </trkpt>
      <trkpt lat="37.849605006969696" lon="112.01303899779688">
        <ele>1109.8111336533723</ele>
        <time>2016-08-12T02:31:31.900000Z</time>
      </trkpt>
      <trkpt lat="37.84960709871453" lon="112.01344207793811">
        <ele>1109.1831776598844</ele>
        <time>2016-08-12T02:31:55Z</time>
      </trkpt>
      <trkpt lat="37.84959537094764" lon="112.0136515959803">
        <ele>1109.596050238721</ele>
        <time>2016-08-12T02:32:06Z</time>
      </trkpt>
      <trkpt lat="37.849582083587094" lon="112.01402629675395">
        <ele>1109.2075207630019</ele>
        <time>2016-08-12T02:32:27.900000Z</time>
      </trkpt>
      <trkpt lat="37.84954545724361" lon="112.01440397719288">
        <ele>1109.0829392165044</ele>
        <time>2016-08-12T02:32:46Z</time>
      </trkpt>
      <trkpt lat="37.849531413365" lon="112.01476030031557">
        <ele>1108.4221429982986</ele>
        <time>2016-08-12T02:32:57Z</time>
      </trkpt>
      <trkpt lat="37.84948447193891" lon="112.01514150272484">
        <ele>1107.9446731220405</ele>
        <time>2016-08-12T02:33:09Z</time>
      </trkpt>
      <trkpt lat="37.849415109203676" lon="112.01558462265183">
        <ele>1108.142818156553</ele>
        <time>2016-08-12T02:33:23.900000Z</time>
      </trkpt>
      <trkpt lat="37.84937822270798" lon="112.0159620460365">
        <ele>1107.6912365000167</ele>
        <time>2016-08-12T02:33:34.900000Z</time>
      </trkpt>
      <trkpt lat="37.849335023595884" lon="112.01636596891314">
        <ele>1107.1379573326788</ele>
        <time>2016-08-12T02:33:47Z</time>
      </trkpt>
      <trkpt lat="37.84930004939631" lon="112.0167406954171">
        <ele>1106.590421776248</ele>
        <time>2016-08-12T02:33:58Z</time>
      </trkpt>
      <trkpt lat="37.84926895396735" lon="112.01708784752566">
        <ele>1106.4760623539364</ele>
        <time>2016-08-12T02:34:09Z</time>
      </trkpt>
      <trkpt lat="37.84921015891634" lon="112.01744500954092">
        <ele>1107.2082568651333</ele>
        <time>2016-08-12T02:34:20Z</time>
      </trkpt>
      <trkpt lat="37.849155761053694" lon="112.01787977068756">
        <ele>1107.2098353054394</ele>
        <time>2016-08-12T02:34:31.900000Z</time>
      </trkpt>
      <trkpt lat="37.84915390850957" lon="112.01825072204764">
        <ele>1106.876173555467</ele>
        <time>2016-08-12T02:34:42Z</time>
      </trkpt>
      <trkpt lat="37.84911678991633" lon="112.01852380502649">
        <ele>1107.247953551323</ele>
        <time>2016-08-12T02:34:50Z</time>
      </trkpt>
      <trkpt lat="37.849097473674384" lon="112.01893234725418">
        <ele>1107.937019143392</ele>
        <time>2016-08-12T02:35:01Z</time>
      </trkpt>
      <trkpt lat="37.84908610017471" lon="112.01931520668357">
        <ele>1107.926284593274</ele>
        <time>2016-08-12T02:35:11.900000Z</time>
      </trkpt>
      <trkpt lat="37.849070547898705" lon="112.01973862816789">
        <ele>1107.663497512515</ele>
        <time>2016-08-12T02:35:22Z</time>
      </trkpt>
      <trkpt lat="37.84906008655029" lon="112.02008823816521">
        <ele>1107.3852576365093</ele>
        <time>2016-08-12T02:35:33Z</time>
      </trkpt>
      <trkpt lat="37.84905179163392" lon="112.02044028475783">
        <ele>1107.01416735067</ele>
        <time>2016-08-12T02:35:43Z</time>
      </trkpt>
      <trkpt lat="37.84906178404751" lon="112.02085235973162">
        <ele>1106.752790929026</ele>
        <time>2016-08-12T02:35:54Z</time>
      </trkpt>
      <trkpt lat="37.84906308936709" lon="112.02126768526989">
        <ele>1105.4643031254159</ele>
        <time>2016-08-12T02:36:05Z</time>
      </trkpt>
      <trkpt lat="37.84905998395437" lon="112.02171005617546">
        <ele>1104.8352417001504</ele>
        <time>2016-08-12T02:36:17Z</time>
      </trkpt>
      <trkpt lat="37.84906222860328" lon="112.02208212742704">
        <ele>1104.2904821920586</ele>
        <time>2016-08-12T02:36:32Z</time>
      </trkpt>
      <trkpt lat="37.84905981221123" lon="112.02247340206124">
        <ele>1104.1527418077344</ele>
        <time>2016-08-12T02:36:54Z</time>
      </trkpt>
      <trkpt lat="37.849050099466744" lon="112.02285521780267">
        <ele>1104.4645853957659</ele>
        <time>2016-08-12T02:37:15Z</time>
      </trkpt>
      <trkpt lat="37.849057807139154" lon="112.02321729577666">
        <ele>1104.2410266357858</ele>
        <time>2016-08-12T02:37:30Z</time>
      </trkpt>
      <trkpt lat="37.84907530615796" lon="112.02357153452432">
        <ele>1103.8144429181295</ele>
        <time>2016-08-12T02:37:41Z</time>
      </trkpt>
      <trkpt lat="37.84906084245614" lon="112.02400906957087">
        <ele>1104.3219979392588</ele>
        <time>2016-08-12T02:37:55Z</time>
      </trkpt>
      <trkpt lat="37.849042755367925" lon="112.02438252111384">
        <ele>1106.6316986517788</ele>
        <time>2016-08-12T02:38:10Z</time>
      </trkpt>
      <trkpt lat="37.84904394161038" lon="112.0244466108373">
        <ele>1107.2287817477122</ele>
        <time>2016-08-12T02:38:13.900000Z</time>
      </trkpt>
      <trkpt lat="37.849076533362684" lon="112.02453584619042">
        <ele>1108.0949138653007</ele>
        <time>2016-08-12T02:38:20.900000Z</time>
      </trkpt>
      <trkpt lat="37.84906660564455" lon="112.02469864208732">
        <ele>1110.200725800173</ele>
        <time>2016-08-12T02:38:31.900000Z</time>
      </trkpt>
      <trkpt lat="37.849037445502354" lon="112.02485008327602">
        <ele>1112.7447921867833</ele>
        <time>2016-08-12T02:38:38.900000Z</time>
      </trkpt>
      <trkpt lat="37.84903242696912" lon="112.02500368570266">
        <ele>1113.9350308945302</ele>
        <time>2016-08-12T02:38:46Z</time>
      </trkpt>
      <trkpt lat="37.84899257303085" lon="112.025301160951">
        <ele>1114.1988348586567</ele>
        <time>2016-08-12T02:39:04Z</time>
      </trkpt>
      <trkpt lat="37.84896358815833" lon="112.02538689053819">
        <ele>1112.815511339211</ele>
        <time>2016-08-12T02:39:11.900000Z</time>
      </trkpt>
      <trkpt lat="37.848957889755845" lon="112.02559350021984">
        <ele>1110.7777757254132</ele>
        <time>2016-08-12T02:39:22.900000Z</time>
      </trkpt>
      <trkpt lat="37.84888617035553" lon="112.02562893538916">
        <ele>1110.4365315422722</ele>
        <time>2016-08-12T02:39:30Z</time>
      </trkpt>
      <trkpt lat="37.84884887563476" lon="112.02567653591129">
        <ele>1110.4743558640405</ele>
        <time>2016-08-12T02:39:34Z</time>
      </trkpt>
      <trkpt lat="37.84879397906565" lon="112.02571142828938">
        <ele>1110.363319802938</ele>
        <time>2016-08-12T02:39:38Z</time>
      </trkpt>
      <trkpt lat="37.84872002162674" lon="112.02587613104892">
        <ele>1110.4856214459164</ele>
        <time>2016-08-12T02:39:52Z</time>
      </trkpt>
      <trkpt lat="37.848737931354805" lon="112.02628989573384">
        <ele>1109.453404448062</ele>
        <time>2016-08-12T02:40:06Z</time>
      </trkpt>
      <trkpt lat="37.84876176354755" lon="112.02651462741376">
        <ele>1108.3506177087875</ele>
        <time>2016-08-12T02:40:14Z</time>
      </trkpt>
      <trkpt lat="37.84882161546797" lon="112.02666038756243">
        <ele>1107.4345074737817</ele>
        <time>2016-08-12T02:40:21.900000Z</time>
      </trkpt>
      <trkpt lat="37.84884470243205" lon="112.02696409156381">
        <ele>1106.0841639076968</ele>
        <time>2016-08-12T02:40:36Z</time>
      </trkpt>
      <trkpt lat="37.8488142732105" lon="112.02740005373006">
        <ele>1104.7420597300093</ele>
        <time>2016-08-12T02:41:00.900000Z</time>
      </trkpt>
      <trkpt lat="37.848798915254726" lon="112.02756908588461">
        <ele>1104.5015282307809</ele>
        <time>2016-08-12T02:41:08.900000Z</time>
      </trkpt>
      <trkpt lat="37.84882651714698" lon="112.02770241435802">
        <ele>1103.9016573880835</ele>
        <time>2016-08-12T02:41:16Z</time>
      </trkpt>
      <trkpt lat="37.84879374522291" lon="112.02789146381001">
        <ele>1103.7718301038547</ele>
        <time>2016-08-12T02:41:27Z</time>
      </trkpt>
      <trkpt lat="37.84877726891199" lon="112.02807429208767">
        <ele>1102.6109388459881</ele>
        <time>2016-08-12T02:41:40.900000Z</time>
      </trkpt>
      <trkpt lat="37.84873040724652" lon="112.02815083629375">
        <ele>1102.5697971463787</ele>
        <time>2016-08-12T02:41:48Z</time>
      </trkpt>
      <trkpt lat="37.84841988133016" lon="112.0281016509364">
        <ele>1106.4602034087586</ele>
        <time>2016-08-12T02:42:11Z</time>
      </trkpt>
      <trkpt lat="37.848137517896205" lon="112.02807355767415">
        <ele>1111.7265590012873</ele>
        <time>2016-08-12T02:42:31Z</time>
      </trkpt>
      <trkpt lat="37.84783530858187" lon="112.02806115314347">
        <ele>1114.6163473158974</ele>
        <time>2016-08-12T02:42:54.900000Z</time>
      </trkpt>
      <trkpt lat="37.847755779621856" lon="112.02807468540394">
        <ele>1115.4945767583513</ele>
        <time>2016-08-12T02:43:02Z</time>
      </trkpt>
      <trkpt lat="37.84754075914135" lon="112.0280241364174">
        <ele>1118.8925913276676</ele>
        <time>2016-08-12T02:43:17.900000Z</time>
      </trkpt>
      <trkpt lat="37.8474739839064" lon="112.02803685576573">
        <ele>1118.8131798584534</ele>
        <time>2016-08-12T02:43:21Z</time>
      </trkpt>
      <trkpt lat="37.84738703459821" lon="112.02808744109375">
        <ele>1117.7467021859907</ele>
        <time>2016-08-12T02:43:28Z</time>
      </trkpt>
      <trkpt lat="37.84736926565516" lon="112.02813964091702">
        <ele>1117.0144656900322</ele>
        <time>2016-08-12T02:43:31.900000Z</time>
      </trkpt>
      <trkpt lat="37.847361573250176" lon="112.02849556225796">
        <ele>1115.8054423782044</ele>
        <time>2016-08-12T02:43:50Z</time>
      </trkpt>
      <trkpt lat="37.84737069209077" lon="112.02864350202196">
        <ele>1117.0843200481024</ele>
        <time>2016-08-12T02:43:58Z</time>
      </trkpt>
      <trkpt lat="37.84734789581675" lon="112.02875250007446">
        <ele>1117.096730024534</ele>
        <time>2016-08-12T02:44:02Z</time>
      </trkpt>
      <trkpt lat="37.84732989272507" lon="112.02911113491542">
        <ele>1116.3745966519873</ele>
        <time>2016-08-12T02:44:28Z</time>
      </trkpt>
      <trkpt lat="37.84733688596153" lon="112.02945705933973">
        <ele>1117.402177838575</ele>
        <time>2016-08-12T02:44:46Z</time>
      </trkpt>
      <trkpt lat="37.84740059911216" lon="112.02969019526337">
        <ele>1116.8296621041836</ele>
        <time>2016-08-12T02:45:00.900000Z</time>
      </trkpt>
      <trkpt lat="37.84744121429005" lon="112.02993848232629">
        <ele>1117.1210080548663</ele>
        <time>2016-08-12T02:45:16Z</time>
      </trkpt>
      <trkpt lat="37.84770070634834" lon="112.02989138905346">
        <ele>1108.8198222220067</ele>
        <time>2016-08-12T02:45:38Z</time>
      </trkpt>
      <trkpt lat="37.84799269474649" lon="112.02986863433449">
        <ele>1103.5584536455865</ele>
        <time>2016-08-12T02:45:59Z</time>
      </trkpt>
      <trkpt lat="37.84832151704535" lon="112.02987156994207">
        <ele>1101.296651189731</ele>
        <time>2016-08-12T02:46:21Z</time>
      </trkpt>
      <trkpt lat="37.84859726356944" lon="112.02983421177137">
        <ele>1101.6618332511582</ele>
        <time>2016-08-12T02:46:38.900000Z</time>
      </trkpt>
      <trkpt lat="37.848677907755686" lon="112.02980850735963">
        <ele>1101.1811634006392</ele>
        <time>2016-08-12T02:46:46Z</time>
      </trkpt>
      <trkpt lat="37.848712212749156" lon="112.02976090046991">
        <ele>1100.7213747900933</ele>
        <time>2016-08-12T02:46:49.900000Z</time>
      </trkpt>
      <trkpt lat="37.848742357278745" lon="112.02964161982617">
        <ele>1100.27980026925</ele>
        <time>2016-08-12T02:46:56.900000Z</time>
      </trkpt>
      <trkpt lat="37.84873735841524" lon="112.02936466169906">
        <ele>1100.425198221646</ele>
        <time>2016-08-12T02:47:10.900000Z</time>
      </trkpt>
      <trkpt lat="37.84868715313474" lon="112.02894112089007">
        <ele>1103.4172909097995</ele>
        <time>2016-08-12T02:47:32Z</time>
      </trkpt>
      <trkpt lat="37.84871230716713" lon="112.02854516406948">
        <ele>1103.9763517936656</ele>
        <time>2016-08-12T02:47:53.900000Z</time>
      </trkpt>
      <trkpt lat="37.848730951286704" lon="112.02825631374064">
        <ele>1103.43116756041</ele>
        <time>2016-08-12T02:48:12.900000Z</time>
      </trkpt>
      <trkpt lat="37.84866980641351" lon="112.02818924817126">
        <ele>1103.7634601309248</ele>
        <time>2016-08-12T02:48:20Z</time>
      </trkpt>
      <trkpt lat="37.84836989070203" lon="112.02812870238299">
        <ele>1107.8830386047107</ele>
        <time>2016-08-12T02:48:44Z</time>
      </trkpt>
      <trkpt lat="37.84809486098543" lon="112.02809736276234">
        <ele>1110.5775388542756</ele>
        <time>2016-08-12T02:49:03.900000Z</time>
      </trkpt>
      <trkpt lat="37.84792265499143" lon="112.02806736307681">
        <ele>1112.4155578264865</ele>
        <time>2016-08-12T02:49:14.900000Z</time>
      </trkpt>
      <trkpt lat="37.8478219976781" lon="112.02806764563731">
        <ele>1112.9780017485114</ele>
        <time>2016-08-12T02:49:21.900000Z</time>
      </trkpt>
      <trkpt lat="37.847535604914555" lon="112.02802386658381">
        <ele>1114.412171191425</ele>
        <time>2016-08-12T02:49:40Z</time>
      </trkpt>
      <trkpt lat="37.84746372398682" lon="112.02801738434589">
        <ele>1114.4212251620315</ele>
        <time>2016-08-12T02:49:46.900000Z</time>
      </trkpt>
      <trkpt lat="37.84739301847586" lon="112.02797574305046">
        <ele>1114.12535358804</ele>
        <time>2016-08-12T02:49:53.900000Z</time>
      </trkpt>
      <trkpt lat="37.84736957467095" lon="112.02791327128296">
        <ele>1114.0130734835764</ele>
        <time>2016-08-12T02:49:58Z</time>
      </trkpt>
      <trkpt lat="37.84736513806322" lon="112.02784484742259">
        <ele>1113.8837041351633</ele>
        <time>2016-08-12T02:50:01.900000Z</time>
      </trkpt>
      <trkpt lat="37.84744988736691" lon="112.02759494080624">
        <ele>1113.794250521085</ele>
        <time>2016-08-12T02:50:15Z</time>
      </trkpt>
      <trkpt lat="37.847495335184156" lon="112.02733070734573">
        <ele>1117.5846207736456</ele>
        <time>2016-08-12T02:50:32Z</time>
      </trkpt>
      <trkpt lat="37.84760615835287" lon="112.02707133639389">
        <ele>1118.245169179368</ele>
        <time>2016-08-12T02:50:47Z</time>
      </trkpt>
      <trkpt lat="37.84766517472883" lon="112.02680737641471">
        <ele>1116.1738740501758</ele>
        <time>2016-08-12T02:50:59Z</time>
      </trkpt>
      <trkpt lat="37.84782743501844" lon="112.02648823665255">
        <ele>1113.9980579870787</ele>
        <time>2016-08-12T02:51:17.900000Z</time>
      </trkpt>
      <trkpt lat="37.847870175390476" lon="112.02643279147635">
        <ele>1114.0054326093532</ele>
        <time>2016-08-12T02:51:22Z</time>
      </trkpt>
      <trkpt lat="37.847921780993985" lon="112.02641115016372">
        <ele>1114.064158377404</ele>
        <time>2016-08-12T02:51:26Z</time>
      </trkpt>
      <trkpt lat="37.84812534931225" lon="112.02648279205182">
        <ele>1112.5923336327005</ele>
        <time>2016-08-12T02:51:40.900000Z</time>
      </trkpt>
      <trkpt lat="37.848181541830265" lon="112.02647088596531">
        <ele>1112.1251199363649</ele>
        <time>2016-08-12T02:51:44Z</time>
      </trkpt>
      <trkpt lat="37.848516178507815" lon="112.02653304684102">
        <ele>1108.1148866438527</ele>
        <time>2016-08-12T02:52:07Z</time>
      </trkpt>
      <trkpt lat="37.84882671012485" lon="112.02657925476062">
        <ele>1103.8650890407255</ele>
        <time>2016-08-12T02:52:25.900000Z</time>
      </trkpt>
      <trkpt lat="37.84889299157142" lon="112.02665226575276">
        <ele>1102.4430096541435</ele>
        <time>2016-08-12T02:52:32.900000Z</time>
      </trkpt>
      <trkpt lat="37.84889731810939" lon="112.02686672565038">
        <ele>1101.9358617870535</ele>
        <time>2016-08-12T02:52:44Z</time>
      </trkpt>
      <trkpt lat="37.84884099766413" lon="112.02724237991906">
        <ele>1104.0933896399076</ele>
        <time>2016-08-12T02:53:07Z</time>
      </trkpt>
      <trkpt lat="37.848857670527735" lon="112.02751012093727">
        <ele>1103.1498019840528</ele>
        <time>2016-08-12T02:53:19Z</time>
      </trkpt>
      <trkpt lat="37.84884466373328" lon="112.0277145824506">
        <ele>1103.153454679412</ele>
        <time>2016-08-12T02:53:32.900000Z</time>
      </trkpt>
      <trkpt lat="37.848781476190695" lon="112.02812648924129">
        <ele>1104.072504883261</ele>
        <time>2016-08-12T02:53:58Z</time>
      </trkpt>
      <trkpt lat="37.848745244933795" lon="112.02818382999715">
        <ele>1104.7154459086341</ele>
        <time>2016-08-12T02:54:02Z</time>
      </trkpt>
      <trkpt lat="37.848523587366536" lon="112.02818223392921">
        <ele>1108.072505289675</ele>
        <time>2016-08-12T02:54:19Z</time>
      </trkpt>
      <trkpt lat="37.84831291870272" lon="112.02812735696331">
        <ele>1108.8732590401576</ele>
        <time>2016-08-12T02:54:34Z</time>
      </trkpt>
      <trkpt lat="37.84802488335826" lon="112.02808925755497">
        <ele>1112.5971827971061</ele>
        <time>2016-08-12T02:54:52.900000Z</time>
      </trkpt>
      <trkpt lat="37.8476578818698" lon="112.02805684722222">
        <ele>1117.2584453075485</ele>
        <time>2016-08-12T02:55:17.900000Z</time>
      </trkpt>
      <trkpt lat="37.84741535495744" lon="112.02804686960269">
        <ele>1118.8004427643298</ele>
        <time>2016-08-12T02:55:36Z</time>
      </trkpt>
      <trkpt lat="37.84736781582678" lon="112.02807013434874">
        <ele>1118.5111909101895</ele>
        <time>2016-08-12T02:55:40Z</time>
      </trkpt>
      <trkpt lat="37.847339483718024" lon="112.0281153035974">
        <ele>1118.1302533257667</ele>
        <time>2016-08-12T02:55:42.900000Z</time>
      </trkpt>
      <trkpt lat="37.84731599149422" lon="112.02838981889076">
        <ele>1117.7217162727022</ele>
        <time>2016-08-12T02:55:57.900000Z</time>
      </trkpt>
      <trkpt lat="37.847328877740765" lon="112.02865621864255">
        <ele>1117.5113447205622</ele>
        <time>2016-08-12T02:56:12Z</time>
      </trkpt>
      <trkpt lat="37.84736684474733" lon="112.02887609843945">
        <ele>1118.6876704394003</ele>
        <time>2016-08-12T02:56:25.900000Z</time>
      </trkpt>
      <trkpt lat="37.84735761681098" lon="112.02898428436195">
        <ele>1119.2586402407396</ele>
        <time>2016-08-12T02:56:32.900000Z</time>
      </trkpt>
      <trkpt lat="37.84738201750248" lon="112.02920525018791">
        <ele>1117.4737601243044</ele>
        <time>2016-08-12T02:56:51.900000Z</time>
      </trkpt>
      <trkpt lat="37.84733626530204" lon="112.02938051733584">
        <ele>1114.854307650251</ele>
        <time>2016-08-12T02:57:14Z</time>
      </trkpt>
      <trkpt lat="37.84726798375127" lon="112.02945274015781">
        <ele>1113.6270392701904</ele>
        <time>2016-08-12T02:57:24Z</time>
      </trkpt>
      <trkpt lat="37.84714883498335" lon="112.02946979392344">
        <ele>1114.9423839247165</ele>
        <time>2016-08-12T02:57:37.900000Z</time>
      </trkpt>
      <trkpt lat="37.846992911140546" lon="112.02954554360495">
        <ele>1117.5732880745365</ele>
        <time>2016-08-12T02:57:52Z</time>
      </trkpt>
      <trkpt lat="37.84685268810913" lon="112.02963535597699">
        <ele>1119.3523496971065</ele>
        <time>2016-08-12T02:58:00Z</time>
      </trkpt>
      <trkpt lat="37.84674951618501" lon="112.02966457903838">
        <ele>1120.0376746678357</ele>
        <time>2016-08-12T02:58:11Z</time>
      </trkpt>
      <trkpt lat="37.84696888464272" lon="112.02953884062312">
        <ele>0.0</ele>
        <time>2016-08-12T02:58:31.600000Z</time>
      </trkpt>
    </trkseg>
  </trk>
</gpx>