<?xml version="1.0" encoding="UTF-8"?>
<gpx xmlns="http://www.topografix.com/GPX/1/1" xmlns:gpxtpx="http://www.garmin.com/xmlschemas/TrackPointExtension/v1" xmlns:xsi="http://www.w3.org/2001/XMLSchema-instance" xsi:schemaLocation="http://www.topografix.com/GPX/1/1 http://www.topografix.com/GPX/1/1/gpx.xsd" version="1.1" creator="gpx.py -- https://github.com/tkrajina/gpxpy">
  <trk>
    <name>gpx from keep</name>
    <type>Run</type>
    <trkseg>
      <trkpt lat="37.84707712057348" lon="112.02924603618268">
        <ele>1101.26</ele>
        <time>2019-04-18T08:08:57.218000Z</time>
      </trkpt>
      <trkpt lat="37.84720256656025" lon="112.02939672922466">
        <ele>1107.37</ele>
        <time>2019-04-18T08:09:01.018000Z</time>
      </trkpt>
      <trkpt lat="37.84732330804246" lon="112.02940549996167">
        <ele>1118.31</ele>
        <time>2019-04-18T08:09:10.018000Z</time>
      </trkpt>
      <trkpt lat="37.84735983797298" lon="112.02934169600304">
        <ele>1123.78</ele>
        <time>2019-04-18T08:09:16.018000Z</time>
      </trkpt>
      <trkpt lat="37.84739280596253" lon="112.02920202597441">
        <ele>1124.29</ele>
        <time>2019-04-18T08:09:25.018000Z</time>
      </trkpt>
      <trkpt lat="37.847362033848164" lon="112.029061406462">
        <ele>1119.06</ele>
        <time>2019-04-18T08:09:37.018000Z</time>
      </trkpt>
      <trkpt lat="37.84737024122978" lon="112.0289807693488">
        <ele>1111.54</ele>
        <time>2019-04-18T08:09:43.018000Z</time>
      </trkpt>
      <trkpt lat="37.8473143563275" lon="112.02882139631976">
        <ele>1105.84</ele>
        <time>2019-04-18T08:09:55.018000Z</time>
      </trkpt>
      <trkpt lat="37.84730565959587" lon="112.02858449680743">
        <ele>1101.59</ele>
        <time>2019-04-18T08:10:07.018000Z</time>
      </trkpt>
      <trkpt lat="37.84735382835461" lon="112.02827838247785">
        <ele>1104.23</ele>
        <time>2019-04-18T08:10:22.018000Z</time>
      </trkpt>
      <trkpt lat="37.84735684221381" lon="112.02783516730122">
        <ele>1113.72</ele>
        <time>2019-04-18T08:10:34.018000Z</time>
      </trkpt>
      <trkpt lat="37.84735930697518" lon="112.02769015619549">
        <ele>1113.0</ele>
        <time>2019-04-18T08:10:37.018000Z</time>
      </trkpt>
      <trkpt lat="37.84739023485469" lon="112.0275158445397">
        <ele>1114.51</ele>
        <time>2019-04-18T08:10:43.018000Z</time>
      </trkpt>
      <trkpt lat="37.84750374727262" lon="112.02731294497507">
        <ele>1117.48</ele>
        <time>2019-04-18T08:10:52.018000Z</time>
      </trkpt>
      <trkpt lat="37.84767300778856" lon="112.02701828388088">
        <ele>1122.04</ele>
        <time>2019-04-18T08:11:04.018000Z</time>
      </trkpt>
      <trkpt lat="37.84773435100204" lon="112.02693559044484">
        <ele>1120.64</ele>
        <time>2019-04-18T08:11:07.018000Z</time>
      </trkpt>
      <trkpt lat="37.84790005603675" lon="112.02655902350264">
        <ele>1114.49</ele>
        <time>2019-04-18T08:11:19.018000Z</time>
      </trkpt>
      <trkpt lat="37.847945999953005" lon="112.02649537439297">
        <ele>1109.93</ele>
        <time>2019-04-18T08:11:22.018000Z</time>
      </trkpt>
      <trkpt lat="37.84812256978767" lon="112.02645183880375">
        <ele>1109.71</ele>
        <time>2019-04-18T08:11:31.018000Z</time>
      </trkpt>
      <trkpt lat="37.84821086748652" lon="112.02644232100589">
        <ele>1110.8</ele>
        <time>2019-04-18T08:11:34.018000Z</time>
      </trkpt>
      <trkpt lat="37.84846501227422" lon="112.02645427268187">
        <ele>1114.63</ele>
        <time>2019-04-18T08:11:43.018000Z</time>
      </trkpt>
      <trkpt lat="37.84868979672942" lon="112.02650196559412">
        <ele>1111.14</ele>
        <time>2019-04-18T08:11:52.018000Z</time>
      </trkpt>
      <trkpt lat="37.848764252027465" lon="112.02650583853578">
        <ele>1110.08</ele>
        <time>2019-04-18T08:11:55.018000Z</time>
      </trkpt>
      <trkpt lat="37.848875682525986" lon="112.02637345790232">
        <ele>1109.79</ele>
        <time>2019-04-18T08:12:04.018000Z</time>
      </trkpt>
      <trkpt lat="37.84885974691566" lon="112.02627906579008">
        <ele>1110.18</ele>
        <time>2019-04-18T08:12:07.018000Z</time>
      </trkpt>
      <trkpt lat="37.84887384550513" lon="112.02616648084677">
        <ele>1108.07</ele>
        <time>2019-04-18T08:12:10.018000Z</time>
      </trkpt>
      <trkpt lat="37.84887986392597" lon="112.02604330529697">
        <ele>1109.31</ele>
        <time>2019-04-18T08:12:13.018000Z</time>
      </trkpt>
      <trkpt lat="37.84890088211012" lon="112.02592651373794">
        <ele>1108.07</ele>
        <time>2019-04-18T08:12:16.018000Z</time>
      </trkpt>
      <trkpt lat="37.84891917420788" lon="112.0258242436528">
        <ele>1107.64</ele>
        <time>2019-04-18T08:12:19.018000Z</time>
      </trkpt>
      <trkpt lat="37.84894683965836" lon="112.02561718853579">
        <ele>1108.0</ele>
        <time>2019-04-18T08:12:25.018000Z</time>
      </trkpt>
      <trkpt lat="37.848970723307986" lon="112.02552048305347">
        <ele>1109.86</ele>
        <time>2019-04-18T08:12:28.018000Z</time>
      </trkpt>
      <trkpt lat="37.84899272008669" lon="112.0251685987027">
        <ele>1110.93</ele>
        <time>2019-04-18T08:12:37.018000Z</time>
      </trkpt>
      <trkpt lat="37.84900930880803" lon="112.0248345480211">
        <ele>1110.91</ele>
        <time>2019-04-18T08:12:46.018000Z</time>
      </trkpt>
      <trkpt lat="37.849037598140974" lon="112.02461531470848">
        <ele>1113.91</ele>
        <time>2019-04-18T08:12:52.018000Z</time>
      </trkpt>
      <trkpt lat="37.84900190782182" lon="112.02423327373417">
        <ele>1111.33</ele>
        <time>2019-04-18T08:13:04.018000Z</time>
      </trkpt>
      <trkpt lat="37.849044440636575" lon="112.02383185445088">
        <ele>1109.3</ele>
        <time>2019-04-18T08:13:16.018000Z</time>
      </trkpt>
      <trkpt lat="37.84905111244037" lon="112.02372051136255">
        <ele>1110.09</ele>
        <time>2019-04-18T08:13:19.018000Z</time>
      </trkpt>
      <trkpt lat="37.84905915331282" lon="112.02331387924878">
        <ele>1108.7</ele>
        <time>2019-04-18T08:13:31.018000Z</time>
      </trkpt>
      <trkpt lat="37.84906305017451" lon="112.02291360699056">
        <ele>1110.81</ele>
        <time>2019-04-18T08:13:43.018000Z</time>
      </trkpt>
      <trkpt lat="37.84905774580236" lon="112.02248462006256">
        <ele>1109.49</ele>
        <time>2019-04-18T08:13:55.018000Z</time>
      </trkpt>
      <trkpt lat="37.84906704564984" lon="112.02207112785534">
        <ele>1107.88</ele>
        <time>2019-04-18T08:14:07.018000Z</time>
      </trkpt>
      <trkpt lat="37.84908235380464" lon="112.02180522607814">
        <ele>1101.08</ele>
        <time>2019-04-18T08:14:16.018000Z</time>
      </trkpt>
      <trkpt lat="37.84910191393076" lon="112.02172101829788">
        <ele>1102.22</ele>
        <time>2019-04-18T08:14:19.018000Z</time>
      </trkpt>
      <trkpt lat="37.84911509591047" lon="112.02162538009729">
        <ele>1101.18</ele>
        <time>2019-04-18T08:14:22.018000Z</time>
      </trkpt>
      <trkpt lat="37.84912918987153" lon="112.02120069326337">
        <ele>1101.69</ele>
        <time>2019-04-18T08:14:34.018000Z</time>
      </trkpt>
      <trkpt lat="37.84913617692776" lon="112.0211072497815">
        <ele>1099.99</ele>
        <time>2019-04-18T08:14:37.018000Z</time>
      </trkpt>
      <trkpt lat="37.84910060789068" lon="112.02068103674063">
        <ele>1099.14</ele>
        <time>2019-04-18T08:14:49.018000Z</time>
      </trkpt>
      <trkpt lat="37.849095016824656" lon="112.02024860540863">
        <ele>1105.71</ele>
        <time>2019-04-18T08:15:01.018000Z</time>
      </trkpt>
      <trkpt lat="37.8491039712219" lon="112.02002739963585">
        <ele>1104.31</ele>
        <time>2019-04-18T08:15:07.018000Z</time>
      </trkpt>
      <trkpt lat="37.8490977581378" lon="112.01992125960032">
        <ele>1105.3</ele>
        <time>2019-04-18T08:15:10.018000Z</time>
      </trkpt>
      <trkpt lat="37.84911636062937" lon="112.01950510700325">
        <ele>1104.09</ele>
        <time>2019-04-18T08:15:22.018000Z</time>
      </trkpt>
      <trkpt lat="37.84915998005252" lon="112.01910782348519">
        <ele>1104.75</ele>
        <time>2019-04-18T08:15:34.018000Z</time>
      </trkpt>
      <trkpt lat="37.849168570876536" lon="112.01899874838122">
        <ele>1101.67</ele>
        <time>2019-04-18T08:15:37.018000Z</time>
      </trkpt>
      <trkpt lat="37.84916413477595" lon="112.01878922837156">
        <ele>1101.95</ele>
        <time>2019-04-18T08:15:43.018000Z</time>
      </trkpt>
      <trkpt lat="37.84918163668805" lon="112.0185700987092">
        <ele>1103.06</ele>
        <time>2019-04-18T08:15:49.018000Z</time>
      </trkpt>
      <trkpt lat="37.84918979551696" lon="112.01814823219824">
        <ele>1102.29</ele>
        <time>2019-04-18T08:16:01.018000Z</time>
      </trkpt>
      <trkpt lat="37.84920489236333" lon="112.01779507237748">
        <ele>1106.17</ele>
        <time>2019-04-18T08:16:10.018000Z</time>
      </trkpt>
      <trkpt lat="37.84922860993325" lon="112.01744845602131">
        <ele>1105.52</ele>
        <time>2019-04-18T08:16:19.018000Z</time>
      </trkpt>
      <trkpt lat="37.84929214685896" lon="112.01702414067506">
        <ele>1107.39</ele>
        <time>2019-04-18T08:16:31.018000Z</time>
      </trkpt>
      <trkpt lat="37.849318655860344" lon="112.01681830040005">
        <ele>1104.41</ele>
        <time>2019-04-18T08:16:37.018000Z</time>
      </trkpt>
      <trkpt lat="37.84934197570515" lon="112.01673320745404">
        <ele>1105.41</ele>
        <time>2019-04-18T08:16:40.018000Z</time>
      </trkpt>
      <trkpt lat="37.84937785533463" lon="112.01628942358488">
        <ele>1106.05</ele>
        <time>2019-04-18T08:16:52.018000Z</time>
      </trkpt>
      <trkpt lat="37.8493840622666" lon="112.01617293144882">
        <ele>1106.12</ele>
        <time>2019-04-18T08:16:55.018000Z</time>
      </trkpt>
      <trkpt lat="37.849428286130596" lon="112.01585922215322">
        <ele>1104.04</ele>
        <time>2019-04-18T08:17:04.018000Z</time>
      </trkpt>
      <trkpt lat="37.84946688014395" lon="112.01566185895967">
        <ele>1104.17</ele>
        <time>2019-04-18T08:17:10.018000Z</time>
      </trkpt>
      <trkpt lat="37.8495116945214" lon="112.01523141755257">
        <ele>1108.92</ele>
        <time>2019-04-18T08:17:22.018000Z</time>
      </trkpt>
      <trkpt lat="37.849559619316025" lon="112.01478929695482">
        <ele>1108.47</ele>
        <time>2019-04-18T08:17:34.018000Z</time>
      </trkpt>
      <trkpt lat="37.849594503039896" lon="112.01459109643149">
        <ele>1105.56</ele>
        <time>2019-04-18T08:17:40.018000Z</time>
      </trkpt>
      <trkpt lat="37.84962841197299" lon="112.01417553381324">
        <ele>1103.97</ele>
        <time>2019-04-18T08:17:52.018000Z</time>
      </trkpt>
      <trkpt lat="37.84965629179026" lon="112.01375804912323">
        <ele>1101.8</ele>
        <time>2019-04-18T08:18:04.018000Z</time>
      </trkpt>
      <trkpt lat="37.849678681339064" lon="112.0135416768571">
        <ele>1104.4</ele>
        <time>2019-04-18T08:18:10.018000Z</time>
      </trkpt>
      <trkpt lat="37.84970331032742" lon="112.01319439542075">
        <ele>1105.37</ele>
        <time>2019-04-18T08:18:19.018000Z</time>
      </trkpt>
      <trkpt lat="37.84972188101407" lon="112.012835481942">
        <ele>1106.59</ele>
        <time>2019-04-18T08:18:28.018000Z</time>
      </trkpt>
      <trkpt lat="37.84978342758119" lon="112.0124043482435">
        <ele>1106.82</ele>
        <time>2019-04-18T08:18:40.018000Z</time>
      </trkpt>
      <trkpt lat="37.84978846625953" lon="112.01205999018302">
        <ele>1108.46</ele>
        <time>2019-04-18T08:18:49.018000Z</time>
      </trkpt>
      <trkpt lat="37.84980810628699" lon="112.0118607202525">
        <ele>1108.57</ele>
        <time>2019-04-18T08:18:55.018000Z</time>
      </trkpt>
      <trkpt lat="37.84978591408753" lon="112.01165918141437">
        <ele>1111.33</ele>
        <time>2019-04-18T08:19:01.018000Z</time>
      </trkpt>
      <trkpt lat="37.849802312541364" lon="112.01125330952317">
        <ele>1115.91</ele>
        <time>2019-04-18T08:19:13.018000Z</time>
      </trkpt>
      <trkpt lat="37.8498185793659" lon="112.0111567313986">
        <ele>1115.32</ele>
        <time>2019-04-18T08:19:16.018000Z</time>
      </trkpt>
      <trkpt lat="37.84982646681766" lon="112.01071699690796">
        <ele>1119.11</ele>
        <time>2019-04-18T08:19:28.018000Z</time>
      </trkpt>
      <trkpt lat="37.849819199703425" lon="112.01058390968547">
        <ele>1118.27</ele>
        <time>2019-04-18T08:19:31.018000Z</time>
      </trkpt>
      <trkpt lat="37.84984510873673" lon="112.0102705823608">
        <ele>1114.06</ele>
        <time>2019-04-18T08:19:40.018000Z</time>
      </trkpt>
      <trkpt lat="37.849874511235775" lon="112.01011233097536">
        <ele>1108.38</ele>
        <time>2019-04-18T08:19:46.018000Z</time>
      </trkpt>
      <trkpt lat="37.84988650060773" lon="112.01001587377931">
        <ele>1110.24</ele>
        <time>2019-04-18T08:19:49.018000Z</time>
      </trkpt>
      <trkpt lat="37.84989322154031" lon="112.00971944031016">
        <ele>1111.09</ele>
        <time>2019-04-18T08:19:58.018000Z</time>
      </trkpt>
      <trkpt lat="37.84984504101546" lon="112.00929147100645">
        <ele>1110.32</ele>
        <time>2019-04-18T08:20:10.018000Z</time>
      </trkpt>
      <trkpt lat="37.849684773310486" lon="112.0089349606846">
        <ele>1115.48</ele>
        <time>2019-04-18T08:20:22.018000Z</time>
      </trkpt>
      <trkpt lat="37.84946698861575" lon="112.00860361685591">
        <ele>1115.88</ele>
        <time>2019-04-18T08:20:34.018000Z</time>
      </trkpt>
      <trkpt lat="37.849407129406345" lon="112.00851875472038">
        <ele>1117.33</ele>
        <time>2019-04-18T08:20:37.018000Z</time>
      </trkpt>
      <trkpt lat="37.84918734241111" lon="112.00816575109423">
        <ele>1121.73</ele>
        <time>2019-04-18T08:20:49.018000Z</time>
      </trkpt>
      <trkpt lat="37.84905748611809" lon="112.00796709393131">
        <ele>1124.48</ele>
        <time>2019-04-18T08:20:55.018000Z</time>
      </trkpt>
      <trkpt lat="37.84887371060315" lon="112.00766102003486">
        <ele>1125.37</ele>
        <time>2019-04-18T08:21:07.018000Z</time>
      </trkpt>
      <trkpt lat="37.848818208061374" lon="112.00760538658133">
        <ele>1121.08</ele>
        <time>2019-04-18T08:21:10.018000Z</time>
      </trkpt>
      <trkpt lat="37.84862764490998" lon="112.00730971759556">
        <ele>1122.62</ele>
        <time>2019-04-18T08:21:22.018000Z</time>
      </trkpt>
      <trkpt lat="37.848395551709935" lon="112.00700209879831">
        <ele>1124.23</ele>
        <time>2019-04-18T08:21:34.018000Z</time>
      </trkpt>
      <trkpt lat="37.84824526587863" lon="112.00686299093965">
        <ele>1122.42</ele>
        <time>2019-04-18T08:21:40.018000Z</time>
      </trkpt>
      <trkpt lat="37.84816443417831" lon="112.00682257903296">
        <ele>1120.39</ele>
        <time>2019-04-18T08:21:43.018000Z</time>
      </trkpt>
      <trkpt lat="37.84779789300812" lon="112.0068000410134">
        <ele>1119.66</ele>
        <time>2019-04-18T08:21:55.018000Z</time>
      </trkpt>
      <trkpt lat="37.84746525116681" lon="112.00676017153964">
        <ele>1118.61</ele>
        <time>2019-04-18T08:22:07.018000Z</time>
      </trkpt>
      <trkpt lat="37.84713996929509" lon="112.00671919193427">
        <ele>1120.98</ele>
        <time>2019-04-18T08:22:19.018000Z</time>
      </trkpt>
      <trkpt lat="37.84681377698816" lon="112.00666704162327">
        <ele>1123.31</ele>
        <time>2019-04-18T08:22:31.018000Z</time>
      </trkpt>
      <trkpt lat="37.846487345499874" lon="112.00663525264804">
        <ele>1121.63</ele>
        <time>2019-04-18T08:22:43.018000Z</time>
      </trkpt>
      <trkpt lat="37.84616885344125" lon="112.0065886726517">
        <ele>1126.34</ele>
        <time>2019-04-18T08:22:55.018000Z</time>
      </trkpt>
      <trkpt lat="37.84586956207312" lon="112.00648916418145">
        <ele>1126.22</ele>
        <time>2019-04-18T08:23:07.018000Z</time>
      </trkpt>
      <trkpt lat="37.84563367569468" lon="112.00639846559031">
        <ele>1124.31</ele>
        <time>2019-04-18T08:23:16.018000Z</time>
      </trkpt>
      <trkpt lat="37.845288221273165" lon="112.00628828194729">
        <ele>1128.79</ele>
        <time>2019-04-18T08:23:28.018000Z</time>
      </trkpt>
      <trkpt lat="37.84501856763533" lon="112.00619600877465">
        <ele>1130.21</ele>
        <time>2019-04-18T08:23:37.018000Z</time>
      </trkpt>
      <trkpt lat="37.844691113502506" lon="112.0061256687706">
        <ele>1126.6</ele>
        <time>2019-04-18T08:23:49.018000Z</time>
      </trkpt>
      <trkpt lat="37.84446804364646" lon="112.00609822797502">
        <ele>1125.27</ele>
        <time>2019-04-18T08:23:58.018000Z</time>
      </trkpt>
      <trkpt lat="37.84440403426144" lon="112.00611622967803">
        <ele>1126.01</ele>
        <time>2019-04-18T08:24:01.018000Z</time>
      </trkpt>
      <trkpt lat="37.84413467024429" lon="112.00628235246609">
        <ele>1125.68</ele>
        <time>2019-04-18T08:24:13.018000Z</time>
      </trkpt>
      <trkpt lat="37.84389223471663" lon="112.00640471242174">
        <ele>1127.42</ele>
        <time>2019-04-18T08:24:22.018000Z</time>
      </trkpt>
      <trkpt lat="37.84360329741076" lon="112.00662326845242">
        <ele>1128.68</ele>
        <time>2019-04-18T08:24:34.018000Z</time>
      </trkpt>
      <trkpt lat="37.843368139923435" lon="112.0068004828722">
        <ele>1131.24</ele>
        <time>2019-04-18T08:24:43.018000Z</time>
      </trkpt>
      <trkpt lat="37.84309627871633" lon="112.00701944000933">
        <ele>1132.69</ele>
        <time>2019-04-18T08:24:55.018000Z</time>
      </trkpt>
      <trkpt lat="37.8428512566029" lon="112.00721063531428">
        <ele>1133.24</ele>
        <time>2019-04-18T08:25:07.018000Z</time>
      </trkpt>
      <trkpt lat="37.8426618032446" lon="112.0073678279718">
        <ele>1133.68</ele>
        <time>2019-04-18T08:25:16.018000Z</time>
      </trkpt>
      <trkpt lat="37.842514156636575" lon="112.0074477349551">
        <ele>1133.43</ele>
        <time>2019-04-18T08:25:22.018000Z</time>
      </trkpt>
      <trkpt lat="37.84226837658738" lon="112.00767481339989">
        <ele>1128.63</ele>
        <time>2019-04-18T08:25:34.018000Z</time>
      </trkpt>
      <trkpt lat="37.84198252597054" lon="112.00788420127884">
        <ele>1132.69</ele>
        <time>2019-04-18T08:25:46.018000Z</time>
      </trkpt>
      <trkpt lat="37.84167515359467" lon="112.00805172654077">
        <ele>1133.61</ele>
        <time>2019-04-18T08:25:58.018000Z</time>
      </trkpt>
      <trkpt lat="37.841389428859785" lon="112.00816662782536">
        <ele>1131.62</ele>
        <time>2019-04-18T08:26:10.018000Z</time>
      </trkpt>
      <trkpt lat="37.84130319981143" lon="112.00818774022649">
        <ele>1129.88</ele>
        <time>2019-04-18T08:26:13.018000Z</time>
      </trkpt>
      <trkpt lat="37.84114064928136" lon="112.00817906110493">
        <ele>1129.97</ele>
        <time>2019-04-18T08:26:19.018000Z</time>
      </trkpt>
      <trkpt lat="37.84082488796883" lon="112.00815626236634">
        <ele>1130.26</ele>
        <time>2019-04-18T08:26:31.018000Z</time>
      </trkpt>
      <trkpt lat="37.84075822786963" lon="112.00815516291183">
        <ele>1130.29</ele>
        <time>2019-04-18T08:26:34.018000Z</time>
      </trkpt>
      <trkpt lat="37.840607805737754" lon="112.00811267114453">
        <ele>1130.76</ele>
        <time>2019-04-18T08:26:40.018000Z</time>
      </trkpt>
      <trkpt lat="37.840455864736086" lon="112.00809383116791">
        <ele>1130.41</ele>
        <time>2019-04-18T08:26:46.018000Z</time>
      </trkpt>
      <trkpt lat="37.8402828713648" lon="112.0080250976814">
        <ele>1132.76</ele>
        <time>2019-04-18T08:26:52.018000Z</time>
      </trkpt>
      <trkpt lat="37.83999214878572" lon="112.0080356166004">
        <ele>1134.94</ele>
        <time>2019-04-18T08:27:04.018000Z</time>
      </trkpt>
      <trkpt lat="37.839688977620355" lon="112.00807110481576">
        <ele>1135.06</ele>
        <time>2019-04-18T08:27:16.018000Z</time>
      </trkpt>
      <trkpt lat="37.83940389517087" lon="112.00811843291426">
        <ele>1137.38</ele>
        <time>2019-04-18T08:27:28.018000Z</time>
      </trkpt>
      <trkpt lat="37.8390982267058" lon="112.00815507853913">
        <ele>1136.13</ele>
        <time>2019-04-18T08:27:40.018000Z</time>
      </trkpt>
      <trkpt lat="37.8389528874985" lon="112.00817376131138">
        <ele>1136.36</ele>
        <time>2019-04-18T08:27:46.018000Z</time>
      </trkpt>
      <trkpt lat="37.8387970473055" lon="112.00817200264605">
        <ele>1137.77</ele>
        <time>2019-04-18T08:27:52.018000Z</time>
      </trkpt>
      <trkpt lat="37.83846719873815" lon="112.0082066483602">
        <ele>1140.84</ele>
        <time>2019-04-18T08:28:04.018000Z</time>
      </trkpt>
      <trkpt lat="37.83828784724286" lon="112.0081781078977">
        <ele>1141.41</ele>
        <time>2019-04-18T08:28:10.018000Z</time>
      </trkpt>
      <trkpt lat="37.8379911306642" lon="112.00804415067138">
        <ele>1143.06</ele>
        <time>2019-04-18T08:28:22.018000Z</time>
      </trkpt>
      <trkpt lat="37.83772729556817" lon="112.00793944540851">
        <ele>1145.74</ele>
        <time>2019-04-18T08:28:34.018000Z</time>
      </trkpt>
      <trkpt lat="37.83741652097492" lon="112.00783779875087">
        <ele>1146.16</ele>
        <time>2019-04-18T08:28:46.018000Z</time>
      </trkpt>
      <trkpt lat="37.837097648036526" lon="112.00775249124972">
        <ele>1140.83</ele>
        <time>2019-04-18T08:28:58.018000Z</time>
      </trkpt>
      <trkpt lat="37.83684107925978" lon="112.00763109706817">
        <ele>1144.85</ele>
        <time>2019-04-18T08:29:07.018000Z</time>
      </trkpt>
      <trkpt lat="37.83651702883296" lon="112.00748634316105">
        <ele>1146.08</ele>
        <time>2019-04-18T08:29:19.018000Z</time>
      </trkpt>
      <trkpt lat="37.836190050750126" lon="112.00741395212785">
        <ele>1149.08</ele>
        <time>2019-04-18T08:29:31.018000Z</time>
      </trkpt>
      <trkpt lat="37.83583354653502" lon="112.00732275912273">
        <ele>1152.08</ele>
        <time>2019-04-18T08:29:43.018000Z</time>
      </trkpt>
      <trkpt lat="37.83566548420588" lon="112.00727144715084">
        <ele>1153.33</ele>
        <time>2019-04-18T08:29:49.018000Z</time>
      </trkpt>
      <trkpt lat="37.83549216332162" lon="112.00725364755198">
        <ele>1154.61</ele>
        <time>2019-04-18T08:29:55.018000Z</time>
      </trkpt>
      <trkpt lat="37.83542474168162" lon="112.00721640562378">
        <ele>1154.44</ele>
        <time>2019-04-18T08:29:58.018000Z</time>
      </trkpt>
      <trkpt lat="37.83537354544715" lon="112.0071014150528">
        <ele>1151.47</ele>
        <time>2019-04-18T08:30:01.018000Z</time>
      </trkpt>
      <trkpt lat="37.835321889310585" lon="112.00692270672052">
        <ele>1152.1</ele>
        <time>2019-04-18T08:30:07.018000Z</time>
      </trkpt>
      <trkpt lat="37.83526787495784" lon="112.00686537033538">
        <ele>1152.64</ele>
        <time>2019-04-18T08:30:10.018000Z</time>
      </trkpt>
      <trkpt lat="37.835192984953444" lon="112.00682958228097">
        <ele>1153.59</ele>
        <time>2019-04-18T08:30:13.018000Z</time>
      </trkpt>
      <trkpt lat="37.834860527504105" lon="112.00688640864071">
        <ele>1151.76</ele>
        <time>2019-04-18T08:30:25.018000Z</time>
      </trkpt>
      <trkpt lat="37.83470414742244" lon="112.0069002309836">
        <ele>1152.54</ele>
        <time>2019-04-18T08:30:31.018000Z</time>
      </trkpt>
      <trkpt lat="37.8346098164941" lon="112.00691309756917">
        <ele>1153.81</ele>
        <time>2019-04-18T08:30:34.018000Z</time>
      </trkpt>
      <trkpt lat="37.83452577127945" lon="112.00689946678976">
        <ele>1154.3</ele>
        <time>2019-04-18T08:30:37.018000Z</time>
      </trkpt>
      <trkpt lat="37.83419741311656" lon="112.00679649294284">
        <ele>1152.6</ele>
        <time>2019-04-18T08:30:49.018000Z</time>
      </trkpt>
      <trkpt lat="37.83394734222667" lon="112.00669785054285">
        <ele>1152.74</ele>
        <time>2019-04-18T08:30:58.018000Z</time>
      </trkpt>
      <trkpt lat="37.83362421136402" lon="112.00658737019495">
        <ele>1158.96</ele>
        <time>2019-04-18T08:31:10.018000Z</time>
      </trkpt>
      <trkpt lat="37.833483996054206" lon="112.00651866898819">
        <ele>1158.06</ele>
        <time>2019-04-18T08:31:16.018000Z</time>
      </trkpt>
      <trkpt lat="37.83318550662594" lon="112.00640662630352">
        <ele>1162.2</ele>
        <time>2019-04-18T08:31:28.018000Z</time>
      </trkpt>
      <trkpt lat="37.83293353501053" lon="112.00634938206689">
        <ele>1159.06</ele>
        <time>2019-04-18T08:31:37.018000Z</time>
      </trkpt>
      <trkpt lat="37.83285046344641" lon="112.00630955035395">
        <ele>1159.05</ele>
        <time>2019-04-18T08:31:40.018000Z</time>
      </trkpt>
      <trkpt lat="37.832696472323896" lon="112.00628255011571">
        <ele>1159.87</ele>
        <time>2019-04-18T08:31:46.018000Z</time>
      </trkpt>
      <trkpt lat="37.83243955730685" lon="112.00615250448845">
        <ele>1164.02</ele>
        <time>2019-04-18T08:31:55.018000Z</time>
      </trkpt>
      <trkpt lat="37.83227911495716" lon="112.0060914822621">
        <ele>1161.83</ele>
        <time>2019-04-18T08:32:01.018000Z</time>
      </trkpt>
      <trkpt lat="37.83194896387416" lon="112.00606800393051">
        <ele>1157.76</ele>
        <time>2019-04-18T08:32:13.018000Z</time>
      </trkpt>
      <trkpt lat="37.831667594151476" lon="112.0060809173554">
        <ele>1160.48</ele>
        <time>2019-04-18T08:32:22.018000Z</time>
      </trkpt>
      <trkpt lat="37.831315444966606" lon="112.00610983242126">
        <ele>1163.68</ele>
        <time>2019-04-18T08:32:34.018000Z</time>
      </trkpt>
      <trkpt lat="37.831043004302536" lon="112.00609679418042">
        <ele>1157.34</ele>
        <time>2019-04-18T08:32:46.018000Z</time>
      </trkpt>
      <trkpt lat="37.830706345723534" lon="112.0061418300904">
        <ele>1160.67</ele>
        <time>2019-04-18T08:32:58.018000Z</time>
      </trkpt>
      <trkpt lat="37.83041638624058" lon="112.00616125400057">
        <ele>1159.83</ele>
        <time>2019-04-18T08:33:10.018000Z</time>
      </trkpt>
      <trkpt lat="37.83018201626166" lon="112.00616617649996">
        <ele>1161.22</ele>
        <time>2019-04-18T08:33:19.018000Z</time>
      </trkpt>
      <trkpt lat="37.83001595501359" lon="112.00613539616793">
        <ele>1166.19</ele>
        <time>2019-04-18T08:33:25.018000Z</time>
      </trkpt>
      <trkpt lat="37.829686105367514" lon="112.00615115022497">
        <ele>1168.27</ele>
        <time>2019-04-18T08:33:37.018000Z</time>
      </trkpt>
      <trkpt lat="37.82940596470782" lon="112.00613844207079">
        <ele>1166.35</ele>
        <time>2019-04-18T08:33:49.018000Z</time>
      </trkpt>
      <trkpt lat="37.82907523444809" lon="112.00613753511384">
        <ele>1168.43</ele>
        <time>2019-04-18T08:34:01.018000Z</time>
      </trkpt>
      <trkpt lat="37.82875231499268" lon="112.00615831941359">
        <ele>1167.45</ele>
        <time>2019-04-18T08:34:13.018000Z</time>
      </trkpt>
      <trkpt lat="37.82846763547075" lon="112.00617653319952">
        <ele>1168.32</ele>
        <time>2019-04-18T08:34:25.018000Z</time>
      </trkpt>
      <trkpt lat="37.828175486122554" lon="112.00619951735152">
        <ele>1168.6</ele>
        <time>2019-04-18T08:34:37.018000Z</time>
      </trkpt>
      <trkpt lat="37.827845047407784" lon="112.00624011295555">
        <ele>1172.67</ele>
        <time>2019-04-18T08:34:49.018000Z</time>
      </trkpt>
      <trkpt lat="37.82752546925348" lon="112.0062951793702">
        <ele>1175.72</ele>
        <time>2019-04-18T08:35:01.018000Z</time>
      </trkpt>
      <trkpt lat="37.82720736097112" lon="112.00634640555066">
        <ele>1178.33</ele>
        <time>2019-04-18T08:35:13.018000Z</time>
      </trkpt>
      <trkpt lat="37.82689012264338" lon="112.00639605164092">
        <ele>1181.38</ele>
        <time>2019-04-18T08:35:25.018000Z</time>
      </trkpt>
      <trkpt lat="37.82661988257852" lon="112.00639918436733">
        <ele>1181.31</ele>
        <time>2019-04-18T08:35:37.018000Z</time>
      </trkpt>
      <trkpt lat="37.8263047352687" lon="112.00647483210602">
        <ele>1183.36</ele>
        <time>2019-04-18T08:35:49.018000Z</time>
      </trkpt>
      <trkpt lat="37.82602148646683" lon="112.00651077704569">
        <ele>1183.75</ele>
        <time>2019-04-18T08:36:01.018000Z</time>
      </trkpt>
      <trkpt lat="37.82574965555556" lon="112.00649204839425">
        <ele>1183.29</ele>
        <time>2019-04-18T08:36:13.018000Z</time>
      </trkpt>
      <trkpt lat="37.82546561485386" lon="112.00647891021455">
        <ele>1181.61</ele>
        <time>2019-04-18T08:36:25.018000Z</time>
      </trkpt>
      <trkpt lat="37.82513766184887" lon="112.00640653869598">
        <ele>1184.8</ele>
        <time>2019-04-18T08:36:37.018000Z</time>
      </trkpt>
      <trkpt lat="37.824814179127515" lon="112.0063408175876">
        <ele>1184.9</ele>
        <time>2019-04-18T08:36:49.018000Z</time>
      </trkpt>
      <trkpt lat="37.82450432691088" lon="112.00628765716287">
        <ele>1186.06</ele>
        <time>2019-04-18T08:37:01.018000Z</time>
      </trkpt>
      <trkpt lat="37.824170963796995" lon="112.00621040548681">
        <ele>1186.78</ele>
        <time>2019-04-18T08:37:13.018000Z</time>
      </trkpt>
      <trkpt lat="37.82385519097306" lon="112.00613982409543">
        <ele>1187.08</ele>
        <time>2019-04-18T08:37:25.018000Z</time>
      </trkpt>
      <trkpt lat="37.82353685905308" lon="112.00609333422837">
        <ele>1186.73</ele>
        <time>2019-04-18T08:37:37.018000Z</time>
      </trkpt>
      <trkpt lat="37.823237449295576" lon="112.0061055277695">
        <ele>1186.2</ele>
        <time>2019-04-18T08:37:49.018000Z</time>
      </trkpt>
      <trkpt lat="37.82291065033768" lon="112.00613998292968">
        <ele>1186.23</ele>
        <time>2019-04-18T08:38:01.018000Z</time>
      </trkpt>
      <trkpt lat="37.82275980021813" lon="112.00613951430992">
        <ele>1176.95</ele>
        <time>2019-04-18T08:38:07.018000Z</time>
      </trkpt>
      <trkpt lat="37.82246656602326" lon="112.00602995037555">
        <ele>1188.27</ele>
        <time>2019-04-18T08:38:19.018000Z</time>
      </trkpt>
      <trkpt lat="37.822352092500985" lon="112.00593402566989">
        <ele>1188.66</ele>
        <time>2019-04-18T08:38:25.018000Z</time>
      </trkpt>
      <trkpt lat="37.82219176928729" lon="112.00584633194302">
        <ele>1193.24</ele>
        <time>2019-04-18T08:38:31.018000Z</time>
      </trkpt>
      <trkpt lat="37.822119167125194" lon="112.0057859690558">
        <ele>1196.49</ele>
        <time>2019-04-18T08:38:34.018000Z</time>
      </trkpt>
      <trkpt lat="37.82196561414424" lon="112.00570284562093">
        <ele>1198.14</ele>
        <time>2019-04-18T08:38:40.018000Z</time>
      </trkpt>
      <trkpt lat="37.821734946762795" lon="112.00548907547179">
        <ele>1199.85</ele>
        <time>2019-04-18T08:38:52.018000Z</time>
      </trkpt>
      <trkpt lat="37.821498557629205" lon="112.00526867183491">
        <ele>1195.51</ele>
        <time>2019-04-18T08:39:01.018000Z</time>
      </trkpt>
      <trkpt lat="37.82128905400432" lon="112.00510167813829">
        <ele>1201.55</ele>
        <time>2019-04-18T08:39:10.018000Z</time>
      </trkpt>
      <trkpt lat="37.821191474198244" lon="112.00504707121507">
        <ele>1203.4</ele>
        <time>2019-04-18T08:39:13.018000Z</time>
      </trkpt>
      <trkpt lat="37.82104883879669" lon="112.0049370415569">
        <ele>1203.58</ele>
        <time>2019-04-18T08:39:19.018000Z</time>
      </trkpt>
      <trkpt lat="37.82079162588532" lon="112.00484560913732">
        <ele>1202.89</ele>
        <time>2019-04-18T08:39:37.018000Z</time>
      </trkpt>
      <trkpt lat="37.82064752105216" lon="112.00468371208873">
        <ele>1204.63</ele>
        <time>2019-04-18T08:39:55.018000Z</time>
      </trkpt>
      <trkpt lat="37.820435463262534" lon="112.0044112503485">
        <ele>1208.3</ele>
        <time>2019-04-18T08:40:19.018000Z</time>
      </trkpt>
      <trkpt lat="37.820347970246594" lon="112.00430181579819">
        <ele>1202.28</ele>
        <time>2019-04-18T08:40:49.018000Z</time>
      </trkpt>
      <trkpt lat="37.82058499701112" lon="112.00454303552527">
        <ele>1201.59</ele>
        <time>2019-04-18T08:41:13.018000Z</time>
      </trkpt>
      <trkpt lat="37.82077924465245" lon="112.00480421708986">
        <ele>1204.32</ele>
        <time>2019-04-18T08:41:31.018000Z</time>
      </trkpt>
      <trkpt lat="37.82104337813507" lon="112.00491521045188">
        <ele>1197.64</ele>
        <time>2019-04-18T08:41:55.018000Z</time>
      </trkpt>
      <trkpt lat="37.821181911124704" lon="112.00501067423818">
        <ele>1196.68</ele>
        <time>2019-04-18T08:42:07.018000Z</time>
      </trkpt>
      <trkpt lat="37.82143990767771" lon="112.00521539293317">
        <ele>1196.21</ele>
        <time>2019-04-18T08:42:28.018000Z</time>
      </trkpt>
      <trkpt lat="37.82155946070019" lon="112.00530740690138">
        <ele>1191.6</ele>
        <time>2019-04-18T08:42:34.018000Z</time>
      </trkpt>
      <trkpt lat="37.82167438498715" lon="112.0054366230664">
        <ele>1194.06</ele>
        <time>2019-04-18T08:42:40.018000Z</time>
      </trkpt>
      <trkpt lat="37.821943642601866" lon="112.00565826323445">
        <ele>1198.71</ele>
        <time>2019-04-18T08:42:52.018000Z</time>
      </trkpt>
      <trkpt lat="37.822228290021464" lon="112.00586647279714">
        <ele>1199.02</ele>
        <time>2019-04-18T08:43:04.018000Z</time>
      </trkpt>
      <trkpt lat="37.82252517553395" lon="112.00601530894272">
        <ele>1192.81</ele>
        <time>2019-04-18T08:43:16.018000Z</time>
      </trkpt>
      <trkpt lat="37.822593755626976" lon="112.00601659838019">
        <ele>1191.79</ele>
        <time>2019-04-18T08:43:19.018000Z</time>
      </trkpt>
      <trkpt lat="37.822755798361264" lon="112.0060889012545">
        <ele>1192.75</ele>
        <time>2019-04-18T08:43:25.018000Z</time>
      </trkpt>
      <trkpt lat="37.822952079341825" lon="112.00611208083544">
        <ele>1190.15</ele>
        <time>2019-04-18T08:43:31.018000Z</time>
      </trkpt>
      <trkpt lat="37.82327275800037" lon="112.00606937523715">
        <ele>1183.48</ele>
        <time>2019-04-18T08:43:43.018000Z</time>
      </trkpt>
      <trkpt lat="37.82361523635268" lon="112.00606744914651">
        <ele>1178.57</ele>
        <time>2019-04-18T08:43:55.018000Z</time>
      </trkpt>
      <trkpt lat="37.82370619846738" lon="112.0060741214761">
        <ele>1180.89</ele>
        <time>2019-04-18T08:43:58.018000Z</time>
      </trkpt>
      <trkpt lat="37.82403491564277" lon="112.00615506013621">
        <ele>1186.07</ele>
        <time>2019-04-18T08:44:10.018000Z</time>
      </trkpt>
      <trkpt lat="37.8243510882906" lon="112.00626644780198">
        <ele>1191.84</ele>
        <time>2019-04-18T08:44:22.018000Z</time>
      </trkpt>
      <trkpt lat="37.82443642128085" lon="112.00628697688488">
        <ele>1185.88</ele>
        <time>2019-04-18T08:44:25.018000Z</time>
      </trkpt>
      <trkpt lat="37.82471772849902" lon="112.00631747622757">
        <ele>1188.52</ele>
        <time>2019-04-18T08:44:34.018000Z</time>
      </trkpt>
      <trkpt lat="37.82502146848382" lon="112.00637029218714">
        <ele>1187.08</ele>
        <time>2019-04-18T08:44:46.118000Z</time>
      </trkpt>
      <trkpt lat="37.82536905742076" lon="112.00643849728155">
        <ele>1178.34</ele>
        <time>2019-04-18T08:44:58.018000Z</time>
      </trkpt>
      <trkpt lat="37.82572015132112" lon="112.00645492512564">
        <ele>1182.96</ele>
        <time>2019-04-18T08:45:10.018000Z</time>
      </trkpt>
      <trkpt lat="37.82589413461215" lon="112.00645004866064">
        <ele>1182.98</ele>
        <time>2019-04-18T08:45:16.018000Z</time>
      </trkpt>
      <trkpt lat="37.82621236383015" lon="112.00646778632625">
        <ele>1179.96</ele>
        <time>2019-04-18T08:45:28.018000Z</time>
      </trkpt>
      <trkpt lat="37.82629765057105" lon="112.00646959029336">
        <ele>1181.0</ele>
        <time>2019-04-18T08:45:31.018000Z</time>
      </trkpt>
      <trkpt lat="37.82647849260184" lon="112.00642031491513">
        <ele>1178.24</ele>
        <time>2019-04-18T08:45:37.018000Z</time>
      </trkpt>
      <trkpt lat="37.826810264144505" lon="112.0063856216504">
        <ele>1171.43</ele>
        <time>2019-04-18T08:45:49.018000Z</time>
      </trkpt>
      <trkpt lat="37.8270977530006" lon="112.00634820609592">
        <ele>1171.26</ele>
        <time>2019-04-18T08:45:58.018000Z</time>
      </trkpt>
      <trkpt lat="37.827376350937165" lon="112.00630849846772">
        <ele>1172.85</ele>
        <time>2019-04-18T08:46:07.018000Z</time>
      </trkpt>
      <trkpt lat="37.82765196963422" lon="112.00629225719682">
        <ele>1170.14</ele>
        <time>2019-04-18T08:46:16.018000Z</time>
      </trkpt>
      <trkpt lat="37.82800435788745" lon="112.00624052474687">
        <ele>1168.75</ele>
        <time>2019-04-18T08:46:28.018000Z</time>
      </trkpt>
      <trkpt lat="37.8283547094505" lon="112.00615752518533">
        <ele>1160.85</ele>
        <time>2019-04-18T08:46:40.018000Z</time>
      </trkpt>
      <trkpt lat="37.828676883016854" lon="112.00611825088899">
        <ele>1161.2</ele>
        <time>2019-04-18T08:46:49.018000Z</time>
      </trkpt>
      <trkpt lat="37.82897214026823" lon="112.00611349735352">
        <ele>1161.8</ele>
        <time>2019-04-18T08:46:58.018000Z</time>
      </trkpt>
      <trkpt lat="37.82933272434454" lon="112.00612911677065">
        <ele>1162.19</ele>
        <time>2019-04-18T08:47:10.018000Z</time>
      </trkpt>
      <trkpt lat="37.82965541043225" lon="112.00612650629954">
        <ele>1164.01</ele>
        <time>2019-04-18T08:47:28.018000Z</time>
      </trkpt>
      <trkpt lat="37.82976776011021" lon="112.006099706127">
        <ele>1162.79</ele>
        <time>2019-04-18T08:47:34.018000Z</time>
      </trkpt>
      <trkpt lat="37.829819164444714" lon="112.00609907206582">
        <ele>1164.24</ele>
        <time>2019-04-18T08:47:37.018000Z</time>
      </trkpt>
      <trkpt lat="37.8298547413008" lon="112.00603669166682">
        <ele>1163.14</ele>
        <time>2019-04-18T08:48:01.018000Z</time>
      </trkpt>
      <trkpt lat="37.829859384454906" lon="112.00612310688315">
        <ele>1162.28</ele>
        <time>2019-04-18T08:48:07.018000Z</time>
      </trkpt>
      <trkpt lat="37.830210905076534" lon="112.00613347422299">
        <ele>1159.35</ele>
        <time>2019-04-18T08:48:22.018000Z</time>
      </trkpt>
      <trkpt lat="37.83053604580526" lon="112.00614722201759">
        <ele>1157.73</ele>
        <time>2019-04-18T08:48:34.018000Z</time>
      </trkpt>
      <trkpt lat="37.830810835559724" lon="112.00613542871852">
        <ele>1159.01</ele>
        <time>2019-04-18T08:48:43.018000Z</time>
      </trkpt>
      <trkpt lat="37.830954405151246" lon="112.00612162652767">
        <ele>1160.69</ele>
        <time>2019-04-18T08:48:49.018000Z</time>
      </trkpt>
      <trkpt lat="37.831266405164584" lon="112.00611615326731">
        <ele>1161.82</ele>
        <time>2019-04-18T08:49:01.018000Z</time>
      </trkpt>
      <trkpt lat="37.83161230746692" lon="112.00611652357101">
        <ele>1158.83</ele>
        <time>2019-04-18T08:49:13.018000Z</time>
      </trkpt>
      <trkpt lat="37.83190017722676" lon="112.00609782885613">
        <ele>1156.35</ele>
        <time>2019-04-18T08:49:22.018000Z</time>
      </trkpt>
      <trkpt lat="37.8322344500628" lon="112.00610480816155">
        <ele>1155.84</ele>
        <time>2019-04-18T08:49:34.018000Z</time>
      </trkpt>
      <trkpt lat="37.83242536029235" lon="112.00611979626808">
        <ele>1158.0</ele>
        <time>2019-04-18T08:49:40.018000Z</time>
      </trkpt>
      <trkpt lat="37.83273073222987" lon="112.00627941959934">
        <ele>1158.69</ele>
        <time>2019-04-18T08:49:52.018000Z</time>
      </trkpt>
      <trkpt lat="37.83296940645547" lon="112.00638671407626">
        <ele>1156.25</ele>
        <time>2019-04-18T08:50:04.018000Z</time>
      </trkpt>
      <trkpt lat="37.83305969703922" lon="112.00640037408961">
        <ele>1155.74</ele>
        <time>2019-04-18T08:50:07.018000Z</time>
      </trkpt>
      <trkpt lat="37.8333538807175" lon="112.0064907270542">
        <ele>1156.88</ele>
        <time>2019-04-18T08:50:16.018000Z</time>
      </trkpt>
      <trkpt lat="37.83364652535344" lon="112.00660435158714">
        <ele>1157.94</ele>
        <time>2019-04-18T08:50:25.018000Z</time>
      </trkpt>
      <trkpt lat="37.833980958423375" lon="112.00667617309446">
        <ele>1152.65</ele>
        <time>2019-04-18T08:50:37.018000Z</time>
      </trkpt>
      <trkpt lat="37.83433028289735" lon="112.00678194672287">
        <ele>1148.81</ele>
        <time>2019-04-18T08:50:49.018000Z</time>
      </trkpt>
      <trkpt lat="37.83460467654672" lon="112.00686728977598">
        <ele>1151.56</ele>
        <time>2019-04-18T08:50:58.018000Z</time>
      </trkpt>
      <trkpt lat="37.83476794848478" lon="112.00691192120664">
        <ele>1152.32</ele>
        <time>2019-04-18T08:51:04.018000Z</time>
      </trkpt>
      <trkpt lat="37.83486708847741" lon="112.00691007015206">
        <ele>1151.81</ele>
        <time>2019-04-18T08:51:07.018000Z</time>
      </trkpt>
      <trkpt lat="37.83503770678717" lon="112.00686584561221">
        <ele>1153.04</ele>
        <time>2019-04-18T08:51:13.018000Z</time>
      </trkpt>
      <trkpt lat="37.83527515782378" lon="112.00688721479855">
        <ele>1153.85</ele>
        <time>2019-04-18T08:51:22.018000Z</time>
      </trkpt>
      <trkpt lat="37.83533210973449" lon="112.00693284730067">
        <ele>1155.2</ele>
        <time>2019-04-18T08:51:25.018000Z</time>
      </trkpt>
      <trkpt lat="37.83545288933633" lon="112.00716080155206">
        <ele>1150.34</ele>
        <time>2019-04-18T08:51:34.018000Z</time>
      </trkpt>
      <trkpt lat="37.83552755355332" lon="112.00725847755231">
        <ele>1151.76</ele>
        <time>2019-04-18T08:51:40.018000Z</time>
      </trkpt>
      <trkpt lat="37.835883726794826" lon="112.00732795901197">
        <ele>1151.06</ele>
        <time>2019-04-18T08:51:52.018000Z</time>
      </trkpt>
      <trkpt lat="37.83623698131612" lon="112.00742613253996">
        <ele>1150.68</ele>
        <time>2019-04-18T08:52:04.018000Z</time>
      </trkpt>
      <trkpt lat="37.83656338619386" lon="112.0075315668999">
        <ele>1152.3</ele>
        <time>2019-04-18T08:52:16.018000Z</time>
      </trkpt>
      <trkpt lat="37.83675182083388" lon="112.00763249231044">
        <ele>1148.94</ele>
        <time>2019-04-18T08:52:25.018000Z</time>
      </trkpt>
      <trkpt lat="37.83696258232464" lon="112.0076623424661">
        <ele>1150.92</ele>
        <time>2019-04-18T08:52:31.018000Z</time>
      </trkpt>
      <trkpt lat="37.83720210170941" lon="112.00773526586893">
        <ele>1148.77</ele>
        <time>2019-04-18T08:52:40.018000Z</time>
      </trkpt>
      <trkpt lat="37.837522139216425" lon="112.00786602280576">
        <ele>1143.82</ele>
        <time>2019-04-18T08:52:52.018000Z</time>
      </trkpt>
      <trkpt lat="37.837796998132895" lon="112.0079583328795">
        <ele>1144.43</ele>
        <time>2019-04-18T08:53:01.018000Z</time>
      </trkpt>
      <trkpt lat="37.83805900199933" lon="112.00807139206013">
        <ele>1146.62</ele>
        <time>2019-04-18T08:53:10.018000Z</time>
      </trkpt>
      <trkpt lat="37.8384072687969" lon="112.00820873908197">
        <ele>1147.61</ele>
        <time>2019-04-18T08:53:22.018000Z</time>
      </trkpt>
      <trkpt lat="37.83858673980127" lon="112.00822699877182">
        <ele>1145.4</ele>
        <time>2019-04-18T08:53:28.018000Z</time>
      </trkpt>
      <trkpt lat="37.83891094657805" lon="112.00815514030677">
        <ele>1143.38</ele>
        <time>2019-04-18T08:53:40.018000Z</time>
      </trkpt>
      <trkpt lat="37.83924197496317" lon="112.00811644428995">
        <ele>1140.44</ele>
        <time>2019-04-18T08:53:52.018000Z</time>
      </trkpt>
      <trkpt lat="37.839396273891495" lon="112.0080916309827">
        <ele>1142.1</ele>
        <time>2019-04-18T08:53:58.018000Z</time>
      </trkpt>
      <trkpt lat="37.83962844389355" lon="112.00808825854486">
        <ele>1141.89</ele>
        <time>2019-04-18T08:54:07.018000Z</time>
      </trkpt>
      <trkpt lat="37.83990498131964" lon="112.00802974158522">
        <ele>1141.68</ele>
        <time>2019-04-18T08:54:16.018000Z</time>
      </trkpt>
      <trkpt lat="37.84016285506735" lon="112.00798649005547">
        <ele>1139.53</ele>
        <time>2019-04-18T08:54:25.018000Z</time>
      </trkpt>
      <trkpt lat="37.840333442035146" lon="112.00798125383356">
        <ele>1138.74</ele>
        <time>2019-04-18T08:54:31.018000Z</time>
      </trkpt>
      <trkpt lat="37.84065119768637" lon="112.00804303130991">
        <ele>1136.85</ele>
        <time>2019-04-18T08:54:43.018000Z</time>
      </trkpt>
      <trkpt lat="37.84096776277586" lon="112.0080797253388">
        <ele>1132.25</ele>
        <time>2019-04-18T08:54:55.018000Z</time>
      </trkpt>
      <trkpt lat="37.841109776372285" lon="112.00811862686054">
        <ele>1135.7</ele>
        <time>2019-04-18T08:55:01.018000Z</time>
      </trkpt>
      <trkpt lat="37.8414354660195" lon="112.00810642287844">
        <ele>1138.34</ele>
        <time>2019-04-18T08:55:22.018000Z</time>
      </trkpt>
      <trkpt lat="37.84174339002092" lon="112.00797474019159">
        <ele>1137.66</ele>
        <time>2019-04-18T08:55:46.018000Z</time>
      </trkpt>
      <trkpt lat="37.84202639230079" lon="112.00780396501136">
        <ele>1140.61</ele>
        <time>2019-04-18T08:56:01.018000Z</time>
      </trkpt>
      <trkpt lat="37.84231333310122" lon="112.00760189573018">
        <ele>1140.4</ele>
        <time>2019-04-18T08:56:13.018000Z</time>
      </trkpt>
      <trkpt lat="37.84254026213738" lon="112.0074695277492">
        <ele>1136.04</ele>
        <time>2019-04-18T08:56:22.018000Z</time>
      </trkpt>
      <trkpt lat="37.842603793055694" lon="112.0074115395954">
        <ele>1134.82</ele>
        <time>2019-04-18T08:56:25.018000Z</time>
      </trkpt>
      <trkpt lat="37.842851595693794" lon="112.00725369822318">
        <ele>1131.71</ele>
        <time>2019-04-18T08:56:37.018000Z</time>
      </trkpt>
      <trkpt lat="37.84306377831242" lon="112.00705128852677">
        <ele>1131.37</ele>
        <time>2019-04-18T08:56:46.018000Z</time>
      </trkpt>
      <trkpt lat="37.84329565650988" lon="112.00687739294912">
        <ele>1130.94</ele>
        <time>2019-04-18T08:56:55.018000Z</time>
      </trkpt>
      <trkpt lat="37.843569538681045" lon="112.00669833978225">
        <ele>1125.03</ele>
        <time>2019-04-18T08:57:07.018000Z</time>
      </trkpt>
      <trkpt lat="37.84364124344064" lon="112.00665965562688">
        <ele>1124.58</ele>
        <time>2019-04-18T08:57:10.018000Z</time>
      </trkpt>
      <trkpt lat="37.843930497466715" lon="112.00643737444055">
        <ele>1129.72</ele>
        <time>2019-04-18T08:57:22.018000Z</time>
      </trkpt>
      <trkpt lat="37.84418804895577" lon="112.00631252587718">
        <ele>1128.57</ele>
        <time>2019-04-18T08:57:31.018000Z</time>
      </trkpt>
      <trkpt lat="37.84434732067669" lon="112.00624139844888">
        <ele>1127.05</ele>
        <time>2019-04-18T08:57:37.018000Z</time>
      </trkpt>
      <trkpt lat="37.844520158217286" lon="112.0061505997552">
        <ele>1124.53</ele>
        <time>2019-04-18T08:57:43.018000Z</time>
      </trkpt>
      <trkpt lat="37.84480279888724" lon="112.00612674896374">
        <ele>1123.84</ele>
        <time>2019-04-18T08:57:55.018000Z</time>
      </trkpt>
      <trkpt lat="37.84486688775643" lon="112.00613849256966">
        <ele>1123.86</ele>
        <time>2019-04-18T08:57:58.018000Z</time>
      </trkpt>
      <trkpt lat="37.844938573226166" lon="112.00615857848578">
        <ele>1124.15</ele>
        <time>2019-04-18T08:58:01.018000Z</time>
      </trkpt>
      <trkpt lat="37.845210498767116" lon="112.00622322387872">
        <ele>1124.95</ele>
        <time>2019-04-18T08:58:10.018000Z</time>
      </trkpt>
      <trkpt lat="37.845473063871346" lon="112.0063186810866">
        <ele>1128.1</ele>
        <time>2019-04-18T08:58:19.018000Z</time>
      </trkpt>
      <trkpt lat="37.84579439037427" lon="112.00644530579049">
        <ele>1128.29</ele>
        <time>2019-04-18T08:58:31.018000Z</time>
      </trkpt>
      <trkpt lat="37.84612981995653" lon="112.00653195651313">
        <ele>1123.72</ele>
        <time>2019-04-18T08:58:43.018000Z</time>
      </trkpt>
      <trkpt lat="37.84647370387452" lon="112.00658368426889">
        <ele>1121.55</ele>
        <time>2019-04-18T08:58:55.018000Z</time>
      </trkpt>
      <trkpt lat="37.84668974347344" lon="112.00657510202373">
        <ele>1124.04</ele>
        <time>2019-04-18T08:59:01.018000Z</time>
      </trkpt>
      <trkpt lat="37.8469883670283" lon="112.00661193895488">
        <ele>1124.17</ele>
        <time>2019-04-18T08:59:10.018000Z</time>
      </trkpt>
      <trkpt lat="37.84708150140889" lon="112.00663928004656">
        <ele>1125.69</ele>
        <time>2019-04-18T08:59:13.018000Z</time>
      </trkpt>
      <trkpt lat="37.847333045772416" lon="112.00666465986865">
        <ele>1115.56</ele>
        <time>2019-04-18T08:59:22.018000Z</time>
      </trkpt>
      <trkpt lat="37.84740032455907" lon="112.00668835099583">
        <ele>1115.85</ele>
        <time>2019-04-18T08:59:25.018000Z</time>
      </trkpt>
      <trkpt lat="37.84776033629726" lon="112.00671727586659">
        <ele>1114.22</ele>
        <time>2019-04-18T08:59:37.018000Z</time>
      </trkpt>
      <trkpt lat="37.84784277220409" lon="112.00671552321197">
        <ele>1115.53</ele>
        <time>2019-04-18T08:59:40.018000Z</time>
      </trkpt>
      <trkpt lat="37.848035398449646" lon="112.00675820926786">
        <ele>1110.83</ele>
        <time>2019-04-18T08:59:46.018000Z</time>
      </trkpt>
      <trkpt lat="37.84823298997753" lon="112.00676803288796">
        <ele>1112.31</ele>
        <time>2019-04-18T08:59:52.018000Z</time>
      </trkpt>
      <trkpt lat="37.84848121628569" lon="112.00692469214631">
        <ele>1110.69</ele>
        <time>2019-04-18T09:00:01.018000Z</time>
      </trkpt>
      <trkpt lat="37.84860067950296" lon="112.00716206378881">
        <ele>1112.19</ele>
        <time>2019-04-18T09:00:10.018000Z</time>
      </trkpt>
      <trkpt lat="37.848701371634355" lon="112.00729365561995">
        <ele>1112.77</ele>
        <time>2019-04-18T09:00:16.018000Z</time>
      </trkpt>
      <trkpt lat="37.84873271336441" lon="112.00738508215227">
        <ele>1113.03</ele>
        <time>2019-04-18T09:00:19.018000Z</time>
      </trkpt>
      <trkpt lat="37.84878622167912" lon="112.0074953620354">
        <ele>1113.72</ele>
        <time>2019-04-18T09:00:22.018000Z</time>
      </trkpt>
      <trkpt lat="37.848838718286686" lon="112.00759638057612">
        <ele>1111.77</ele>
        <time>2019-04-18T09:00:25.018000Z</time>
      </trkpt>
      <trkpt lat="37.84888165223753" lon="112.00764584451382">
        <ele>1101.48</ele>
        <time>2019-04-18T09:00:28.018000Z</time>
      </trkpt>
      <trkpt lat="37.84893483924829" lon="112.0076804909521">
        <ele>1101.42</ele>
        <time>2019-04-18T09:00:31.018000Z</time>
      </trkpt>
      <trkpt lat="37.84899756532412" lon="112.00771659549031">
        <ele>1099.76</ele>
        <time>2019-04-18T09:00:34.018000Z</time>
      </trkpt>
      <trkpt lat="37.849052991064156" lon="112.00780685607832">
        <ele>1103.51</ele>
        <time>2019-04-18T09:00:37.018000Z</time>
      </trkpt>
      <trkpt lat="37.849221765738136" lon="112.00809495502152">
        <ele>1109.45</ele>
        <time>2019-04-18T09:00:46.018000Z</time>
      </trkpt>
      <trkpt lat="37.84934756836112" lon="112.0082811060698">
        <ele>1105.85</ele>
        <time>2019-04-18T09:00:52.018000Z</time>
      </trkpt>
      <trkpt lat="37.84943223618645" lon="112.00846397140548">
        <ele>1107.37</ele>
        <time>2019-04-18T09:00:58.018000Z</time>
      </trkpt>
      <trkpt lat="37.849569821131816" lon="112.00863725556528">
        <ele>1109.3</ele>
        <time>2019-04-18T09:01:04.018000Z</time>
      </trkpt>
      <trkpt lat="37.84975561168806" lon="112.00897359589514">
        <ele>1105.91</ele>
        <time>2019-04-18T09:01:16.018000Z</time>
      </trkpt>
      <trkpt lat="37.849840963925644" lon="112.00916011327804">
        <ele>1106.9</ele>
        <time>2019-04-18T09:01:22.018000Z</time>
      </trkpt>
      <trkpt lat="37.84988956361163" lon="112.00937217975411">
        <ele>1105.46</ele>
        <time>2019-04-18T09:01:28.018000Z</time>
      </trkpt>
      <trkpt lat="37.84990372804077" lon="112.0096972225849">
        <ele>1106.35</ele>
        <time>2019-04-18T09:01:37.018000Z</time>
      </trkpt>
      <trkpt lat="37.84987649023097" lon="112.01010056319909">
        <ele>1109.2</ele>
        <time>2019-04-18T09:01:49.018000Z</time>
      </trkpt>
      <trkpt lat="37.8498504704897" lon="112.01041057625577">
        <ele>1108.08</ele>
        <time>2019-04-18T09:01:58.018000Z</time>
      </trkpt>
      <trkpt lat="37.84985694525702" lon="112.01061856416862">
        <ele>1105.59</ele>
        <time>2019-04-18T09:02:04.018000Z</time>
      </trkpt>
      <trkpt lat="37.8498292669499" lon="112.01101151459228">
        <ele>1107.89</ele>
        <time>2019-04-18T09:02:22.018000Z</time>
      </trkpt>
      <trkpt lat="37.8497779150714" lon="112.01137804777902">
        <ele>1106.6</ele>
        <time>2019-04-18T09:02:34.018000Z</time>
      </trkpt>
      <trkpt lat="37.84976818598505" lon="112.01176375247509">
        <ele>1103.89</ele>
        <time>2019-04-18T09:02:46.018000Z</time>
      </trkpt>
      <trkpt lat="37.84977486311704" lon="112.01186160700352">
        <ele>1103.97</ele>
        <time>2019-04-18T09:02:49.018000Z</time>
      </trkpt>
      <trkpt lat="37.84974924080655" lon="112.01227380863207">
        <ele>1103.36</ele>
        <time>2019-04-18T09:03:01.018000Z</time>
      </trkpt>
      <trkpt lat="37.849690989939425" lon="112.01267273311053">
        <ele>1102.42</ele>
        <time>2019-04-18T09:03:13.018000Z</time>
      </trkpt>
      <trkpt lat="37.84965903495915" lon="112.0130927599222">
        <ele>1101.65</ele>
        <time>2019-04-18T09:03:25.018000Z</time>
      </trkpt>
      <trkpt lat="37.84964787282332" lon="112.01353224340052">
        <ele>1098.6</ele>
        <time>2019-04-18T09:03:37.018000Z</time>
      </trkpt>
      <trkpt lat="37.84958533171234" lon="112.01391516104007">
        <ele>1095.58</ele>
        <time>2019-04-18T09:03:49.018000Z</time>
      </trkpt>
      <trkpt lat="37.8495354571518" lon="112.01432248056132">
        <ele>1099.67</ele>
        <time>2019-04-18T09:04:01.018000Z</time>
      </trkpt>
      <trkpt lat="37.84951424180818" lon="112.01467832289532">
        <ele>1101.22</ele>
        <time>2019-04-18T09:04:10.018000Z</time>
      </trkpt>
      <trkpt lat="37.84949160333945" lon="112.01506486189788">
        <ele>1107.14</ele>
        <time>2019-04-18T09:04:19.018000Z</time>
      </trkpt>
      <trkpt lat="37.849449946910845" lon="112.01545244503397">
        <ele>1105.58</ele>
        <time>2019-04-18T09:04:31.018000Z</time>
      </trkpt>
      <trkpt lat="37.8494443054561" lon="112.0156949905922">
        <ele>1098.85</ele>
        <time>2019-04-18T09:04:43.018000Z</time>
      </trkpt>
      <trkpt lat="37.84941618992333" lon="112.01586609055678">
        <ele>1097.07</ele>
        <time>2019-04-18T09:04:55.018000Z</time>
      </trkpt>
      <trkpt lat="37.84937151662939" lon="112.01624450274853">
        <ele>1099.27</ele>
        <time>2019-04-18T09:05:13.018000Z</time>
      </trkpt>
      <trkpt lat="37.84935996411492" lon="112.01644497090896">
        <ele>1097.97</ele>
        <time>2019-04-18T09:05:19.018000Z</time>
      </trkpt>
      <trkpt lat="37.849301626589636" lon="112.01686674536471">
        <ele>1100.53</ele>
        <time>2019-04-18T09:05:31.018000Z</time>
      </trkpt>
      <trkpt lat="37.84924740302215" lon="112.01730160256048">
        <ele>1103.99</ele>
        <time>2019-04-18T09:05:43.018000Z</time>
      </trkpt>
      <trkpt lat="37.84919858589474" lon="112.01766405330622">
        <ele>1100.9</ele>
        <time>2019-04-18T09:05:55.018000Z</time>
      </trkpt>
      <trkpt lat="37.849187937262606" lon="112.01788676909729">
        <ele>1103.28</ele>
        <time>2019-04-18T09:06:01.018000Z</time>
      </trkpt>
      <trkpt lat="37.849155992293134" lon="112.01814732788473">
        <ele>1100.01</ele>
        <time>2019-04-18T09:06:10.018000Z</time>
      </trkpt>
      <trkpt lat="37.849183765268116" lon="112.01810676772904">
        <ele>1103.25</ele>
        <time>2019-04-18T09:06:19.018000Z</time>
      </trkpt>
      <trkpt lat="37.849203647297635" lon="112.01770668990058">
        <ele>1107.92</ele>
        <time>2019-04-18T09:06:43.018000Z</time>
      </trkpt>
      <trkpt lat="37.84926640806233" lon="112.0173064139918">
        <ele>1109.59</ele>
        <time>2019-04-18T09:07:07.018000Z</time>
      </trkpt>
      <trkpt lat="37.849319069346244" lon="112.01690276878708">
        <ele>1107.77</ele>
        <time>2019-04-18T09:07:31.018000Z</time>
      </trkpt>
      <trkpt lat="37.849349468461135" lon="112.01646660060015">
        <ele>1106.87</ele>
        <time>2019-04-18T09:07:55.018000Z</time>
      </trkpt>
      <trkpt lat="37.84937003033576" lon="112.01616012047846">
        <ele>1108.57</ele>
        <time>2019-04-18T09:08:07.018000Z</time>
      </trkpt>
      <trkpt lat="37.849450803185746" lon="112.01574624678958">
        <ele>1106.65</ele>
        <time>2019-04-18T09:08:22.018000Z</time>
      </trkpt>
      <trkpt lat="37.8495041688454" lon="112.0153662383178">
        <ele>1109.02</ele>
        <time>2019-04-18T09:08:34.018000Z</time>
      </trkpt>
      <trkpt lat="37.84953797433295" lon="112.01495739282888">
        <ele>1108.37</ele>
        <time>2019-04-18T09:08:46.018000Z</time>
      </trkpt>
      <trkpt lat="37.84955004639894" lon="112.01463892864909">
        <ele>1112.85</ele>
        <time>2019-04-18T09:08:55.018000Z</time>
      </trkpt>
      <trkpt lat="37.849596064501576" lon="112.0142712298402">
        <ele>1110.85</ele>
        <time>2019-04-18T09:09:07.018000Z</time>
      </trkpt>
      <trkpt lat="37.849646560641496" lon="112.01388877860218">
        <ele>1109.83</ele>
        <time>2019-04-18T09:09:19.018000Z</time>
      </trkpt>
      <trkpt lat="37.8496726297265" lon="112.01368406656132">
        <ele>1109.97</ele>
        <time>2019-04-18T09:09:25.018000Z</time>
      </trkpt>
      <trkpt lat="37.849693832344805" lon="112.0132423816521">
        <ele>1110.93</ele>
        <time>2019-04-18T09:09:37.018000Z</time>
      </trkpt>
      <trkpt lat="37.84972173236681" lon="112.01279417133213">
        <ele>1111.48</ele>
        <time>2019-04-18T09:09:49.018000Z</time>
      </trkpt>
      <trkpt lat="37.84975444178552" lon="112.012374720493">
        <ele>1109.71</ele>
        <time>2019-04-18T09:10:01.018000Z</time>
      </trkpt>
      <trkpt lat="37.849792291705796" lon="112.01195538190997">
        <ele>1113.23</ele>
        <time>2019-04-18T09:10:13.018000Z</time>
      </trkpt>
      <trkpt lat="37.849803727078495" lon="112.01152772693882">
        <ele>1116.73</ele>
        <time>2019-04-18T09:10:25.018000Z</time>
      </trkpt>
      <trkpt lat="37.84979894003221" lon="112.01141685275297">
        <ele>1117.34</ele>
        <time>2019-04-18T09:10:28.018000Z</time>
      </trkpt>
      <trkpt lat="37.84983883449423" lon="112.01100115814592">
        <ele>1114.48</ele>
        <time>2019-04-18T09:10:40.018000Z</time>
      </trkpt>
      <trkpt lat="37.84985565830935" lon="112.01090348387727">
        <ele>1114.65</ele>
        <time>2019-04-18T09:10:43.018000Z</time>
      </trkpt>
      <trkpt lat="37.849871264752096" lon="112.01057947655396">
        <ele>1117.19</ele>
        <time>2019-04-18T09:10:52.018000Z</time>
      </trkpt>
      <trkpt lat="37.84986395470405" lon="112.01048133942321">
        <ele>1116.62</ele>
        <time>2019-04-18T09:10:55.018000Z</time>
      </trkpt>
      <trkpt lat="37.84987944226567" lon="112.01011314125314">
        <ele>1114.8</ele>
        <time>2019-04-18T09:11:07.018000Z</time>
      </trkpt>
      <trkpt lat="37.849878486497055" lon="112.00971765615964">
        <ele>1113.24</ele>
        <time>2019-04-18T09:11:19.018000Z</time>
      </trkpt>
      <trkpt lat="37.84984169063084" lon="112.00938914624982">
        <ele>1117.39</ele>
        <time>2019-04-18T09:11:28.018000Z</time>
      </trkpt>
      <trkpt lat="37.84971233585956" lon="112.00902414223998">
        <ele>1116.05</ele>
        <time>2019-04-18T09:11:40.018000Z</time>
      </trkpt>
      <trkpt lat="37.849598532642915" lon="112.00885906269384">
        <ele>1118.08</ele>
        <time>2019-04-18T09:11:46.018000Z</time>
      </trkpt>
      <trkpt lat="37.84936849688177" lon="112.00853520160769">
        <ele>1119.71</ele>
        <time>2019-04-18T09:11:58.018000Z</time>
      </trkpt>
      <trkpt lat="37.849145897935394" lon="112.0082068075051">
        <ele>1121.48</ele>
        <time>2019-04-18T09:12:10.018000Z</time>
      </trkpt>
      <trkpt lat="37.84894005485598" lon="112.00789003885053">
        <ele>1119.72</ele>
        <time>2019-04-18T09:12:22.018000Z</time>
      </trkpt>
      <trkpt lat="37.8487718989111" lon="112.00762196768042">
        <ele>1118.92</ele>
        <time>2019-04-18T09:12:31.118000Z</time>
      </trkpt>
      <trkpt lat="37.84859716085748" lon="112.0073504567233">
        <ele>1119.33</ele>
        <time>2019-04-18T09:12:40.018000Z</time>
      </trkpt>
      <trkpt lat="37.84838390134054" lon="112.00702744886676">
        <ele>1120.55</ele>
        <time>2019-04-18T09:12:52.018000Z</time>
      </trkpt>
      <trkpt lat="37.848251020582815" lon="112.00687536502052">
        <ele>1120.52</ele>
        <time>2019-04-18T09:12:58.018000Z</time>
      </trkpt>
      <trkpt lat="37.848160214142894" lon="112.00682177902009">
        <ele>1121.45</ele>
        <time>2019-04-18T09:13:01.018000Z</time>
      </trkpt>
      <trkpt lat="37.847861292684854" lon="112.00679093981552">
        <ele>1123.16</ele>
        <time>2019-04-18T09:13:10.018000Z</time>
      </trkpt>
      <trkpt lat="37.84775463156779" lon="112.00676508912672">
        <ele>1125.26</ele>
        <time>2019-04-18T09:13:13.018000Z</time>
      </trkpt>
      <trkpt lat="37.84760072205726" lon="112.00677992155468">
        <ele>1124.72</ele>
        <time>2019-04-18T09:13:19.018000Z</time>
      </trkpt>
      <trkpt lat="37.847313360167554" lon="112.00673794152019">
        <ele>1124.07</ele>
        <time>2019-04-18T09:13:28.018000Z</time>
      </trkpt>
      <trkpt lat="37.84701555962572" lon="112.00672963379154">
        <ele>1125.47</ele>
        <time>2019-04-18T09:13:49.018000Z</time>
      </trkpt>
      <trkpt lat="37.846884428794176" lon="112.00671114382408">
        <ele>1126.0</ele>
        <time>2019-04-18T09:13:58.018000Z</time>
      </trkpt>
      <trkpt lat="37.846774529089316" lon="112.00672045546979">
        <ele>1126.9</ele>
        <time>2019-04-18T09:14:07.018000Z</time>
      </trkpt>
      <trkpt lat="37.84645150576313" lon="112.00664254345828">
        <ele>1128.35</ele>
        <time>2019-04-18T09:14:31.018000Z</time>
      </trkpt>
      <trkpt lat="37.84614840380506" lon="112.00659829346428">
        <ele>1127.1</ele>
        <time>2019-04-18T09:14:52.018000Z</time>
      </trkpt>
      <trkpt lat="37.84607039337036" lon="112.00658862357851">
        <ele>1128.47</ele>
        <time>2019-04-18T09:14:58.018000Z</time>
      </trkpt>
      <trkpt lat="37.84598939165625" lon="112.00654630162629">
        <ele>1128.63</ele>
        <time>2019-04-18T09:15:04.018000Z</time>
      </trkpt>
      <trkpt lat="37.84567296842122" lon="112.00646869966408">
        <ele>1126.96</ele>
        <time>2019-04-18T09:15:31.018000Z</time>
      </trkpt>
      <trkpt lat="37.84538249315305" lon="112.006336314057">
        <ele>1130.13</ele>
        <time>2019-04-18T09:15:52.018000Z</time>
      </trkpt>
      <trkpt lat="37.84523976004746" lon="112.00625654043114">
        <ele>1132.29</ele>
        <time>2019-04-18T09:16:01.018000Z</time>
      </trkpt>
      <trkpt lat="37.84516830030754" lon="112.00626481161942">
        <ele>1133.39</ele>
        <time>2019-04-18T09:16:07.018000Z</time>
      </trkpt>
      <trkpt lat="37.845085809377466" lon="112.00624151095244">
        <ele>1134.38</ele>
        <time>2019-04-18T09:16:13.018000Z</time>
      </trkpt>
      <trkpt lat="37.84502081964215" lon="112.00624980207995">
        <ele>1134.46</ele>
        <time>2019-04-18T09:16:19.018000Z</time>
      </trkpt>
      <trkpt lat="37.84472189638769" lon="112.00616792984653">
        <ele>1133.54</ele>
        <time>2019-04-18T09:16:40.018000Z</time>
      </trkpt>
      <trkpt lat="37.84457257521636" lon="112.00613900948122">
        <ele>1131.59</ele>
        <time>2019-04-18T09:16:52.018000Z</time>
      </trkpt>
      <trkpt lat="37.844316137118675" lon="112.00619530536113">
        <ele>1133.47</ele>
        <time>2019-04-18T09:17:10.018000Z</time>
      </trkpt>
      <trkpt lat="37.84400339293842" lon="112.0063560483109">
        <ele>1137.6</ele>
        <time>2019-04-18T09:17:31.018000Z</time>
      </trkpt>
      <trkpt lat="37.84384557548703" lon="112.00642566418529">
        <ele>1139.11</ele>
        <time>2019-04-18T09:17:37.018000Z</time>
      </trkpt>
      <trkpt lat="37.84358308395027" lon="112.00664744085401">
        <ele>1136.04</ele>
        <time>2019-04-18T09:17:49.018000Z</time>
      </trkpt>
      <trkpt lat="37.843322581948065" lon="112.00685117664663">
        <ele>1137.77</ele>
        <time>2019-04-18T09:18:01.018000Z</time>
      </trkpt>
      <trkpt lat="37.8430852600401" lon="112.00705136226534">
        <ele>1138.48</ele>
        <time>2019-04-18T09:18:13.018000Z</time>
      </trkpt>
      <trkpt lat="37.84283118819494" lon="112.00724818808516">
        <ele>1138.99</ele>
        <time>2019-04-18T09:18:25.018000Z</time>
      </trkpt>
      <trkpt lat="37.842568686635566" lon="112.00744684437836">
        <ele>1140.12</ele>
        <time>2019-04-18T09:18:37.018000Z</time>
      </trkpt>
      <trkpt lat="37.842308135052264" lon="112.00764016054111">
        <ele>1138.32</ele>
        <time>2019-04-18T09:18:49.018000Z</time>
      </trkpt>
      <trkpt lat="37.84200160406633" lon="112.00784271806693">
        <ele>1142.06</ele>
        <time>2019-04-18T09:19:01.018000Z</time>
      </trkpt>
      <trkpt lat="37.841850999595366" lon="112.00796403838729">
        <ele>1143.27</ele>
        <time>2019-04-18T09:19:07.018000Z</time>
      </trkpt>
      <trkpt lat="37.8416052744536" lon="112.00807091862819">
        <ele>1141.9</ele>
        <time>2019-04-18T09:19:16.018000Z</time>
      </trkpt>
      <trkpt lat="37.84130108730252" lon="112.00813533630917">
        <ele>1144.81</ele>
        <time>2019-04-18T09:19:28.018000Z</time>
      </trkpt>
      <trkpt lat="37.840965085635936" lon="112.00810527722547">
        <ele>1145.25</ele>
        <time>2019-04-18T09:19:40.018000Z</time>
      </trkpt>
      <trkpt lat="37.840682413138445" lon="112.00805676627077">
        <ele>1142.66</ele>
        <time>2019-04-18T09:19:52.018000Z</time>
      </trkpt>
      <trkpt lat="37.84035865080627" lon="112.0080121060042">
        <ele>1145.27</ele>
        <time>2019-04-18T09:20:04.018000Z</time>
      </trkpt>
      <trkpt lat="37.84010926903708" lon="112.00797812583887">
        <ele>1147.64</ele>
        <time>2019-04-18T09:20:13.018000Z</time>
      </trkpt>
      <trkpt lat="37.83977245753776" lon="112.0080304229897">
        <ele>1144.98</ele>
        <time>2019-04-18T09:20:25.018000Z</time>
      </trkpt>
      <trkpt lat="37.83942103064713" lon="112.00807532700166">
        <ele>1147.14</ele>
        <time>2019-04-18T09:20:37.018000Z</time>
      </trkpt>
      <trkpt lat="37.8391581438004" lon="112.0080932133428">
        <ele>1149.26</ele>
        <time>2019-04-18T09:20:46.018000Z</time>
      </trkpt>
      <trkpt lat="37.8388676172958" lon="112.00817077188924">
        <ele>1147.65</ele>
        <time>2019-04-18T09:20:55.018000Z</time>
      </trkpt>
      <trkpt lat="37.838584449804976" lon="112.00822710880169">
        <ele>1149.98</ele>
        <time>2019-04-18T09:21:04.018000Z</time>
      </trkpt>
      <trkpt lat="37.838528530328404" lon="112.00823877020983">
        <ele>1148.7</ele>
        <time>2019-04-18T09:21:10.018000Z</time>
      </trkpt>
      <trkpt lat="37.838802887570246" lon="112.0081774430003">
        <ele>1144.18</ele>
        <time>2019-04-18T09:21:31.018000Z</time>
      </trkpt>
      <trkpt lat="37.83910458452904" lon="112.00810933505164">
        <ele>1140.46</ele>
        <time>2019-04-18T09:21:52.018000Z</time>
      </trkpt>
      <trkpt lat="37.839397663158806" lon="112.00807615981543">
        <ele>1139.66</ele>
        <time>2019-04-18T09:22:13.018000Z</time>
      </trkpt>
      <trkpt lat="37.83969358190281" lon="112.00804523472691">
        <ele>1139.55</ele>
        <time>2019-04-18T09:22:37.018000Z</time>
      </trkpt>
      <trkpt lat="37.84002769937294" lon="112.00798650722656">
        <ele>1142.49</ele>
        <time>2019-04-18T09:23:04.018000Z</time>
      </trkpt>
      <trkpt lat="37.840211118263426" lon="112.00796007354704">
        <ele>1142.58</ele>
        <time>2019-04-18T09:23:16.018000Z</time>
      </trkpt>
      <trkpt lat="37.840505271122254" lon="112.00801664495947">
        <ele>1139.6</ele>
        <time>2019-04-18T09:23:40.018000Z</time>
      </trkpt>
      <trkpt lat="37.84077281358616" lon="112.00806489602428">
        <ele>1139.74</ele>
        <time>2019-04-18T09:24:04.018000Z</time>
      </trkpt>
      <trkpt lat="37.84110565590634" lon="112.00810889617146">
        <ele>1141.27</ele>
        <time>2019-04-18T09:24:34.018000Z</time>
      </trkpt>
      <trkpt lat="37.84142334564218" lon="112.00809866241275">
        <ele>1140.64</ele>
        <time>2019-04-18T09:25:04.018000Z</time>
      </trkpt>
      <trkpt lat="37.84172218056803" lon="112.00798673127758">
        <ele>1139.91</ele>
        <time>2019-04-18T09:25:34.018000Z</time>
      </trkpt>
      <trkpt lat="37.84201680278328" lon="112.00781461587631">
        <ele>1136.36</ele>
        <time>2019-04-18T09:26:04.018000Z</time>
      </trkpt>
      <trkpt lat="37.84228369370971" lon="112.00761065866332">
        <ele>1137.44</ele>
        <time>2019-04-18T09:26:34.018000Z</time>
      </trkpt>
      <trkpt lat="37.84254054505142" lon="112.00741117214255">
        <ele>1138.3</ele>
        <time>2019-04-18T09:27:04.018000Z</time>
      </trkpt>
      <trkpt lat="37.842580042763785" lon="112.00735808806428">
        <ele>1138.35</ele>
        <time>2019-04-18T09:27:10.018000Z</time>
      </trkpt>
      <trkpt lat="37.842754798747485" lon="112.00726230977887">
        <ele>1137.59</ele>
        <time>2019-04-18T09:27:28.018000Z</time>
      </trkpt>
      <trkpt lat="37.84303411011643" lon="112.0070540429288">
        <ele>1137.46</ele>
        <time>2019-04-18T09:27:58.018000Z</time>
      </trkpt>
      <trkpt lat="37.843245103138905" lon="112.00688169939981">
        <ele>1135.43</ele>
        <time>2019-04-18T09:28:22.018000Z</time>
      </trkpt>
      <trkpt lat="37.84357521462822" lon="112.00666468204572">
        <ele>1133.94</ele>
        <time>2019-04-18T09:28:43.018000Z</time>
      </trkpt>
      <trkpt lat="37.84364713936484" lon="112.00662648018907">
        <ele>1133.47</ele>
        <time>2019-04-18T09:28:46.018000Z</time>
      </trkpt>
      <trkpt lat="37.84389669114765" lon="112.00641320351356">
        <ele>1136.32</ele>
        <time>2019-04-18T09:28:58.018000Z</time>
      </trkpt>
      <trkpt lat="37.844210734902596" lon="112.00624319896565">
        <ele>1132.25</ele>
        <time>2019-04-18T09:29:10.018000Z</time>
      </trkpt>
      <trkpt lat="37.84447131338147" lon="112.00612465775174">
        <ele>1132.98</ele>
        <time>2019-04-18T09:29:19.018000Z</time>
      </trkpt>
      <trkpt lat="37.84462882205833" lon="112.00609974465686">
        <ele>1128.97</ele>
        <time>2019-04-18T09:29:25.018000Z</time>
      </trkpt>
      <trkpt lat="37.84496878588126" lon="112.0061499594867">
        <ele>1127.52</ele>
        <time>2019-04-18T09:29:37.018000Z</time>
      </trkpt>
      <trkpt lat="37.8452371080276" lon="112.00624391104454">
        <ele>1126.24</ele>
        <time>2019-04-18T09:29:46.018000Z</time>
      </trkpt>
      <trkpt lat="37.84552077321695" lon="112.00630733369454">
        <ele>1130.18</ele>
        <time>2019-04-18T09:29:55.018000Z</time>
      </trkpt>
      <trkpt lat="37.84578611561603" lon="112.00641558906608">
        <ele>1133.69</ele>
        <time>2019-04-18T09:30:04.018000Z</time>
      </trkpt>
      <trkpt lat="37.84602866684053" lon="112.00649837224567">
        <ele>1132.8</ele>
        <time>2019-04-18T09:30:13.018000Z</time>
      </trkpt>
      <trkpt lat="37.84629822134556" lon="112.00654374972922">
        <ele>1130.86</ele>
        <time>2019-04-18T09:30:22.018000Z</time>
      </trkpt>
      <trkpt lat="37.84664602365302" lon="112.00661027410804">
        <ele>1125.94</ele>
        <time>2019-04-18T09:30:34.018000Z</time>
      </trkpt>
      <trkpt lat="37.84691539138753" lon="112.00663822374773">
        <ele>1126.95</ele>
        <time>2019-04-18T09:30:43.018000Z</time>
      </trkpt>
      <trkpt lat="37.84727786808713" lon="112.00669755682026">
        <ele>1124.73</ele>
        <time>2019-04-18T09:30:55.018000Z</time>
      </trkpt>
      <trkpt lat="37.8475735576746" lon="112.00673947826074">
        <ele>1124.22</ele>
        <time>2019-04-18T09:31:04.018000Z</time>
      </trkpt>
      <trkpt lat="37.84785102743363" lon="112.00675084840896">
        <ele>1122.68</ele>
        <time>2019-04-18T09:31:13.018000Z</time>
      </trkpt>
      <trkpt lat="37.848078764289085" lon="112.00676444922057">
        <ele>1123.5</ele>
        <time>2019-04-18T09:31:22.018000Z</time>
      </trkpt>
      <trkpt lat="37.8483789367443" lon="112.00688189092875">
        <ele>1123.45</ele>
        <time>2019-04-18T09:31:43.018000Z</time>
      </trkpt>
      <trkpt lat="37.8484290674852" lon="112.00689913159985">
        <ele>1121.5</ele>
        <time>2019-04-18T09:31:52.018000Z</time>
      </trkpt>
      <trkpt lat="37.8485289620254" lon="112.00714425003378">
        <ele>1126.82</ele>
        <time>2019-04-18T09:32:04.018000Z</time>
      </trkpt>
      <trkpt lat="37.8487050187415" lon="112.00739663291253">
        <ele>1121.61</ele>
        <time>2019-04-18T09:32:22.018000Z</time>
      </trkpt>
      <trkpt lat="37.84875206986989" lon="112.00751520785309">
        <ele>1122.17</ele>
        <time>2019-04-18T09:32:31.018000Z</time>
      </trkpt>
      <trkpt lat="37.8489703785349" lon="112.00783344158548">
        <ele>1121.07</ele>
        <time>2019-04-18T09:32:52.018000Z</time>
      </trkpt>
      <trkpt lat="37.849199825428784" lon="112.00818908576899">
        <ele>1119.8</ele>
        <time>2019-04-18T09:33:04.018000Z</time>
      </trkpt>
      <trkpt lat="37.84926331532903" lon="112.00828356299539">
        <ele>1119.01</ele>
        <time>2019-04-18T09:33:07.018000Z</time>
      </trkpt>
      <trkpt lat="37.849377633697124" lon="112.00850021817438">
        <ele>1121.4</ele>
        <time>2019-04-18T09:33:13.018000Z</time>
      </trkpt>
      <trkpt lat="37.84949252772486" lon="112.00863769747768">
        <ele>1120.13</ele>
        <time>2019-04-18T09:33:19.018000Z</time>
      </trkpt>
      <trkpt lat="37.84958683733304" lon="112.00882489137915">
        <ele>1119.56</ele>
        <time>2019-04-18T09:33:25.018000Z</time>
      </trkpt>
      <trkpt lat="37.84974276156645" lon="112.00901828521715">
        <ele>1118.44</ele>
        <time>2019-04-18T09:33:34.018000Z</time>
      </trkpt>
      <trkpt lat="37.84983432216862" lon="112.00919475501165">
        <ele>1120.01</ele>
        <time>2019-04-18T09:33:40.018000Z</time>
      </trkpt>
      <trkpt lat="37.84988422504" lon="112.00952717620068">
        <ele>1120.27</ele>
        <time>2019-04-18T09:33:49.018000Z</time>
      </trkpt>
      <trkpt lat="37.84988571141592" lon="112.00990292475127">
        <ele>1116.86</ele>
        <time>2019-04-18T09:34:01.018000Z</time>
      </trkpt>
      <trkpt lat="37.84985719400868" lon="112.0102754889284">
        <ele>1117.77</ele>
        <time>2019-04-18T09:34:13.018000Z</time>
      </trkpt>
      <trkpt lat="37.84983727878162" lon="112.01067431022723">
        <ele>1119.21</ele>
        <time>2019-04-18T09:34:22.018000Z</time>
      </trkpt>
      <trkpt lat="37.84981802321538" lon="112.0111059588736">
        <ele>1120.77</ele>
        <time>2019-04-18T09:34:34.018000Z</time>
      </trkpt>
      <trkpt lat="37.84978278256175" lon="112.01140141799475">
        <ele>1117.61</ele>
        <time>2019-04-18T09:34:43.018000Z</time>
      </trkpt>
      <trkpt lat="37.84978412778777" lon="112.01173827938861">
        <ele>1119.0</ele>
        <time>2019-04-18T09:34:52.018000Z</time>
      </trkpt>
      <trkpt lat="37.84973425738884" lon="112.01215289048027">
        <ele>1116.36</ele>
        <time>2019-04-18T09:35:13.018000Z</time>
      </trkpt>
      <trkpt lat="37.849743220538734" lon="112.01246119466514">
        <ele>1112.26</ele>
        <time>2019-04-18T09:35:31.018000Z</time>
      </trkpt>
      <trkpt lat="37.8497075634027" lon="112.01277888851504">
        <ele>1110.11</ele>
        <time>2019-04-18T09:35:46.018000Z</time>
      </trkpt>
      <trkpt lat="37.84968929033542" lon="112.01314357799892">
        <ele>1108.45</ele>
        <time>2019-04-18T09:36:04.018000Z</time>
      </trkpt>
      <trkpt lat="37.849679952521846" lon="112.01342094072938">
        <ele>1112.84</ele>
        <time>2019-04-18T09:36:13.018000Z</time>
      </trkpt>
      <trkpt lat="37.849630189907806" lon="112.01379121058005">
        <ele>1110.99</ele>
        <time>2019-04-18T09:36:25.018000Z</time>
      </trkpt>
      <trkpt lat="37.849601896927446" lon="112.01422357051355">
        <ele>1115.27</ele>
        <time>2019-04-18T09:36:37.018000Z</time>
      </trkpt>
      <trkpt lat="37.84958544776181" lon="112.01458505479195">
        <ele>1117.49</ele>
        <time>2019-04-18T09:36:46.018000Z</time>
      </trkpt>
      <trkpt lat="37.849568565287534" lon="112.01490486688398">
        <ele>1115.72</ele>
        <time>2019-04-18T09:36:55.018000Z</time>
      </trkpt>
      <trkpt lat="37.84950302542904" lon="112.01527747106486">
        <ele>1112.65</ele>
        <time>2019-04-18T09:37:07.018000Z</time>
      </trkpt>
      <trkpt lat="37.84944723970032" lon="112.01555346056024">
        <ele>1111.78</ele>
        <time>2019-04-18T09:37:25.018000Z</time>
      </trkpt>
      <trkpt lat="37.84945839043051" lon="112.01562589060164">
        <ele>1111.81</ele>
        <time>2019-04-18T09:37:31.018000Z</time>
      </trkpt>
      <trkpt lat="37.84942672491185" lon="112.01575225634912">
        <ele>1113.63</ele>
        <time>2019-04-18T09:37:40.018000Z</time>
      </trkpt>
      <trkpt lat="37.849398495872684" lon="112.0161457590467">
        <ele>1098.77</ele>
        <time>2019-04-18T09:37:52.018000Z</time>
      </trkpt>
      <trkpt lat="37.84936375308552" lon="112.01650670680553">
        <ele>1100.17</ele>
        <time>2019-04-18T09:38:07.018000Z</time>
      </trkpt>
      <trkpt lat="37.84933011071365" lon="112.01691708060393">
        <ele>1100.16</ele>
        <time>2019-04-18T09:38:28.018000Z</time>
      </trkpt>
      <trkpt lat="37.84927474333075" lon="112.01736054133109">
        <ele>1106.7</ele>
        <time>2019-04-18T09:38:49.018000Z</time>
      </trkpt>
      <trkpt lat="37.84917677090311" lon="112.01764231118639">
        <ele>1102.2</ele>
        <time>2019-04-18T09:39:10.018000Z</time>
      </trkpt>
      <trkpt lat="37.84917500766458" lon="112.01801059287567">
        <ele>1104.76</ele>
        <time>2019-04-18T09:39:28.018000Z</time>
      </trkpt>
      <trkpt lat="37.84915653381941" lon="112.01836613378383">
        <ele>1104.4</ele>
        <time>2019-04-18T09:39:49.018000Z</time>
      </trkpt>
      <trkpt lat="37.84916483418167" lon="112.01845271997908">
        <ele>1104.91</ele>
        <time>2019-04-18T09:39:52.018000Z</time>
      </trkpt>
      <trkpt lat="37.849146609250205" lon="112.01888380231907">
        <ele>1104.91</ele>
        <time>2019-04-18T09:40:04.018000Z</time>
      </trkpt>
      <trkpt lat="37.84913350804126" lon="112.01912629509239">
        <ele>1099.81</ele>
        <time>2019-04-18T09:40:10.018000Z</time>
      </trkpt>
      <trkpt lat="37.84907153756512" lon="112.01953527758832">
        <ele>1099.65</ele>
        <time>2019-04-18T09:40:22.018000Z</time>
      </trkpt>
      <trkpt lat="37.849093836175875" lon="112.01988888105254">
        <ele>1102.51</ele>
        <time>2019-04-18T09:40:43.018000Z</time>
      </trkpt>
      <trkpt lat="37.849098392131765" lon="112.02021142096778">
        <ele>1097.96</ele>
        <time>2019-04-18T09:41:04.018000Z</time>
      </trkpt>
      <trkpt lat="37.849085981145684" lon="112.02064361908899">
        <ele>1100.31</ele>
        <time>2019-04-18T09:41:22.018000Z</time>
      </trkpt>
      <trkpt lat="37.849129855063644" lon="112.02076450791276">
        <ele>1098.18</ele>
        <time>2019-04-18T09:41:28.018000Z</time>
      </trkpt>
      <trkpt lat="37.849115189465735" lon="112.0211468395184">
        <ele>1100.63</ele>
        <time>2019-04-18T09:41:40.018000Z</time>
      </trkpt>
      <trkpt lat="37.849107453917185" lon="112.02135465339799">
        <ele>1100.21</ele>
        <time>2019-04-18T09:41:46.018000Z</time>
      </trkpt>
      <trkpt lat="37.84908774118641" lon="112.02175117886263">
        <ele>1101.13</ele>
        <time>2019-04-18T09:41:58.018000Z</time>
      </trkpt>
      <trkpt lat="37.84907093548043" lon="112.02203471631961">
        <ele>1099.36</ele>
        <time>2019-04-18T09:42:07.018000Z</time>
      </trkpt>
      <trkpt lat="37.84904932025365" lon="112.02215590689762">
        <ele>1101.56</ele>
        <time>2019-04-18T09:42:10.018000Z</time>
      </trkpt>
      <trkpt lat="37.849071363501224" lon="112.02250668619155">
        <ele>1101.35</ele>
        <time>2019-04-18T09:42:19.018000Z</time>
      </trkpt>
      <trkpt lat="37.84904876897654" lon="112.02287041893555">
        <ele>1095.08</ele>
        <time>2019-04-18T09:42:31.018000Z</time>
      </trkpt>
      <trkpt lat="37.84903742064872" lon="112.0232772399808">
        <ele>1093.12</ele>
        <time>2019-04-18T09:42:43.018000Z</time>
      </trkpt>
      <trkpt lat="37.84905540953302" lon="112.02365598680002">
        <ele>1097.98</ele>
        <time>2019-04-18T09:42:58.018000Z</time>
      </trkpt>
      <trkpt lat="37.84907590095627" lon="112.02389646961313">
        <ele>1096.6</ele>
        <time>2019-04-18T09:43:10.018000Z</time>
      </trkpt>
      <trkpt lat="37.849063879789384" lon="112.02411535918961">
        <ele>1098.23</ele>
        <time>2019-04-18T09:43:22.018000Z</time>
      </trkpt>
      <trkpt lat="37.8490122017537" lon="112.02429899695497">
        <ele>1095.78</ele>
        <time>2019-04-18T09:43:34.018000Z</time>
      </trkpt>
      <trkpt lat="37.849012042465375" lon="112.02451077173329">
        <ele>1103.9</ele>
        <time>2019-04-18T09:43:49.018000Z</time>
      </trkpt>
      <trkpt lat="37.849028738928126" lon="112.02461484607385">
        <ele>1108.32</ele>
        <time>2019-04-18T09:43:55.018000Z</time>
      </trkpt>
      <trkpt lat="37.849002553623876" lon="112.02468525884069">
        <ele>1103.83</ele>
        <time>2019-04-18T09:43:58.018000Z</time>
      </trkpt>
      <trkpt lat="37.84897543095451" lon="112.02490814252933">
        <ele>1104.16</ele>
        <time>2019-04-18T09:44:07.018000Z</time>
      </trkpt>
      <trkpt lat="37.848989314950956" lon="112.02526334180202">
        <ele>1105.48</ele>
        <time>2019-04-18T09:44:28.018000Z</time>
      </trkpt>
      <trkpt lat="37.8490087821434" lon="112.02531527139965">
        <ele>1106.6</ele>
        <time>2019-04-18T09:44:31.018000Z</time>
      </trkpt>
      <trkpt lat="37.848991141087524" lon="112.02547377577505">
        <ele>1105.55</ele>
        <time>2019-04-18T09:44:40.018000Z</time>
      </trkpt>
      <trkpt lat="37.84899482461187" lon="112.02557183965517">
        <ele>1105.74</ele>
        <time>2019-04-18T09:44:46.018000Z</time>
      </trkpt>
      <trkpt lat="37.84886646322957" lon="112.02592196855512">
        <ele>1107.88</ele>
        <time>2019-04-18T09:45:04.018000Z</time>
      </trkpt>
      <trkpt lat="37.848864182721194" lon="112.02599378830485">
        <ele>1107.67</ele>
        <time>2019-04-18T09:45:10.018000Z</time>
      </trkpt>
      <trkpt lat="37.84886345974132" lon="112.0261983351517">
        <ele>1107.87</ele>
        <time>2019-04-18T09:45:25.018000Z</time>
      </trkpt>
      <trkpt lat="37.84883498693264" lon="112.02631185001934">
        <ele>1108.65</ele>
        <time>2019-04-18T09:45:31.018000Z</time>
      </trkpt>
      <trkpt lat="37.848898345187465" lon="112.02664933835797">
        <ele>1101.15</ele>
        <time>2019-04-18T09:45:52.018000Z</time>
      </trkpt>
      <trkpt lat="37.84892748431339" lon="112.02672765947186">
        <ele>1102.32</ele>
        <time>2019-04-18T09:45:58.018000Z</time>
      </trkpt>
      <trkpt lat="37.84890051226731" lon="112.02679523823564">
        <ele>1101.71</ele>
        <time>2019-04-18T09:46:04.018000Z</time>
      </trkpt>
      <trkpt lat="37.84888162864236" lon="112.02690751064934">
        <ele>1101.68</ele>
        <time>2019-04-18T09:46:10.018000Z</time>
      </trkpt>
      <trkpt lat="37.848895070127675" lon="112.02698586608705">
        <ele>1103.37</ele>
        <time>2019-04-18T09:46:16.018000Z</time>
      </trkpt>
      <trkpt lat="37.84888439954005" lon="112.02738835673244">
        <ele>1099.17</ele>
        <time>2019-04-18T09:46:46.018000Z</time>
      </trkpt>
      <trkpt lat="37.84886281717169" lon="112.02777379499882">
        <ele>1098.29</ele>
        <time>2019-04-18T09:47:07.018000Z</time>
      </trkpt>
      <trkpt lat="37.8488473703777" lon="112.02812537714142">
        <ele>1100.74</ele>
        <time>2019-04-18T09:47:31.018000Z</time>
      </trkpt>
      <trkpt lat="37.84881503328466" lon="112.0284711889949">
        <ele>1100.68</ele>
        <time>2019-04-18T09:47:55.018000Z</time>
      </trkpt>
      <trkpt lat="37.848775097941356" lon="112.02882455323106">
        <ele>1094.46</ele>
        <time>2019-04-18T09:48:25.018000Z</time>
      </trkpt>
      <trkpt lat="37.84880718776763" lon="112.0292065736266">
        <ele>1098.92</ele>
        <time>2019-04-18T09:48:55.018000Z</time>
      </trkpt>
      <trkpt lat="37.84885218930623" lon="112.02959486612482">
        <ele>1095.35</ele>
        <time>2019-04-18T09:49:25.018000Z</time>
      </trkpt>
      <trkpt lat="37.84890683817352" lon="112.0299620448538">
        <ele>1100.09</ele>
        <time>2019-04-18T09:49:55.018000Z</time>
      </trkpt>
      <trkpt lat="37.84893771189547" lon="112.03023223338813">
        <ele>1097.1</ele>
        <time>2019-04-18T09:50:14.018000Z</time>
      </trkpt>
      <trkpt lat="37.84898458820537" lon="112.03039365829926">
        <ele>1097.29</ele>
        <time>2019-04-18T09:50:26.018000Z</time>
      </trkpt>
      <trkpt lat="37.84903047176689" lon="112.03047646606247">
        <ele>1099.45</ele>
        <time>2019-04-18T09:50:32.018000Z</time>
      </trkpt>
      <trkpt lat="37.849061116335875" lon="112.03062622878412">
        <ele>1101.1</ele>
        <time>2019-04-18T09:50:44.018000Z</time>
      </trkpt>
      <trkpt lat="37.849096846895854" lon="112.03062946916354">
        <ele>1096.51</ele>
        <time>2019-04-18T09:50:53.118000Z</time>
      </trkpt>
      <trkpt lat="37.84910548010403" lon="112.03064895338706">
        <ele>1097.3</ele>
        <time>2019-04-18T09:52:29.018000Z</time>
      </trkpt>
      <trkpt lat="37.84912429270981" lon="112.03078613358163">
        <ele>1094.4</ele>
        <time>2019-04-18T09:52:47.018000Z</time>
      </trkpt>
      <trkpt lat="37.84915582112625" lon="112.03083695456486">
        <ele>1090.44</ele>
        <time>2019-04-18T09:53:05.018000Z</time>
      </trkpt>
      <trkpt lat="37.8491783564088" lon="112.03086880142914">
        <ele>1088.78</ele>
        <time>2019-04-18T09:53:50.018000Z</time>
      </trkpt>
      <trkpt lat="37.84917800641184" lon="112.03086882143688">
        <ele>1088.49</ele>
        <time>2019-04-18T09:53:59.018000Z</time>
      </trkpt>
      <trkpt lat="37.84917756630893" lon="112.03086820130316">
        <ele>1088.49</ele>
        <time>2019-04-18T09:54:05.018000Z</time>
      </trkpt>
      <trkpt lat="37.84916918828631" lon="112.03088019404831">
        <ele>1088.6</ele>
        <time>2019-04-18T09:54:23.018000Z</time>
      </trkpt>
      <trkpt lat="37.84916547200549" lon="112.03096303252349">
        <ele>1096.78</ele>
        <time>2019-04-18T09:54:29.018000Z</time>
      </trkpt>
      <trkpt lat="37.849229852214705" lon="112.03109072509542">
        <ele>1096.65</ele>
        <time>2019-04-18T09:54:41.018000Z</time>
      </trkpt>
      <trkpt lat="37.84930635864181" lon="112.03130223712773">
        <ele>1096.11</ele>
        <time>2019-04-18T09:55:11.018000Z</time>
      </trkpt>
      <trkpt lat="37.849312709177696" lon="112.0313054077809">
        <ele>1098.21</ele>
        <time>2019-04-18T09:55:26.018000Z</time>
      </trkpt>
      <trkpt lat="37.84935494680969" lon="112.031350757587">
        <ele>1096.93</ele>
        <time>2019-04-18T09:55:32.018000Z</time>
      </trkpt>
    </trkseg>
  </trk>
</gpx>