<?xml version="1.0" encoding="UTF-8"?>
<gpx xmlns="http://www.topografix.com/GPX/1/1" xmlns:gpxtpx="http://www.garmin.com/xmlschemas/TrackPointExtension/v1" xmlns:xsi="http://www.w3.org/2001/XMLSchema-instance" xsi:schemaLocation="http://www.topografix.com/GPX/1/1 http://www.topografix.com/GPX/1/1/gpx.xsd" version="1.1" creator="gpx.py -- https://github.com/tkrajina/gpxpy">
  <trk>
    <name>gpx from keep</name>
    <type>Run</type>
    <trkseg>
      <trkpt lat="37.846784638597136" lon="112.0296246094626">
        <ele>0.0</ele>
        <time>2016-08-28T21:58:08.800000Z</time>
      </trkpt>
      <trkpt lat="37.84673600017849" lon="112.02947804849363">
        <ele>0.0</ele>
        <time>2016-08-28T21:58:33.100000Z</time>
      </trkpt>
      <trkpt lat="37.846833591309206" lon="112.02964653880848">
        <ele>0.0</ele>
        <time>2016-08-28T21:59:30.200000Z</time>
      </trkpt>
      <trkpt lat="37.846813615175954" lon="112.02952933710841">
        <ele>1124.002270172102</ele>
        <time>2016-08-28T22:00:13.200000Z</time>
      </trkpt>
      <trkpt lat="37.84697038347506" lon="112.0296567088577">
        <ele>1124.076830014634</ele>
        <time>2016-08-28T22:00:27.500000Z</time>
      </trkpt>
      <trkpt lat="37.847034350202335" lon="112.02957393776596">
        <ele>1116.1928730264144</ele>
        <time>2016-08-28T22:00:35.500000Z</time>
      </trkpt>
      <trkpt lat="37.84708127159048" lon="112.02947250672547">
        <ele>1092.2988264280875</ele>
        <time>2016-08-28T22:00:46.500000Z</time>
      </trkpt>
      <trkpt lat="37.84713748153973" lon="112.02945329679513">
        <ele>1093.5626681371643</ele>
        <time>2016-08-28T22:00:56.500000Z</time>
      </trkpt>
      <trkpt lat="37.847183007949575" lon="112.02947465822147">
        <ele>1094.2663749457158</ele>
        <time>2016-08-28T22:01:00.500000Z</time>
      </trkpt>
      <trkpt lat="37.847336680194864" lon="112.02943109453707">
        <ele>1096.862071340498</ele>
        <time>2016-08-28T22:01:11.500000Z</time>
      </trkpt>
      <trkpt lat="37.84738832569421" lon="112.02939295252595">
        <ele>1097.283788741062</ele>
        <time>2016-08-28T22:01:15.500000Z</time>
      </trkpt>
      <trkpt lat="37.84741121232557" lon="112.02903323167676">
        <ele>1101.835918020856</ele>
        <time>2016-08-28T22:01:36.500000Z</time>
      </trkpt>
      <trkpt lat="37.84734259832369" lon="112.02859536368467">
        <ele>1109.0498327328478</ele>
        <time>2016-08-28T22:01:56.500000Z</time>
      </trkpt>
      <trkpt lat="37.84731305470863" lon="112.02847744741966">
        <ele>1109.7029124360465</ele>
        <time>2016-08-28T22:02:00.600000Z</time>
      </trkpt>
      <trkpt lat="37.8473301656657" lon="112.0282578345111">
        <ele>1111.1615631284049</ele>
        <time>2016-08-28T22:02:10.500000Z</time>
      </trkpt>
      <trkpt lat="37.847327177314384" lon="112.0280474211154">
        <ele>1111.2847131457247</ele>
        <time>2016-08-28T22:02:17.500000Z</time>
      </trkpt>
      <trkpt lat="37.8473526306409" lon="112.02785539655015">
        <ele>1112.0306659555472</ele>
        <time>2016-08-28T22:02:24.500000Z</time>
      </trkpt>
      <trkpt lat="37.84739008596975" lon="112.02774423651402">
        <ele>1112.415432688506</ele>
        <time>2016-08-28T22:02:28.500000Z</time>
      </trkpt>
      <trkpt lat="37.84747184479987" lon="112.02760224030378">
        <ele>1112.4567702659942</ele>
        <time>2016-08-28T22:02:32.500000Z</time>
      </trkpt>
      <trkpt lat="37.84747935901937" lon="112.02752894765314">
        <ele>1112.882640452062</ele>
        <time>2016-08-28T22:02:35.500000Z</time>
      </trkpt>
      <trkpt lat="37.84759938091302" lon="112.02717410638257">
        <ele>1113.9871503357147</ele>
        <time>2016-08-28T22:02:46.500000Z</time>
      </trkpt>
      <trkpt lat="37.84772909686327" lon="112.02684874643539">
        <ele>1117.6193823980727</ele>
        <time>2016-08-28T22:02:57.500000Z</time>
      </trkpt>
      <trkpt lat="37.847854000593415" lon="112.02660127736542">
        <ele>1120.4840038947477</ele>
        <time>2016-08-28T22:03:08.500000Z</time>
      </trkpt>
      <trkpt lat="37.84796074062735" lon="112.02645306351883">
        <ele>1120.9734611698525</ele>
        <time>2016-08-28T22:03:15.500000Z</time>
      </trkpt>
      <trkpt lat="37.84802370818844" lon="112.0264441314592">
        <ele>1120.9996010307962</ele>
        <time>2016-08-28T22:03:18.500000Z</time>
      </trkpt>
      <trkpt lat="37.848279911757345" lon="112.02651549665781">
        <ele>1121.5877414910995</ele>
        <time>2016-08-28T22:03:29.500000Z</time>
      </trkpt>
      <trkpt lat="37.848575601416" lon="112.0265308761788">
        <ele>1122.2511234286355</ele>
        <time>2016-08-28T22:03:40.500000Z</time>
      </trkpt>
      <trkpt lat="37.84887714149726" lon="112.02648756958713">
        <ele>1122.5966612678396</ele>
        <time>2016-08-28T22:03:51.500000Z</time>
      </trkpt>
      <trkpt lat="37.84891764656953" lon="112.02645700507624">
        <ele>1122.3364375560325</ele>
        <time>2016-08-28T22:03:54.500000Z</time>
      </trkpt>
      <trkpt lat="37.84894060028854" lon="112.02639426049475">
        <ele>1121.9267969863768</ele>
        <time>2016-08-28T22:03:58.500000Z</time>
      </trkpt>
      <trkpt lat="37.848915988138714" lon="112.02626066707545">
        <ele>1121.3928462245913</ele>
        <time>2016-08-28T22:04:02.500000Z</time>
      </trkpt>
      <trkpt lat="37.848928551120274" lon="112.02612517672166">
        <ele>1120.9045260524413</ele>
        <time>2016-08-28T22:04:06.500000Z</time>
      </trkpt>
      <trkpt lat="37.848898226712464" lon="112.02589395828068">
        <ele>1120.3844040756637</ele>
        <time>2016-08-28T22:04:12.600000Z</time>
      </trkpt>
      <trkpt lat="37.84899701338521" lon="112.02557267229763">
        <ele>1119.7652400675142</ele>
        <time>2016-08-28T22:04:18.500000Z</time>
      </trkpt>
      <trkpt lat="37.84903529360447" lon="112.0254598980325">
        <ele>1119.6122251598226</ele>
        <time>2016-08-28T22:04:22.500000Z</time>
      </trkpt>
      <trkpt lat="37.849010496716296" lon="112.02529466850241">
        <ele>1118.9453001756037</ele>
        <time>2016-08-28T22:04:29.500000Z</time>
      </trkpt>
      <trkpt lat="37.849007797439334" lon="112.02508373498033">
        <ele>1118.515380593917</ele>
        <time>2016-08-28T22:04:36.600000Z</time>
      </trkpt>
      <trkpt lat="37.84896069717753" lon="112.02483765294532">
        <ele>1117.6723061791765</ele>
        <time>2016-08-28T22:04:43.500000Z</time>
      </trkpt>
      <trkpt lat="37.848985378063645" lon="112.02473840416815">
        <ele>1117.0958309019993</ele>
        <time>2016-08-28T22:04:46.500000Z</time>
      </trkpt>
      <trkpt lat="37.84898195681153" lon="112.02459616180549">
        <ele>1116.2604376650468</ele>
        <time>2016-08-28T22:04:50.500000Z</time>
      </trkpt>
      <trkpt lat="37.84896296139613" lon="112.02449529649898">
        <ele>1115.8757144262283</ele>
        <time>2016-08-28T22:04:53.500000Z</time>
      </trkpt>
      <trkpt lat="37.84896510923629" lon="112.02409588535168">
        <ele>1116.2377622593324</ele>
        <time>2016-08-28T22:05:05.500000Z</time>
      </trkpt>
      <trkpt lat="37.84898626566684" lon="112.0238946919327">
        <ele>1116.835619552265</ele>
        <time>2016-08-28T22:05:12.500000Z</time>
      </trkpt>
      <trkpt lat="37.84897262456739" lon="112.02351719362167">
        <ele>1119.0582839026972</ele>
        <time>2016-08-28T22:05:24.500000Z</time>
      </trkpt>
      <trkpt lat="37.84900241644803" lon="112.0234355251562">
        <ele>1119.3754484760107</ele>
        <time>2016-08-28T22:05:28.500000Z</time>
      </trkpt>
      <trkpt lat="37.84900729737203" lon="112.02323433776468">
        <ele>1119.760779392552</ele>
        <time>2016-08-28T22:05:34.500000Z</time>
      </trkpt>
      <trkpt lat="37.8490265420819" lon="112.02314023236917">
        <ele>1119.7187863485133</ele>
        <time>2016-08-28T22:05:38.500000Z</time>
      </trkpt>
      <trkpt lat="37.849028596556394" lon="112.02267972575223">
        <ele>1118.6525523992395</ele>
        <time>2016-08-28T22:05:52.500000Z</time>
      </trkpt>
      <trkpt lat="37.84904854017031" lon="112.02232765522272">
        <ele>1117.9171600828633</ele>
        <time>2016-08-28T22:06:02.500000Z</time>
      </trkpt>
      <trkpt lat="37.84908501512911" lon="112.02188364999387">
        <ele>1117.33483798051</ele>
        <time>2016-08-28T22:06:16.500000Z</time>
      </trkpt>
      <trkpt lat="37.84910088003201" lon="112.02153726650997">
        <ele>1117.413682250773</ele>
        <time>2016-08-28T22:06:27.500000Z</time>
      </trkpt>
      <trkpt lat="37.84912083949598" lon="112.02118277412302">
        <ele>1118.6932144967095</ele>
        <time>2016-08-28T22:06:38.500000Z</time>
      </trkpt>
      <trkpt lat="37.849113675872246" lon="112.02092535962285">
        <ele>1118.297049885554</ele>
        <time>2016-08-28T22:06:46.500000Z</time>
      </trkpt>
      <trkpt lat="37.84908602823802" lon="112.02042162377094">
        <ele>1118.3994145761844</ele>
        <time>2016-08-28T22:07:00.500000Z</time>
      </trkpt>
      <trkpt lat="37.849112541742755" lon="112.01995655363523">
        <ele>1120.2556110670057</ele>
        <time>2016-08-28T22:07:15.500000Z</time>
      </trkpt>
      <trkpt lat="37.849123284366776" lon="112.01960370025418">
        <ele>1120.8746242943046</ele>
        <time>2016-08-28T22:07:26.600000Z</time>
      </trkpt>
      <trkpt lat="37.84914478793581" lon="112.01918703909928">
        <ele>1121.265159442526</ele>
        <time>2016-08-28T22:07:40.500000Z</time>
      </trkpt>
      <trkpt lat="37.84915934441413" lon="112.01883067761126">
        <ele>1121.1109686413517</ele>
        <time>2016-08-28T22:07:51.500000Z</time>
      </trkpt>
      <trkpt lat="37.849175499677656" lon="112.01848567502942">
        <ele>1121.3589264420787</ele>
        <time>2016-08-28T22:08:01.500000Z</time>
      </trkpt>
      <trkpt lat="37.849202463296145" lon="112.01806037351557">
        <ele>1120.8711988217801</ele>
        <time>2016-08-28T22:08:16.500000Z</time>
      </trkpt>
      <trkpt lat="37.8492425987881" lon="112.01767995641475">
        <ele>1120.785508049541</ele>
        <time>2016-08-28T22:08:28.500000Z</time>
      </trkpt>
      <trkpt lat="37.849280848605474" lon="112.017295758035">
        <ele>1120.3646149496258</ele>
        <time>2016-08-28T22:08:39.500000Z</time>
      </trkpt>
      <trkpt lat="37.849330138092306" lon="112.01694238358398">
        <ele>1121.383675440349</ele>
        <time>2016-08-28T22:08:50.500000Z</time>
      </trkpt>
      <trkpt lat="37.84934117728888" lon="112.01658820567792">
        <ele>1122.2915887859979</ele>
        <time>2016-08-28T22:09:01.500000Z</time>
      </trkpt>
      <trkpt lat="37.8493610718353" lon="112.01636515470985">
        <ele>1122.318843763466</ele>
        <time>2016-08-28T22:09:07.500000Z</time>
      </trkpt>
      <trkpt lat="37.84938997950348" lon="112.01621699357203">
        <ele>1122.4763507668558</ele>
        <time>2016-08-28T22:09:11.500000Z</time>
      </trkpt>
      <trkpt lat="37.84942548082269" lon="112.01575359439141">
        <ele>1123.278823311969</ele>
        <time>2016-08-28T22:09:25.500000Z</time>
      </trkpt>
      <trkpt lat="37.84946984681523" lon="112.01532264169157">
        <ele>1123.808679491618</ele>
        <time>2016-08-28T22:09:40.500000Z</time>
      </trkpt>
      <trkpt lat="37.84950531772732" lon="112.01496739292081">
        <ele>1124.534403665017</ele>
        <time>2016-08-28T22:09:51.500000Z</time>
      </trkpt>
      <trkpt lat="37.849543432522076" lon="112.01454239635655">
        <ele>1124.5838059868706</ele>
        <time>2016-08-28T22:10:03.600000Z</time>
      </trkpt>
      <trkpt lat="37.84957598285702" lon="112.01416660769624">
        <ele>1124.6087455574934</ele>
        <time>2016-08-28T22:10:14.500000Z</time>
      </trkpt>
      <trkpt lat="37.849619040043486" lon="112.01372323453523">
        <ele>1124.831860987588</ele>
        <time>2016-08-28T22:10:29.500000Z</time>
      </trkpt>
      <trkpt lat="37.84963734478013" lon="112.01330284764497">
        <ele>1124.8168940743672</ele>
        <time>2016-08-28T22:10:42.500000Z</time>
      </trkpt>
      <trkpt lat="37.84967126804361" lon="112.01292409500446">
        <ele>1125.6569112325326</ele>
        <time>2016-08-28T22:10:54.600000Z</time>
      </trkpt>
      <trkpt lat="37.84971161889527" lon="112.01257508177879">
        <ele>1125.4910307995578</ele>
        <time>2016-08-28T22:11:06.500000Z</time>
      </trkpt>
      <trkpt lat="37.84974740332799" lon="112.01221093270186">
        <ele>1124.4322681590077</ele>
        <time>2016-08-28T22:11:18.500000Z</time>
      </trkpt>
      <trkpt lat="37.8497960303694" lon="112.01181623690219">
        <ele>1124.911189963138</ele>
        <time>2016-08-28T22:11:30.500000Z</time>
      </trkpt>
      <trkpt lat="37.84980282885484" lon="112.01143830974688">
        <ele>1124.814950036109</ele>
        <time>2016-08-28T22:11:42.500000Z</time>
      </trkpt>
      <trkpt lat="37.84983135776709" lon="112.01095954946678">
        <ele>1125.751000715339</ele>
        <time>2016-08-28T22:11:56.500000Z</time>
      </trkpt>
      <trkpt lat="37.84985574324215" lon="112.01059973829454">
        <ele>1127.204354528085</ele>
        <time>2016-08-28T22:12:07.500000Z</time>
      </trkpt>
      <trkpt lat="37.84986655068272" lon="112.01024479698049">
        <ele>1128.8728953002908</ele>
        <time>2016-08-28T22:12:18.500000Z</time>
      </trkpt>
      <trkpt lat="37.849869552986156" lon="112.00986904382872">
        <ele>1129.294206604096</ele>
        <time>2016-08-28T22:12:29.500000Z</time>
      </trkpt>
      <trkpt lat="37.84985962030308" lon="112.00964846035461">
        <ele>1128.7640193821287</ele>
        <time>2016-08-28T22:12:36.600000Z</time>
      </trkpt>
      <trkpt lat="37.849832417434776" lon="112.00939625202238">
        <ele>1128.4408829261115</ele>
        <time>2016-08-28T22:12:44.500000Z</time>
      </trkpt>
      <trkpt lat="37.849703390209896" lon="112.00908026108783">
        <ele>1127.973812749295</ele>
        <time>2016-08-28T22:12:55.500000Z</time>
      </trkpt>
      <trkpt lat="37.849483019984675" lon="112.00873454754749">
        <ele>1127.1784594735846</ele>
        <time>2016-08-28T22:13:10.500000Z</time>
      </trkpt>
      <trkpt lat="37.849277258975604" lon="112.0084034313884">
        <ele>1126.7380510875323</ele>
        <time>2016-08-28T22:13:22.500000Z</time>
      </trkpt>
      <trkpt lat="37.84910396631863" lon="112.00810285890732">
        <ele>1126.770724522783</ele>
        <time>2016-08-28T22:13:34.500000Z</time>
      </trkpt>
      <trkpt lat="37.84892163413887" lon="112.00783175333356">
        <ele>1127.0469913514792</ele>
        <time>2016-08-28T22:13:46.500000Z</time>
      </trkpt>
      <trkpt lat="37.8486946992818" lon="112.00750578034635">
        <ele>1127.541927365808</ele>
        <time>2016-08-28T22:14:00.500000Z</time>
      </trkpt>
      <trkpt lat="37.84847317988338" lon="112.00718386300353">
        <ele>1128.3976735862695</ele>
        <time>2016-08-28T22:14:14.500000Z</time>
      </trkpt>
      <trkpt lat="37.84832784750525" lon="112.00697087388188">
        <ele>1128.6552119313124</ele>
        <time>2016-08-28T22:14:22.500000Z</time>
      </trkpt>
      <trkpt lat="37.84825916110458" lon="112.00689465403593">
        <ele>1128.6747255394255</ele>
        <time>2016-08-28T22:14:26.500000Z</time>
      </trkpt>
      <trkpt lat="37.84809282187431" lon="112.0068119584417">
        <ele>1128.396553180141</ele>
        <time>2016-08-28T22:14:33.500000Z</time>
      </trkpt>
      <trkpt lat="37.84781376850596" lon="112.00676955280346">
        <ele>1127.663004724762</ele>
        <time>2016-08-28T22:14:45.500000Z</time>
      </trkpt>
      <trkpt lat="37.84753792507458" lon="112.00674255455871">
        <ele>1126.820015316237</ele>
        <time>2016-08-28T22:14:56.500000Z</time>
      </trkpt>
      <trkpt lat="37.847195970221506" lon="112.00668582996525">
        <ele>1126.5533830644524</ele>
        <time>2016-08-28T22:15:11.500000Z</time>
      </trkpt>
      <trkpt lat="37.846876523058725" lon="112.00663288708496">
        <ele>1126.873892828719</ele>
        <time>2016-08-28T22:15:26.500000Z</time>
      </trkpt>
      <trkpt lat="37.84658929521948" lon="112.00660237620397">
        <ele>1127.2252697891079</ele>
        <time>2016-08-28T22:15:37.500000Z</time>
      </trkpt>
      <trkpt lat="37.84627990527122" lon="112.00654321503585">
        <ele>1127.7618654077091</ele>
        <time>2016-08-28T22:15:49.500000Z</time>
      </trkpt>
      <trkpt lat="37.8459410061268" lon="112.00646270290778">
        <ele>1128.6559257809045</ele>
        <time>2016-08-28T22:16:03.500000Z</time>
      </trkpt>
      <trkpt lat="37.84556692369546" lon="112.00635300157595">
        <ele>1128.2861984281403</ele>
        <time>2016-08-28T22:16:17.500000Z</time>
      </trkpt>
      <trkpt lat="37.845304863979514" lon="112.00625301819319">
        <ele>1129.6370491590337</ele>
        <time>2016-08-28T22:16:28.500000Z</time>
      </trkpt>
      <trkpt lat="37.84502295676577" lon="112.00616709339599">
        <ele>1130.2434412998336</ele>
        <time>2016-08-28T22:16:39.500000Z</time>
      </trkpt>
      <trkpt lat="37.84493079081865" lon="112.00614034376837">
        <ele>1130.1774696519715</ele>
        <time>2016-08-28T22:16:43.600000Z</time>
      </trkpt>
      <trkpt lat="37.84518410631809" lon="112.00626114188468">
        <ele>1132.6071910496255</ele>
        <time>2016-08-28T22:17:13.500000Z</time>
      </trkpt>
      <trkpt lat="37.84547735069582" lon="112.00636652776114">
        <ele>1132.1380182387309</ele>
        <time>2016-08-28T22:17:26.500000Z</time>
      </trkpt>
      <trkpt lat="37.84574748787578" lon="112.00648732424251">
        <ele>1132.2726416416374</ele>
        <time>2016-08-28T22:17:36.500000Z</time>
      </trkpt>
      <trkpt lat="37.84601111700993" lon="112.0066070404573">
        <ele>1133.2904537208042</ele>
        <time>2016-08-28T22:17:47.500000Z</time>
      </trkpt>
      <trkpt lat="37.84629446186023" lon="112.0066659344747">
        <ele>1133.7896780331857</ele>
        <time>2016-08-28T22:17:58.500000Z</time>
      </trkpt>
      <trkpt lat="37.846589547234714" lon="112.00669995849293">
        <ele>1133.8575029591814</ele>
        <time>2016-08-28T22:18:09.500000Z</time>
      </trkpt>
      <trkpt lat="37.84687293489933" lon="112.00674452606896">
        <ele>1133.9304345520889</ele>
        <time>2016-08-28T22:18:20.500000Z</time>
      </trkpt>
      <trkpt lat="37.847191027178305" lon="112.00679692857005">
        <ele>1134.2326895635288</ele>
        <time>2016-08-28T22:18:30.500000Z</time>
      </trkpt>
      <trkpt lat="37.847553315989764" lon="112.00685851644042">
        <ele>1137.0441626207091</ele>
        <time>2016-08-28T22:19:05.500000Z</time>
      </trkpt>
      <trkpt lat="37.847758132921" lon="112.00686633105128">
        <ele>1137.378567827045</ele>
        <time>2016-08-28T22:19:13.500000Z</time>
      </trkpt>
      <trkpt lat="37.84808307901451" lon="112.00689494535585">
        <ele>1137.919771032347</ele>
        <time>2016-08-28T22:19:27.500000Z</time>
      </trkpt>
      <trkpt lat="37.84824276614798" lon="112.00702494652462">
        <ele>1137.249756508035</ele>
        <time>2016-08-28T22:19:35.500000Z</time>
      </trkpt>
      <trkpt lat="37.848443971070616" lon="112.00733524204499">
        <ele>1134.7842761316795</ele>
        <time>2016-08-28T22:19:46.500000Z</time>
      </trkpt>
      <trkpt lat="37.84862899333024" lon="112.00770501026288">
        <ele>1133.7422283151916</ele>
        <time>2016-08-28T22:20:00.500000Z</time>
      </trkpt>
      <trkpt lat="37.84884928216253" lon="112.00807666856915">
        <ele>1133.7327459723854</ele>
        <time>2016-08-28T22:20:15.500000Z</time>
      </trkpt>
      <trkpt lat="37.84904348329657" lon="112.00837129143507">
        <ele>1133.8041132201313</ele>
        <time>2016-08-28T22:20:26.500000Z</time>
      </trkpt>
      <trkpt lat="37.84917471027785" lon="112.00858455711686">
        <ele>1133.8027792254893</ele>
        <time>2016-08-28T22:20:34.500000Z</time>
      </trkpt>
      <trkpt lat="37.8493716304275" lon="112.00887783044872">
        <ele>1133.4481985724285</ele>
        <time>2016-08-28T22:20:45.500000Z</time>
      </trkpt>
      <trkpt lat="37.84953931456055" lon="112.00914921263359">
        <ele>1133.0164445208434</ele>
        <time>2016-08-28T22:20:55.500000Z</time>
      </trkpt>
      <trkpt lat="37.849698442564545" lon="112.00947033647904">
        <ele>1131.6962177559783</ele>
        <time>2016-08-28T22:21:07.500000Z</time>
      </trkpt>
      <trkpt lat="37.84976784609632" lon="112.00967253014234">
        <ele>1130.514086573782</ele>
        <time>2016-08-28T22:21:14.500000Z</time>
      </trkpt>
      <trkpt lat="37.84981859448593" lon="112.00994501125176">
        <ele>1128.7720521560918</ele>
        <time>2016-08-28T22:21:22.500000Z</time>
      </trkpt>
      <trkpt lat="37.84983352532321" lon="112.01031184197576">
        <ele>1127.8474841146272</ele>
        <time>2016-08-28T22:21:32.500000Z</time>
      </trkpt>
      <trkpt lat="37.849842285124126" lon="112.0106556979057">
        <ele>1126.5072982014983</ele>
        <time>2016-08-28T22:21:43.500000Z</time>
      </trkpt>
      <trkpt lat="37.84981296023906" lon="112.01103470350435">
        <ele>1125.3796978016828</ele>
        <time>2016-08-28T22:21:53.500000Z</time>
      </trkpt>
      <trkpt lat="37.84978248755184" lon="112.01143587918504">
        <ele>1124.24969020751</ele>
        <time>2016-08-28T22:22:04.500000Z</time>
      </trkpt>
      <trkpt lat="37.84977456525553" lon="112.01182705285213">
        <ele>1123.133105051526</ele>
        <time>2016-08-28T22:22:15.500000Z</time>
      </trkpt>
      <trkpt lat="37.84972539173095" lon="112.01222310048486">
        <ele>1122.0979134298686</ele>
        <time>2016-08-28T22:22:26.500000Z</time>
      </trkpt>
      <trkpt lat="37.8496985567447" lon="112.01258860027396">
        <ele>1121.9453092532794</ele>
        <time>2016-08-28T22:22:37.500000Z</time>
      </trkpt>
      <trkpt lat="37.849684524791186" lon="112.01293706976672">
        <ele>1121.8074207885397</ele>
        <time>2016-08-28T22:22:48.500000Z</time>
      </trkpt>
      <trkpt lat="37.84964979391402" lon="112.01331365986351">
        <ele>1121.544452354344</ele>
        <time>2016-08-28T22:22:59.500000Z</time>
      </trkpt>
      <trkpt lat="37.849614409834565" lon="112.01372945302603">
        <ele>1120.7306027186019</ele>
        <time>2016-08-28T22:23:10.500000Z</time>
      </trkpt>
      <trkpt lat="37.849583957297554" lon="112.01412956913005">
        <ele>1120.1317282983812</ele>
        <time>2016-08-28T22:23:21.500000Z</time>
      </trkpt>
      <trkpt lat="37.84954384035431" lon="112.01458943720932">
        <ele>1119.0005871267313</ele>
        <time>2016-08-28T22:23:33.500000Z</time>
      </trkpt>
      <trkpt lat="37.84951322054885" lon="112.01495522611705">
        <ele>1117.731397496145</ele>
        <time>2016-08-28T22:23:44.500000Z</time>
      </trkpt>
      <trkpt lat="37.84945654788745" lon="112.0154194303421">
        <ele>1115.9915053142615</ele>
        <time>2016-08-28T22:23:58.500000Z</time>
      </trkpt>
      <trkpt lat="37.84939817901547" lon="112.01590905339047">
        <ele>1115.622335745915</ele>
        <time>2016-08-28T22:24:12.500000Z</time>
      </trkpt>
      <trkpt lat="37.84934469953571" lon="112.01630243291926">
        <ele>1115.7010836489849</ele>
        <time>2016-08-28T22:24:23.500000Z</time>
      </trkpt>
      <trkpt lat="37.84931607284163" lon="112.01673501586168">
        <ele>1114.9132831818524</ele>
        <time>2016-08-28T22:24:35.500000Z</time>
      </trkpt>
      <trkpt lat="37.849301053554605" lon="112.01696158298536">
        <ele>1114.647468766283</ele>
        <time>2016-08-28T22:24:42.500000Z</time>
      </trkpt>
      <trkpt lat="37.84927219751501" lon="112.01709217299222">
        <ele>1114.6830599063114</ele>
        <time>2016-08-28T22:24:46.500000Z</time>
      </trkpt>
      <trkpt lat="37.84921009809537" lon="112.01746663901976">
        <ele>1115.7569287382796</ele>
        <time>2016-08-28T22:24:56.500000Z</time>
      </trkpt>
      <trkpt lat="37.84918303046157" lon="112.01773376720126">
        <ele>1116.227486724089</ele>
        <time>2016-08-28T22:25:03.500000Z</time>
      </trkpt>
      <trkpt lat="37.849194688702006" lon="112.0181239120396">
        <ele>1116.0006221598792</ele>
        <time>2016-08-28T22:25:14.500000Z</time>
      </trkpt>
      <trkpt lat="37.849172327502245" lon="112.01835859914814">
        <ele>1115.3390951086756</ele>
        <time>2016-08-28T22:25:21.500000Z</time>
      </trkpt>
      <trkpt lat="37.849174049460615" lon="112.0188112086447">
        <ele>1113.9411827400772</ele>
        <time>2016-08-28T22:25:33.500000Z</time>
      </trkpt>
      <trkpt lat="37.84916327168121" lon="112.01917459938494">
        <ele>1115.0082492081974</ele>
        <time>2016-08-28T22:25:44.500000Z</time>
      </trkpt>
      <trkpt lat="37.84912467685315" lon="112.01959072168364">
        <ele>1117.602632640596</ele>
        <time>2016-08-28T22:25:55.500000Z</time>
      </trkpt>
      <trkpt lat="37.849113189267094" lon="112.02001684969434">
        <ele>1120.2128956232898</ele>
        <time>2016-08-28T22:26:06.500000Z</time>
      </trkpt>
      <trkpt lat="37.849105205121134" lon="112.02045298666604">
        <ele>1120.7092491713688</ele>
        <time>2016-08-28T22:26:20.500000Z</time>
      </trkpt>
      <trkpt lat="37.84913051942933" lon="112.02091724580396">
        <ele>1119.941790682132</ele>
        <time>2016-08-28T22:26:32.500000Z</time>
      </trkpt>
      <trkpt lat="37.84912171119367" lon="112.02126091833857">
        <ele>1119.06226699073</ele>
        <time>2016-08-28T22:26:40.500000Z</time>
      </trkpt>
      <trkpt lat="37.849111624476784" lon="112.0216765204744">
        <ele>1118.9441406207</ele>
        <time>2016-08-28T22:26:53.500000Z</time>
      </trkpt>
      <trkpt lat="37.849094025650885" lon="112.02206238424999">
        <ele>1118.5576236815596</ele>
        <time>2016-08-28T22:27:05.500000Z</time>
      </trkpt>
      <trkpt lat="37.84908579088461" lon="112.02249827624776">
        <ele>1118.6382809741467</ele>
        <time>2016-08-28T22:27:17.500000Z</time>
      </trkpt>
      <trkpt lat="37.84907568609354" lon="112.02262320507415">
        <ele>1118.6263563038424</ele>
        <time>2016-08-28T22:27:21.500000Z</time>
      </trkpt>
      <trkpt lat="37.849106989697994" lon="112.02288684877753">
        <ele>1115.5441215938408</ele>
        <time>2016-08-28T22:27:38.500000Z</time>
      </trkpt>
      <trkpt lat="37.849164315360674" lon="112.02305909269283">
        <ele>1113.741499733334</ele>
        <time>2016-08-28T22:27:52.500000Z</time>
      </trkpt>
      <trkpt lat="37.84916903337641" lon="112.0232216090041">
        <ele>1114.0658943496742</ele>
        <time>2016-08-28T22:28:00.500000Z</time>
      </trkpt>
      <trkpt lat="37.84910522288899" lon="112.02354448951077">
        <ele>1114.3099513059017</ele>
        <time>2016-08-28T22:28:14.500000Z</time>
      </trkpt>
      <trkpt lat="37.84912785462914" lon="112.02380651910391">
        <ele>1114.770345118822</ele>
        <time>2016-08-28T22:28:29.500000Z</time>
      </trkpt>
      <trkpt lat="37.84911446628252" lon="112.02404502873893">
        <ele>1114.037845352763</ele>
        <time>2016-08-28T22:28:43.500000Z</time>
      </trkpt>
      <trkpt lat="37.849092473763136" lon="112.02415292844739">
        <ele>1114.1521609781955</ele>
        <time>2016-08-28T22:28:51.500000Z</time>
      </trkpt>
      <trkpt lat="37.84910582082852" lon="112.02443903159873">
        <ele>1115.0367693229643</ele>
        <time>2016-08-28T22:29:07.500000Z</time>
      </trkpt>
      <trkpt lat="37.849075202942686" lon="112.02483304196383">
        <ele>1117.272611043612</ele>
        <time>2016-08-28T22:29:29.500000Z</time>
      </trkpt>
      <trkpt lat="37.849061388351664" lon="112.02492715164321">
        <ele>1118.8389774098957</ele>
        <time>2016-08-28T22:29:35.500000Z</time>
      </trkpt>
      <trkpt lat="37.84906664258894" lon="112.02530061119255">
        <ele>1124.045608176025</ele>
        <time>2016-08-28T22:29:54.500000Z</time>
      </trkpt>
      <trkpt lat="37.849045174931824" lon="112.02551966201192">
        <ele>1127.349331440784</ele>
        <time>2016-08-28T22:30:10.500000Z</time>
      </trkpt>
      <trkpt lat="37.849067284573934" lon="112.02557212299006">
        <ele>1127.9948138249524</ele>
        <time>2016-08-28T22:30:13.500000Z</time>
      </trkpt>
      <trkpt lat="37.84907257831205" lon="112.02582930362829">
        <ele>1128.3850847915942</ele>
        <time>2016-08-28T22:30:24.500000Z</time>
      </trkpt>
      <trkpt lat="37.8490942873082" lon="112.02613867861379">
        <ele>1128.2402600405749</ele>
        <time>2016-08-28T22:30:31.500000Z</time>
      </trkpt>
      <trkpt lat="37.849090292724036" lon="112.02631770847125">
        <ele>1127.9887724883233</ele>
        <time>2016-08-28T22:30:35.500000Z</time>
      </trkpt>
      <trkpt lat="37.849040517714535" lon="112.02646970094908">
        <ele>1127.6606278582185</ele>
        <time>2016-08-28T22:30:38.500000Z</time>
      </trkpt>
      <trkpt lat="37.848862678863306" lon="112.02651948319699">
        <ele>1126.9923742664419</ele>
        <time>2016-08-28T22:30:42.500000Z</time>
      </trkpt>
      <trkpt lat="37.848516551933415" lon="112.02649383304264">
        <ele>1124.6347590706782</ele>
        <time>2016-08-28T22:30:52.500000Z</time>
      </trkpt>
      <trkpt lat="37.84817857853847" lon="112.02646277314356">
        <ele>1124.051559186988</ele>
        <time>2016-08-28T22:31:04.500000Z</time>
      </trkpt>
      <trkpt lat="37.84806955140486" lon="112.02644737121743">
        <ele>1124.2520639837198</ele>
        <time>2016-08-28T22:31:08.500000Z</time>
      </trkpt>
      <trkpt lat="37.84785097855866" lon="112.02651149162496">
        <ele>1122.1400627856012</ele>
        <time>2016-08-28T22:31:20.500000Z</time>
      </trkpt>
      <trkpt lat="37.84776981378736" lon="112.02663211771578">
        <ele>1121.2317438837179</ele>
        <time>2016-08-28T22:31:24.500000Z</time>
      </trkpt>
      <trkpt lat="37.84773204872195" lon="112.02675679570153">
        <ele>1119.0681185594476</ele>
        <time>2016-08-28T22:31:32.500000Z</time>
      </trkpt>
      <trkpt lat="37.84759709907545" lon="112.0270075125961">
        <ele>1116.7153225770976</ele>
        <time>2016-08-28T22:31:46.500000Z</time>
      </trkpt>
      <trkpt lat="37.847564283948806" lon="112.02710704015392">
        <ele>1115.4090401667293</ele>
        <time>2016-08-28T22:31:54.500000Z</time>
      </trkpt>
      <trkpt lat="37.84754764717763" lon="112.02745564787735">
        <ele>1117.2438361467414</ele>
        <time>2016-08-28T22:32:11.500000Z</time>
      </trkpt>
      <trkpt lat="37.84749993409731" lon="112.02754625391454">
        <ele>1117.7971234018173</ele>
        <time>2016-08-28T22:32:15.500000Z</time>
      </trkpt>
      <trkpt lat="37.84746777984594" lon="112.02770582316806">
        <ele>1118.4833961527072</ele>
        <time>2016-08-28T22:32:23.500000Z</time>
      </trkpt>
      <trkpt lat="37.84742960072135" lon="112.02809906550227">
        <ele>1118.9620019814142</ele>
        <time>2016-08-28T22:32:38.500000Z</time>
      </trkpt>
      <trkpt lat="37.847402032036186" lon="112.02816397789805">
        <ele>1119.2070583267591</ele>
        <time>2016-08-28T22:32:42.500000Z</time>
      </trkpt>
      <trkpt lat="37.84741304525856" lon="112.02831326801012">
        <ele>1119.9366279337391</ele>
        <time>2016-08-28T22:32:52.500000Z</time>
      </trkpt>
      <trkpt lat="37.847402518471284" lon="112.0283981926485">
        <ele>1120.6600147617012</ele>
        <time>2016-08-28T22:33:00.500000Z</time>
      </trkpt>
      <trkpt lat="37.847438115155214" lon="112.0285894021003">
        <ele>1120.9985033727114</ele>
        <time>2016-08-28T22:33:14.600000Z</time>
      </trkpt>
      <trkpt lat="37.84743050390525" lon="112.0287016436376">
        <ele>1120.9976721553082</ele>
        <time>2016-08-28T22:33:21.500000Z</time>
      </trkpt>
      <trkpt lat="37.847520647685926" lon="112.02878141856331">
        <ele>1119.6593708521157</ele>
        <time>2016-08-28T22:33:31.500000Z</time>
      </trkpt>
    </trkseg>
  </trk>
</gpx>