<?xml version="1.0" encoding="UTF-8"?>
<gpx xmlns="http://www.topografix.com/GPX/1/1" xmlns:gpxtpx="http://www.garmin.com/xmlschemas/TrackPointExtension/v1" xmlns:xsi="http://www.w3.org/2001/XMLSchema-instance" xsi:schemaLocation="http://www.topografix.com/GPX/1/1 http://www.topografix.com/GPX/1/1/gpx.xsd" version="1.1" creator="gpx.py -- https://github.com/tkrajina/gpxpy">
  <trk>
    <name>gpx from keep</name>
    <type>Run</type>
    <trkseg>
      <trkpt lat="37.848660649532" lon="112.02669042587962">
        <ele>1118.5</ele>
        <time>2017-07-29T10:05:57.400000Z</time>
      </trkpt>
      <trkpt lat="37.84880765004191" lon="112.02660548976928">
        <ele>1121.0</ele>
        <time>2017-07-29T10:06:03.400000Z</time>
      </trkpt>
      <trkpt lat="37.848862656954466" lon="112.02642374768708">
        <ele>1121.3</ele>
        <time>2017-07-29T10:06:12.400000Z</time>
      </trkpt>
      <trkpt lat="37.84889400094028" lon="112.02636884487794">
        <ele>1121.09</ele>
        <time>2017-07-29T10:06:15.500000Z</time>
      </trkpt>
      <trkpt lat="37.84890746030045" lon="112.02630556074487">
        <ele>1121.0</ele>
        <time>2017-07-29T10:06:18.400000Z</time>
      </trkpt>
      <trkpt lat="37.84894587197911" lon="112.02624551899174">
        <ele>1120.8</ele>
        <time>2017-07-29T10:06:21.500000Z</time>
      </trkpt>
      <trkpt lat="37.84900564185896" lon="112.02611056390354">
        <ele>1120.3</ele>
        <time>2017-07-29T10:06:27.400000Z</time>
      </trkpt>
      <trkpt lat="37.84901098846697" lon="112.0260372751709">
        <ele>1119.9</ele>
        <time>2017-07-29T10:06:30.500000Z</time>
      </trkpt>
      <trkpt lat="37.84895571506094" lon="112.02590530960829">
        <ele>1118.7</ele>
        <time>2017-07-29T10:06:36.400000Z</time>
      </trkpt>
      <trkpt lat="37.84887588786901" lon="112.02582527076412">
        <ele>1118.0</ele>
        <time>2017-07-29T10:06:39.400000Z</time>
      </trkpt>
      <trkpt lat="37.84883017764103" lon="112.02574727633922">
        <ele>1117.2</ele>
        <time>2017-07-29T10:06:42.400000Z</time>
      </trkpt>
      <trkpt lat="37.848999141203926" lon="112.02569220292709">
        <ele>1114.09</ele>
        <time>2017-07-29T10:06:45.400000Z</time>
      </trkpt>
      <trkpt lat="37.84904901002928" lon="112.02560890387012">
        <ele>1113.09</ele>
        <time>2017-07-29T10:06:48.400000Z</time>
      </trkpt>
      <trkpt lat="37.84907882044553" lon="112.02551857624512">
        <ele>1112.0</ele>
        <time>2017-07-29T10:06:51.400000Z</time>
      </trkpt>
      <trkpt lat="37.849094098540306" lon="112.02528032572698">
        <ele>1110.2</ele>
        <time>2017-07-29T10:06:57.400000Z</time>
      </trkpt>
      <trkpt lat="37.84911742890302" lon="112.02517837143394">
        <ele>1109.0</ele>
        <time>2017-07-29T10:07:00.400000Z</time>
      </trkpt>
      <trkpt lat="37.849174120888556" lon="112.0250801994437">
        <ele>1107.5</ele>
        <time>2017-07-29T10:07:03.400000Z</time>
      </trkpt>
      <trkpt lat="37.8491488512012" lon="112.02499177295454">
        <ele>1107.59</ele>
        <time>2017-07-29T10:07:06.400000Z</time>
      </trkpt>
      <trkpt lat="37.84916034977192" lon="112.02485006850969">
        <ele>1108.3</ele>
        <time>2017-07-29T10:07:13.400000Z</time>
      </trkpt>
      <trkpt lat="37.84910413556915" lon="112.0246651050463">
        <ele>1108.7</ele>
        <time>2017-07-29T10:07:22.400000Z</time>
      </trkpt>
      <trkpt lat="37.84910561777974" lon="112.02441334158317">
        <ele>1108.2</ele>
        <time>2017-07-29T10:07:31.400000Z</time>
      </trkpt>
      <trkpt lat="37.84905379480173" lon="112.02421026200795">
        <ele>1106.7</ele>
        <time>2017-07-29T10:07:37.400000Z</time>
      </trkpt>
      <trkpt lat="37.84902725902798" lon="112.02388522241547">
        <ele>1106.0</ele>
        <time>2017-07-29T10:07:46.400000Z</time>
      </trkpt>
      <trkpt lat="37.849040332210926" lon="112.02376488553637">
        <ele>1106.59</ele>
        <time>2017-07-29T10:07:49.400000Z</time>
      </trkpt>
      <trkpt lat="37.84911887304293" lon="112.0234117148189">
        <ele>1110.9</ele>
        <time>2017-07-29T10:07:58.400000Z</time>
      </trkpt>
      <trkpt lat="37.84912513013602" lon="112.02300150009285">
        <ele>1115.3</ele>
        <time>2017-07-29T10:08:10.400000Z</time>
      </trkpt>
      <trkpt lat="37.849128659096515" lon="112.02259832131776">
        <ele>1116.3</ele>
        <time>2017-07-29T10:08:22.500000Z</time>
      </trkpt>
      <trkpt lat="37.8491436375279" lon="112.02217648818139">
        <ele>1115.8</ele>
        <time>2017-07-29T10:08:34.400000Z</time>
      </trkpt>
      <trkpt lat="37.84915042549872" lon="112.02207454557836">
        <ele>1116.09</ele>
        <time>2017-07-29T10:08:37.400000Z</time>
      </trkpt>
      <trkpt lat="37.8491433986239" lon="112.02186471494217">
        <ele>1117.9</ele>
        <time>2017-07-29T10:08:43.400000Z</time>
      </trkpt>
      <trkpt lat="37.84916673759419" lon="112.0216629939085">
        <ele>1120.0</ele>
        <time>2017-07-29T10:08:49.400000Z</time>
      </trkpt>
      <trkpt lat="37.84916352359209" lon="112.02154807491479">
        <ele>1120.2</ele>
        <time>2017-07-29T10:08:52.500000Z</time>
      </trkpt>
      <trkpt lat="37.849193463865205" lon="112.02121467206561">
        <ele>1123.5</ele>
        <time>2017-07-29T10:09:02.400000Z</time>
      </trkpt>
      <trkpt lat="37.84920328726973" lon="112.02079772346282">
        <ele>1128.7</ele>
        <time>2017-07-29T10:09:17.400000Z</time>
      </trkpt>
      <trkpt lat="37.84920166961721" lon="112.0205962819379">
        <ele>1130.59</ele>
        <time>2017-07-29T10:09:23.400000Z</time>
      </trkpt>
      <trkpt lat="37.849186731075804" lon="112.02020773423195">
        <ele>1132.8</ele>
        <time>2017-07-29T10:09:35.400000Z</time>
      </trkpt>
      <trkpt lat="37.84918834473763" lon="112.02011445033233">
        <ele>1133.7</ele>
        <time>2017-07-29T10:09:38.400000Z</time>
      </trkpt>
      <trkpt lat="37.84916983557213" lon="112.01993951244746">
        <ele>1133.0</ele>
        <time>2017-07-29T10:09:44.400000Z</time>
      </trkpt>
      <trkpt lat="37.84916480379552" lon="112.01950257200109">
        <ele>1134.4</ele>
        <time>2017-07-29T10:09:59.400000Z</time>
      </trkpt>
      <trkpt lat="37.849209856782956" lon="112.01910591725297">
        <ele>1137.5</ele>
        <time>2017-07-29T10:10:11.400000Z</time>
      </trkpt>
      <trkpt lat="37.8492082571945" lon="112.01870575736284">
        <ele>1137.4</ele>
        <time>2017-07-29T10:10:23.400000Z</time>
      </trkpt>
      <trkpt lat="37.84919982670519" lon="112.01832398792129">
        <ele>1137.8</ele>
        <time>2017-07-29T10:10:38.400000Z</time>
      </trkpt>
      <trkpt lat="37.84920828566021" lon="112.0179189682474">
        <ele>1137.2</ele>
        <time>2017-07-29T10:10:50.500000Z</time>
      </trkpt>
      <trkpt lat="37.84925465631203" lon="112.01754071470934">
        <ele>1133.7</ele>
        <time>2017-07-29T10:11:02.400000Z</time>
      </trkpt>
      <trkpt lat="37.84931457174906" lon="112.01717084448651">
        <ele>1130.09</ele>
        <time>2017-07-29T10:11:14.400000Z</time>
      </trkpt>
      <trkpt lat="37.84932632921562" lon="112.01675394008981">
        <ele>1128.8</ele>
        <time>2017-07-29T10:11:26.400000Z</time>
      </trkpt>
      <trkpt lat="37.84936442562463" lon="112.01633054808893">
        <ele>1129.2</ele>
        <time>2017-07-29T10:11:38.400000Z</time>
      </trkpt>
      <trkpt lat="37.84940468128296" lon="112.01591229691138">
        <ele>1128.7</ele>
        <time>2017-07-29T10:11:50.500000Z</time>
      </trkpt>
      <trkpt lat="37.8494561981744" lon="112.01554217182331">
        <ele>1128.7</ele>
        <time>2017-07-29T10:12:02.500000Z</time>
      </trkpt>
      <trkpt lat="37.849517742192546" lon="112.01517691506433">
        <ele>1126.0</ele>
        <time>2017-07-29T10:12:14.400000Z</time>
      </trkpt>
      <trkpt lat="37.84956933513876" lon="112.014781923876">
        <ele>1126.5</ele>
        <time>2017-07-29T10:12:26.400000Z</time>
      </trkpt>
      <trkpt lat="37.84960109635066" lon="112.0143969414597">
        <ele>1126.3</ele>
        <time>2017-07-29T10:12:38.400000Z</time>
      </trkpt>
      <trkpt lat="37.84963448331865" lon="112.01401358418521">
        <ele>1124.9</ele>
        <time>2017-07-29T10:12:50.400000Z</time>
      </trkpt>
      <trkpt lat="37.849652659836956" lon="112.01382542105732">
        <ele>1123.9</ele>
        <time>2017-07-29T10:12:56.500000Z</time>
      </trkpt>
      <trkpt lat="37.849699409484344" lon="112.01351370796374">
        <ele>1123.2</ele>
        <time>2017-07-29T10:13:05.400000Z</time>
      </trkpt>
      <trkpt lat="37.849716062793824" lon="112.01310197404986">
        <ele>1124.0</ele>
        <time>2017-07-29T10:13:17.500000Z</time>
      </trkpt>
      <trkpt lat="37.84973430880493" lon="112.01279702757434">
        <ele>1124.59</ele>
        <time>2017-07-29T10:13:26.400000Z</time>
      </trkpt>
      <trkpt lat="37.849777528112426" lon="112.0125818323628">
        <ele>1125.2</ele>
        <time>2017-07-29T10:13:32.500000Z</time>
      </trkpt>
      <trkpt lat="37.84981270943676" lon="112.01223849923947">
        <ele>1126.2</ele>
        <time>2017-07-29T10:13:41.400000Z</time>
      </trkpt>
      <trkpt lat="37.84981589279108" lon="112.01179677044269">
        <ele>1129.59</ele>
        <time>2017-07-29T10:13:53.400000Z</time>
      </trkpt>
      <trkpt lat="37.84981414659294" lon="112.0113718066166">
        <ele>1132.4</ele>
        <time>2017-07-29T10:14:05.400000Z</time>
      </trkpt>
      <trkpt lat="37.84982909679724" lon="112.01108336109583">
        <ele>1133.5</ele>
        <time>2017-07-29T10:14:14.400000Z</time>
      </trkpt>
      <trkpt lat="37.84990256536801" lon="112.0107316531068">
        <ele>1130.9</ele>
        <time>2017-07-29T10:14:26.500000Z</time>
      </trkpt>
      <trkpt lat="37.84994400320306" lon="112.01029344654452">
        <ele>1131.59</ele>
        <time>2017-07-29T10:14:38.400000Z</time>
      </trkpt>
      <trkpt lat="37.849943865464205" lon="112.00987822599716">
        <ele>1130.09</ele>
        <time>2017-07-29T10:14:50.400000Z</time>
      </trkpt>
      <trkpt lat="37.84991418252652" lon="112.00954654184552">
        <ele>1129.59</ele>
        <time>2017-07-29T10:14:59.400000Z</time>
      </trkpt>
      <trkpt lat="37.84981075359519" lon="112.00919810843428">
        <ele>1132.4</ele>
        <time>2017-07-29T10:15:08.400000Z</time>
      </trkpt>
      <trkpt lat="37.84962054952473" lon="112.00883509013019">
        <ele>1135.3</ele>
        <time>2017-07-29T10:15:20.400000Z</time>
      </trkpt>
      <trkpt lat="37.849393909049205" lon="112.00849992114807">
        <ele>1136.4</ele>
        <time>2017-07-29T10:15:32.400000Z</time>
      </trkpt>
      <trkpt lat="37.849197419301774" lon="112.00824503462988">
        <ele>1138.7</ele>
        <time>2017-07-29T10:15:41.400000Z</time>
      </trkpt>
      <trkpt lat="37.84900382290374" lon="112.00792959792487">
        <ele>1141.2</ele>
        <time>2017-07-29T10:15:53.500000Z</time>
      </trkpt>
      <trkpt lat="37.84878552712501" lon="112.00761795011215">
        <ele>1141.4</ele>
        <time>2017-07-29T10:16:05.400000Z</time>
      </trkpt>
      <trkpt lat="37.84857400487558" lon="112.00730981703607">
        <ele>1139.3</ele>
        <time>2017-07-29T10:16:17.500000Z</time>
      </trkpt>
      <trkpt lat="37.84836547862971" lon="112.00699817094481">
        <ele>1137.0</ele>
        <time>2017-07-29T10:16:29.400000Z</time>
      </trkpt>
      <trkpt lat="37.84829047966055" lon="112.00694627992074">
        <ele>1136.7</ele>
        <time>2017-07-29T10:16:32.500000Z</time>
      </trkpt>
      <trkpt lat="37.84803379520098" lon="112.0068630544203">
        <ele>1138.2</ele>
        <time>2017-07-29T10:16:41.400000Z</time>
      </trkpt>
      <trkpt lat="37.847712356067525" lon="112.00684119750585">
        <ele>1147.7</ele>
        <time>2017-07-29T10:16:53.400000Z</time>
      </trkpt>
      <trkpt lat="37.84741410158573" lon="112.00677798014243">
        <ele>1150.9</ele>
        <time>2017-07-29T10:17:05.400000Z</time>
      </trkpt>
      <trkpt lat="37.847100669052054" lon="112.00670962872876">
        <ele>1152.2</ele>
        <time>2017-07-29T10:17:17.400000Z</time>
      </trkpt>
      <trkpt lat="37.84678067041697" lon="112.00665965931904">
        <ele>1153.09</ele>
        <time>2017-07-29T10:17:29.400000Z</time>
      </trkpt>
      <trkpt lat="37.84647036984649" lon="112.00663293553362">
        <ele>1151.9</ele>
        <time>2017-07-29T10:17:41.400000Z</time>
      </trkpt>
      <trkpt lat="37.84630870288121" lon="112.00662133144318">
        <ele>1151.7</ele>
        <time>2017-07-29T10:17:47.400000Z</time>
      </trkpt>
      <trkpt lat="37.84624734142912" lon="112.00663647618153">
        <ele>1149.9</ele>
        <time>2017-07-29T10:17:50.400000Z</time>
      </trkpt>
      <trkpt lat="37.8459986535975" lon="112.00660136541379">
        <ele>1148.5</ele>
        <time>2017-07-29T10:17:59.400000Z</time>
      </trkpt>
      <trkpt lat="37.84566395139377" lon="112.00647814364919">
        <ele>1147.59</ele>
        <time>2017-07-29T10:18:11.400000Z</time>
      </trkpt>
      <trkpt lat="37.845345434622054" lon="112.00638627613213">
        <ele>1146.8</ele>
        <time>2017-07-29T10:18:23.500000Z</time>
      </trkpt>
      <trkpt lat="37.84503892905099" lon="112.00626980910882">
        <ele>1148.4</ele>
        <time>2017-07-29T10:18:35.400000Z</time>
      </trkpt>
      <trkpt lat="37.84469051356009" lon="112.00619632645525">
        <ele>1149.4</ele>
        <time>2017-07-29T10:18:47.400000Z</time>
      </trkpt>
      <trkpt lat="37.844390782170905" lon="112.00626475052154">
        <ele>1151.7</ele>
        <time>2017-07-29T10:18:59.400000Z</time>
      </trkpt>
      <trkpt lat="37.844118851669926" lon="112.00638155683731">
        <ele>1153.8</ele>
        <time>2017-07-29T10:19:11.400000Z</time>
      </trkpt>
      <trkpt lat="37.843903671263256" lon="112.00648294887543">
        <ele>1154.0</ele>
        <time>2017-07-29T10:19:20.400000Z</time>
      </trkpt>
      <trkpt lat="37.843639064924936" lon="112.00669139015777">
        <ele>1153.3</ele>
        <time>2017-07-29T10:19:32.400000Z</time>
      </trkpt>
      <trkpt lat="37.84347550801884" lon="112.00676790781304">
        <ele>1152.9</ele>
        <time>2017-07-29T10:19:38.400000Z</time>
      </trkpt>
      <trkpt lat="37.84318726379561" lon="112.00698797620511">
        <ele>1151.2</ele>
        <time>2017-07-29T10:19:50.500000Z</time>
      </trkpt>
      <trkpt lat="37.84290387404319" lon="112.00721804632208">
        <ele>1151.5</ele>
        <time>2017-07-29T10:20:02.500000Z</time>
      </trkpt>
      <trkpt lat="37.84263241298994" lon="112.007451359575">
        <ele>1153.0</ele>
        <time>2017-07-29T10:20:14.400000Z</time>
      </trkpt>
      <trkpt lat="37.8425625079875" lon="112.00751137772568">
        <ele>1153.4</ele>
        <time>2017-07-29T10:20:17.400000Z</time>
      </trkpt>
      <trkpt lat="37.842309018944" lon="112.00763142775452">
        <ele>1156.59</ele>
        <time>2017-07-29T10:20:26.500000Z</time>
      </trkpt>
      <trkpt lat="37.842002189721136" lon="112.0078066287701">
        <ele>1163.3</ele>
        <time>2017-07-29T10:20:38.400000Z</time>
      </trkpt>
      <trkpt lat="37.841692214925025" lon="112.00794479728168">
        <ele>1167.2</ele>
        <time>2017-07-29T10:20:50.400000Z</time>
      </trkpt>
      <trkpt lat="37.84136714550494" lon="112.00804971891512">
        <ele>1172.9</ele>
        <time>2017-07-29T10:21:02.400000Z</time>
      </trkpt>
      <trkpt lat="37.84128711371263" lon="112.0080481065642">
        <ele>1173.7</ele>
        <time>2017-07-29T10:21:05.400000Z</time>
      </trkpt>
      <trkpt lat="37.84121242407085" lon="112.00807487684814">
        <ele>1172.59</ele>
        <time>2017-07-29T10:21:08.400000Z</time>
      </trkpt>
      <trkpt lat="37.840910726852435" lon="112.00807491284908">
        <ele>1171.5</ele>
        <time>2017-07-29T10:21:20.500000Z</time>
      </trkpt>
      <trkpt lat="37.84059206123741" lon="112.00803305176116">
        <ele>1172.3</ele>
        <time>2017-07-29T10:21:32.400000Z</time>
      </trkpt>
      <trkpt lat="37.84035569563808" lon="112.00795982416109">
        <ele>1171.5</ele>
        <time>2017-07-29T10:21:41.400000Z</time>
      </trkpt>
      <trkpt lat="37.8401122710319" lon="112.00797985662788">
        <ele>1170.9</ele>
        <time>2017-07-29T10:21:51.400000Z</time>
      </trkpt>
      <trkpt lat="37.83985901995596" lon="112.00811153114319">
        <ele>1167.0</ele>
        <time>2017-07-29T10:22:03.400000Z</time>
      </trkpt>
      <trkpt lat="37.83972733124967" lon="112.00814641777386">
        <ele>1167.09</ele>
        <time>2017-07-29T10:22:09.400000Z</time>
      </trkpt>
      <trkpt lat="37.83947396194934" lon="112.00813482436558">
        <ele>1170.8</ele>
        <time>2017-07-29T10:22:18.500000Z</time>
      </trkpt>
      <trkpt lat="37.83933891912799" lon="112.00811132288568">
        <ele>1172.8</ele>
        <time>2017-07-29T10:22:24.400000Z</time>
      </trkpt>
      <trkpt lat="37.83955738315232" lon="112.0079996559474">
        <ele>1175.4</ele>
        <time>2017-07-29T10:22:36.400000Z</time>
      </trkpt>
      <trkpt lat="37.83959546988874" lon="112.00796478056559">
        <ele>1174.59</ele>
        <time>2017-07-29T10:22:39.400000Z</time>
      </trkpt>
      <trkpt lat="37.83973718752582" lon="112.0079331366344">
        <ele>1173.5</ele>
        <time>2017-07-29T10:22:45.400000Z</time>
      </trkpt>
      <trkpt lat="37.84004890857291" lon="112.007937965136">
        <ele>1172.2</ele>
        <time>2017-07-29T10:22:54.500000Z</time>
      </trkpt>
      <trkpt lat="37.840413844768946" lon="112.00802144940633">
        <ele>1167.09</ele>
        <time>2017-07-29T10:23:06.400000Z</time>
      </trkpt>
      <trkpt lat="37.840600727956094" lon="112.00803818674586">
        <ele>1164.9</ele>
        <time>2017-07-29T10:23:12.400000Z</time>
      </trkpt>
      <trkpt lat="37.840728904964" lon="112.00799816457872">
        <ele>1167.7</ele>
        <time>2017-07-29T10:23:18.500000Z</time>
      </trkpt>
      <trkpt lat="37.84089571601855" lon="112.00801328240682">
        <ele>1166.2</ele>
        <time>2017-07-29T10:23:24.400000Z</time>
      </trkpt>
      <trkpt lat="37.84123561453922" lon="112.00793971575374">
        <ele>1164.09</ele>
        <time>2017-07-29T10:23:36.400000Z</time>
      </trkpt>
      <trkpt lat="37.8413071422328" lon="112.00788131890947">
        <ele>1164.4</ele>
        <time>2017-07-29T10:23:39.400000Z</time>
      </trkpt>
      <trkpt lat="37.84138563429512" lon="112.00785319667298">
        <ele>1163.4</ele>
        <time>2017-07-29T10:23:42.400000Z</time>
      </trkpt>
      <trkpt lat="37.841680603332236" lon="112.00783477999175">
        <ele>1160.8</ele>
        <time>2017-07-29T10:23:51.400000Z</time>
      </trkpt>
      <trkpt lat="37.841780499312435" lon="112.00781665690772">
        <ele>1160.5</ele>
        <time>2017-07-29T10:23:54.400000Z</time>
      </trkpt>
      <trkpt lat="37.841880737145026" lon="112.00777474600436">
        <ele>1161.3</ele>
        <time>2017-07-29T10:23:57.400000Z</time>
      </trkpt>
      <trkpt lat="37.84196571854032" lon="112.0075711884785">
        <ele>1158.2</ele>
        <time>2017-07-29T10:24:03.400000Z</time>
      </trkpt>
      <trkpt lat="37.84221574879421" lon="112.0074281622554">
        <ele>1154.2</ele>
        <time>2017-07-29T10:24:12.400000Z</time>
      </trkpt>
      <trkpt lat="37.842487168636836" lon="112.00739136714664">
        <ele>1152.2</ele>
        <time>2017-07-29T10:24:21.400000Z</time>
      </trkpt>
      <trkpt lat="37.84257891099209" lon="112.0073781108121">
        <ele>1151.5</ele>
        <time>2017-07-29T10:24:24.400000Z</time>
      </trkpt>
      <trkpt lat="37.84267209902802" lon="112.0073348494617">
        <ele>1150.3</ele>
        <time>2017-07-29T10:24:27.400000Z</time>
      </trkpt>
      <trkpt lat="37.84280045564271" lon="112.00723454777878">
        <ele>1150.09</ele>
        <time>2017-07-29T10:24:33.500000Z</time>
      </trkpt>
      <trkpt lat="37.842687243452275" lon="112.00735133680293">
        <ele>1150.2</ele>
        <time>2017-07-29T10:24:42.400000Z</time>
      </trkpt>
      <trkpt lat="37.842440684667544" lon="112.00751301414772">
        <ele>1151.0</ele>
        <time>2017-07-29T10:24:51.500000Z</time>
      </trkpt>
      <trkpt lat="37.84225408107134" lon="112.00767630662772">
        <ele>1152.3</ele>
        <time>2017-07-29T10:25:00.500000Z</time>
      </trkpt>
      <trkpt lat="37.84195404513472" lon="112.00784799284618">
        <ele>1154.2</ele>
        <time>2017-07-29T10:25:12.400000Z</time>
      </trkpt>
      <trkpt lat="37.84166405770869" lon="112.00801643452371">
        <ele>1155.09</ele>
        <time>2017-07-29T10:25:24.500000Z</time>
      </trkpt>
      <trkpt lat="37.84135066434192" lon="112.00811811107671">
        <ele>1156.09</ele>
        <time>2017-07-29T10:25:36.400000Z</time>
      </trkpt>
      <trkpt lat="37.84104070933142" lon="112.0081581550109">
        <ele>1158.8</ele>
        <time>2017-07-29T10:25:48.400000Z</time>
      </trkpt>
      <trkpt lat="37.84073722182069" lon="112.00812142808445">
        <ele>1159.09</ele>
        <time>2017-07-29T10:26:00.400000Z</time>
      </trkpt>
      <trkpt lat="37.84042404647105" lon="112.00805794095716">
        <ele>1154.3</ele>
        <time>2017-07-29T10:26:12.400000Z</time>
      </trkpt>
      <trkpt lat="37.840085835328196" lon="112.00811150407861">
        <ele>1153.3</ele>
        <time>2017-07-29T10:26:24.400000Z</time>
      </trkpt>
      <trkpt lat="37.83974401404076" lon="112.00819318068653">
        <ele>1153.4</ele>
        <time>2017-07-29T10:26:36.400000Z</time>
      </trkpt>
      <trkpt lat="37.83941888602689" lon="112.00822646853963">
        <ele>1154.59</ele>
        <time>2017-07-29T10:26:48.400000Z</time>
      </trkpt>
      <trkpt lat="37.83937388774567" lon="112.0082132283478">
        <ele>1155.7</ele>
        <time>2017-07-29T10:26:51.500000Z</time>
      </trkpt>
      <trkpt lat="37.83961726816884" lon="112.00820806327283">
        <ele>1157.9</ele>
        <time>2017-07-29T10:27:03.400000Z</time>
      </trkpt>
      <trkpt lat="37.83973898238282" lon="112.00815155241177">
        <ele>1157.4</ele>
        <time>2017-07-29T10:27:09.400000Z</time>
      </trkpt>
      <trkpt lat="37.8400222158654" lon="112.00815638432594">
        <ele>1157.2</ele>
        <time>2017-07-29T10:27:18.400000Z</time>
      </trkpt>
      <trkpt lat="37.84021055962108" lon="112.00813798027787">
        <ele>1158.0</ele>
        <time>2017-07-29T10:27:24.500000Z</time>
      </trkpt>
      <trkpt lat="37.840510484790464" lon="112.00818660160593">
        <ele>1159.2</ele>
        <time>2017-07-29T10:27:33.400000Z</time>
      </trkpt>
      <trkpt lat="37.8408538805178" lon="112.00821467364567">
        <ele>1155.8</ele>
        <time>2017-07-29T10:27:45.400000Z</time>
      </trkpt>
      <trkpt lat="37.84100396959111" lon="112.00819627414515">
        <ele>1154.2</ele>
        <time>2017-07-29T10:27:51.400000Z</time>
      </trkpt>
      <trkpt lat="37.841200782568706" lon="112.00824977353724">
        <ele>1152.5</ele>
        <time>2017-07-29T10:27:57.400000Z</time>
      </trkpt>
      <trkpt lat="37.84149398512701" lon="112.00818648424172">
        <ele>1154.9</ele>
        <time>2017-07-29T10:28:06.400000Z</time>
      </trkpt>
      <trkpt lat="37.841780632374444" lon="112.00804642577214">
        <ele>1157.5</ele>
        <time>2017-07-29T10:28:15.400000Z</time>
      </trkpt>
      <trkpt lat="37.842027194839325" lon="112.00788312520437">
        <ele>1159.2</ele>
        <time>2017-07-29T10:28:24.400000Z</time>
      </trkpt>
      <trkpt lat="37.84226240751267" lon="112.00770468874302">
        <ele>1160.7</ele>
        <time>2017-07-29T10:28:33.500000Z</time>
      </trkpt>
      <trkpt lat="37.8424989667225" lon="112.007529766701">
        <ele>1162.5</ele>
        <time>2017-07-29T10:28:42.400000Z</time>
      </trkpt>
      <trkpt lat="37.84263403603895" lon="112.00745298126743">
        <ele>1165.2</ele>
        <time>2017-07-29T10:28:48.500000Z</time>
      </trkpt>
      <trkpt lat="37.84287581015619" lon="112.0072580560647">
        <ele>1165.0</ele>
        <time>2017-07-29T10:28:57.400000Z</time>
      </trkpt>
      <trkpt lat="37.84302561007063" lon="112.00715450818117">
        <ele>1164.59</ele>
        <time>2017-07-29T10:29:03.400000Z</time>
      </trkpt>
      <trkpt lat="37.84326394150273" lon="112.0069314717729">
        <ele>1162.8</ele>
        <time>2017-07-29T10:29:12.400000Z</time>
      </trkpt>
      <trkpt lat="37.843447172607405" lon="112.00680791732435">
        <ele>1161.0</ele>
        <time>2017-07-29T10:29:18.400000Z</time>
      </trkpt>
      <trkpt lat="37.843677297200706" lon="112.0066078594479">
        <ele>1158.8</ele>
        <time>2017-07-29T10:29:27.400000Z</time>
      </trkpt>
      <trkpt lat="37.84392057148547" lon="112.00645645643318">
        <ele>1156.3</ele>
        <time>2017-07-29T10:29:36.400000Z</time>
      </trkpt>
      <trkpt lat="37.84424061820377" lon="112.00630801799485">
        <ele>1152.4</ele>
        <time>2017-07-29T10:29:48.400000Z</time>
      </trkpt>
      <trkpt lat="37.844330411672" lon="112.00631152131452">
        <ele>1149.0</ele>
        <time>2017-07-29T10:29:51.400000Z</time>
      </trkpt>
      <trkpt lat="37.844528658164705" lon="112.00624797487946">
        <ele>1148.09</ele>
        <time>2017-07-29T10:29:57.400000Z</time>
      </trkpt>
      <trkpt lat="37.84480051186918" lon="112.00624794245887">
        <ele>1150.09</ele>
        <time>2017-07-29T10:30:06.400000Z</time>
      </trkpt>
      <trkpt lat="37.845158764750096" lon="112.00629790703235">
        <ele>1154.0</ele>
        <time>2017-07-29T10:30:18.400000Z</time>
      </trkpt>
      <trkpt lat="37.845422264848274" lon="112.00636977805196">
        <ele>1155.5</ele>
        <time>2017-07-29T10:30:27.400000Z</time>
      </trkpt>
      <trkpt lat="37.84550569494677" lon="112.0064146395886">
        <ele>1154.5</ele>
        <time>2017-07-29T10:30:30.500000Z</time>
      </trkpt>
      <trkpt lat="37.84577867658995" lon="112.00649137518039">
        <ele>1154.09</ele>
        <time>2017-07-29T10:30:39.400000Z</time>
      </trkpt>
      <trkpt lat="37.84606710376449" lon="112.00657459647005">
        <ele>1154.4</ele>
        <time>2017-07-29T10:30:48.400000Z</time>
      </trkpt>
      <trkpt lat="37.84638045629607" lon="112.00666970857351">
        <ele>1153.2</ele>
        <time>2017-07-29T10:31:00.500000Z</time>
      </trkpt>
      <trkpt lat="37.846659043203" lon="112.00668643463813">
        <ele>1152.0</ele>
        <time>2017-07-29T10:31:09.400000Z</time>
      </trkpt>
      <trkpt lat="37.84694379628338" lon="112.00672802861686">
        <ele>1151.8</ele>
        <time>2017-07-29T10:31:18.400000Z</time>
      </trkpt>
      <trkpt lat="37.847127187562315" lon="112.00673314265674">
        <ele>1150.5</ele>
        <time>2017-07-29T10:31:24.500000Z</time>
      </trkpt>
      <trkpt lat="37.84718546481587" lon="112.00675151688498">
        <ele>1146.7</ele>
        <time>2017-07-29T10:31:27.400000Z</time>
      </trkpt>
      <trkpt lat="37.847525394045284" lon="112.00675958567847">
        <ele>1142.2</ele>
        <time>2017-07-29T10:31:38.400000Z</time>
      </trkpt>
      <trkpt lat="37.847844065292364" lon="112.00679982409177">
        <ele>1142.3</ele>
        <time>2017-07-29T10:31:47.400000Z</time>
      </trkpt>
      <trkpt lat="37.84817214887321" lon="112.00686817384086">
        <ele>1144.4</ele>
        <time>2017-07-29T10:32:08.400000Z</time>
      </trkpt>
      <trkpt lat="37.848303897778614" lon="112.00690465024518">
        <ele>1145.5</ele>
        <time>2017-07-29T10:32:20.400000Z</time>
      </trkpt>
      <trkpt lat="37.84825381369358" lon="112.00686816409774">
        <ele>1146.0</ele>
        <time>2017-07-29T10:32:23.400000Z</time>
      </trkpt>
      <trkpt lat="37.84792382608694" lon="112.00680143644638">
        <ele>1147.7</ele>
        <time>2017-07-29T10:32:35.400000Z</time>
      </trkpt>
      <trkpt lat="37.847615493632524" lon="112.00675146558417">
        <ele>1149.8</ele>
        <time>2017-07-29T10:32:47.500000Z</time>
      </trkpt>
      <trkpt lat="37.84728224084836" lon="112.00668798216395">
        <ele>1151.0</ele>
        <time>2017-07-29T10:32:59.500000Z</time>
      </trkpt>
      <trkpt lat="37.84697229600915" lon="112.0066328756604">
        <ele>1152.3</ele>
        <time>2017-07-29T10:33:11.400000Z</time>
      </trkpt>
      <trkpt lat="37.84663540125295" lon="112.00660804723432">
        <ele>1153.3</ele>
        <time>2017-07-29T10:33:24.500000Z</time>
      </trkpt>
      <trkpt lat="37.84631394233669" lon="112.00659294816656">
        <ele>1154.4</ele>
        <time>2017-07-29T10:33:36.400000Z</time>
      </trkpt>
      <trkpt lat="37.84607714228359" lon="112.00657459527264">
        <ele>1154.7</ele>
        <time>2017-07-29T10:33:45.400000Z</time>
      </trkpt>
      <trkpt lat="37.84574730436777" lon="112.00645786042388">
        <ele>1155.5</ele>
        <time>2017-07-29T10:33:57.400000Z</time>
      </trkpt>
      <trkpt lat="37.84558039980925" lon="112.00638300438662">
        <ele>1157.3</ele>
        <time>2017-07-29T10:34:03.400000Z</time>
      </trkpt>
      <trkpt lat="37.845255391026114" lon="112.00628465032882">
        <ele>1160.7</ele>
        <time>2017-07-29T10:34:15.400000Z</time>
      </trkpt>
      <trkpt lat="37.844928886369125" lon="112.00623306012093">
        <ele>1161.9</ele>
        <time>2017-07-29T10:34:27.400000Z</time>
      </trkpt>
      <trkpt lat="37.844595377718164" lon="112.00616471160261">
        <ele>1158.59</ele>
        <time>2017-07-29T10:34:39.400000Z</time>
      </trkpt>
      <trkpt lat="37.84430537885383" lon="112.00624475779128">
        <ele>1159.7</ele>
        <time>2017-07-29T10:34:51.500000Z</time>
      </trkpt>
      <trkpt lat="37.84400225805754" lon="112.00635805376382">
        <ele>1158.7</ele>
        <time>2017-07-29T10:35:03.400000Z</time>
      </trkpt>
      <trkpt lat="37.84372224145614" lon="112.00654811538077">
        <ele>1162.09</ele>
        <time>2017-07-29T10:35:15.400000Z</time>
      </trkpt>
      <trkpt lat="37.843427239628795" lon="112.00675953391053">
        <ele>1165.5</ele>
        <time>2017-07-29T10:35:27.400000Z</time>
      </trkpt>
      <trkpt lat="37.84316413932719" lon="112.00691796806586">
        <ele>1168.0</ele>
        <time>2017-07-29T10:35:39.400000Z</time>
      </trkpt>
      <trkpt lat="37.8429171942343" lon="112.0071180288497">
        <ele>1168.09</ele>
        <time>2017-07-29T10:35:50.900000Z</time>
      </trkpt>
      <trkpt lat="37.84263406092886" lon="112.00735323534524">
        <ele>1167.0</ele>
        <time>2017-07-29T10:36:03.400000Z</time>
      </trkpt>
      <trkpt lat="37.842358951151" lon="112.00753627095825">
        <ele>1166.59</ele>
        <time>2017-07-29T10:36:15.400000Z</time>
      </trkpt>
      <trkpt lat="37.84209403137189" lon="112.0077598531942">
        <ele>1162.7</ele>
        <time>2017-07-29T10:36:27.400000Z</time>
      </trkpt>
      <trkpt lat="37.84184745404611" lon="112.00801965643956">
        <ele>1162.4</ele>
        <time>2017-07-29T10:36:39.400000Z</time>
      </trkpt>
      <trkpt lat="37.841782185781426" lon="112.00807156505523">
        <ele>1161.8</ele>
        <time>2017-07-29T10:36:42.400000Z</time>
      </trkpt>
      <trkpt lat="37.84146734708589" lon="112.0082032471022">
        <ele>1162.0</ele>
        <time>2017-07-29T10:36:54.400000Z</time>
      </trkpt>
      <trkpt lat="37.84139563230108" lon="112.00823326090797">
        <ele>1161.9</ele>
        <time>2017-07-29T10:36:57.500000Z</time>
      </trkpt>
      <trkpt lat="37.84123230898444" lon="112.00823138817523">
        <ele>1161.8</ele>
        <time>2017-07-29T10:37:03.400000Z</time>
      </trkpt>
      <trkpt lat="37.84092406591101" lon="112.00824304861786">
        <ele>1161.5</ele>
        <time>2017-07-29T10:37:15.500000Z</time>
      </trkpt>
      <trkpt lat="37.84112050427057" lon="112.00823978136391">
        <ele>1160.7</ele>
        <time>2017-07-29T10:37:33.400000Z</time>
      </trkpt>
      <trkpt lat="37.84138040925281" lon="112.00815162685892">
        <ele>1159.3</ele>
        <time>2017-07-29T10:37:42.400000Z</time>
      </trkpt>
      <trkpt lat="37.84154576621951" lon="112.00810808606221">
        <ele>1157.8</ele>
        <time>2017-07-29T10:37:48.500000Z</time>
      </trkpt>
      <trkpt lat="37.841873938546506" lon="112.00796315711412">
        <ele>1155.59</ele>
        <time>2017-07-29T10:38:00.400000Z</time>
      </trkpt>
      <trkpt lat="37.84203074190717" lon="112.00787636687839">
        <ele>1154.9</ele>
        <time>2017-07-29T10:38:06.400000Z</time>
      </trkpt>
      <trkpt lat="37.842172168835695" lon="112.00775984387097">
        <ele>1154.9</ele>
        <time>2017-07-29T10:38:12.400000Z</time>
      </trkpt>
      <trkpt lat="37.84248386172887" lon="112.00759140027435">
        <ele>1155.7</ele>
        <time>2017-07-29T10:38:24.500000Z</time>
      </trkpt>
      <trkpt lat="37.84274388798677" lon="112.00737133327925">
        <ele>1155.7</ele>
        <time>2017-07-29T10:38:34.400000Z</time>
      </trkpt>
      <trkpt lat="37.84294882349305" lon="112.00715640953331">
        <ele>1154.9</ele>
        <time>2017-07-29T10:38:43.400000Z</time>
      </trkpt>
      <trkpt lat="37.84326544553581" lon="112.00697309969419">
        <ele>1150.5</ele>
        <time>2017-07-29T10:38:55.500000Z</time>
      </trkpt>
      <trkpt lat="37.843563989967535" lon="112.00675627386045">
        <ele>1148.7</ele>
        <time>2017-07-29T10:39:07.400000Z</time>
      </trkpt>
      <trkpt lat="37.84380711748467" lon="112.00656297235199">
        <ele>1148.9</ele>
        <time>2017-07-29T10:39:16.400000Z</time>
      </trkpt>
      <trkpt lat="37.84404890903898" lon="112.00636291378136">
        <ele>1149.2</ele>
        <time>2017-07-29T10:39:25.400000Z</time>
      </trkpt>
      <trkpt lat="37.84427895485452" lon="112.0061896177994">
        <ele>1147.8</ele>
        <time>2017-07-29T10:39:34.400000Z</time>
      </trkpt>
      <trkpt lat="37.84444224181927" lon="112.0061128304918">
        <ele>1146.4</ele>
        <time>2017-07-29T10:39:40.400000Z</time>
      </trkpt>
      <trkpt lat="37.84453071825916" lon="112.00610308881274">
        <ele>1145.5</ele>
        <time>2017-07-29T10:39:43.400000Z</time>
      </trkpt>
      <trkpt lat="37.84481904209159" lon="112.00612981503542">
        <ele>1144.59</ele>
        <time>2017-07-29T10:39:52.500000Z</time>
      </trkpt>
      <trkpt lat="37.84509214836703" lon="112.00616465236058">
        <ele>1143.0</ele>
        <time>2017-07-29T10:40:01.400000Z</time>
      </trkpt>
      <trkpt lat="37.84538222233783" lon="112.00624138565358">
        <ele>1143.0</ele>
        <time>2017-07-29T10:40:10.400000Z</time>
      </trkpt>
      <trkpt lat="37.84571874437513" lon="112.00639109719062">
        <ele>1142.3</ele>
        <time>2017-07-29T10:40:19.400000Z</time>
      </trkpt>
      <trkpt lat="37.84598557354268" lon="112.00652946429776">
        <ele>1145.9</ele>
        <time>2017-07-29T10:40:28.500000Z</time>
      </trkpt>
      <trkpt lat="37.84625884680568" lon="112.00659944220074">
        <ele>1150.2</ele>
        <time>2017-07-29T10:40:37.400000Z</time>
      </trkpt>
      <trkpt lat="37.846598813663654" lon="112.00659480636249">
        <ele>1154.9</ele>
        <time>2017-07-29T10:40:49.400000Z</time>
      </trkpt>
      <trkpt lat="37.84686896578667" lon="112.00661964274579">
        <ele>1152.8</ele>
        <time>2017-07-29T10:40:58.400000Z</time>
      </trkpt>
      <trkpt lat="37.84714722188779" lon="112.00665637185949">
        <ele>1150.09</ele>
        <time>2017-07-29T10:41:07.400000Z</time>
      </trkpt>
      <trkpt lat="37.84743367696324" lon="112.00667309698078">
        <ele>1147.09</ele>
        <time>2017-07-29T10:41:16.500000Z</time>
      </trkpt>
      <trkpt lat="37.84772571052241" lon="112.00672982751855">
        <ele>1146.3</ele>
        <time>2017-07-29T10:41:25.500000Z</time>
      </trkpt>
      <trkpt lat="37.84801722166318" lon="112.00677980037199">
        <ele>1145.4</ele>
        <time>2017-07-29T10:41:34.400000Z</time>
      </trkpt>
      <trkpt lat="37.84811890399983" lon="112.00679979130308">
        <ele>1144.7</ele>
        <time>2017-07-29T10:41:37.400000Z</time>
      </trkpt>
      <trkpt lat="37.84827216395974" lon="112.00690141028625">
        <ele>1143.4</ele>
        <time>2017-07-29T10:41:43.400000Z</time>
      </trkpt>
      <trkpt lat="37.84847551669747" lon="112.00712790791731">
        <ele>1145.2</ele>
        <time>2017-07-29T10:41:52.500000Z</time>
      </trkpt>
      <trkpt lat="37.84868745729027" lon="112.007386302316">
        <ele>1144.2</ele>
        <time>2017-07-29T10:42:01.500000Z</time>
      </trkpt>
      <trkpt lat="37.84889044459382" lon="112.00764496909017">
        <ele>1144.09</ele>
        <time>2017-07-29T10:42:10.400000Z</time>
      </trkpt>
      <trkpt lat="37.849085506991884" lon="112.00792310058571">
        <ele>1145.4</ele>
        <time>2017-07-29T10:42:19.500000Z</time>
      </trkpt>
      <trkpt lat="37.849248791650076" lon="112.00821313103295">
        <ele>1147.5</ele>
        <time>2017-07-29T10:42:28.500000Z</time>
      </trkpt>
      <trkpt lat="37.84943733413718" lon="112.0084947799092">
        <ele>1145.4</ele>
        <time>2017-07-29T10:42:37.400000Z</time>
      </trkpt>
      <trkpt lat="37.849649170556006" lon="112.00878994326821">
        <ele>1142.8</ele>
        <time>2017-07-29T10:42:46.400000Z</time>
      </trkpt>
      <trkpt lat="37.8498139292683" lon="112.00913323086961">
        <ele>1141.8</ele>
        <time>2017-07-29T10:42:58.400000Z</time>
      </trkpt>
      <trkpt lat="37.849880606044096" lon="112.00933974885879">
        <ele>1142.3</ele>
        <time>2017-07-29T10:43:04.400000Z</time>
      </trkpt>
      <trkpt lat="37.84991727778002" lon="112.00969332723929">
        <ele>1144.3</ele>
        <time>2017-07-29T10:43:13.400000Z</time>
      </trkpt>
      <trkpt lat="37.849930766597964" lon="112.00981172767519">
        <ele>1144.59</ele>
        <time>2017-07-29T10:43:16.400000Z</time>
      </trkpt>
      <trkpt lat="37.84989742157598" lon="112.01026479746773">
        <ele>1144.09</ele>
        <time>2017-07-29T10:43:28.400000Z</time>
      </trkpt>
      <trkpt lat="37.84987091613264" lon="112.01060676501974">
        <ele>1144.3</ele>
        <time>2017-07-29T10:43:37.400000Z</time>
      </trkpt>
      <trkpt lat="37.84985084166062" lon="112.01097684827164">
        <ele>1144.4</ele>
        <time>2017-07-29T10:43:46.500000Z</time>
      </trkpt>
      <trkpt lat="37.84983590920886" lon="112.01144506410802">
        <ele>1142.7</ele>
        <time>2017-07-29T10:43:58.500000Z</time>
      </trkpt>
      <trkpt lat="37.84983595492769" lon="112.01180190439922">
        <ele>1143.09</ele>
        <time>2017-07-29T10:44:07.400000Z</time>
      </trkpt>
      <trkpt lat="37.84978072797309" lon="112.01213361249263">
        <ele>1143.59</ele>
        <time>2017-07-29T10:44:16.400000Z</time>
      </trkpt>
      <trkpt lat="37.849759097704194" lon="112.01257534643946">
        <ele>1143.5</ele>
        <time>2017-07-29T10:44:28.500000Z</time>
      </trkpt>
      <trkpt lat="37.84971094994783" lon="112.01299356782754">
        <ele>1142.2</ele>
        <time>2017-07-29T10:44:40.400000Z</time>
      </trkpt>
      <trkpt lat="37.8496991995617" lon="112.013210383144">
        <ele>1142.7</ele>
        <time>2017-07-29T10:44:46.500000Z</time>
      </trkpt>
      <trkpt lat="37.84971935480207" lon="112.01346531405144">
        <ele>1145.3</ele>
        <time>2017-07-29T10:44:52.500000Z</time>
      </trkpt>
      <trkpt lat="37.849689339861584" lon="112.013807033168">
        <ele>1146.09</ele>
        <time>2017-07-29T10:45:01.500000Z</time>
      </trkpt>
      <trkpt lat="37.84965603773879" lon="112.01416038012125">
        <ele>1146.09</ele>
        <time>2017-07-29T10:45:10.400000Z</time>
      </trkpt>
      <trkpt lat="37.84963269262392" lon="112.01435368185878">
        <ele>1146.3</ele>
        <time>2017-07-29T10:45:16.400000Z</time>
      </trkpt>
      <trkpt lat="37.84960289473598" lon="112.01443208662823">
        <ele>1147.2</ele>
        <time>2017-07-29T10:45:19.400000Z</time>
      </trkpt>
      <trkpt lat="37.84955440975421" lon="112.0144988687349">
        <ele>1147.3</ele>
        <time>2017-07-29T10:45:22.500000Z</time>
      </trkpt>
      <trkpt lat="37.84951274119813" lon="112.01464864765315">
        <ele>1144.0</ele>
        <time>2017-07-29T10:45:34.400000Z</time>
      </trkpt>
      <trkpt lat="37.849489577152106" lon="112.01506391072843">
        <ele>1139.4</ele>
        <time>2017-07-29T10:45:55.400000Z</time>
      </trkpt>
      <trkpt lat="37.849472823535734" lon="112.01532534488142">
        <ele>1136.7</ele>
        <time>2017-07-29T10:46:12.400000Z</time>
      </trkpt>
      <trkpt lat="37.849419467129756" lon="112.01557867429317">
        <ele>1135.2</ele>
        <time>2017-07-29T10:46:24.400000Z</time>
      </trkpt>
      <trkpt lat="37.84941944752667" lon="112.01596717791402">
        <ele>1132.7</ele>
        <time>2017-07-29T10:46:36.400000Z</time>
      </trkpt>
      <trkpt lat="37.84940120072225" lon="112.01637407182432">
        <ele>1131.2</ele>
        <time>2017-07-29T10:46:48.400000Z</time>
      </trkpt>
      <trkpt lat="37.84935980233439" lon="112.01681395687167">
        <ele>1131.09</ele>
        <time>2017-07-29T10:47:00.400000Z</time>
      </trkpt>
      <trkpt lat="37.84931633993059" lon="112.0172173473366">
        <ele>1131.0</ele>
        <time>2017-07-29T10:47:12.400000Z</time>
      </trkpt>
      <trkpt lat="37.849248130550656" lon="112.01764237435212">
        <ele>1131.7</ele>
        <time>2017-07-29T10:47:24.400000Z</time>
      </trkpt>
      <trkpt lat="37.84923488418347" lon="112.01801224335223">
        <ele>1132.8</ele>
        <time>2017-07-29T10:47:33.400000Z</time>
      </trkpt>
      <trkpt lat="37.84925333416952" lon="112.0182058281014">
        <ele>1133.4</ele>
        <time>2017-07-29T10:47:39.400000Z</time>
      </trkpt>
      <trkpt lat="37.849224713555095" lon="112.01844754620836">
        <ele>1131.2</ele>
        <time>2017-07-29T10:47:55.400000Z</time>
      </trkpt>
      <trkpt lat="37.8492332958873" lon="112.01887257734336">
        <ele>1134.59</ele>
        <time>2017-07-29T10:48:07.400000Z</time>
      </trkpt>
      <trkpt lat="37.8492130426642" lon="112.0191310622063">
        <ele>1136.0</ele>
        <time>2017-07-29T10:48:14.400000Z</time>
      </trkpt>
      <trkpt lat="37.84922823460039" lon="112.0195228431046">
        <ele>1137.0</ele>
        <time>2017-07-29T10:48:26.400000Z</time>
      </trkpt>
      <trkpt lat="37.84918507237586" lon="112.01962937928204">
        <ele>1137.4</ele>
        <time>2017-07-29T10:48:32.400000Z</time>
      </trkpt>
      <trkpt lat="37.84917823280296" lon="112.01994437838718">
        <ele>1141.9</ele>
        <time>2017-07-29T10:48:41.400000Z</time>
      </trkpt>
      <trkpt lat="37.84912842682245" lon="112.02029615817622">
        <ele>1145.7</ele>
        <time>2017-07-29T10:48:50.400000Z</time>
      </trkpt>
      <trkpt lat="37.84913501556276" lon="112.02066280613437">
        <ele>1147.09</ele>
        <time>2017-07-29T10:48:59.400000Z</time>
      </trkpt>
      <trkpt lat="37.849108516395304" lon="112.02082801878628">
        <ele>1145.7</ele>
        <time>2017-07-29T10:49:05.400000Z</time>
      </trkpt>
      <trkpt lat="37.849136584453774" lon="112.02117952749079">
        <ele>1144.2</ele>
        <time>2017-07-29T10:49:14.400000Z</time>
      </trkpt>
      <trkpt lat="37.8491483979337" lon="112.0215232001142">
        <ele>1144.2</ele>
        <time>2017-07-29T10:49:23.400000Z</time>
      </trkpt>
      <trkpt lat="37.84914506692264" lon="112.02184984271403">
        <ele>1142.09</ele>
        <time>2017-07-29T10:49:32.400000Z</time>
      </trkpt>
      <trkpt lat="37.849105224654735" lon="112.02193475334151">
        <ele>1137.5</ele>
        <time>2017-07-29T10:49:35.400000Z</time>
      </trkpt>
      <trkpt lat="37.849101752436496" lon="112.02231466943503">
        <ele>1127.8</ele>
        <time>2017-07-29T10:49:47.400000Z</time>
      </trkpt>
      <trkpt lat="37.849092211081675" lon="112.02273298834547">
        <ele>1119.9</ele>
        <time>2017-07-29T10:49:59.400000Z</time>
      </trkpt>
      <trkpt lat="37.84910549670934" lon="112.02303827818257">
        <ele>1115.8</ele>
        <time>2017-07-29T10:50:08.400000Z</time>
      </trkpt>
      <trkpt lat="37.84912723318911" lon="112.02322837430998">
        <ele>1115.09</ele>
        <time>2017-07-29T10:50:14.400000Z</time>
      </trkpt>
      <trkpt lat="37.849070512820184" lon="112.0234365986318">
        <ele>1113.8</ele>
        <time>2017-07-29T10:50:20.400000Z</time>
      </trkpt>
      <trkpt lat="37.849043676886204" lon="112.02373162399304">
        <ele>1111.09</ele>
        <time>2017-07-29T10:50:29.400000Z</time>
      </trkpt>
      <trkpt lat="37.84898895134763" lon="112.02390496745797">
        <ele>1109.4</ele>
        <time>2017-07-29T10:50:35.400000Z</time>
      </trkpt>
      <trkpt lat="37.84897723585465" lon="112.02402503427638">
        <ele>1108.3</ele>
        <time>2017-07-29T10:50:41Z</time>
      </trkpt>
      <trkpt lat="37.84900863322363" lon="112.02425677964622">
        <ele>1107.5</ele>
        <time>2017-07-29T10:50:47.600000Z</time>
      </trkpt>
      <trkpt lat="37.849097077408295" lon="112.02436006964471">
        <ele>1107.59</ele>
        <time>2017-07-29T10:50:50.400000Z</time>
      </trkpt>
      <trkpt lat="37.84914701712578" lon="112.02445525194894">
        <ele>1107.3</ele>
        <time>2017-07-29T10:50:53.400000Z</time>
      </trkpt>
      <trkpt lat="37.84916053094948" lon="112.02457694033146">
        <ele>1106.9</ele>
        <time>2017-07-29T10:50:56.400000Z</time>
      </trkpt>
      <trkpt lat="37.84914722540542" lon="112.02468348867318">
        <ele>1106.2</ele>
        <time>2017-07-29T10:50:59.800000Z</time>
      </trkpt>
      <trkpt lat="37.849178990141894" lon="112.02488035389419">
        <ele>1105.59</ele>
        <time>2017-07-29T10:51:03.400000Z</time>
      </trkpt>
      <trkpt lat="37.849087272621226" lon="112.02519378945235">
        <ele>1109.4</ele>
        <time>2017-07-29T10:51:12.400000Z</time>
      </trkpt>
      <trkpt lat="37.849047432061084" lon="112.02538363530637">
        <ele>1109.59</ele>
        <time>2017-07-29T10:51:18.400000Z</time>
      </trkpt>
      <trkpt lat="37.84904593411385" lon="112.02554048510545">
        <ele>1109.5</ele>
        <time>2017-07-29T10:51:24.400000Z</time>
      </trkpt>
      <trkpt lat="37.84902888961327" lon="112.02562540262382">
        <ele>1109.5</ele>
        <time>2017-07-29T10:51:27.400000Z</time>
      </trkpt>
      <trkpt lat="37.84903214116151" lon="112.02573032995176">
        <ele>1109.3</ele>
        <time>2017-07-29T10:51:30.400000Z</time>
      </trkpt>
      <trkpt lat="37.84900394705117" lon="112.02582525537319">
        <ele>1109.0</ele>
        <time>2017-07-29T10:51:33.400000Z</time>
      </trkpt>
      <trkpt lat="37.84903593056219" lon="112.02625199866172">
        <ele>1112.7</ele>
        <time>2017-07-29T10:51:45.400000Z</time>
      </trkpt>
      <trkpt lat="37.84906085786219" lon="112.02657706308976">
        <ele>1118.5</ele>
        <time>2017-07-29T10:51:54.500000Z</time>
      </trkpt>
      <trkpt lat="37.849034487549474" lon="112.02701545309951">
        <ele>1123.8</ele>
        <time>2017-07-29T10:52:06.400000Z</time>
      </trkpt>
      <trkpt lat="37.84903265619937" lon="112.02740895224481">
        <ele>1124.59</ele>
        <time>2017-07-29T10:52:18.400000Z</time>
      </trkpt>
      <trkpt lat="37.84902933633562" lon="112.02753903832092">
        <ele>1128.59</ele>
        <time>2017-07-29T10:52:21.400000Z</time>
      </trkpt>
      <trkpt lat="37.849064294878175" lon="112.02776567124617">
        <ele>1134.3</ele>
        <time>2017-07-29T10:52:27.400000Z</time>
      </trkpt>
      <trkpt lat="37.84905599556683" lon="112.02803937002376">
        <ele>1136.59</ele>
        <time>2017-07-29T10:52:33.400000Z</time>
      </trkpt>
      <trkpt lat="37.84903262299264" lon="112.0281608067663">
        <ele>1137.09</ele>
        <time>2017-07-29T10:52:36.400000Z</time>
      </trkpt>
      <trkpt lat="37.84902448710855" lon="112.02858434300389">
        <ele>1137.09</ele>
        <time>2017-07-29T10:52:49.400000Z</time>
      </trkpt>
      <trkpt lat="37.849039489711565" lon="112.02897948414471">
        <ele>1135.9</ele>
        <time>2017-07-29T10:53:01.400000Z</time>
      </trkpt>
      <trkpt lat="37.84904112177402" lon="112.02929917240876">
        <ele>1133.4</ele>
        <time>2017-07-29T10:53:10.400000Z</time>
      </trkpt>
      <trkpt lat="37.84914144539688" lon="112.02964616976821">
        <ele>1134.4</ele>
        <time>2017-07-29T10:53:22.500000Z</time>
      </trkpt>
      <trkpt lat="37.84921293466452" lon="112.03002454970458">
        <ele>1130.09</ele>
        <time>2017-07-29T10:53:34.400000Z</time>
      </trkpt>
      <trkpt lat="37.849233061779145" lon="112.03022118153474">
        <ele>1128.8</ele>
        <time>2017-07-29T10:53:40.400000Z</time>
      </trkpt>
      <trkpt lat="37.84933826109069" lon="112.03046621984745">
        <ele>1128.0</ele>
        <time>2017-07-29T10:53:46.400000Z</time>
      </trkpt>
      <trkpt lat="37.84947147726527" lon="112.03068312713985">
        <ele>1129.59</ele>
        <time>2017-07-29T10:53:52.500000Z</time>
      </trkpt>
      <trkpt lat="37.84963165189918" lon="112.03107963301439">
        <ele>1126.5</ele>
        <time>2017-07-29T10:54:04.400000Z</time>
      </trkpt>
      <trkpt lat="37.84980334098297" lon="112.03142961959051">
        <ele>1126.0</ele>
        <time>2017-07-29T10:54:16.400000Z</time>
      </trkpt>
      <trkpt lat="37.849833530487984" lon="112.03150968007675">
        <ele>1124.3</ele>
        <time>2017-07-29T10:54:19.400000Z</time>
      </trkpt>
      <trkpt lat="37.85001003226657" lon="112.03177987699796">
        <ele>1119.5</ele>
        <time>2017-07-29T10:54:31.400000Z</time>
      </trkpt>
      <trkpt lat="37.850193578415535" lon="112.03205494467672">
        <ele>1114.0</ele>
        <time>2017-07-29T10:54:40.400000Z</time>
      </trkpt>
      <trkpt lat="37.850323420447694" lon="112.03221343831036">
        <ele>1112.4</ele>
        <time>2017-07-29T10:54:46.400000Z</time>
      </trkpt>
      <trkpt lat="37.85049176024098" lon="112.0324952747555">
        <ele>1111.9</ele>
        <time>2017-07-29T10:54:58.400000Z</time>
      </trkpt>
      <trkpt lat="37.850553493214306" lon="112.03265864822302">
        <ele>1115.59</ele>
        <time>2017-07-29T10:55:07.400000Z</time>
      </trkpt>
      <trkpt lat="37.85061670205408" lon="112.03288504927598">
        <ele>1120.8</ele>
        <time>2017-07-29T10:55:16.400000Z</time>
      </trkpt>
      <trkpt lat="37.850798604702064" lon="112.03317040787378">
        <ele>1125.8</ele>
        <time>2017-07-29T10:55:31.400000Z</time>
      </trkpt>
      <trkpt lat="37.851050445267866" lon="112.03348200040837">
        <ele>1129.8</ele>
        <time>2017-07-29T10:55:46.500000Z</time>
      </trkpt>
      <trkpt lat="37.85122694767289" lon="112.03375870990854">
        <ele>1132.8</ele>
        <time>2017-07-29T10:55:55.500000Z</time>
      </trkpt>
      <trkpt lat="37.85134051989638" lon="112.0339169453648">
        <ele>1130.7</ele>
        <time>2017-07-29T10:56:01.500000Z</time>
      </trkpt>
      <trkpt lat="37.85141857037" lon="112.03406707066769">
        <ele>1129.09</ele>
        <time>2017-07-29T10:56:07.400000Z</time>
      </trkpt>
      <trkpt lat="37.851550604308514" lon="112.03422070704858">
        <ele>1128.0</ele>
        <time>2017-07-29T10:56:13.400000Z</time>
      </trkpt>
      <trkpt lat="37.85175882966852" lon="112.03450878251144">
        <ele>1126.5</ele>
        <time>2017-07-29T10:56:22.500000Z</time>
      </trkpt>
      <trkpt lat="37.8518204713447" lon="112.03460048101914">
        <ele>1125.9</ele>
        <time>2017-07-29T10:56:25.500000Z</time>
      </trkpt>
      <trkpt lat="37.85195712466468" lon="112.03475222643303">
        <ele>1125.09</ele>
        <time>2017-07-29T10:56:31.400000Z</time>
      </trkpt>
      <trkpt lat="37.852045744297534" lon="112.03490911848682">
        <ele>1124.3</ele>
        <time>2017-07-29T10:56:37.400000Z</time>
      </trkpt>
      <trkpt lat="37.852247219862264" lon="112.0351858405587">
        <ele>1123.5</ele>
        <time>2017-07-29T10:56:46.400000Z</time>
      </trkpt>
      <trkpt lat="37.85243569660901" lon="112.03556915585247">
        <ele>1115.4</ele>
        <time>2017-07-29T10:56:52.500000Z</time>
      </trkpt>
      <trkpt lat="37.85259573686348" lon="112.03593246099109">
        <ele>1112.5</ele>
        <time>2017-07-29T10:57:01.400000Z</time>
      </trkpt>
      <trkpt lat="37.852765881102584" lon="112.0361523855707">
        <ele>1109.09</ele>
        <time>2017-07-29T10:57:10.400000Z</time>
      </trkpt>
      <trkpt lat="37.85281586869947" lon="112.03624084510187">
        <ele>1108.0</ele>
        <time>2017-07-29T10:57:13.400000Z</time>
      </trkpt>
      <trkpt lat="37.85302934014242" lon="112.03649756066754">
        <ele>1105.0</ele>
        <time>2017-07-29T10:57:22.500000Z</time>
      </trkpt>
      <trkpt lat="37.853284422878794" lon="112.03682948501282">
        <ele>1103.0</ele>
        <time>2017-07-29T10:57:34.400000Z</time>
      </trkpt>
      <trkpt lat="37.85334446280609" lon="112.03691280544051">
        <ele>1105.2</ele>
        <time>2017-07-29T10:57:37.400000Z</time>
      </trkpt>
      <trkpt lat="37.8533676274132" lon="112.0369861204126">
        <ele>1103.2</ele>
        <time>2017-07-29T10:57:40.400000Z</time>
      </trkpt>
      <trkpt lat="37.853430877657566" lon="112.037089461451">
        <ele>1102.2</ele>
        <time>2017-07-29T10:57:43.400000Z</time>
      </trkpt>
      <trkpt lat="37.85364297688575" lon="112.03735619651897">
        <ele>1101.09</ele>
        <time>2017-07-29T10:57:52.400000Z</time>
      </trkpt>
      <trkpt lat="37.85387935279635" lon="112.0376862410766">
        <ele>1106.2</ele>
        <time>2017-07-29T10:58:04.400000Z</time>
      </trkpt>
      <trkpt lat="37.85407303072654" lon="112.03794297443152">
        <ele>1106.2</ele>
        <time>2017-07-29T10:58:13.400000Z</time>
      </trkpt>
      <trkpt lat="37.85426802232339" lon="112.03821973181037">
        <ele>1101.9</ele>
        <time>2017-07-29T10:58:22.500000Z</time>
      </trkpt>
      <trkpt lat="37.8544395974319" lon="112.03853491521193">
        <ele>1103.2</ele>
        <time>2017-07-29T10:58:31.400000Z</time>
      </trkpt>
      <trkpt lat="37.854527887168906" lon="112.0387267347045">
        <ele>1102.59</ele>
        <time>2017-07-29T10:58:37.400000Z</time>
      </trkpt>
      <trkpt lat="37.85452803890393" lon="112.03890179121673">
        <ele>1102.9</ele>
        <time>2017-07-29T10:58:43.400000Z</time>
      </trkpt>
      <trkpt lat="37.85456639888476" lon="112.03897646334073">
        <ele>1104.7</ele>
        <time>2017-07-29T10:58:46.400000Z</time>
      </trkpt>
      <trkpt lat="37.85478823268316" lon="112.03914337784917">
        <ele>1100.9</ele>
        <time>2017-07-29T10:58:52.500000Z</time>
      </trkpt>
      <trkpt lat="37.85486479615931" lon="112.03924158583999">
        <ele>1102.2</ele>
        <time>2017-07-29T10:58:55.400000Z</time>
      </trkpt>
      <trkpt lat="37.85491991127079" lon="112.03934656115204">
        <ele>1103.9</ele>
        <time>2017-07-29T10:58:58.500000Z</time>
      </trkpt>
      <trkpt lat="37.85498835759004" lon="112.03943503032627">
        <ele>1105.0</ele>
        <time>2017-07-29T10:59:01.400000Z</time>
      </trkpt>
      <trkpt lat="37.855028030674426" lon="112.03952999710806">
        <ele>1106.59</ele>
        <time>2017-07-29T10:59:04.400000Z</time>
      </trkpt>
      <trkpt lat="37.85506671372344" lon="112.0395819428637">
        <ele>1107.5</ele>
        <time>2017-07-29T10:59:07.400000Z</time>
      </trkpt>
      <trkpt lat="37.85515805841195" lon="112.0396217064574">
        <ele>1108.0</ele>
        <time>2017-07-29T10:59:10.400000Z</time>
      </trkpt>
      <trkpt lat="37.85528472407083" lon="112.0397618499077">
        <ele>1108.7</ele>
        <time>2017-07-29T10:59:16.400000Z</time>
      </trkpt>
      <trkpt lat="37.85546976309688" lon="112.03988358778167">
        <ele>1109.8</ele>
        <time>2017-07-29T10:59:22.400000Z</time>
      </trkpt>
      <trkpt lat="37.85567490991538" lon="112.04011545036516">
        <ele>1112.7</ele>
        <time>2017-07-29T10:59:31.400000Z</time>
      </trkpt>
      <trkpt lat="37.85572844762263" lon="112.04019878321961">
        <ele>1112.8</ele>
        <time>2017-07-29T10:59:34.400000Z</time>
      </trkpt>
      <trkpt lat="37.85575655399373" lon="112.04037357691972">
        <ele>1112.5</ele>
        <time>2017-07-29T10:59:40.400000Z</time>
      </trkpt>
      <trkpt lat="37.855803258394886" lon="112.04048045251454">
        <ele>1111.5</ele>
        <time>2017-07-29T10:59:43.400000Z</time>
      </trkpt>
      <trkpt lat="37.85601836572235" lon="112.04062546111076">
        <ele>1110.4</ele>
        <time>2017-07-29T10:59:49.400000Z</time>
      </trkpt>
      <trkpt lat="37.8561151737073" lon="112.04077400258574">
        <ele>1109.9</ele>
        <time>2017-07-29T10:59:55.500000Z</time>
      </trkpt>
      <trkpt lat="37.856166901361014" lon="112.04081702011385">
        <ele>1109.5</ele>
        <time>2017-07-29T10:59:58.500000Z</time>
      </trkpt>
      <trkpt lat="37.856265051116864" lon="112.04084731436227">
        <ele>1109.4</ele>
        <time>2017-07-29T11:00:04.400000Z</time>
      </trkpt>
      <trkpt lat="37.856418350021556" lon="112.04084404875732">
        <ele>1108.09</ele>
        <time>2017-07-29T11:00:10.400000Z</time>
      </trkpt>
      <trkpt lat="37.85666010108769" lon="112.04071359536817">
        <ele>1112.3</ele>
        <time>2017-07-29T11:00:25.500000Z</time>
      </trkpt>
      <trkpt lat="37.85687002133262" lon="112.04049872350888">
        <ele>1114.9</ele>
        <time>2017-07-29T11:00:51.500000Z</time>
      </trkpt>
      <trkpt lat="37.85687520604935" lon="112.0403604537276">
        <ele>1116.0</ele>
        <time>2017-07-29T11:01:09.400000Z</time>
      </trkpt>
      <trkpt lat="37.8568215043239" lon="112.04010367686313">
        <ele>1116.9</ele>
        <time>2017-07-29T11:01:27.500000Z</time>
      </trkpt>
      <trkpt lat="37.85676324486482" lon="112.04007040239115">
        <ele>1117.4</ele>
        <time>2017-07-29T11:01:33.500000Z</time>
      </trkpt>
      <trkpt lat="37.85673669986845" lon="112.0399267274423">
        <ele>1118.7</ele>
        <time>2017-07-29T11:01:42.400000Z</time>
      </trkpt>
    </trkseg>
  </trk>
</gpx>