<?xml version="1.0" encoding="UTF-8"?>
<gpx xmlns="http://www.topografix.com/GPX/1/1" xmlns:gpxtpx="http://www.garmin.com/xmlschemas/TrackPointExtension/v1" xmlns:xsi="http://www.w3.org/2001/XMLSchema-instance" xsi:schemaLocation="http://www.topografix.com/GPX/1/1 http://www.topografix.com/GPX/1/1/gpx.xsd" version="1.1" creator="gpx.py -- https://github.com/tkrajina/gpxpy">
  <trk>
    <name>gpx from keep</name>
    <type>Run</type>
    <trkseg>
      <trkpt lat="37.847720109058784" lon="112.03026869672367">
        <ele>1106.0</ele>
        <time>2018-05-23T08:09:08.174000Z</time>
      </trkpt>
      <trkpt lat="37.84757870392525" lon="112.03039800108348">
        <ele>1107.0</ele>
        <time>2018-05-23T08:09:14.474000Z</time>
      </trkpt>
      <trkpt lat="37.847553218806596" lon="112.03049943292929">
        <ele>1108.0</ele>
        <time>2018-05-23T08:09:20.474000Z</time>
      </trkpt>
      <trkpt lat="37.84755340281562" lon="112.03064332717796">
        <ele>1107.0</ele>
        <time>2018-05-23T08:09:29.474000Z</time>
      </trkpt>
      <trkpt lat="37.84760673491129" lon="112.03079911691283">
        <ele>1108.0</ele>
        <time>2018-05-23T08:09:41.574000Z</time>
      </trkpt>
      <trkpt lat="37.847633406038426" lon="112.03098439327604">
        <ele>1106.0</ele>
        <time>2018-05-23T08:09:53.474000Z</time>
      </trkpt>
      <trkpt lat="37.847800089382964" lon="112.03127352006578">
        <ele>1102.0</ele>
        <time>2018-05-23T08:10:17.474000Z</time>
      </trkpt>
      <trkpt lat="37.8477438296188" lon="112.03131328815606">
        <ele>1103.0</ele>
        <time>2018-05-23T08:10:26.574000Z</time>
      </trkpt>
      <trkpt lat="37.84764661520899" lon="112.03134765152218">
        <ele>1108.0</ele>
        <time>2018-05-23T08:10:50.474000Z</time>
      </trkpt>
      <trkpt lat="37.84757990019489" lon="112.03144638701384">
        <ele>1106.0</ele>
        <time>2018-05-23T08:11:41.574000Z</time>
      </trkpt>
      <trkpt lat="37.84757990019489" lon="112.03144638701384">
        <ele>1106.0</ele>
        <time>2018-05-23T08:11:50.374000Z</time>
      </trkpt>
      <trkpt lat="37.84759532559476" lon="112.0314623438756">
        <ele>1112.0</ele>
        <time>2018-05-23T08:11:56.474000Z</time>
      </trkpt>
      <trkpt lat="37.84759065593709" lon="112.03148560631669">
        <ele>1115.0</ele>
        <time>2018-05-23T08:12:05.574000Z</time>
      </trkpt>
      <trkpt lat="37.84758393117474" lon="112.0314620747608">
        <ele>1115.0</ele>
        <time>2018-05-23T08:12:20.474000Z</time>
      </trkpt>
      <trkpt lat="37.84757644439195" lon="112.03152753355822">
        <ele>1113.0</ele>
        <time>2018-05-23T08:12:50.574000Z</time>
      </trkpt>
      <trkpt lat="37.84759484559404" lon="112.03154700644974">
        <ele>1115.0</ele>
        <time>2018-05-23T08:13:35.574000Z</time>
      </trkpt>
      <trkpt lat="37.8475907872492" lon="112.03154240864791">
        <ele>1114.0</ele>
        <time>2018-05-23T08:13:41.674000Z</time>
      </trkpt>
      <trkpt lat="37.847599481883066" lon="112.03153726833602">
        <ele>1113.0</ele>
        <time>2018-05-23T08:13:50.574000Z</time>
      </trkpt>
      <trkpt lat="37.84760239467135" lon="112.03167656946249">
        <ele>1116.0</ele>
        <time>2018-05-23T08:14:32.574000Z</time>
      </trkpt>
      <trkpt lat="37.8475727148588" lon="112.03205174393509">
        <ele>1117.0</ele>
        <time>2018-05-23T08:15:02.474000Z</time>
      </trkpt>
      <trkpt lat="37.847554644095105" lon="112.03211882841681">
        <ele>1117.0</ele>
        <time>2018-05-23T08:15:08.474000Z</time>
      </trkpt>
      <trkpt lat="37.8473765983734" lon="112.03236770506281">
        <ele>1115.0</ele>
        <time>2018-05-23T08:15:32.674000Z</time>
      </trkpt>
      <trkpt lat="37.84722432307811" lon="112.03250757024034">
        <ele>1119.0</ele>
        <time>2018-05-23T08:15:47.574000Z</time>
      </trkpt>
      <trkpt lat="37.8471043130369" lon="112.03257491797093">
        <ele>1117.0</ele>
        <time>2018-05-23T08:15:59.474000Z</time>
      </trkpt>
      <trkpt lat="37.84690749229981" lon="112.03270561332477">
        <ele>1113.0</ele>
        <time>2018-05-23T08:16:23.574000Z</time>
      </trkpt>
      <trkpt lat="37.84663958842002" lon="112.03264316027395">
        <ele>1114.0</ele>
        <time>2018-05-23T08:16:53.574000Z</time>
      </trkpt>
      <trkpt lat="37.8464085685755" lon="112.03258665389032">
        <ele>1115.0</ele>
        <time>2018-05-23T08:17:20.574000Z</time>
      </trkpt>
      <trkpt lat="37.846351664264" lon="112.03255744694161">
        <ele>1117.0</ele>
        <time>2018-05-23T08:17:29.474000Z</time>
      </trkpt>
      <trkpt lat="37.84620440016172" lon="112.03231104213366">
        <ele>1122.0</ele>
        <time>2018-05-23T08:18:17.574000Z</time>
      </trkpt>
      <trkpt lat="37.84618225405879" lon="112.032158485785">
        <ele>1125.0</ele>
        <time>2018-05-23T08:18:38.574000Z</time>
      </trkpt>
      <trkpt lat="37.846255953810825" lon="112.03197643512189">
        <ele>1126.0</ele>
        <time>2018-05-23T08:19:14.574000Z</time>
      </trkpt>
      <trkpt lat="37.84625501579773" lon="112.03191638606351">
        <ele>1130.0</ele>
        <time>2018-05-23T08:19:26.474000Z</time>
      </trkpt>
      <trkpt lat="37.84628145909529" lon="112.03186498955195">
        <ele>1131.0</ele>
        <time>2018-05-23T08:19:35.474000Z</time>
      </trkpt>
      <trkpt lat="37.84630704918952" lon="112.03171919225603">
        <ele>1137.0</ele>
        <time>2018-05-23T08:20:05.474000Z</time>
      </trkpt>
      <trkpt lat="37.846273401337726" lon="112.03150091220934">
        <ele>1138.0</ele>
        <time>2018-05-23T08:20:23.574000Z</time>
      </trkpt>
      <trkpt lat="37.84614104736989" lon="112.03115281331056">
        <ele>1148.0</ele>
        <time>2018-05-23T08:20:38.574000Z</time>
      </trkpt>
      <trkpt lat="37.84607962706635" lon="112.03086948221653">
        <ele>1150.0</ele>
        <time>2018-05-23T08:20:50.574000Z</time>
      </trkpt>
      <trkpt lat="37.846004249226226" lon="112.03067759161476">
        <ele>1161.0</ele>
        <time>2018-05-23T08:21:05.474000Z</time>
      </trkpt>
      <trkpt lat="37.84597127409552" lon="112.0305794142551">
        <ele>1170.0</ele>
        <time>2018-05-23T08:21:14.474000Z</time>
      </trkpt>
      <trkpt lat="37.84597127409552" lon="112.0305794142551">
        <ele>1170.0</ele>
        <time>2018-05-23T08:21:20.074000Z</time>
      </trkpt>
      <trkpt lat="37.84594616889716" lon="112.03052856745127">
        <ele>1168.0</ele>
        <time>2018-05-23T08:21:44.574000Z</time>
      </trkpt>
      <trkpt lat="37.84585216824847" lon="112.03047069663202">
        <ele>1170.0</ele>
        <time>2018-05-23T08:21:56.474000Z</time>
      </trkpt>
      <trkpt lat="37.84579541672307" lon="112.03035466297857">
        <ele>1169.0</ele>
        <time>2018-05-23T08:22:05.474000Z</time>
      </trkpt>
      <trkpt lat="37.84575174299524" lon="112.03033040399096">
        <ele>1169.0</ele>
        <time>2018-05-23T08:22:08.574000Z</time>
      </trkpt>
      <trkpt lat="37.84561131984835" lon="112.03011478022233">
        <ele>1174.0</ele>
        <time>2018-05-23T08:22:17.574000Z</time>
      </trkpt>
      <trkpt lat="37.84551548447506" lon="112.03003148604878">
        <ele>1176.0</ele>
        <time>2018-05-23T08:22:23.574000Z</time>
      </trkpt>
      <trkpt lat="37.845489311803775" lon="112.02997387858002">
        <ele>1179.0</ele>
        <time>2018-05-23T08:22:26.474000Z</time>
      </trkpt>
      <trkpt lat="37.84547356929708" lon="112.02986839655347">
        <ele>1184.0</ele>
        <time>2018-05-23T08:22:32.574000Z</time>
      </trkpt>
      <trkpt lat="37.845396555645316" lon="112.02985298897379">
        <ele>1187.0</ele>
        <time>2018-05-23T08:22:38.574000Z</time>
      </trkpt>
      <trkpt lat="37.84520208335936" lon="112.02976057193337">
        <ele>1189.0</ele>
        <time>2018-05-23T08:22:59.474000Z</time>
      </trkpt>
      <trkpt lat="37.84500076506044" lon="112.02972429273434">
        <ele>1202.0</ele>
        <time>2018-05-23T08:23:23.474000Z</time>
      </trkpt>
      <trkpt lat="37.845058397399605" lon="112.02967884692971">
        <ele>1207.0</ele>
        <time>2018-05-23T08:23:29.574000Z</time>
      </trkpt>
      <trkpt lat="37.84508705316031" lon="112.02956311479845">
        <ele>1210.0</ele>
        <time>2018-05-23T08:23:38.574000Z</time>
      </trkpt>
      <trkpt lat="37.84500558306561" lon="112.0294505635117">
        <ele>1220.0</ele>
        <time>2018-05-23T08:23:50.474000Z</time>
      </trkpt>
      <trkpt lat="37.84494845817886" lon="112.02938643334295">
        <ele>1220.0</ele>
        <time>2018-05-23T08:23:56.474000Z</time>
      </trkpt>
      <trkpt lat="37.84488230612469" lon="112.02936397674308">
        <ele>1218.0</ele>
        <time>2018-05-23T08:24:02.474000Z</time>
      </trkpt>
      <trkpt lat="37.84483573720726" lon="112.02932955028581">
        <ele>1222.0</ele>
        <time>2018-05-23T08:24:08.474000Z</time>
      </trkpt>
      <trkpt lat="37.84479985083044" lon="112.02928385090792">
        <ele>1224.0</ele>
        <time>2018-05-23T08:24:14.474000Z</time>
      </trkpt>
      <trkpt lat="37.844752972185425" lon="112.02923688752801">
        <ele>1222.0</ele>
        <time>2018-05-23T08:24:20.474000Z</time>
      </trkpt>
      <trkpt lat="37.844712129692375" lon="112.0292258620194">
        <ele>1223.0</ele>
        <time>2018-05-23T08:24:26.574000Z</time>
      </trkpt>
      <trkpt lat="37.84461080091085" lon="112.02912757551185">
        <ele>1221.0</ele>
        <time>2018-05-23T08:24:38.574000Z</time>
      </trkpt>
      <trkpt lat="37.84457831443968" lon="112.0290599806587">
        <ele>1225.0</ele>
        <time>2018-05-23T08:24:44.574000Z</time>
      </trkpt>
      <trkpt lat="37.844536296343875" lon="112.02899843377755">
        <ele>1226.0</ele>
        <time>2018-05-23T08:24:53.574000Z</time>
      </trkpt>
      <trkpt lat="37.844543935060095" lon="112.02894012420963">
        <ele>1226.0</ele>
        <time>2018-05-23T08:24:59.574000Z</time>
      </trkpt>
      <trkpt lat="37.84454257676628" lon="112.02887236658866">
        <ele>1232.0</ele>
        <time>2018-05-23T08:25:05.474000Z</time>
      </trkpt>
      <trkpt lat="37.84452069231348" lon="112.02883138724118">
        <ele>1231.0</ele>
        <time>2018-05-23T08:25:11.474000Z</time>
      </trkpt>
      <trkpt lat="37.8444145649312" lon="112.02881665354464">
        <ele>1232.0</ele>
        <time>2018-05-23T08:25:23.474000Z</time>
      </trkpt>
      <trkpt lat="37.844350360572584" lon="112.02878747960692">
        <ele>1233.0</ele>
        <time>2018-05-23T08:25:29.474000Z</time>
      </trkpt>
      <trkpt lat="37.844350360572584" lon="112.02878747960692">
        <ele>1233.0</ele>
        <time>2018-05-23T08:25:44.374000Z</time>
      </trkpt>
      <trkpt lat="37.84432218549126" lon="112.02877125535832">
        <ele>1233.0</ele>
        <time>2018-05-23T08:25:47.474000Z</time>
      </trkpt>
      <trkpt lat="37.84432218549126" lon="112.02877125535832">
        <ele>1233.0</ele>
        <time>2018-05-23T08:25:52.574000Z</time>
      </trkpt>
      <trkpt lat="37.844294195062965" lon="112.02878910912716">
        <ele>1246.0</ele>
        <time>2018-05-23T08:26:20.474000Z</time>
      </trkpt>
      <trkpt lat="37.84421519103495" lon="112.02870311225043">
        <ele>1241.0</ele>
        <time>2018-05-23T08:26:29.474000Z</time>
      </trkpt>
      <trkpt lat="37.843932053391335" lon="112.02855304145076">
        <ele>1241.0</ele>
        <time>2018-05-23T08:26:41.574000Z</time>
      </trkpt>
      <trkpt lat="37.843574267103975" lon="112.02863097663568">
        <ele>1235.0</ele>
        <time>2018-05-23T08:26:53.474000Z</time>
      </trkpt>
      <trkpt lat="37.84336851178748" lon="112.02868515365297">
        <ele>1238.0</ele>
        <time>2018-05-23T08:27:02.574000Z</time>
      </trkpt>
      <trkpt lat="37.84322532477607" lon="112.02864447181577">
        <ele>1234.0</ele>
        <time>2018-05-23T08:27:08.574000Z</time>
      </trkpt>
      <trkpt lat="37.8430054618831" lon="112.02843036988229">
        <ele>1230.0</ele>
        <time>2018-05-23T08:27:17.574000Z</time>
      </trkpt>
      <trkpt lat="37.84276412413667" lon="112.02830987972682">
        <ele>1225.0</ele>
        <time>2018-05-23T08:27:26.574000Z</time>
      </trkpt>
      <trkpt lat="37.84268585856217" lon="112.02825105220451">
        <ele>1225.0</ele>
        <time>2018-05-23T08:27:29.574000Z</time>
      </trkpt>
      <trkpt lat="37.84263941402187" lon="112.02827922375846">
        <ele>1222.0</ele>
        <time>2018-05-23T08:27:32.574000Z</time>
      </trkpt>
      <trkpt lat="37.84280800541863" lon="112.02839345876572">
        <ele>1220.0</ele>
        <time>2018-05-23T08:27:41.574000Z</time>
      </trkpt>
      <trkpt lat="37.84303826436095" lon="112.02869807980014">
        <ele>1217.0</ele>
        <time>2018-05-23T08:27:50.574000Z</time>
      </trkpt>
      <trkpt lat="37.84317155904756" lon="112.02887687357439">
        <ele>1215.0</ele>
        <time>2018-05-23T08:27:56.574000Z</time>
      </trkpt>
      <trkpt lat="37.84324855018643" lon="112.02890093540299">
        <ele>1213.0</ele>
        <time>2018-05-23T08:27:59.574000Z</time>
      </trkpt>
      <trkpt lat="37.84332646865127" lon="112.02889275892349">
        <ele>1214.0</ele>
        <time>2018-05-23T08:28:02.474000Z</time>
      </trkpt>
      <trkpt lat="37.84341092809795" lon="112.02881859666158">
        <ele>1215.0</ele>
        <time>2018-05-23T08:28:05.574000Z</time>
      </trkpt>
      <trkpt lat="37.84358689428642" lon="112.0287606400884">
        <ele>1213.0</ele>
        <time>2018-05-23T08:28:11.574000Z</time>
      </trkpt>
      <trkpt lat="37.843870539825026" lon="112.02872125228255">
        <ele>1222.0</ele>
        <time>2018-05-23T08:28:20.574000Z</time>
      </trkpt>
      <trkpt lat="37.84407387122292" lon="112.02877777647876">
        <ele>1219.0</ele>
        <time>2018-05-23T08:28:29.474000Z</time>
      </trkpt>
      <trkpt lat="37.8442060863054" lon="112.0288894581081">
        <ele>1215.0</ele>
        <time>2018-05-23T08:28:35.574000Z</time>
      </trkpt>
      <trkpt lat="37.844297330733816" lon="112.02905010454263">
        <ele>1215.0</ele>
        <time>2018-05-23T08:28:41.574000Z</time>
      </trkpt>
      <trkpt lat="37.844355211015625" lon="112.02912122949171">
        <ele>1215.0</ele>
        <time>2018-05-23T08:28:44.574000Z</time>
      </trkpt>
      <trkpt lat="37.844383471712085" lon="112.02922007069486">
        <ele>1213.0</ele>
        <time>2018-05-23T08:28:47.574000Z</time>
      </trkpt>
      <trkpt lat="37.84445160932884" lon="112.02929228741289">
        <ele>1214.0</ele>
        <time>2018-05-23T08:28:50.574000Z</time>
      </trkpt>
      <trkpt lat="37.84464056933865" lon="112.02931621013326">
        <ele>1214.0</ele>
        <time>2018-05-23T08:28:56.574000Z</time>
      </trkpt>
      <trkpt lat="37.844714620228174" lon="112.02936913496212">
        <ele>1213.0</ele>
        <time>2018-05-23T08:28:59.574000Z</time>
      </trkpt>
      <trkpt lat="37.84486983354509" lon="112.02943736327941">
        <ele>1209.0</ele>
        <time>2018-05-23T08:29:05.574000Z</time>
      </trkpt>
      <trkpt lat="37.844960074551004" lon="112.02960242924672">
        <ele>1203.0</ele>
        <time>2018-05-23T08:29:11.574000Z</time>
      </trkpt>
      <trkpt lat="37.84501918717988" lon="112.02964952413572">
        <ele>1202.0</ele>
        <time>2018-05-23T08:29:14.574000Z</time>
      </trkpt>
      <trkpt lat="37.845086276046395" lon="112.02962101455236">
        <ele>1210.0</ele>
        <time>2018-05-23T08:29:17.574000Z</time>
      </trkpt>
      <trkpt lat="37.845134479331044" lon="112.02956526604201">
        <ele>1209.0</ele>
        <time>2018-05-23T08:29:23.474000Z</time>
      </trkpt>
      <trkpt lat="37.84508335341011" lon="112.02953750637217">
        <ele>1209.0</ele>
        <time>2018-05-23T08:29:26.474000Z</time>
      </trkpt>
      <trkpt lat="37.845025788299544" lon="112.02955530171617">
        <ele>1207.0</ele>
        <time>2018-05-23T08:29:29.474000Z</time>
      </trkpt>
      <trkpt lat="37.844956770521726" lon="112.02949474124044">
        <ele>1206.0</ele>
        <time>2018-05-23T08:29:35.474000Z</time>
      </trkpt>
      <trkpt lat="37.844951204438175" lon="112.02941262221081">
        <ele>1211.0</ele>
        <time>2018-05-23T08:29:38.474000Z</time>
      </trkpt>
      <trkpt lat="37.84497667478239" lon="112.02934707494715">
        <ele>1213.0</ele>
        <time>2018-05-23T08:29:41.574000Z</time>
      </trkpt>
      <trkpt lat="37.8449036040775" lon="112.02935599243077">
        <ele>1217.0</ele>
        <time>2018-05-23T08:29:47.474000Z</time>
      </trkpt>
      <trkpt lat="37.84482968593542" lon="112.02934019781358">
        <ele>1214.0</ele>
        <time>2018-05-23T08:29:53.574000Z</time>
      </trkpt>
      <trkpt lat="37.84476757115805" lon="112.02935896299552">
        <ele>1214.0</ele>
        <time>2018-05-23T08:29:56.574000Z</time>
      </trkpt>
      <trkpt lat="37.84472424142803" lon="112.02920962692359">
        <ele>1218.0</ele>
        <time>2018-05-23T08:30:08.574000Z</time>
      </trkpt>
      <trkpt lat="37.84465640890039" lon="112.02914673950252">
        <ele>1220.0</ele>
        <time>2018-05-23T08:30:14.574000Z</time>
      </trkpt>
      <trkpt lat="37.844571409065956" lon="112.02909961255396">
        <ele>1224.0</ele>
        <time>2018-05-23T08:30:20.574000Z</time>
      </trkpt>
      <trkpt lat="37.844588891103044" lon="112.02904740059283">
        <ele>1228.0</ele>
        <time>2018-05-23T08:30:23.574000Z</time>
      </trkpt>
      <trkpt lat="37.84455602968882" lon="112.0290048073283">
        <ele>1231.0</ele>
        <time>2018-05-23T08:30:26.574000Z</time>
      </trkpt>
      <trkpt lat="37.84453875649929" lon="112.02895147632496">
        <ele>1234.0</ele>
        <time>2018-05-23T08:30:29.574000Z</time>
      </trkpt>
      <trkpt lat="37.844567891521834" lon="112.02890154826108">
        <ele>1232.0</ele>
        <time>2018-05-23T08:30:32.474000Z</time>
      </trkpt>
      <trkpt lat="37.84457522422017" lon="112.02879760892073">
        <ele>1230.0</ele>
        <time>2018-05-23T08:30:38.474000Z</time>
      </trkpt>
      <trkpt lat="37.84455111908811" lon="112.02874692187312">
        <ele>1233.0</ele>
        <time>2018-05-23T08:30:41.474000Z</time>
      </trkpt>
      <trkpt lat="37.844521383350994" lon="112.02871434019966">
        <ele>1234.0</ele>
        <time>2018-05-23T08:30:44.474000Z</time>
      </trkpt>
      <trkpt lat="37.844459288822954" lon="112.02873124597869">
        <ele>1233.0</ele>
        <time>2018-05-23T08:30:50.474000Z</time>
      </trkpt>
      <trkpt lat="37.84435714608926" lon="112.02875761624315">
        <ele>1234.0</ele>
        <time>2018-05-23T08:30:56.474000Z</time>
      </trkpt>
      <trkpt lat="37.84427648116951" lon="112.02871338235656">
        <ele>1238.0</ele>
        <time>2018-05-23T08:31:02.474000Z</time>
      </trkpt>
      <trkpt lat="37.84427805122877" lon="112.02873610081701">
        <ele>1240.0</ele>
        <time>2018-05-23T08:31:11.474000Z</time>
      </trkpt>
      <trkpt lat="37.843903057593934" lon="112.02853952201684">
        <ele>1245.0</ele>
        <time>2018-05-23T08:31:59.574000Z</time>
      </trkpt>
      <trkpt lat="37.84379176977306" lon="112.02855927886932">
        <ele>1242.0</ele>
        <time>2018-05-23T08:32:05.574000Z</time>
      </trkpt>
      <trkpt lat="37.84374391497468" lon="112.02859280776796">
        <ele>1245.0</ele>
        <time>2018-05-23T08:32:08.574000Z</time>
      </trkpt>
      <trkpt lat="37.84354406304398" lon="112.02862962010714">
        <ele>1246.0</ele>
        <time>2018-05-23T08:32:17.474000Z</time>
      </trkpt>
      <trkpt lat="37.843410604197146" lon="112.02867959603307">
        <ele>1245.0</ele>
        <time>2018-05-23T08:32:23.574000Z</time>
      </trkpt>
      <trkpt lat="37.84333567942801" lon="112.02868469602471">
        <ele>1242.0</ele>
        <time>2018-05-23T08:32:26.574000Z</time>
      </trkpt>
      <trkpt lat="37.84319796916679" lon="112.0286137191817">
        <ele>1238.0</ele>
        <time>2018-05-23T08:32:32.574000Z</time>
      </trkpt>
      <trkpt lat="37.842902416847316" lon="112.028412802454">
        <ele>1236.0</ele>
        <time>2018-05-23T08:32:44.474000Z</time>
      </trkpt>
      <trkpt lat="37.84272928134723" lon="112.02829282711959">
        <ele>1234.0</ele>
        <time>2018-05-23T08:32:50.474000Z</time>
      </trkpt>
      <trkpt lat="37.84265671879623" lon="112.02825761927963">
        <ele>1230.0</ele>
        <time>2018-05-23T08:32:53.474000Z</time>
      </trkpt>
      <trkpt lat="37.842733059853096" lon="112.0283323289437">
        <ele>1224.0</ele>
        <time>2018-05-23T08:33:02.574000Z</time>
      </trkpt>
      <trkpt lat="37.84297011199441" lon="112.0286141678566">
        <ele>1218.0</ele>
        <time>2018-05-23T08:33:11.574000Z</time>
      </trkpt>
      <trkpt lat="37.84304507653183" lon="112.02869719719415">
        <ele>1218.0</ele>
        <time>2018-05-23T08:33:14.574000Z</time>
      </trkpt>
      <trkpt lat="37.843164790705146" lon="112.02887119469622">
        <ele>1215.0</ele>
        <time>2018-05-23T08:33:20.574000Z</time>
      </trkpt>
      <trkpt lat="37.84322921775419" lon="112.0289282543827">
        <ele>1217.0</ele>
        <time>2018-05-23T08:33:23.474000Z</time>
      </trkpt>
      <trkpt lat="37.843455914166086" lon="112.02886782114025">
        <ele>1211.0</ele>
        <time>2018-05-23T08:33:32.574000Z</time>
      </trkpt>
      <trkpt lat="37.843523734682464" lon="112.0288055764923">
        <ele>1213.0</ele>
        <time>2018-05-23T08:33:35.574000Z</time>
      </trkpt>
      <trkpt lat="37.843730481237046" lon="112.02874420621198">
        <ele>1210.0</ele>
        <time>2018-05-23T08:33:44.474000Z</time>
      </trkpt>
      <trkpt lat="37.84390248214956" lon="112.02873819950612">
        <ele>1209.0</ele>
        <time>2018-05-23T08:33:50.574000Z</time>
      </trkpt>
      <trkpt lat="37.84412632587061" lon="112.02881998927377">
        <ele>1209.0</ele>
        <time>2018-05-23T08:33:59.574000Z</time>
      </trkpt>
      <trkpt lat="37.844190314714794" lon="112.0288600777128">
        <ele>1207.0</ele>
        <time>2018-05-23T08:34:02.574000Z</time>
      </trkpt>
      <trkpt lat="37.844359328191636" lon="112.02912575448937">
        <ele>1209.0</ele>
        <time>2018-05-23T08:34:11.574000Z</time>
      </trkpt>
      <trkpt lat="37.84440653320682" lon="112.02923872230606">
        <ele>1209.0</ele>
        <time>2018-05-23T08:34:14.574000Z</time>
      </trkpt>
      <trkpt lat="37.844727150672185" lon="112.02940715487243">
        <ele>1199.0</ele>
        <time>2018-05-23T08:34:29.474000Z</time>
      </trkpt>
      <trkpt lat="37.84481872482573" lon="112.02947336948377">
        <ele>1199.0</ele>
        <time>2018-05-23T08:34:32.574000Z</time>
      </trkpt>
      <trkpt lat="37.844923373152106" lon="112.02960769663046">
        <ele>1205.0</ele>
        <time>2018-05-23T08:34:38.474000Z</time>
      </trkpt>
      <trkpt lat="37.84496943228294" lon="112.0296070325826">
        <ele>1200.0</ele>
        <time>2018-05-23T08:34:41.474000Z</time>
      </trkpt>
      <trkpt lat="37.84505892177834" lon="112.02952370463069">
        <ele>1203.0</ele>
        <time>2018-05-23T08:34:50.574000Z</time>
      </trkpt>
      <trkpt lat="37.845040497617255" lon="112.02944849554696">
        <ele>1204.0</ele>
        <time>2018-05-23T08:34:53.574000Z</time>
      </trkpt>
      <trkpt lat="37.845007252129626" lon="112.0294603311573">
        <ele>1206.0</ele>
        <time>2018-05-23T08:34:56.574000Z</time>
      </trkpt>
      <trkpt lat="37.84500465793335" lon="112.02940446532148">
        <ele>1205.0</ele>
        <time>2018-05-23T08:34:59.474000Z</time>
      </trkpt>
      <trkpt lat="37.84495402504907" lon="112.02931341289066">
        <ele>1209.0</ele>
        <time>2018-05-23T08:35:05.574000Z</time>
      </trkpt>
      <trkpt lat="37.84488112826313" lon="112.02927808798145">
        <ele>1212.0</ele>
        <time>2018-05-23T08:35:08.474000Z</time>
      </trkpt>
      <trkpt lat="37.8448279340304" lon="112.0292935547461">
        <ele>1213.0</ele>
        <time>2018-05-23T08:35:11.474000Z</time>
      </trkpt>
      <trkpt lat="37.844762435845446" lon="112.0292540987947">
        <ele>1215.0</ele>
        <time>2018-05-23T08:35:17.474000Z</time>
      </trkpt>
      <trkpt lat="37.84469182745904" lon="112.02918253068275">
        <ele>1221.0</ele>
        <time>2018-05-23T08:35:23.574000Z</time>
      </trkpt>
      <trkpt lat="37.84465906885206" lon="112.02912639743228">
        <ele>1221.0</ele>
        <time>2018-05-23T08:35:26.474000Z</time>
      </trkpt>
      <trkpt lat="37.84458956221541" lon="112.02908006938573">
        <ele>1226.0</ele>
        <time>2018-05-23T08:35:32.474000Z</time>
      </trkpt>
      <trkpt lat="37.844515841149764" lon="112.02894236783025">
        <ele>1231.0</ele>
        <time>2018-05-23T08:35:47.474000Z</time>
      </trkpt>
      <trkpt lat="37.844553525427166" lon="112.02890262026656">
        <ele>1230.0</ele>
        <time>2018-05-23T08:35:53.474000Z</time>
      </trkpt>
      <trkpt lat="37.84455005150162" lon="112.02883293535534">
        <ele>1235.0</ele>
        <time>2018-05-23T08:35:59.574000Z</time>
      </trkpt>
      <trkpt lat="37.84452538011442" lon="112.02877108117477">
        <ele>1233.0</ele>
        <time>2018-05-23T08:36:05.474000Z</time>
      </trkpt>
      <trkpt lat="37.844465158306825" lon="112.0287518775556">
        <ele>1234.0</ele>
        <time>2018-05-23T08:36:11.474000Z</time>
      </trkpt>
      <trkpt lat="37.84441520435426" lon="112.02876517391861">
        <ele>1234.0</ele>
        <time>2018-05-23T08:36:14.474000Z</time>
      </trkpt>
      <trkpt lat="37.84435699660605" lon="112.02880232708387">
        <ele>1235.0</ele>
        <time>2018-05-23T08:36:17.574000Z</time>
      </trkpt>
      <trkpt lat="37.84428439829699" lon="112.02880074011895">
        <ele>1239.0</ele>
        <time>2018-05-23T08:36:23.474000Z</time>
      </trkpt>
      <trkpt lat="37.844274192330154" lon="112.02875990179031">
        <ele>1241.0</ele>
        <time>2018-05-23T08:36:32.474000Z</time>
      </trkpt>
      <trkpt lat="37.844232247149705" lon="112.02871744457752">
        <ele>1243.0</ele>
        <time>2018-05-23T08:36:47.474000Z</time>
      </trkpt>
      <trkpt lat="37.84416304218125" lon="112.02861900561565">
        <ele>1247.0</ele>
        <time>2018-05-23T08:36:56.474000Z</time>
      </trkpt>
      <trkpt lat="37.84406826942708" lon="112.02854599314746">
        <ele>1245.0</ele>
        <time>2018-05-23T08:37:08.574000Z</time>
      </trkpt>
      <trkpt lat="37.84396328931723" lon="112.02853924431413">
        <ele>1245.0</ele>
        <time>2018-05-23T08:37:14.574000Z</time>
      </trkpt>
      <trkpt lat="37.84365656319068" lon="112.028596077518">
        <ele>1244.0</ele>
        <time>2018-05-23T08:37:26.474000Z</time>
      </trkpt>
      <trkpt lat="37.84342987116473" lon="112.02865398304701">
        <ele>1239.0</ele>
        <time>2018-05-23T08:37:35.574000Z</time>
      </trkpt>
      <trkpt lat="37.84326188375588" lon="112.02863299724874">
        <ele>1242.0</ele>
        <time>2018-05-23T08:37:41.574000Z</time>
      </trkpt>
      <trkpt lat="37.842984079274395" lon="112.02848909312345">
        <ele>1233.0</ele>
        <time>2018-05-23T08:37:53.574000Z</time>
      </trkpt>
      <trkpt lat="37.84267607019207" lon="112.02826935869338">
        <ele>1227.0</ele>
        <time>2018-05-23T08:38:05.574000Z</time>
      </trkpt>
      <trkpt lat="37.84273310135966" lon="112.02834142155329">
        <ele>1226.0</ele>
        <time>2018-05-23T08:38:11.574000Z</time>
      </trkpt>
      <trkpt lat="37.84280197971068" lon="112.02837794159498">
        <ele>1223.0</ele>
        <time>2018-05-23T08:38:14.574000Z</time>
      </trkpt>
      <trkpt lat="37.842938751184676" lon="112.02856614292868">
        <ele>1223.0</ele>
        <time>2018-05-23T08:38:23.574000Z</time>
      </trkpt>
      <trkpt lat="37.84301048246799" lon="112.02863131490405">
        <ele>1220.0</ele>
        <time>2018-05-23T08:38:26.574000Z</time>
      </trkpt>
      <trkpt lat="37.84313005261353" lon="112.02887525579763">
        <ele>1219.0</ele>
        <time>2018-05-23T08:38:35.574000Z</time>
      </trkpt>
      <trkpt lat="37.84318964826189" lon="112.02891176096188">
        <ele>1215.0</ele>
        <time>2018-05-23T08:38:38.574000Z</time>
      </trkpt>
      <trkpt lat="37.84333328092239" lon="112.02886874027595">
        <ele>1213.0</ele>
        <time>2018-05-23T08:38:44.574000Z</time>
      </trkpt>
      <trkpt lat="37.84350248704765" lon="112.0287786433699">
        <ele>1217.0</ele>
        <time>2018-05-23T08:38:50.574000Z</time>
      </trkpt>
      <trkpt lat="37.843721581042246" lon="112.02873018970632">
        <ele>1214.0</ele>
        <time>2018-05-23T08:38:59.474000Z</time>
      </trkpt>
      <trkpt lat="37.84402498991271" lon="112.0287618053585">
        <ele>1215.0</ele>
        <time>2018-05-23T08:39:11.574000Z</time>
      </trkpt>
      <trkpt lat="37.84427505927453" lon="112.02901941294836">
        <ele>1211.0</ele>
        <time>2018-05-23T08:39:23.574000Z</time>
      </trkpt>
      <trkpt lat="37.84433867177073" lon="112.02908853497506">
        <ele>1212.0</ele>
        <time>2018-05-23T08:39:26.574000Z</time>
      </trkpt>
      <trkpt lat="37.84436668864417" lon="112.02917587140058">
        <ele>1210.0</ele>
        <time>2018-05-23T08:39:29.574000Z</time>
      </trkpt>
      <trkpt lat="37.84449028418786" lon="112.02928188095738">
        <ele>1210.0</ele>
        <time>2018-05-23T08:39:35.574000Z</time>
      </trkpt>
      <trkpt lat="37.844572702589446" lon="112.02929062369535">
        <ele>1208.0</ele>
        <time>2018-05-23T08:39:38.574000Z</time>
      </trkpt>
      <trkpt lat="37.84464668274976" lon="112.02935278860971">
        <ele>1206.0</ele>
        <time>2018-05-23T08:39:41.574000Z</time>
      </trkpt>
      <trkpt lat="37.844800405331426" lon="112.02938228677426">
        <ele>1201.0</ele>
        <time>2018-05-23T08:39:47.574000Z</time>
      </trkpt>
      <trkpt lat="37.844871519406006" lon="112.02944166889395">
        <ele>1200.0</ele>
        <time>2018-05-23T08:39:50.574000Z</time>
      </trkpt>
      <trkpt lat="37.84492253494015" lon="112.02951885344608">
        <ele>1202.0</ele>
        <time>2018-05-23T08:39:53.574000Z</time>
      </trkpt>
      <trkpt lat="37.84499250904348" lon="112.02956553510634">
        <ele>1200.0</ele>
        <time>2018-05-23T08:39:56.474000Z</time>
      </trkpt>
      <trkpt lat="37.84504103523772" lon="112.0295484987811">
        <ele>1199.0</ele>
        <time>2018-05-23T08:39:59.574000Z</time>
      </trkpt>
      <trkpt lat="37.84502908556445" lon="112.02948659652962">
        <ele>1201.0</ele>
        <time>2018-05-23T08:40:08.574000Z</time>
      </trkpt>
      <trkpt lat="37.84509192865191" lon="112.02948086918221">
        <ele>1204.0</ele>
        <time>2018-05-23T08:40:11.474000Z</time>
      </trkpt>
      <trkpt lat="37.844994180264166" lon="112.0294351459134">
        <ele>1209.0</ele>
        <time>2018-05-23T08:40:17.574000Z</time>
      </trkpt>
      <trkpt lat="37.84492816014257" lon="112.0293724657829">
        <ele>1213.0</ele>
        <time>2018-05-23T08:40:23.574000Z</time>
      </trkpt>
      <trkpt lat="37.84487520029278" lon="112.02935471743612">
        <ele>1215.0</ele>
        <time>2018-05-23T08:40:26.574000Z</time>
      </trkpt>
      <trkpt lat="37.8448275405047" lon="112.02936225047817">
        <ele>1214.0</ele>
        <time>2018-05-23T08:40:29.474000Z</time>
      </trkpt>
      <trkpt lat="37.84475763217432" lon="112.02929806986842">
        <ele>1217.0</ele>
        <time>2018-05-23T08:40:35.574000Z</time>
      </trkpt>
      <trkpt lat="37.84469124595103" lon="112.02915907043919">
        <ele>1220.0</ele>
        <time>2018-05-23T08:40:41.574000Z</time>
      </trkpt>
      <trkpt lat="37.84464478600483" lon="112.0291230452504">
        <ele>1223.0</ele>
        <time>2018-05-23T08:40:44.574000Z</time>
      </trkpt>
      <trkpt lat="37.84459235853391" lon="112.02912838975661">
        <ele>1221.0</ele>
        <time>2018-05-23T08:40:47.574000Z</time>
      </trkpt>
      <trkpt lat="37.844592548334106" lon="112.0290624742381">
        <ele>1224.0</ele>
        <time>2018-05-23T08:40:50.574000Z</time>
      </trkpt>
      <trkpt lat="37.84454524798193" lon="112.02900236575096">
        <ele>1226.0</ele>
        <time>2018-05-23T08:40:53.574000Z</time>
      </trkpt>
      <trkpt lat="37.84454858419874" lon="112.02894688970095">
        <ele>1229.0</ele>
        <time>2018-05-23T08:40:56.574000Z</time>
      </trkpt>
      <trkpt lat="37.84457445134558" lon="112.02890361380058">
        <ele>1230.0</ele>
        <time>2018-05-23T08:40:59.574000Z</time>
      </trkpt>
      <trkpt lat="37.84458228232013" lon="112.02884758113292">
        <ele>1231.0</ele>
        <time>2018-05-23T08:41:02.474000Z</time>
      </trkpt>
      <trkpt lat="37.844564088257464" lon="112.02878652794179">
        <ele>1231.0</ele>
        <time>2018-05-23T08:41:05.474000Z</time>
      </trkpt>
      <trkpt lat="37.8445469508243" lon="112.02872492808369">
        <ele>1222.0</ele>
        <time>2018-05-23T08:41:08.474000Z</time>
      </trkpt>
      <trkpt lat="37.8445126030057" lon="112.02867935566664">
        <ele>1225.0</ele>
        <time>2018-05-23T08:41:11.574000Z</time>
      </trkpt>
      <trkpt lat="37.84437431237514" lon="112.02873902862136">
        <ele>1235.0</ele>
        <time>2018-05-23T08:41:23.474000Z</time>
      </trkpt>
      <trkpt lat="37.84423156279481" lon="112.02877315948288">
        <ele>1238.0</ele>
        <time>2018-05-23T08:41:35.474000Z</time>
      </trkpt>
      <trkpt lat="37.84410242772245" lon="112.0285565369195">
        <ele>1241.0</ele>
        <time>2018-05-23T08:41:53.574000Z</time>
      </trkpt>
      <trkpt lat="37.84404525143643" lon="112.02852895704034">
        <ele>1240.0</ele>
        <time>2018-05-23T08:41:59.474000Z</time>
      </trkpt>
      <trkpt lat="37.84397028135027" lon="112.02856358473598">
        <ele>1241.0</ele>
        <time>2018-05-23T08:42:05.474000Z</time>
      </trkpt>
      <trkpt lat="37.84385768661273" lon="112.02856386873692">
        <ele>1241.0</ele>
        <time>2018-05-23T08:42:17.474000Z</time>
      </trkpt>
      <trkpt lat="37.84381270346272" lon="112.02854250792628">
        <ele>1240.0</ele>
        <time>2018-05-23T08:42:20.574000Z</time>
      </trkpt>
      <trkpt lat="37.84357893726203" lon="112.0286082575076">
        <ele>1238.0</ele>
        <time>2018-05-23T08:42:38.574000Z</time>
      </trkpt>
      <trkpt lat="37.84341237920453" lon="112.02870429065281">
        <ele>1237.0</ele>
        <time>2018-05-23T08:42:50.474000Z</time>
      </trkpt>
      <trkpt lat="37.843273141673755" lon="112.02872594420244">
        <ele>1239.0</ele>
        <time>2018-05-23T08:43:02.474000Z</time>
      </trkpt>
      <trkpt lat="37.84318571265173" lon="112.02862300898701">
        <ele>1236.0</ele>
        <time>2018-05-23T08:43:14.474000Z</time>
      </trkpt>
      <trkpt lat="37.8431689384192" lon="112.0285672364901">
        <ele>1236.0</ele>
        <time>2018-05-23T08:43:17.574000Z</time>
      </trkpt>
      <trkpt lat="37.84313338514829" lon="112.02852528029693">
        <ele>1235.0</ele>
        <time>2018-05-23T08:43:23.474000Z</time>
      </trkpt>
      <trkpt lat="37.842928637739675" lon="112.028392735387">
        <ele>1234.0</ele>
        <time>2018-05-23T08:43:47.474000Z</time>
      </trkpt>
      <trkpt lat="37.84283881539489" lon="112.02839008692247">
        <ele>1236.0</ele>
        <time>2018-05-23T08:43:56.474000Z</time>
      </trkpt>
      <trkpt lat="37.84288973964554" lon="112.02842226519532">
        <ele>1235.0</ele>
        <time>2018-05-23T08:43:59.474000Z</time>
      </trkpt>
      <trkpt lat="37.84288973964554" lon="112.02842226519532">
        <ele>1235.0</ele>
        <time>2018-05-23T08:44:05.174000Z</time>
      </trkpt>
      <trkpt lat="37.84284460479734" lon="112.02835411547196">
        <ele>1234.0</ele>
        <time>2018-05-23T08:44:17.374000Z</time>
      </trkpt>
      <trkpt lat="37.84280318438204" lon="112.02834068340748">
        <ele>1236.0</ele>
        <time>2018-05-23T08:44:20.474000Z</time>
      </trkpt>
      <trkpt lat="37.842662351681795" lon="112.02824958022796">
        <ele>1233.0</ele>
        <time>2018-05-23T08:44:35.474000Z</time>
      </trkpt>
      <trkpt lat="37.842632369410204" lon="112.02820137971317">
        <ele>1231.0</ele>
        <time>2018-05-23T08:44:41.474000Z</time>
      </trkpt>
      <trkpt lat="37.84262370151096" lon="112.02827003014785">
        <ele>1230.0</ele>
        <time>2018-05-23T08:44:50.474000Z</time>
      </trkpt>
      <trkpt lat="37.84266127086601" lon="112.02831382450833">
        <ele>1226.0</ele>
        <time>2018-05-23T08:44:56.474000Z</time>
      </trkpt>
      <trkpt lat="37.84270794119966" lon="112.02832598743414">
        <ele>1226.0</ele>
        <time>2018-05-23T08:44:59.474000Z</time>
      </trkpt>
      <trkpt lat="37.8427718292666" lon="112.02848556644683">
        <ele>1228.0</ele>
        <time>2018-05-23T08:45:23.474000Z</time>
      </trkpt>
      <trkpt lat="37.84287036570215" lon="112.02857210124378">
        <ele>1227.0</ele>
        <time>2018-05-23T08:45:50.574000Z</time>
      </trkpt>
      <trkpt lat="37.84292358397773" lon="112.02855586732693">
        <ele>1225.0</ele>
        <time>2018-05-23T08:46:08.574000Z</time>
      </trkpt>
      <trkpt lat="37.843049235140406" lon="112.02864889009908">
        <ele>1223.0</ele>
        <time>2018-05-23T08:46:20.574000Z</time>
      </trkpt>
      <trkpt lat="37.84311830876672" lon="112.02879898715511">
        <ele>1221.0</ele>
        <time>2018-05-23T08:46:26.574000Z</time>
      </trkpt>
      <trkpt lat="37.84317220406072" lon="112.02883657475209">
        <ele>1218.0</ele>
        <time>2018-05-23T08:46:29.574000Z</time>
      </trkpt>
      <trkpt lat="37.84321004190628" lon="112.0288939080292">
        <ele>1215.0</ele>
        <time>2018-05-23T08:46:32.574000Z</time>
      </trkpt>
      <trkpt lat="37.84345524838201" lon="112.02888863039097">
        <ele>1215.0</ele>
        <time>2018-05-23T08:46:44.474000Z</time>
      </trkpt>
      <trkpt lat="37.84356847436075" lon="112.02880909714179">
        <ele>1215.0</ele>
        <time>2018-05-23T08:46:50.474000Z</time>
      </trkpt>
      <trkpt lat="37.843885692193055" lon="112.0287531870104">
        <ele>1220.0</ele>
        <time>2018-05-23T08:47:05.574000Z</time>
      </trkpt>
      <trkpt lat="37.8440119577507" lon="112.02876994453734">
        <ele>1215.0</ele>
        <time>2018-05-23T08:47:11.574000Z</time>
      </trkpt>
      <trkpt lat="37.84416970641438" lon="112.02887891720272">
        <ele>1215.0</ele>
        <time>2018-05-23T08:47:17.574000Z</time>
      </trkpt>
      <trkpt lat="37.844282111677735" lon="112.02902047610323">
        <ele>1213.0</ele>
        <time>2018-05-23T08:47:23.574000Z</time>
      </trkpt>
      <trkpt lat="37.8443643382134" lon="112.02919923229086">
        <ele>1208.0</ele>
        <time>2018-05-23T08:47:29.574000Z</time>
      </trkpt>
      <trkpt lat="37.84443203567637" lon="112.0292540835312">
        <ele>1207.0</ele>
        <time>2018-05-23T08:47:32.574000Z</time>
      </trkpt>
      <trkpt lat="37.844705883024425" lon="112.02931954289043">
        <ele>1206.0</ele>
        <time>2018-05-23T08:47:41.474000Z</time>
      </trkpt>
      <trkpt lat="37.84479308856149" lon="112.02934466933387">
        <ele>1205.0</ele>
        <time>2018-05-23T08:47:44.574000Z</time>
      </trkpt>
      <trkpt lat="37.84486749256077" lon="112.0294089396215">
        <ele>1205.0</ele>
        <time>2018-05-23T08:47:47.574000Z</time>
      </trkpt>
      <trkpt lat="37.84497756087401" lon="112.02956553027313">
        <ele>1196.0</ele>
        <time>2018-05-23T08:47:53.574000Z</time>
      </trkpt>
      <trkpt lat="37.845026383244615" lon="112.02957093376219">
        <ele>1199.0</ele>
        <time>2018-05-23T08:47:56.574000Z</time>
      </trkpt>
      <trkpt lat="37.84501518188938" lon="112.02949412224666">
        <ele>1205.0</ele>
        <time>2018-05-23T08:48:08.574000Z</time>
      </trkpt>
      <trkpt lat="37.844955776348996" lon="112.02948953144788">
        <ele>1216.0</ele>
        <time>2018-05-23T08:48:11.474000Z</time>
      </trkpt>
      <trkpt lat="37.8449348025051" lon="112.02941488506437">
        <ele>1214.0</ele>
        <time>2018-05-23T08:48:17.574000Z</time>
      </trkpt>
      <trkpt lat="37.84485197124752" lon="112.02933970538933">
        <ele>1214.0</ele>
        <time>2018-05-23T08:48:23.574000Z</time>
      </trkpt>
      <trkpt lat="37.844795856332276" lon="112.02932132046047">
        <ele>1214.0</ele>
        <time>2018-05-23T08:48:26.574000Z</time>
      </trkpt>
      <trkpt lat="37.84466437410684" lon="112.02917312141153">
        <ele>1221.0</ele>
        <time>2018-05-23T08:48:38.574000Z</time>
      </trkpt>
      <trkpt lat="37.84464040485468" lon="112.0291030741083">
        <ele>1221.0</ele>
        <time>2018-05-23T08:48:41.574000Z</time>
      </trkpt>
      <trkpt lat="37.84458974371092" lon="112.02907387013757">
        <ele>1225.0</ele>
        <time>2018-05-23T08:48:44.574000Z</time>
      </trkpt>
      <trkpt lat="37.84457529935851" lon="112.02899246250017">
        <ele>1227.0</ele>
        <time>2018-05-23T08:48:50.574000Z</time>
      </trkpt>
      <trkpt lat="37.84454831445197" lon="112.02893485725991">
        <ele>1229.0</ele>
        <time>2018-05-23T08:48:53.574000Z</time>
      </trkpt>
      <trkpt lat="37.844572668692265" lon="112.02878514445653">
        <ele>1229.0</ele>
        <time>2018-05-23T08:49:02.474000Z</time>
      </trkpt>
      <trkpt lat="37.84455006122582" lon="112.02870834888878">
        <ele>1224.0</ele>
        <time>2018-05-23T08:49:08.474000Z</time>
      </trkpt>
      <trkpt lat="37.844503218325386" lon="112.02871368043306">
        <ele>1228.0</ele>
        <time>2018-05-23T08:49:14.474000Z</time>
      </trkpt>
      <trkpt lat="37.844425139073934" lon="112.02873858418562">
        <ele>1233.0</ele>
        <time>2018-05-23T08:49:20.474000Z</time>
      </trkpt>
      <trkpt lat="37.84435974700124" lon="112.02876041702679">
        <ele>1233.0</ele>
        <time>2018-05-23T08:49:26.674000Z</time>
      </trkpt>
      <trkpt lat="37.84428718292954" lon="112.02877261187142">
        <ele>1234.0</ele>
        <time>2018-05-23T08:49:32.574000Z</time>
      </trkpt>
      <trkpt lat="37.844255088209806" lon="112.02869742779403">
        <ele>1235.0</ele>
        <time>2018-05-23T08:49:38.474000Z</time>
      </trkpt>
      <trkpt lat="37.84414324612387" lon="112.02861522156938">
        <ele>1236.0</ele>
        <time>2018-05-23T08:49:53.574000Z</time>
      </trkpt>
      <trkpt lat="37.84404988510279" lon="112.0285205722781">
        <ele>1238.0</ele>
        <time>2018-05-23T08:50:05.574000Z</time>
      </trkpt>
      <trkpt lat="37.84389509857222" lon="112.0285752235004">
        <ele>1238.0</ele>
        <time>2018-05-23T08:50:20.474000Z</time>
      </trkpt>
      <trkpt lat="37.8438548501372" lon="112.02861228120734">
        <ele>1240.0</ele>
        <time>2018-05-23T08:50:32.474000Z</time>
      </trkpt>
      <trkpt lat="37.8438318266056" lon="112.02859740873258">
        <ele>1243.0</ele>
        <time>2018-05-23T08:51:41.474000Z</time>
      </trkpt>
      <trkpt lat="37.843759392787184" lon="112.02859498331453">
        <ele>1242.0</ele>
        <time>2018-05-23T08:51:47.574000Z</time>
      </trkpt>
      <trkpt lat="37.84371130529326" lon="112.0286206827043">
        <ele>1240.0</ele>
        <time>2018-05-23T08:51:53.574000Z</time>
      </trkpt>
      <trkpt lat="37.8436027781717" lon="112.0286217775941">
        <ele>1240.0</ele>
        <time>2018-05-23T08:52:05.574000Z</time>
      </trkpt>
      <trkpt lat="37.84338412042176" lon="112.02867150386408">
        <ele>1238.0</ele>
        <time>2018-05-23T08:52:23.474000Z</time>
      </trkpt>
      <trkpt lat="37.84320876426005" lon="112.02860046943977">
        <ele>1237.0</ele>
        <time>2018-05-23T08:52:32.574000Z</time>
      </trkpt>
      <trkpt lat="37.84313499562927" lon="112.02844629682247">
        <ele>1234.0</ele>
        <time>2018-05-23T08:52:35.474000Z</time>
      </trkpt>
      <trkpt lat="37.8430345229684" lon="112.02846011182554">
        <ele>1235.0</ele>
        <time>2018-05-23T08:52:38.474000Z</time>
      </trkpt>
      <trkpt lat="37.84278641131526" lon="112.02829578943927">
        <ele>1232.0</ele>
        <time>2018-05-23T08:52:50.474000Z</time>
      </trkpt>
      <trkpt lat="37.84263675347319" lon="112.02825866943506">
        <ele>1232.0</ele>
        <time>2018-05-23T08:52:56.574000Z</time>
      </trkpt>
      <trkpt lat="37.842677923303256" lon="112.02827665616212">
        <ele>1229.0</ele>
        <time>2018-05-23T08:52:59.574000Z</time>
      </trkpt>
      <trkpt lat="37.84271087675162" lon="112.0283526884142">
        <ele>1230.0</ele>
        <time>2018-05-23T08:53:02.574000Z</time>
      </trkpt>
      <trkpt lat="37.84277205084651" lon="112.02839874957606">
        <ele>1228.0</ele>
        <time>2018-05-23T08:53:05.574000Z</time>
      </trkpt>
      <trkpt lat="37.84297997100531" lon="112.02868027173808">
        <ele>1224.0</ele>
        <time>2018-05-23T08:53:17.574000Z</time>
      </trkpt>
      <trkpt lat="37.84315464023695" lon="112.02891528117773">
        <ele>1220.0</ele>
        <time>2018-05-23T08:53:29.574000Z</time>
      </trkpt>
      <trkpt lat="37.843387388548415" lon="112.02892958766705">
        <ele>1223.0</ele>
        <time>2018-05-23T08:53:38.574000Z</time>
      </trkpt>
      <trkpt lat="37.84350664650888" lon="112.02886953080707">
        <ele>1221.0</ele>
        <time>2018-05-23T08:53:44.474000Z</time>
      </trkpt>
      <trkpt lat="37.84350664650888" lon="112.02886953080707">
        <ele>1221.0</ele>
        <time>2018-05-23T08:53:55.974000Z</time>
      </trkpt>
      <trkpt lat="37.84360386446199" lon="112.0288346296021">
        <ele>1225.0</ele>
        <time>2018-05-23T08:53:59.574000Z</time>
      </trkpt>
      <trkpt lat="37.843648418981175" lon="112.02883748723667">
        <ele>1225.0</ele>
        <time>2018-05-23T08:54:02.574000Z</time>
      </trkpt>
      <trkpt lat="37.84372793742314" lon="112.02880161843574">
        <ele>1226.0</ele>
        <time>2018-05-23T08:54:17.474000Z</time>
      </trkpt>
      <trkpt lat="37.84381045720695" lon="112.02878538086387">
        <ele>1225.0</ele>
        <time>2018-05-23T08:54:23.574000Z</time>
      </trkpt>
      <trkpt lat="37.843943966955244" lon="112.02877562822158">
        <ele>1226.0</ele>
        <time>2018-05-23T08:54:29.574000Z</time>
      </trkpt>
      <trkpt lat="37.84401120668575" lon="112.0287934705386">
        <ele>1226.0</ele>
        <time>2018-05-23T08:54:32.574000Z</time>
      </trkpt>
      <trkpt lat="37.8442363715975" lon="112.02896990797821">
        <ele>1224.0</ele>
        <time>2018-05-23T08:54:41.574000Z</time>
      </trkpt>
      <trkpt lat="37.84434549384362" lon="112.02910148680408">
        <ele>1221.0</ele>
        <time>2018-05-23T08:54:47.574000Z</time>
      </trkpt>
      <trkpt lat="37.84441716828803" lon="112.02929675364341">
        <ele>1219.0</ele>
        <time>2018-05-23T08:54:53.574000Z</time>
      </trkpt>
      <trkpt lat="37.84446089236559" lon="112.02935180016472">
        <ele>1216.0</ele>
        <time>2018-05-23T08:54:56.474000Z</time>
      </trkpt>
      <trkpt lat="37.844526919366324" lon="112.02934812894333">
        <ele>1216.0</ele>
        <time>2018-05-23T08:54:59.574000Z</time>
      </trkpt>
      <trkpt lat="37.844698052179616" lon="112.02940861593234">
        <ele>1218.0</ele>
        <time>2018-05-23T08:55:05.574000Z</time>
      </trkpt>
      <trkpt lat="37.84477787620499" lon="112.0294651235941">
        <ele>1214.0</ele>
        <time>2018-05-23T08:55:08.574000Z</time>
      </trkpt>
      <trkpt lat="37.84487360743805" lon="112.0296267699785">
        <ele>1211.0</ele>
        <time>2018-05-23T08:55:14.574000Z</time>
      </trkpt>
      <trkpt lat="37.844946600182176" lon="112.02968562211385">
        <ele>1210.0</ele>
        <time>2018-05-23T08:55:17.574000Z</time>
      </trkpt>
      <trkpt lat="37.845011558651294" lon="112.02963990502178">
        <ele>1208.0</ele>
        <time>2018-05-23T08:55:20.574000Z</time>
      </trkpt>
      <trkpt lat="37.845058385007356" lon="112.02957606880788">
        <ele>1207.0</ele>
        <time>2018-05-23T08:55:23.574000Z</time>
      </trkpt>
      <trkpt lat="37.84500541740821" lon="112.02960050638853">
        <ele>1206.0</ele>
        <time>2018-05-23T08:55:26.574000Z</time>
      </trkpt>
      <trkpt lat="37.84501082999313" lon="112.02949845024995">
        <ele>1207.0</ele>
        <time>2018-05-23T08:55:32.574000Z</time>
      </trkpt>
      <trkpt lat="37.84495268790793" lon="112.0295147699915">
        <ele>1210.0</ele>
        <time>2018-05-23T08:55:35.574000Z</time>
      </trkpt>
      <trkpt lat="37.844941540013004" lon="112.02939122249518">
        <ele>1213.0</ele>
        <time>2018-05-23T08:55:41.574000Z</time>
      </trkpt>
      <trkpt lat="37.84475219657874" lon="112.02929066830194">
        <ele>1217.0</ele>
        <time>2018-05-23T08:55:56.574000Z</time>
      </trkpt>
      <trkpt lat="37.844608772772126" lon="112.02913741468855">
        <ele>1223.0</ele>
        <time>2018-05-23T08:56:08.574000Z</time>
      </trkpt>
      <trkpt lat="37.844582788230504" lon="112.02907725385234">
        <ele>1226.0</ele>
        <time>2018-05-23T08:56:11.574000Z</time>
      </trkpt>
      <trkpt lat="37.844582194980035" lon="112.02901283306349">
        <ele>1227.0</ele>
        <time>2018-05-23T08:56:14.574000Z</time>
      </trkpt>
      <trkpt lat="37.84453694275222" lon="112.02896526694605">
        <ele>1229.0</ele>
        <time>2018-05-23T08:56:17.474000Z</time>
      </trkpt>
      <trkpt lat="37.84454678822524" lon="112.02889482908043">
        <ele>1232.0</ele>
        <time>2018-05-23T08:56:20.474000Z</time>
      </trkpt>
      <trkpt lat="37.84454678822524" lon="112.02889482908043">
        <ele>1232.0</ele>
        <time>2018-05-23T08:56:32.374000Z</time>
      </trkpt>
      <trkpt lat="37.84456497156235" lon="112.0288926631994">
        <ele>1233.0</ele>
        <time>2018-05-23T08:56:44.474000Z</time>
      </trkpt>
      <trkpt lat="37.84455736454873" lon="112.02889672104028">
        <ele>1233.0</ele>
        <time>2018-05-23T08:56:53.474000Z</time>
      </trkpt>
      <trkpt lat="37.84459667662976" lon="112.02880097301647">
        <ele>1235.0</ele>
        <time>2018-05-23T08:57:50.474000Z</time>
      </trkpt>
      <trkpt lat="37.844590877686706" lon="112.02873416996717">
        <ele>1233.0</ele>
        <time>2018-05-23T08:57:53.474000Z</time>
      </trkpt>
      <trkpt lat="37.84455109819744" lon="112.02869360575129">
        <ele>1233.0</ele>
        <time>2018-05-23T08:57:56.474000Z</time>
      </trkpt>
      <trkpt lat="37.844504200625494" lon="112.0286781951871">
        <ele>1233.0</ele>
        <time>2018-05-23T08:57:59.474000Z</time>
      </trkpt>
      <trkpt lat="37.84432693225175" lon="112.02882507648783">
        <ele>1236.0</ele>
        <time>2018-05-23T08:58:17.574000Z</time>
      </trkpt>
      <trkpt lat="37.8441882417256" lon="112.02863171416573">
        <ele>1237.0</ele>
        <time>2018-05-23T08:58:35.574000Z</time>
      </trkpt>
      <trkpt lat="37.84412512685873" lon="112.0285922347365">
        <ele>1238.0</ele>
        <time>2018-05-23T08:58:41.574000Z</time>
      </trkpt>
      <trkpt lat="37.843928997967424" lon="112.02858089905638">
        <ele>1240.0</ele>
        <time>2018-05-23T08:59:05.574000Z</time>
      </trkpt>
      <trkpt lat="37.843801649766725" lon="112.02862148321536">
        <ele>1240.0</ele>
        <time>2018-05-23T08:59:17.474000Z</time>
      </trkpt>
      <trkpt lat="37.843720338485895" lon="112.02858930837571">
        <ele>1240.0</ele>
        <time>2018-05-23T08:59:23.574000Z</time>
      </trkpt>
      <trkpt lat="37.84342324884832" lon="112.0286975278481">
        <ele>1237.0</ele>
        <time>2018-05-23T08:59:53.574000Z</time>
      </trkpt>
      <trkpt lat="37.843381115824926" lon="112.02872890627701">
        <ele>1239.0</ele>
        <time>2018-05-23T08:59:59.574000Z</time>
      </trkpt>
      <trkpt lat="37.84335500965609" lon="112.02870135904213">
        <ele>1243.0</ele>
        <time>2018-05-23T09:00:05.474000Z</time>
      </trkpt>
      <trkpt lat="37.84330667159115" lon="112.02867813630746">
        <ele>1242.0</ele>
        <time>2018-05-23T09:00:11.474000Z</time>
      </trkpt>
      <trkpt lat="37.84323103189206" lon="112.02871609084825">
        <ele>1246.0</ele>
        <time>2018-05-23T09:00:14.474000Z</time>
      </trkpt>
      <trkpt lat="37.8431879071629" lon="112.02867999591989">
        <ele>1247.0</ele>
        <time>2018-05-23T09:00:20.474000Z</time>
      </trkpt>
      <trkpt lat="37.84317987363005" lon="112.02862227285405">
        <ele>1240.0</ele>
        <time>2018-05-23T09:00:23.474000Z</time>
      </trkpt>
      <trkpt lat="37.843123942797845" lon="112.02858870712336">
        <ele>1242.0</ele>
        <time>2018-05-23T09:00:29.474000Z</time>
      </trkpt>
      <trkpt lat="37.84300480179217" lon="112.02845794569113">
        <ele>1233.0</ele>
        <time>2018-05-23T09:00:47.474000Z</time>
      </trkpt>
      <trkpt lat="37.84278654014778" lon="112.02835574519469">
        <ele>1234.0</ele>
        <time>2018-05-23T09:01:05.474000Z</time>
      </trkpt>
      <trkpt lat="37.84276210490708" lon="112.02836250955025">
        <ele>1232.0</ele>
        <time>2018-05-23T09:01:23.474000Z</time>
      </trkpt>
      <trkpt lat="37.84276815597144" lon="112.02833032449206">
        <ele>1231.0</ele>
        <time>2018-05-23T09:03:23.474000Z</time>
      </trkpt>
      <trkpt lat="37.84267837954744" lon="112.02821349835652">
        <ele>1231.0</ele>
        <time>2018-05-23T09:03:44.474000Z</time>
      </trkpt>
      <trkpt lat="37.84263020874608" lon="112.02816563359822">
        <ele>1228.0</ele>
        <time>2018-05-23T09:03:59.574000Z</time>
      </trkpt>
      <trkpt lat="37.84244837103284" lon="112.02818891459258">
        <ele>1230.0</ele>
        <time>2018-05-23T09:04:14.574000Z</time>
      </trkpt>
      <trkpt lat="37.8423441364061" lon="112.0281578509549">
        <ele>1232.0</ele>
        <time>2018-05-23T09:04:20.574000Z</time>
      </trkpt>
      <trkpt lat="37.84217410276235" lon="112.0280417760061">
        <ele>1232.0</ele>
        <time>2018-05-23T09:04:29.574000Z</time>
      </trkpt>
      <trkpt lat="37.84205791459955" lon="112.02796394342427">
        <ele>1234.0</ele>
        <time>2018-05-23T09:04:35.574000Z</time>
      </trkpt>
      <trkpt lat="37.841941745828805" lon="112.02785356140154">
        <ele>1234.0</ele>
        <time>2018-05-23T09:04:41.574000Z</time>
      </trkpt>
      <trkpt lat="37.84189127571639" lon="112.02782834331586">
        <ele>1234.0</ele>
        <time>2018-05-23T09:04:44.574000Z</time>
      </trkpt>
      <trkpt lat="37.84171481851571" lon="112.02775341420322">
        <ele>1235.0</ele>
        <time>2018-05-23T09:04:53.474000Z</time>
      </trkpt>
      <trkpt lat="37.84156103336084" lon="112.02765024418296">
        <ele>1244.0</ele>
        <time>2018-05-23T09:05:08.474000Z</time>
      </trkpt>
      <trkpt lat="37.841450967017465" lon="112.02758078737901">
        <ele>1248.0</ele>
        <time>2018-05-23T09:05:26.474000Z</time>
      </trkpt>
      <trkpt lat="37.84141967478469" lon="112.02751101526498">
        <ele>1246.0</ele>
        <time>2018-05-23T09:05:32.574000Z</time>
      </trkpt>
      <trkpt lat="37.841362638239076" lon="112.02753482162686">
        <ele>1246.0</ele>
        <time>2018-05-23T09:05:41.574000Z</time>
      </trkpt>
      <trkpt lat="37.84133567729818" lon="112.02746883537861">
        <ele>1239.0</ele>
        <time>2018-05-23T09:05:44.474000Z</time>
      </trkpt>
      <trkpt lat="37.84126966098892" lon="112.02750291983608">
        <ele>1244.0</ele>
        <time>2018-05-23T09:05:50.474000Z</time>
      </trkpt>
      <trkpt lat="37.84115573986887" lon="112.02749157468648">
        <ele>1244.0</ele>
        <time>2018-05-23T09:06:02.474000Z</time>
      </trkpt>
      <trkpt lat="37.84104737959055" lon="112.02742803235222">
        <ele>1246.0</ele>
        <time>2018-05-23T09:06:11.574000Z</time>
      </trkpt>
      <trkpt lat="37.840979275784456" lon="112.0274299336756">
        <ele>1245.0</ele>
        <time>2018-05-23T09:06:17.474000Z</time>
      </trkpt>
      <trkpt lat="37.84087670182317" lon="112.02733204396677">
        <ele>1244.0</ele>
        <time>2018-05-23T09:06:26.574000Z</time>
      </trkpt>
      <trkpt lat="37.84061543254229" lon="112.02731045245656">
        <ele>1241.0</ele>
        <time>2018-05-23T09:06:38.574000Z</time>
      </trkpt>
      <trkpt lat="37.84053958036358" lon="112.02728664940015">
        <ele>1242.0</ele>
        <time>2018-05-23T09:06:41.574000Z</time>
      </trkpt>
      <trkpt lat="37.84022083055153" lon="112.02727127225334">
        <ele>1242.0</ele>
        <time>2018-05-23T09:06:53.574000Z</time>
      </trkpt>
      <trkpt lat="37.84001673804841" lon="112.0271923264756">
        <ele>1239.0</ele>
        <time>2018-05-23T09:07:02.574000Z</time>
      </trkpt>
      <trkpt lat="37.83987613672628" lon="112.02712543552126">
        <ele>1233.0</ele>
        <time>2018-05-23T09:07:08.574000Z</time>
      </trkpt>
      <trkpt lat="37.83964074528983" lon="112.02704222250922">
        <ele>1236.0</ele>
        <time>2018-05-23T09:07:23.574000Z</time>
      </trkpt>
      <trkpt lat="37.83957564382531" lon="112.02709476620149">
        <ele>1233.0</ele>
        <time>2018-05-23T09:07:29.474000Z</time>
      </trkpt>
      <trkpt lat="37.839523098047216" lon="112.02710388523319">
        <ele>1233.0</ele>
        <time>2018-05-23T09:07:32.574000Z</time>
      </trkpt>
      <trkpt lat="37.83946171946938" lon="112.02711643076476">
        <ele>1233.0</ele>
        <time>2018-05-23T09:07:35.474000Z</time>
      </trkpt>
      <trkpt lat="37.83936938330345" lon="112.02711772041091">
        <ele>1236.0</ele>
        <time>2018-05-23T09:07:41.474000Z</time>
      </trkpt>
      <trkpt lat="37.83930808623339" lon="112.02713056613078">
        <ele>1235.0</ele>
        <time>2018-05-23T09:07:47.474000Z</time>
      </trkpt>
      <trkpt lat="37.8392618280804" lon="112.02707994906542">
        <ele>1234.0</ele>
        <time>2018-05-23T09:07:53.474000Z</time>
      </trkpt>
      <trkpt lat="37.839199037866756" lon="112.02704137186547">
        <ele>1230.0</ele>
        <time>2018-05-23T09:07:56.374000Z</time>
      </trkpt>
      <trkpt lat="37.83915169148785" lon="112.02702462839159">
        <ele>1227.0</ele>
        <time>2018-05-23T09:07:59.574000Z</time>
      </trkpt>
      <trkpt lat="37.83910893194772" lon="112.02697290803764">
        <ele>1228.0</ele>
        <time>2018-05-23T09:08:02.474000Z</time>
      </trkpt>
      <trkpt lat="37.839045083019634" lon="112.02691832255992">
        <ele>1231.0</ele>
        <time>2018-05-23T09:08:08.474000Z</time>
      </trkpt>
      <trkpt lat="37.838955940731125" lon="112.02688826539575">
        <ele>1231.0</ele>
        <time>2018-05-23T09:08:14.574000Z</time>
      </trkpt>
      <trkpt lat="37.83878200753321" lon="112.02692464931168">
        <ele>1231.0</ele>
        <time>2018-05-23T09:08:23.574000Z</time>
      </trkpt>
      <trkpt lat="37.83866250533826" lon="112.02692415801769">
        <ele>1231.0</ele>
        <time>2018-05-23T09:08:29.574000Z</time>
      </trkpt>
      <trkpt lat="37.83833667757777" lon="112.02692683607648">
        <ele>1234.0</ele>
        <time>2018-05-23T09:08:44.574000Z</time>
      </trkpt>
      <trkpt lat="37.838271937062935" lon="112.02690958904766">
        <ele>1236.0</ele>
        <time>2018-05-23T09:08:47.574000Z</time>
      </trkpt>
      <trkpt lat="37.83798875850353" lon="112.02670032574432">
        <ele>1240.0</ele>
        <time>2018-05-23T09:09:05.474000Z</time>
      </trkpt>
      <trkpt lat="37.837916348324505" lon="112.02665424457982">
        <ele>1243.0</ele>
        <time>2018-05-23T09:09:11.474000Z</time>
      </trkpt>
      <trkpt lat="37.837786977969685" lon="112.02666015954219">
        <ele>1236.0</ele>
        <time>2018-05-23T09:09:23.474000Z</time>
      </trkpt>
      <trkpt lat="37.83772948500836" lon="112.02663146332495">
        <ele>1237.0</ele>
        <time>2018-05-23T09:09:29.474000Z</time>
      </trkpt>
      <trkpt lat="37.83763087072236" lon="112.02664562983107">
        <ele>1241.0</ele>
        <time>2018-05-23T09:09:38.574000Z</time>
      </trkpt>
      <trkpt lat="37.83751206589782" lon="112.0266510114723">
        <ele>1244.0</ele>
        <time>2018-05-23T09:09:50.574000Z</time>
      </trkpt>
      <trkpt lat="37.8374617274466" lon="112.0266922964349">
        <ele>1245.0</ele>
        <time>2018-05-23T09:09:56.474000Z</time>
      </trkpt>
      <trkpt lat="37.83744279278784" lon="112.0267842652798">
        <ele>1245.0</ele>
        <time>2018-05-23T09:10:02.474000Z</time>
      </trkpt>
      <trkpt lat="37.8373938706525" lon="112.02681753557152">
        <ele>1246.0</ele>
        <time>2018-05-23T09:10:08.574000Z</time>
      </trkpt>
      <trkpt lat="37.8373503140753" lon="112.02676967251573">
        <ele>1246.0</ele>
        <time>2018-05-23T09:10:14.474000Z</time>
      </trkpt>
      <trkpt lat="37.837363225135775" lon="112.02670828067048">
        <ele>1248.0</ele>
        <time>2018-05-23T09:10:17.574000Z</time>
      </trkpt>
      <trkpt lat="37.83732378649005" lon="112.0266238980777">
        <ele>1250.0</ele>
        <time>2018-05-23T09:10:29.474000Z</time>
      </trkpt>
      <trkpt lat="37.83714581431805" lon="112.02653495426225">
        <ele>1252.0</ele>
        <time>2018-05-23T09:10:47.574000Z</time>
      </trkpt>
      <trkpt lat="37.837089947042145" lon="112.0265263068965">
        <ele>1254.0</ele>
        <time>2018-05-23T09:10:53.474000Z</time>
      </trkpt>
      <trkpt lat="37.836966938133266" lon="112.02656688769105">
        <ele>1256.0</ele>
        <time>2018-05-23T09:11:05.574000Z</time>
      </trkpt>
      <trkpt lat="37.83674885933839" lon="112.0265460899998">
        <ele>1259.0</ele>
        <time>2018-05-23T09:11:29.474000Z</time>
      </trkpt>
      <trkpt lat="37.83671407092922" lon="112.02667374217508">
        <ele>1263.0</ele>
        <time>2018-05-23T09:11:44.474000Z</time>
      </trkpt>
      <trkpt lat="37.836657739082355" lon="112.02663507587101">
        <ele>1264.0</ele>
        <time>2018-05-23T09:11:50.574000Z</time>
      </trkpt>
      <trkpt lat="37.83660646366714" lon="112.02663427070944">
        <ele>1266.0</ele>
        <time>2018-05-23T09:11:56.474000Z</time>
      </trkpt>
      <trkpt lat="37.83652567588062" lon="112.02671460146789">
        <ele>1268.0</ele>
        <time>2018-05-23T09:12:08.474000Z</time>
      </trkpt>
      <trkpt lat="37.83646788833435" lon="112.02671406752839">
        <ele>1268.0</ele>
        <time>2018-05-23T09:12:14.574000Z</time>
      </trkpt>
      <trkpt lat="37.83639831923916" lon="112.02675788746028">
        <ele>1274.0</ele>
        <time>2018-05-23T09:12:20.474000Z</time>
      </trkpt>
      <trkpt lat="37.83636672160539" lon="112.02680630041483">
        <ele>1274.0</ele>
        <time>2018-05-23T09:12:23.474000Z</time>
      </trkpt>
      <trkpt lat="37.836256923012165" lon="112.02687933315688">
        <ele>1280.0</ele>
        <time>2018-05-23T09:12:35.474000Z</time>
      </trkpt>
      <trkpt lat="37.836205079728124" lon="112.02688826401034">
        <ele>1278.0</ele>
        <time>2018-05-23T09:12:41.574000Z</time>
      </trkpt>
      <trkpt lat="37.83613156105413" lon="112.0269361156969">
        <ele>1284.0</ele>
        <time>2018-05-23T09:12:50.474000Z</time>
      </trkpt>
      <trkpt lat="37.836003020708354" lon="112.0269273673866">
        <ele>1290.0</ele>
        <time>2018-05-23T09:13:05.574000Z</time>
      </trkpt>
      <trkpt lat="37.83594272733479" lon="112.02693422744409">
        <ele>1291.0</ele>
        <time>2018-05-23T09:13:11.474000Z</time>
      </trkpt>
      <trkpt lat="37.83588970373322" lon="112.02695053665188">
        <ele>1291.0</ele>
        <time>2018-05-23T09:13:17.474000Z</time>
      </trkpt>
      <trkpt lat="37.83583527436415" lon="112.02700033794727">
        <ele>1292.0</ele>
        <time>2018-05-23T09:13:23.474000Z</time>
      </trkpt>
      <trkpt lat="37.83571044738412" lon="112.02702551762208">
        <ele>1293.0</ele>
        <time>2018-05-23T09:13:35.474000Z</time>
      </trkpt>
      <trkpt lat="37.835595570528746" lon="112.02708164613742">
        <ele>1295.0</ele>
        <time>2018-05-23T09:13:47.574000Z</time>
      </trkpt>
      <trkpt lat="37.835549744441394" lon="112.02713481024573">
        <ele>1297.0</ele>
        <time>2018-05-23T09:13:53.474000Z</time>
      </trkpt>
      <trkpt lat="37.83548811736929" lon="112.02718065375558">
        <ele>1301.0</ele>
        <time>2018-05-23T09:14:02.474000Z</time>
      </trkpt>
      <trkpt lat="37.835422208925294" lon="112.02719052546733">
        <ele>1287.0</ele>
        <time>2018-05-23T09:14:11.474000Z</time>
      </trkpt>
      <trkpt lat="37.835366596414545" lon="112.02720217533182">
        <ele>1302.0</ele>
        <time>2018-05-23T09:14:17.474000Z</time>
      </trkpt>
      <trkpt lat="37.835332428111094" lon="112.02724914227505">
        <ele>1309.0</ele>
        <time>2018-05-23T09:14:32.674000Z</time>
      </trkpt>
      <trkpt lat="37.8353725609368" lon="112.02725725084736">
        <ele>1308.0</ele>
        <time>2018-05-23T09:14:44.474000Z</time>
      </trkpt>
      <trkpt lat="37.835411040750216" lon="112.02727509570046">
        <ele>1316.0</ele>
        <time>2018-05-23T09:19:14.474000Z</time>
      </trkpt>
      <trkpt lat="37.835411040750216" lon="112.02727509570046">
        <ele>1316.0</ele>
        <time>2018-05-23T09:19:23.474000Z</time>
      </trkpt>
      <trkpt lat="37.835409387038865" lon="112.02728510242916">
        <ele>1317.0</ele>
        <time>2018-05-23T09:19:32.474000Z</time>
      </trkpt>
      <trkpt lat="37.835433397861664" lon="112.02723263291068">
        <ele>1317.0</ele>
        <time>2018-05-23T09:20:26.574000Z</time>
      </trkpt>
      <trkpt lat="37.83550900232493" lon="112.0271628487562">
        <ele>1315.0</ele>
        <time>2018-05-23T09:20:35.574000Z</time>
      </trkpt>
      <trkpt lat="37.83557351752698" lon="112.0271426738488">
        <ele>1314.0</ele>
        <time>2018-05-23T09:20:38.474000Z</time>
      </trkpt>
      <trkpt lat="37.835673403659804" lon="112.02703143159995">
        <ele>1314.0</ele>
        <time>2018-05-23T09:20:44.574000Z</time>
      </trkpt>
      <trkpt lat="37.835998563344305" lon="112.02690749029864">
        <ele>1304.0</ele>
        <time>2018-05-23T09:20:59.474000Z</time>
      </trkpt>
      <trkpt lat="37.83606984924128" lon="112.0268860266558">
        <ele>1300.0</ele>
        <time>2018-05-23T09:21:02.574000Z</time>
      </trkpt>
      <trkpt lat="37.836114697862385" lon="112.02690206747664">
        <ele>1299.0</ele>
        <time>2018-05-23T09:21:05.474000Z</time>
      </trkpt>
      <trkpt lat="37.836121800318125" lon="112.02688340604067">
        <ele>1297.0</ele>
        <time>2018-05-23T09:21:11.474000Z</time>
      </trkpt>
      <trkpt lat="37.83616633541457" lon="112.02685138778689">
        <ele>1297.0</ele>
        <time>2018-05-23T09:21:14.474000Z</time>
      </trkpt>
      <trkpt lat="37.83622351320162" lon="112.0268483410382">
        <ele>1296.0</ele>
        <time>2018-05-23T09:21:17.574000Z</time>
      </trkpt>
      <trkpt lat="37.83629296471948" lon="112.02682101187506">
        <ele>1293.0</ele>
        <time>2018-05-23T09:21:20.474000Z</time>
      </trkpt>
      <trkpt lat="37.83657533305509" lon="112.02665012667201">
        <ele>1288.0</ele>
        <time>2018-05-23T09:21:32.474000Z</time>
      </trkpt>
      <trkpt lat="37.83664104422572" lon="112.02663417774417">
        <ele>1283.0</ele>
        <time>2018-05-23T09:21:35.574000Z</time>
      </trkpt>
      <trkpt lat="37.83673068720925" lon="112.02651537929727">
        <ele>1274.0</ele>
        <time>2018-05-23T09:21:41.574000Z</time>
      </trkpt>
      <trkpt lat="37.83686150309729" lon="112.02654058034025">
        <ele>1273.0</ele>
        <time>2018-05-23T09:21:47.474000Z</time>
      </trkpt>
      <trkpt lat="37.83693738659618" lon="112.02654199110755">
        <ele>1270.0</ele>
        <time>2018-05-23T09:21:50.574000Z</time>
      </trkpt>
      <trkpt lat="37.83701872149157" lon="112.02652787901603">
        <ele>1270.0</ele>
        <time>2018-05-23T09:21:53.474000Z</time>
      </trkpt>
      <trkpt lat="37.837355194351446" lon="112.02664976701854">
        <ele>1263.0</ele>
        <time>2018-05-23T09:21:59.474000Z</time>
      </trkpt>
      <trkpt lat="37.837420907142224" lon="112.02671086217381">
        <ele>1263.0</ele>
        <time>2018-05-23T09:22:02.474000Z</time>
      </trkpt>
      <trkpt lat="37.83748442201938" lon="112.02673353406503">
        <ele>1262.0</ele>
        <time>2018-05-23T09:22:05.474000Z</time>
      </trkpt>
      <trkpt lat="37.837527026708344" lon="112.0266395066981">
        <ele>1260.0</ele>
        <time>2018-05-23T09:22:08.474000Z</time>
      </trkpt>
      <trkpt lat="37.83759546525552" lon="112.02661251594824">
        <ele>1256.0</ele>
        <time>2018-05-23T09:22:11.474000Z</time>
      </trkpt>
      <trkpt lat="37.83784714231809" lon="112.02664415877017">
        <ele>1252.0</ele>
        <time>2018-05-23T09:22:20.474000Z</time>
      </trkpt>
      <trkpt lat="37.83793238023222" lon="112.02669492166827">
        <ele>1251.0</ele>
        <time>2018-05-23T09:22:23.574000Z</time>
      </trkpt>
      <trkpt lat="37.83816992858133" lon="112.02676718331966">
        <ele>1246.0</ele>
        <time>2018-05-23T09:22:29.574000Z</time>
      </trkpt>
      <trkpt lat="37.83827046798114" lon="112.02686553563002">
        <ele>1254.0</ele>
        <time>2018-05-23T09:22:32.474000Z</time>
      </trkpt>
      <trkpt lat="37.83836382922442" lon="112.02693299066011">
        <ele>1248.0</ele>
        <time>2018-05-23T09:22:35.574000Z</time>
      </trkpt>
      <trkpt lat="37.83847015898388" lon="112.0269041326899">
        <ele>1248.0</ele>
        <time>2018-05-23T09:22:38.574000Z</time>
      </trkpt>
      <trkpt lat="37.838671483994034" lon="112.0269382159819">
        <ele>1244.0</ele>
        <time>2018-05-23T09:22:44.474000Z</time>
      </trkpt>
      <trkpt lat="37.83895058618549" lon="112.02689454225094">
        <ele>1244.0</ele>
        <time>2018-05-23T09:22:50.474000Z</time>
      </trkpt>
      <trkpt lat="37.83910054564636" lon="112.02685528320765">
        <ele>1241.0</ele>
        <time>2018-05-23T09:22:53.474000Z</time>
      </trkpt>
      <trkpt lat="37.839191653661395" lon="112.02688979820743">
        <ele>1239.0</ele>
        <time>2018-05-23T09:22:56.474000Z</time>
      </trkpt>
      <trkpt lat="37.839357721552055" lon="112.02708909552734">
        <ele>1239.0</ele>
        <time>2018-05-23T09:23:05.574000Z</time>
      </trkpt>
      <trkpt lat="37.83943973268166" lon="112.02712430608058">
        <ele>1242.0</ele>
        <time>2018-05-23T09:23:08.574000Z</time>
      </trkpt>
      <trkpt lat="37.83972966333546" lon="112.02704723876236">
        <ele>1239.0</ele>
        <time>2018-05-23T09:23:17.474000Z</time>
      </trkpt>
      <trkpt lat="37.83979396256723" lon="112.02704802867494">
        <ele>1239.0</ele>
        <time>2018-05-23T09:23:20.474000Z</time>
      </trkpt>
      <trkpt lat="37.839914051714366" lon="112.02708033268853">
        <ele>1240.0</ele>
        <time>2018-05-23T09:23:29.474000Z</time>
      </trkpt>
      <trkpt lat="37.840100541349564" lon="112.02720101824283">
        <ele>1243.0</ele>
        <time>2018-05-23T09:23:41.574000Z</time>
      </trkpt>
      <trkpt lat="37.84028729630759" lon="112.0272520500122">
        <ele>1243.0</ele>
        <time>2018-05-23T09:23:50.574000Z</time>
      </trkpt>
      <trkpt lat="37.84058494347554" lon="112.02728237508992">
        <ele>1242.0</ele>
        <time>2018-05-23T09:23:59.574000Z</time>
      </trkpt>
      <trkpt lat="37.84075680050823" lon="112.02733078639528">
        <ele>1241.0</ele>
        <time>2018-05-23T09:24:05.474000Z</time>
      </trkpt>
      <trkpt lat="37.84084097670884" lon="112.02733464053486">
        <ele>1242.0</ele>
        <time>2018-05-23T09:24:08.574000Z</time>
      </trkpt>
      <trkpt lat="37.84097543655191" lon="112.02740520735621">
        <ele>1240.0</ele>
        <time>2018-05-23T09:24:14.574000Z</time>
      </trkpt>
      <trkpt lat="37.84104831848212" lon="112.02741959071085">
        <ele>1242.0</ele>
        <time>2018-05-23T09:24:17.474000Z</time>
      </trkpt>
      <trkpt lat="37.8413557780103" lon="112.02759335458491">
        <ele>1245.0</ele>
        <time>2018-05-23T09:24:29.474000Z</time>
      </trkpt>
      <trkpt lat="37.84145088787987" lon="112.02763619213223">
        <ele>1245.0</ele>
        <time>2018-05-23T09:24:32.574000Z</time>
      </trkpt>
      <trkpt lat="37.84155386796154" lon="112.02765731230267">
        <ele>1242.0</ele>
        <time>2018-05-23T09:24:35.474000Z</time>
      </trkpt>
      <trkpt lat="37.84176041322654" lon="112.027765691373">
        <ele>1238.0</ele>
        <time>2018-05-23T09:24:41.574000Z</time>
      </trkpt>
      <trkpt lat="37.841954510209334" lon="112.02777014899894">
        <ele>1238.0</ele>
        <time>2018-05-23T09:24:47.474000Z</time>
      </trkpt>
      <trkpt lat="37.842038155512725" lon="112.02783467364318">
        <ele>1235.0</ele>
        <time>2018-05-23T09:24:50.474000Z</time>
      </trkpt>
      <trkpt lat="37.842136746944206" lon="112.02799166991221">
        <ele>1233.0</ele>
        <time>2018-05-23T09:24:56.574000Z</time>
      </trkpt>
      <trkpt lat="37.84222166125584" lon="112.02806888762444">
        <ele>1238.0</ele>
        <time>2018-05-23T09:24:59.574000Z</time>
      </trkpt>
      <trkpt lat="37.8424599438903" lon="112.0281847840386">
        <ele>1232.0</ele>
        <time>2018-05-23T09:25:08.574000Z</time>
      </trkpt>
      <trkpt lat="37.842549923618755" lon="112.0281567182434">
        <ele>1230.0</ele>
        <time>2018-05-23T09:25:11.574000Z</time>
      </trkpt>
      <trkpt lat="37.842641911111166" lon="112.02815156854133">
        <ele>1229.0</ele>
        <time>2018-05-23T09:25:14.574000Z</time>
      </trkpt>
      <trkpt lat="37.84284970802229" lon="112.02835418373954">
        <ele>1230.0</ele>
        <time>2018-05-23T09:25:23.474000Z</time>
      </trkpt>
      <trkpt lat="37.843072347351445" lon="112.02846021876961">
        <ele>1229.0</ele>
        <time>2018-05-23T09:25:32.474000Z</time>
      </trkpt>
      <trkpt lat="37.843373008975085" lon="112.02868250591298">
        <ele>1235.0</ele>
        <time>2018-05-23T09:25:47.574000Z</time>
      </trkpt>
      <trkpt lat="37.84347784825954" lon="112.02869718759766">
        <ele>1236.0</ele>
        <time>2018-05-23T09:25:53.474000Z</time>
      </trkpt>
      <trkpt lat="37.84372548194437" lon="112.02855651935731">
        <ele>1238.0</ele>
        <time>2018-05-23T09:26:08.474000Z</time>
      </trkpt>
      <trkpt lat="37.843789806492005" lon="112.02854410535733">
        <ele>1238.0</ele>
        <time>2018-05-23T09:26:11.574000Z</time>
      </trkpt>
      <trkpt lat="37.84397912035849" lon="112.02857337763928">
        <ele>1243.0</ele>
        <time>2018-05-23T09:26:20.474000Z</time>
      </trkpt>
      <trkpt lat="37.84405189630058" lon="112.02860809062489">
        <ele>1243.0</ele>
        <time>2018-05-23T09:26:23.574000Z</time>
      </trkpt>
      <trkpt lat="37.84412737484625" lon="112.0286207833002">
        <ele>1238.0</ele>
        <time>2018-05-23T09:26:26.574000Z</time>
      </trkpt>
      <trkpt lat="37.844254181347395" lon="112.02877862289293">
        <ele>1241.0</ele>
        <time>2018-05-23T09:26:35.474000Z</time>
      </trkpt>
      <trkpt lat="37.84450697151565" lon="112.02897570204024">
        <ele>1237.0</ele>
        <time>2018-05-23T09:26:47.574000Z</time>
      </trkpt>
      <trkpt lat="37.84451383146232" lon="112.02905224220372">
        <ele>1235.0</ele>
        <time>2018-05-23T09:26:50.474000Z</time>
      </trkpt>
      <trkpt lat="37.84464971509041" lon="112.02917636874778">
        <ele>1231.0</ele>
        <time>2018-05-23T09:26:59.474000Z</time>
      </trkpt>
      <trkpt lat="37.84477574825943" lon="112.02935092944931">
        <ele>1223.0</ele>
        <time>2018-05-23T09:27:08.574000Z</time>
      </trkpt>
      <trkpt lat="37.84483778397496" lon="112.02935109656717">
        <ele>1224.0</ele>
        <time>2018-05-23T09:27:11.474000Z</time>
      </trkpt>
      <trkpt lat="37.84489281827099" lon="112.02938757299275">
        <ele>1224.0</ele>
        <time>2018-05-23T09:27:14.474000Z</time>
      </trkpt>
      <trkpt lat="37.84493417917207" lon="112.02954959597875">
        <ele>1224.0</ele>
        <time>2018-05-23T09:27:20.474000Z</time>
      </trkpt>
      <trkpt lat="37.845023003515664" lon="112.02951251309874">
        <ele>1222.0</ele>
        <time>2018-05-23T09:27:23.574000Z</time>
      </trkpt>
      <trkpt lat="37.845036392442005" lon="112.02958256269282">
        <ele>1218.0</ele>
        <time>2018-05-23T09:27:26.574000Z</time>
      </trkpt>
      <trkpt lat="37.84507455530366" lon="112.02961907134677">
        <ele>1215.0</ele>
        <time>2018-05-23T09:27:29.574000Z</time>
      </trkpt>
      <trkpt lat="37.844948178860236" lon="112.02974819141328">
        <ele>1211.0</ele>
        <time>2018-05-23T09:27:35.574000Z</time>
      </trkpt>
      <trkpt lat="37.84504263686728" lon="112.029775718432">
        <ele>1210.0</ele>
        <time>2018-05-23T09:27:41.574000Z</time>
      </trkpt>
      <trkpt lat="37.84513527188914" lon="112.02971122335344">
        <ele>1207.0</ele>
        <time>2018-05-23T09:27:44.574000Z</time>
      </trkpt>
      <trkpt lat="37.845206836195146" lon="112.02972557925199">
        <ele>1205.0</ele>
        <time>2018-05-23T09:27:47.474000Z</time>
      </trkpt>
      <trkpt lat="37.845351794721026" lon="112.02984227498166">
        <ele>1200.0</ele>
        <time>2018-05-23T09:27:53.474000Z</time>
      </trkpt>
      <trkpt lat="37.845414039892326" lon="112.02980511355645">
        <ele>1200.0</ele>
        <time>2018-05-23T09:27:56.474000Z</time>
      </trkpt>
      <trkpt lat="37.845479790101955" lon="112.02984363744079">
        <ele>1201.0</ele>
        <time>2018-05-23T09:27:59.574000Z</time>
      </trkpt>
      <trkpt lat="37.84549525048103" lon="112.02996498747882">
        <ele>1200.0</ele>
        <time>2018-05-23T09:28:02.574000Z</time>
      </trkpt>
      <trkpt lat="37.84551725563014" lon="112.03006253751407">
        <ele>1192.0</ele>
        <time>2018-05-23T09:28:05.574000Z</time>
      </trkpt>
      <trkpt lat="37.84555874654818" lon="112.03009941378868">
        <ele>1215.0</ele>
        <time>2018-05-23T09:28:08.574000Z</time>
      </trkpt>
      <trkpt lat="37.84558192237597" lon="112.03016587032825">
        <ele>1200.0</ele>
        <time>2018-05-23T09:28:11.574000Z</time>
      </trkpt>
      <trkpt lat="37.84571360214504" lon="112.03025355806136">
        <ele>1189.0</ele>
        <time>2018-05-23T09:28:17.474000Z</time>
      </trkpt>
      <trkpt lat="37.845783970231714" lon="112.03032906029627">
        <ele>1184.0</ele>
        <time>2018-05-23T09:28:20.574000Z</time>
      </trkpt>
      <trkpt lat="37.845816377788466" lon="112.03044260798555">
        <ele>1193.0</ele>
        <time>2018-05-23T09:28:23.474000Z</time>
      </trkpt>
      <trkpt lat="37.84586021304273" lon="112.03052668770505">
        <ele>1189.0</ele>
        <time>2018-05-23T09:28:26.574000Z</time>
      </trkpt>
      <trkpt lat="37.84592558351052" lon="112.03058554291616">
        <ele>1186.0</ele>
        <time>2018-05-23T09:28:29.574000Z</time>
      </trkpt>
      <trkpt lat="37.84593379987337" lon="112.03069368249533">
        <ele>1179.0</ele>
        <time>2018-05-23T09:28:32.474000Z</time>
      </trkpt>
      <trkpt lat="37.84600197633976" lon="112.03087791791276">
        <ele>1172.0</ele>
        <time>2018-05-23T09:28:38.574000Z</time>
      </trkpt>
      <trkpt lat="37.8459950071367" lon="112.03097957862886">
        <ele>1165.0</ele>
        <time>2018-05-23T09:28:41.474000Z</time>
      </trkpt>
      <trkpt lat="37.84601855971793" lon="112.0311358391314">
        <ele>1162.0</ele>
        <time>2018-05-23T09:28:47.474000Z</time>
      </trkpt>
      <trkpt lat="37.84613426759567" lon="112.03120968214672">
        <ele>1159.0</ele>
        <time>2018-05-23T09:28:53.474000Z</time>
      </trkpt>
      <trkpt lat="37.84612232046877" lon="112.03130052103933">
        <ele>1159.0</ele>
        <time>2018-05-23T09:28:56.474000Z</time>
      </trkpt>
      <trkpt lat="37.84623320815623" lon="112.03150094788458">
        <ele>1149.0</ele>
        <time>2018-05-23T09:29:05.574000Z</time>
      </trkpt>
      <trkpt lat="37.846227703546404" lon="112.0319086793772">
        <ele>1147.0</ele>
        <time>2018-05-23T09:29:17.574000Z</time>
      </trkpt>
      <trkpt lat="37.84620467929211" lon="112.03203999770618">
        <ele>1139.0</ele>
        <time>2018-05-23T09:29:23.574000Z</time>
      </trkpt>
      <trkpt lat="37.84619442843254" lon="112.03214142944073">
        <ele>1141.0</ele>
        <time>2018-05-23T09:29:26.574000Z</time>
      </trkpt>
      <trkpt lat="37.846165228033556" lon="112.03223123083067">
        <ele>1138.0</ele>
        <time>2018-05-23T09:29:29.574000Z</time>
      </trkpt>
      <trkpt lat="37.84614875191935" lon="112.03253159814099">
        <ele>1137.0</ele>
        <time>2018-05-23T09:29:44.474000Z</time>
      </trkpt>
      <trkpt lat="37.84622552526942" lon="112.03262673160059">
        <ele>1136.0</ele>
        <time>2018-05-23T09:29:56.474000Z</time>
      </trkpt>
      <trkpt lat="37.84626786794373" lon="112.03266212359398">
        <ele>1132.0</ele>
        <time>2018-05-23T09:29:59.474000Z</time>
      </trkpt>
      <trkpt lat="37.846310539155915" lon="112.03269022209216">
        <ele>1135.0</ele>
        <time>2018-05-23T09:30:02.574000Z</time>
      </trkpt>
      <trkpt lat="37.846481803432766" lon="112.03269582987203">
        <ele>1135.0</ele>
        <time>2018-05-23T09:30:11.474000Z</time>
      </trkpt>
      <trkpt lat="37.8466517777565" lon="112.03275483748591">
        <ele>1127.0</ele>
        <time>2018-05-23T09:30:23.474000Z</time>
      </trkpt>
      <trkpt lat="37.8466954117556" lon="112.03273377667576">
        <ele>1126.0</ele>
        <time>2018-05-23T09:30:26.474000Z</time>
      </trkpt>
      <trkpt lat="37.846697925528915" lon="112.03272745355892">
        <ele>1126.0</ele>
        <time>2018-05-23T09:30:32.474000Z</time>
      </trkpt>
      <trkpt lat="37.84676338852173" lon="112.03273731764561">
        <ele>1122.0</ele>
        <time>2018-05-23T09:30:38.474000Z</time>
      </trkpt>
      <trkpt lat="37.8467977966064" lon="112.03278063489212">
        <ele>1118.0</ele>
        <time>2018-05-23T09:30:47.474000Z</time>
      </trkpt>
      <trkpt lat="37.8468517079895" lon="112.03280164142538">
        <ele>1118.0</ele>
        <time>2018-05-23T09:30:53.474000Z</time>
      </trkpt>
      <trkpt lat="37.846956459985996" lon="112.03278369269466">
        <ele>1112.0</ele>
        <time>2018-05-23T09:31:02.474000Z</time>
      </trkpt>
      <trkpt lat="37.847047817004466" lon="112.03285642832256">
        <ele>1109.0</ele>
        <time>2018-05-23T09:31:08.474000Z</time>
      </trkpt>
      <trkpt lat="37.84718116040278" lon="112.03304046541228">
        <ele>1107.0</ele>
        <time>2018-05-23T09:31:23.574000Z</time>
      </trkpt>
      <trkpt lat="37.847243975159415" lon="112.03307912145033">
        <ele>1109.0</ele>
        <time>2018-05-23T09:31:29.474000Z</time>
      </trkpt>
      <trkpt lat="37.84728337976572" lon="112.03307121698988">
        <ele>1108.0</ele>
        <time>2018-05-23T09:31:32.574000Z</time>
      </trkpt>
      <trkpt lat="37.847367466736934" lon="112.0330835902689">
        <ele>1109.0</ele>
        <time>2018-05-23T09:31:38.474000Z</time>
      </trkpt>
      <trkpt lat="37.847395280997226" lon="112.03317428022045">
        <ele>1107.0</ele>
        <time>2018-05-23T09:31:50.474000Z</time>
      </trkpt>
      <trkpt lat="37.8474669073192" lon="112.03319542672173">
        <ele>1111.0</ele>
        <time>2018-05-23T09:31:56.474000Z</time>
      </trkpt>
      <trkpt lat="37.8475081199533" lon="112.03319499860119">
        <ele>1112.0</ele>
        <time>2018-05-23T09:31:59.474000Z</time>
      </trkpt>
      <trkpt lat="37.84759314668858" lon="112.03323986474875">
        <ele>1116.0</ele>
        <time>2018-05-23T09:32:05.474000Z</time>
      </trkpt>
      <trkpt lat="37.847704552972885" lon="112.0332321902401">
        <ele>1115.0</ele>
        <time>2018-05-23T09:32:11.474000Z</time>
      </trkpt>
      <trkpt lat="37.84777168984847" lon="112.03325722736149">
        <ele>1117.0</ele>
        <time>2018-05-23T09:32:14.474000Z</time>
      </trkpt>
      <trkpt lat="37.84781294689671" lon="112.03331968341934">
        <ele>1118.0</ele>
        <time>2018-05-23T09:32:17.474000Z</time>
      </trkpt>
      <trkpt lat="37.84788940040046" lon="112.03330328047984">
        <ele>1118.0</ele>
        <time>2018-05-23T09:32:23.474000Z</time>
      </trkpt>
      <trkpt lat="37.84794021315253" lon="112.03334698289619">
        <ele>1122.0</ele>
        <time>2018-05-23T09:32:26.474000Z</time>
      </trkpt>
      <trkpt lat="37.84806394597769" lon="112.03330903630528">
        <ele>1125.0</ele>
        <time>2018-05-23T09:32:35.474000Z</time>
      </trkpt>
      <trkpt lat="37.848098558845386" lon="112.03334724581674">
        <ele>1124.0</ele>
        <time>2018-05-23T09:32:38.574000Z</time>
      </trkpt>
      <trkpt lat="37.84814452290116" lon="112.03333719173659">
        <ele>1124.0</ele>
        <time>2018-05-23T09:32:41.474000Z</time>
      </trkpt>
      <trkpt lat="37.84817394581198" lon="112.03322897792322">
        <ele>1120.0</ele>
        <time>2018-05-23T09:32:44.474000Z</time>
      </trkpt>
      <trkpt lat="37.84823521123662" lon="112.03308611792266">
        <ele>1120.0</ele>
        <time>2018-05-23T09:32:50.474000Z</time>
      </trkpt>
      <trkpt lat="37.84827155170559" lon="112.03304904030003">
        <ele>1118.0</ele>
        <time>2018-05-23T09:32:53.474000Z</time>
      </trkpt>
      <trkpt lat="37.84835739528587" lon="112.03289671512657">
        <ele>1117.0</ele>
        <time>2018-05-23T09:33:02.474000Z</time>
      </trkpt>
      <trkpt lat="37.84830035788307" lon="112.03281403075276">
        <ele>1116.0</ele>
        <time>2018-05-23T09:33:05.474000Z</time>
      </trkpt>
      <trkpt lat="37.848148113883084" lon="112.03276514559356">
        <ele>1110.0</ele>
        <time>2018-05-23T09:33:11.574000Z</time>
      </trkpt>
      <trkpt lat="37.848110373236004" lon="112.0326815004595">
        <ele>1109.0</ele>
        <time>2018-05-23T09:33:14.574000Z</time>
      </trkpt>
      <trkpt lat="37.84808643010908" lon="112.03258797912201">
        <ele>1107.0</ele>
        <time>2018-05-23T09:33:17.474000Z</time>
      </trkpt>
      <trkpt lat="37.84807058673233" lon="112.0325198672118">
        <ele>1108.0</ele>
        <time>2018-05-23T09:33:20.474000Z</time>
      </trkpt>
      <trkpt lat="37.84806895689734" lon="112.03243126886">
        <ele>1109.0</ele>
        <time>2018-05-23T09:33:23.474000Z</time>
      </trkpt>
      <trkpt lat="37.84817241889662" lon="112.03220533716448">
        <ele>1116.0</ele>
        <time>2018-05-23T09:33:35.574000Z</time>
      </trkpt>
      <trkpt lat="37.84827810058073" lon="112.03219377051086">
        <ele>1117.0</ele>
        <time>2018-05-23T09:33:38.574000Z</time>
      </trkpt>
      <trkpt lat="37.848335070087046" lon="112.03214302067799">
        <ele>1118.0</ele>
        <time>2018-05-23T09:33:41.474000Z</time>
      </trkpt>
      <trkpt lat="37.848377119786726" lon="112.03210226467372">
        <ele>1118.0</ele>
        <time>2018-05-23T09:33:44.474000Z</time>
      </trkpt>
      <trkpt lat="37.84869967705132" lon="112.03197832643986">
        <ele>1114.0</ele>
        <time>2018-05-23T09:34:05.474000Z</time>
      </trkpt>
      <trkpt lat="37.84881303576704" lon="112.03193930399377">
        <ele>1115.0</ele>
        <time>2018-05-23T09:34:11.474000Z</time>
      </trkpt>
      <trkpt lat="37.848865610423765" lon="112.03186973791131">
        <ele>1112.0</ele>
        <time>2018-05-23T09:34:17.474000Z</time>
      </trkpt>
      <trkpt lat="37.84888971389661" lon="112.03180295401847">
        <ele>1112.0</ele>
        <time>2018-05-23T09:34:26.474000Z</time>
      </trkpt>
      <trkpt lat="37.848943857958446" lon="112.03178962829597">
        <ele>1112.0</ele>
        <time>2018-05-23T09:34:29.474000Z</time>
      </trkpt>
      <trkpt lat="37.84906490943475" lon="112.0317038138961">
        <ele>1108.0</ele>
        <time>2018-05-23T09:34:44.474000Z</time>
      </trkpt>
      <trkpt lat="37.84911332582086" lon="112.03169033489584">
        <ele>1104.0</ele>
        <time>2018-05-23T09:34:50.574000Z</time>
      </trkpt>
      <trkpt lat="37.849062400842875" lon="112.03175510605415">
        <ele>1106.0</ele>
        <time>2018-05-23T09:35:02.474000Z</time>
      </trkpt>
      <trkpt lat="37.84906652902609" lon="112.03173130246593">
        <ele>1107.0</ele>
        <time>2018-05-23T09:35:35.674000Z</time>
      </trkpt>
      <trkpt lat="37.849042182784835" lon="112.0317020925425">
        <ele>1104.0</ele>
        <time>2018-05-23T09:35:44.474000Z</time>
      </trkpt>
      <trkpt lat="37.849039732331285" lon="112.03170560919816">
        <ele>1104.0</ele>
        <time>2018-05-23T09:36:05.374000Z</time>
      </trkpt>
      <trkpt lat="37.849039732331285" lon="112.03170560919816">
        <ele>1104.0</ele>
        <time>2018-05-23T09:36:10.974000Z</time>
      </trkpt>
      <trkpt lat="37.84901616212562" lon="112.03169181708648">
        <ele>1104.0</ele>
        <time>2018-05-23T09:36:44.474000Z</time>
      </trkpt>
      <trkpt lat="37.84900965064144" lon="112.03169181787065">
        <ele>1103.0</ele>
        <time>2018-05-23T09:36:50.474000Z</time>
      </trkpt>
      <trkpt lat="37.849006401551925" lon="112.03168911337056">
        <ele>1103.0</ele>
        <time>2018-05-23T09:37:03.474000Z</time>
      </trkpt>
      <trkpt lat="37.849006130240085" lon="112.03168911340323">
        <ele>1103.0</ele>
        <time>2018-05-23T09:37:06.474000Z</time>
      </trkpt>
      <trkpt lat="37.84900558562062" lon="112.0316899249362">
        <ele>1104.0</ele>
        <time>2018-05-23T09:37:15.474000Z</time>
      </trkpt>
      <trkpt lat="37.84900558495536" lon="112.03169019542543">
        <ele>1104.0</ele>
        <time>2018-05-23T09:37:19.274000Z</time>
      </trkpt>
    </trkseg>
  </trk>
</gpx>