<?xml version="1.0" encoding="UTF-8"?>
<gpx xmlns="http://www.topografix.com/GPX/1/1" xmlns:gpxtpx="http://www.garmin.com/xmlschemas/TrackPointExtension/v1" xmlns:xsi="http://www.w3.org/2001/XMLSchema-instance" xsi:schemaLocation="http://www.topografix.com/GPX/1/1 http://www.topografix.com/GPX/1/1/gpx.xsd" version="1.1" creator="gpx.py -- https://github.com/tkrajina/gpxpy">
  <trk>
    <name>gpx from keep</name>
    <type>Run</type>
    <trkseg>
      <trkpt lat="37.84726651185057" lon="112.02982165980411">
        <ele>1111.0</ele>
        <time>2018-11-10T23:19:43.058000Z</time>
      </trkpt>
      <trkpt lat="37.84734358626561" lon="112.0299209134181">
        <ele>1112.0</ele>
        <time>2018-11-10T23:19:49.058000Z</time>
      </trkpt>
      <trkpt lat="37.847564159661665" lon="112.02986009260646">
        <ele>1108.0</ele>
        <time>2018-11-10T23:19:52.058000Z</time>
      </trkpt>
      <trkpt lat="37.847619270198415" lon="112.02974194312463">
        <ele>1115.0</ele>
        <time>2018-11-10T23:19:55.058000Z</time>
      </trkpt>
      <trkpt lat="37.847730610885485" lon="112.02980672155729">
        <ele>1126.0</ele>
        <time>2018-11-10T23:19:58.058000Z</time>
      </trkpt>
      <trkpt lat="37.84789924068104" lon="112.02978242112319">
        <ele>1133.0</ele>
        <time>2018-11-10T23:20:04.058000Z</time>
      </trkpt>
      <trkpt lat="37.84796187472586" lon="112.02975323797797">
        <ele>1105.0</ele>
        <time>2018-11-10T23:20:07.658000Z</time>
      </trkpt>
      <trkpt lat="37.84811794855755" lon="112.02978812914472">
        <ele>1108.0</ele>
        <time>2018-11-10T23:20:13.758000Z</time>
      </trkpt>
      <trkpt lat="37.84820931484105" lon="112.02977485628699">
        <ele>1107.0</ele>
        <time>2018-11-10T23:20:16.758000Z</time>
      </trkpt>
      <trkpt lat="37.848435971558786" lon="112.0298521287051">
        <ele>1106.0</ele>
        <time>2018-11-10T23:20:25.758000Z</time>
      </trkpt>
    </trkseg>
  </trk>
</gpx>