<?xml version="1.0" encoding="UTF-8"?>
<gpx xmlns="http://www.topografix.com/GPX/1/1" xmlns:gpxtpx="http://www.garmin.com/xmlschemas/TrackPointExtension/v1" xmlns:xsi="http://www.w3.org/2001/XMLSchema-instance" xsi:schemaLocation="http://www.topografix.com/GPX/1/1 http://www.topografix.com/GPX/1/1/gpx.xsd" version="1.1" creator="gpx.py -- https://github.com/tkrajina/gpxpy">
  <trk>
    <name>gpx from keep</name>
    <type>Run</type>
    <trkseg>
      <trkpt lat="37.846805305981036" lon="112.02958390303279">
        <ele>1135.65</ele>
        <time>2019-07-03T22:21:33.418000Z</time>
      </trkpt>
      <trkpt lat="37.84698209415081" lon="112.02958174367157">
        <ele>1133.56</ele>
        <time>2019-07-03T22:21:39.418000Z</time>
      </trkpt>
      <trkpt lat="37.847041014805264" lon="112.02957537898625">
        <ele>1143.14</ele>
        <time>2019-07-03T22:21:48.418000Z</time>
      </trkpt>
      <trkpt lat="37.84706676929442" lon="112.02947769781066">
        <ele>1131.95</ele>
        <time>2019-07-03T22:21:54.418000Z</time>
      </trkpt>
      <trkpt lat="37.847130291039456" lon="112.02948837949943">
        <ele>1134.24</ele>
        <time>2019-07-03T22:22:03.418000Z</time>
      </trkpt>
      <trkpt lat="37.84723398580217" lon="112.02945488135614">
        <ele>1127.77</ele>
        <time>2019-07-03T22:22:15.418000Z</time>
      </trkpt>
      <trkpt lat="37.84725767713012" lon="112.02940005941728">
        <ele>1123.7</ele>
        <time>2019-07-03T22:22:21.418000Z</time>
      </trkpt>
      <trkpt lat="37.84730617554068" lon="112.02938978676762">
        <ele>1120.68</ele>
        <time>2019-07-03T22:22:27.418000Z</time>
      </trkpt>
      <trkpt lat="37.84732275066855" lon="112.02929287823164">
        <ele>1115.08</ele>
        <time>2019-07-03T22:22:33.418000Z</time>
      </trkpt>
      <trkpt lat="37.84728948752897" lon="112.02921247916673">
        <ele>1113.35</ele>
        <time>2019-07-03T22:22:36.418000Z</time>
      </trkpt>
      <trkpt lat="37.847214489392414" lon="112.02877728799996">
        <ele>1107.33</ele>
        <time>2019-07-03T22:22:48.418000Z</time>
      </trkpt>
      <trkpt lat="37.84722267258008" lon="112.0286688652118">
        <ele>1106.67</ele>
        <time>2019-07-03T22:22:51.418000Z</time>
      </trkpt>
      <trkpt lat="37.847262125606306" lon="112.028558871873">
        <ele>1106.88</ele>
        <time>2019-07-03T22:22:54.418000Z</time>
      </trkpt>
      <trkpt lat="37.84731501692392" lon="112.0281760520109">
        <ele>1111.45</ele>
        <time>2019-07-03T22:23:06.418000Z</time>
      </trkpt>
      <trkpt lat="37.84734341767869" lon="112.02801517867495">
        <ele>1110.35</ele>
        <time>2019-07-03T22:23:12.418000Z</time>
      </trkpt>
      <trkpt lat="37.84734948520591" lon="112.02780584718572">
        <ele>1112.49</ele>
        <time>2019-07-03T22:23:18.418000Z</time>
      </trkpt>
      <trkpt lat="37.84739901009545" lon="112.02753222311551">
        <ele>1111.51</ele>
        <time>2019-07-03T22:23:24.418000Z</time>
      </trkpt>
      <trkpt lat="37.847520951561954" lon="112.02719917089439">
        <ele>1108.94</ele>
        <time>2019-07-03T22:23:36.418000Z</time>
      </trkpt>
      <trkpt lat="37.84757376955666" lon="112.02708142321993">
        <ele>1108.27</ele>
        <time>2019-07-03T22:23:39.418000Z</time>
      </trkpt>
      <trkpt lat="37.84763626252806" lon="112.02686635247007">
        <ele>1107.67</ele>
        <time>2019-07-03T22:23:45.418000Z</time>
      </trkpt>
      <trkpt lat="37.84774288036457" lon="112.02671949418736">
        <ele>1108.1</ele>
        <time>2019-07-03T22:23:51.418000Z</time>
      </trkpt>
      <trkpt lat="37.84781738237632" lon="112.02652587541284">
        <ele>1105.68</ele>
        <time>2019-07-03T22:23:57.418000Z</time>
      </trkpt>
      <trkpt lat="37.84787384297328" lon="112.02646037205291">
        <ele>1102.54</ele>
        <time>2019-07-03T22:24:00.418000Z</time>
      </trkpt>
      <trkpt lat="37.84795032875452" lon="112.02643066552332">
        <ele>1100.04</ele>
        <time>2019-07-03T22:24:03.418000Z</time>
      </trkpt>
      <trkpt lat="37.84822365058407" lon="112.02651131873158">
        <ele>1107.36</ele>
        <time>2019-07-03T22:24:12.418000Z</time>
      </trkpt>
      <trkpt lat="37.84856264063794" lon="112.02651043387779">
        <ele>1100.19</ele>
        <time>2019-07-03T22:24:24.418000Z</time>
      </trkpt>
      <trkpt lat="37.8488205023275" lon="112.0265202548574">
        <ele>1102.43</ele>
        <time>2019-07-03T22:24:33.418000Z</time>
      </trkpt>
      <trkpt lat="37.84888255901353" lon="112.02649695970806">
        <ele>1101.88</ele>
        <time>2019-07-03T22:24:36.418000Z</time>
      </trkpt>
      <trkpt lat="37.84893554458291" lon="112.02633946424586">
        <ele>1101.58</ele>
        <time>2019-07-03T22:24:42.418000Z</time>
      </trkpt>
      <trkpt lat="37.84900767784739" lon="112.02623422305051">
        <ele>1100.87</ele>
        <time>2019-07-03T22:24:48.418000Z</time>
      </trkpt>
      <trkpt lat="37.84904756506684" lon="112.02616972522175">
        <ele>1096.41</ele>
        <time>2019-07-03T22:24:51.418000Z</time>
      </trkpt>
      <trkpt lat="37.84906425652279" lon="112.02609129776879">
        <ele>1095.84</ele>
        <time>2019-07-03T22:24:54.418000Z</time>
      </trkpt>
      <trkpt lat="37.84909291102931" lon="112.02592281281335">
        <ele>1099.58</ele>
        <time>2019-07-03T22:25:00.418000Z</time>
      </trkpt>
      <trkpt lat="37.84901917904821" lon="112.02551426591214">
        <ele>1097.84</ele>
        <time>2019-07-03T22:25:09.418000Z</time>
      </trkpt>
      <trkpt lat="37.84898257252559" lon="112.02539035581927">
        <ele>1099.0</ele>
        <time>2019-07-03T22:25:12.418000Z</time>
      </trkpt>
      <trkpt lat="37.84896074966492" lon="112.02504631630613">
        <ele>1101.51</ele>
        <time>2019-07-03T22:25:21.418000Z</time>
      </trkpt>
      <trkpt lat="37.84896931173024" lon="112.02483411798444">
        <ele>1100.07</ele>
        <time>2019-07-03T22:25:27.418000Z</time>
      </trkpt>
      <trkpt lat="37.84895118963687" lon="112.02472861555333">
        <ele>1100.88</ele>
        <time>2019-07-03T22:25:30.418000Z</time>
      </trkpt>
      <trkpt lat="37.84898173826183" lon="112.02463176873756">
        <ele>1101.86</ele>
        <time>2019-07-03T22:25:33.418000Z</time>
      </trkpt>
      <trkpt lat="37.84899134336736" lon="112.02451929279412">
        <ele>1102.81</ele>
        <time>2019-07-03T22:25:36.418000Z</time>
      </trkpt>
      <trkpt lat="37.84896867508013" lon="112.02428855607803">
        <ele>1100.38</ele>
        <time>2019-07-03T22:25:42.418000Z</time>
      </trkpt>
      <trkpt lat="37.848980360660946" lon="112.0239505701274">
        <ele>1101.27</ele>
        <time>2019-07-03T22:25:51.418000Z</time>
      </trkpt>
      <trkpt lat="37.84900635373571" lon="112.02374846319988">
        <ele>1104.1</ele>
        <time>2019-07-03T22:25:57.418000Z</time>
      </trkpt>
      <trkpt lat="37.84899796081491" lon="112.02331408350899">
        <ele>1099.18</ele>
        <time>2019-07-03T22:26:09.418000Z</time>
      </trkpt>
      <trkpt lat="37.84900166346995" lon="112.02294201221106">
        <ele>1103.66</ele>
        <time>2019-07-03T22:26:18.418000Z</time>
      </trkpt>
      <trkpt lat="37.8490226529502" lon="112.02256845068823">
        <ele>1103.69</ele>
        <time>2019-07-03T22:26:30.418000Z</time>
      </trkpt>
      <trkpt lat="37.849052013884744" lon="112.02217720868384">
        <ele>1108.78</ele>
        <time>2019-07-03T22:26:42.418000Z</time>
      </trkpt>
      <trkpt lat="37.84905641219607" lon="112.02196359546954">
        <ele>1108.81</ele>
        <time>2019-07-03T22:26:48.418000Z</time>
      </trkpt>
      <trkpt lat="37.84908426553118" lon="112.02176631989845">
        <ele>1110.27</ele>
        <time>2019-07-03T22:26:54.418000Z</time>
      </trkpt>
      <trkpt lat="37.849080544705124" lon="112.02145283509398">
        <ele>1113.02</ele>
        <time>2019-07-03T22:27:03.418000Z</time>
      </trkpt>
      <trkpt lat="37.84910295749428" lon="112.02134183210227">
        <ele>1112.99</ele>
        <time>2019-07-03T22:27:06.418000Z</time>
      </trkpt>
      <trkpt lat="37.8491355620023" lon="112.02105409672154">
        <ele>1112.78</ele>
        <time>2019-07-03T22:27:15.418000Z</time>
      </trkpt>
      <trkpt lat="37.84913361039041" lon="112.02065461574117">
        <ele>1110.97</ele>
        <time>2019-07-03T22:27:27.418000Z</time>
      </trkpt>
      <trkpt lat="37.849116642048344" lon="112.02022426829653">
        <ele>1111.01</ele>
        <time>2019-07-03T22:27:39.418000Z</time>
      </trkpt>
      <trkpt lat="37.849092259510165" lon="112.02002859810574">
        <ele>1110.95</ele>
        <time>2019-07-03T22:27:45.418000Z</time>
      </trkpt>
      <trkpt lat="37.84908336987445" lon="112.01980167893633">
        <ele>1105.91</ele>
        <time>2019-07-03T22:27:51.418000Z</time>
      </trkpt>
      <trkpt lat="37.84910902625527" lon="112.0195988414892">
        <ele>1110.62</ele>
        <time>2019-07-03T22:27:57.418000Z</time>
      </trkpt>
      <trkpt lat="37.84912447979002" lon="112.01919760784394">
        <ele>1110.23</ele>
        <time>2019-07-03T22:28:09.418000Z</time>
      </trkpt>
      <trkpt lat="37.84914608903092" lon="112.01875760948018">
        <ele>1115.26</ele>
        <time>2019-07-03T22:28:24.418000Z</time>
      </trkpt>
      <trkpt lat="37.849147337258614" lon="112.01836587979658">
        <ele>1116.45</ele>
        <time>2019-07-03T22:28:33.418000Z</time>
      </trkpt>
      <trkpt lat="37.8491467217822" lon="112.01823346123133">
        <ele>1116.27</ele>
        <time>2019-07-03T22:28:36.418000Z</time>
      </trkpt>
      <trkpt lat="37.84917777450822" lon="112.01779070128373">
        <ele>1110.22</ele>
        <time>2019-07-03T22:28:48.418000Z</time>
      </trkpt>
      <trkpt lat="37.84925072469818" lon="112.01741195945549">
        <ele>1113.78</ele>
        <time>2019-07-03T22:29:00.418000Z</time>
      </trkpt>
      <trkpt lat="37.8492483995307" lon="112.01731538889233">
        <ele>1110.69</ele>
        <time>2019-07-03T22:29:03.418000Z</time>
      </trkpt>
      <trkpt lat="37.8493038882236" lon="112.01704800284637">
        <ele>1111.33</ele>
        <time>2019-07-03T22:29:12.418000Z</time>
      </trkpt>
      <trkpt lat="37.849349455088046" lon="112.01662237215977">
        <ele>1111.54</ele>
        <time>2019-07-03T22:29:24.418000Z</time>
      </trkpt>
      <trkpt lat="37.849421952214406" lon="112.01623099542893">
        <ele>1115.57</ele>
        <time>2019-07-03T22:29:36.418000Z</time>
      </trkpt>
      <trkpt lat="37.849444713186145" lon="112.01601747791685">
        <ele>1114.87</ele>
        <time>2019-07-03T22:29:42.418000Z</time>
      </trkpt>
      <trkpt lat="37.84944986469227" lon="112.01581292625589">
        <ele>1112.09</ele>
        <time>2019-07-03T22:29:48.418000Z</time>
      </trkpt>
      <trkpt lat="37.84947996197629" lon="112.01538720395162">
        <ele>1109.49</ele>
        <time>2019-07-03T22:30:00.418000Z</time>
      </trkpt>
      <trkpt lat="37.849491647023434" lon="112.01516087277773">
        <ele>1110.53</ele>
        <time>2019-07-03T22:30:06.418000Z</time>
      </trkpt>
      <trkpt lat="37.849549056062095" lon="112.01484482756631">
        <ele>1112.22</ele>
        <time>2019-07-03T22:30:15.418000Z</time>
      </trkpt>
      <trkpt lat="37.84957680300938" lon="112.01463722008343">
        <ele>1112.59</ele>
        <time>2019-07-03T22:30:21.418000Z</time>
      </trkpt>
      <trkpt lat="37.849609576052885" lon="112.01420011551438">
        <ele>1115.68</ele>
        <time>2019-07-03T22:30:33.418000Z</time>
      </trkpt>
      <trkpt lat="37.849647673062" lon="112.01388342035686">
        <ele>1119.42</ele>
        <time>2019-07-03T22:30:42.418000Z</time>
      </trkpt>
      <trkpt lat="37.84966879156278" lon="112.01378739135804">
        <ele>1119.21</ele>
        <time>2019-07-03T22:30:45.418000Z</time>
      </trkpt>
      <trkpt lat="37.849679441162586" lon="112.01334310390587">
        <ele>1118.69</ele>
        <time>2019-07-03T22:30:57.418000Z</time>
      </trkpt>
      <trkpt lat="37.84968109447358" lon="112.01312392493828">
        <ele>1114.2</ele>
        <time>2019-07-03T22:31:03.418000Z</time>
      </trkpt>
      <trkpt lat="37.84972699425191" lon="112.01271348005334">
        <ele>1116.14</ele>
        <time>2019-07-03T22:31:15.418000Z</time>
      </trkpt>
      <trkpt lat="37.849775604434505" lon="112.01230607497884">
        <ele>1114.7</ele>
        <time>2019-07-03T22:31:27.418000Z</time>
      </trkpt>
      <trkpt lat="37.84981600294551" lon="112.01185634410217">
        <ele>1118.66</ele>
        <time>2019-07-03T22:31:39.418000Z</time>
      </trkpt>
      <trkpt lat="37.84980779861269" lon="112.01149868139109">
        <ele>1117.26</ele>
        <time>2019-07-03T22:31:48.418000Z</time>
      </trkpt>
      <trkpt lat="37.849816693246076" lon="112.01115564988298">
        <ele>1115.14</ele>
        <time>2019-07-03T22:31:57.418000Z</time>
      </trkpt>
      <trkpt lat="37.8498415265433" lon="112.01076175737305">
        <ele>1115.59</ele>
        <time>2019-07-03T22:32:09.418000Z</time>
      </trkpt>
      <trkpt lat="37.84985500300256" lon="112.01054837596992">
        <ele>1115.82</ele>
        <time>2019-07-03T22:32:15.418000Z</time>
      </trkpt>
      <trkpt lat="37.84987377484594" lon="112.01045449127292">
        <ele>1116.47</ele>
        <time>2019-07-03T22:32:18.418000Z</time>
      </trkpt>
      <trkpt lat="37.84987887918655" lon="112.01023813363402">
        <ele>1115.0</ele>
        <time>2019-07-03T22:32:24.418000Z</time>
      </trkpt>
      <trkpt lat="37.84986558051706" lon="112.01012986682859">
        <ele>1115.48</ele>
        <time>2019-07-03T22:32:27.418000Z</time>
      </trkpt>
      <trkpt lat="37.84989003972356" lon="112.00983273912712">
        <ele>1116.08</ele>
        <time>2019-07-03T22:32:36.418000Z</time>
      </trkpt>
      <trkpt lat="37.84986646257672" lon="112.00949071983557">
        <ele>1117.91</ele>
        <time>2019-07-03T22:32:45.418000Z</time>
      </trkpt>
      <trkpt lat="37.849825635887555" lon="112.00928041793011">
        <ele>1119.35</ele>
        <time>2019-07-03T22:32:51.418000Z</time>
      </trkpt>
      <trkpt lat="37.84969808869548" lon="112.00899744497272">
        <ele>1119.3</ele>
        <time>2019-07-03T22:33:00.418000Z</time>
      </trkpt>
      <trkpt lat="37.849638685139986" lon="112.00893101347654">
        <ele>1119.45</ele>
        <time>2019-07-03T22:33:03.418000Z</time>
      </trkpt>
      <trkpt lat="37.8495795694134" lon="112.00885939685857">
        <ele>1119.93</ele>
        <time>2019-07-03T22:33:06.418000Z</time>
      </trkpt>
      <trkpt lat="37.84951783029789" lon="112.00878562084225">
        <ele>1121.49</ele>
        <time>2019-07-03T22:33:09.418000Z</time>
      </trkpt>
      <trkpt lat="37.849289087702296" lon="112.0084680538009">
        <ele>1122.24</ele>
        <time>2019-07-03T22:33:21.418000Z</time>
      </trkpt>
      <trkpt lat="37.849093962774276" lon="112.00814969937083">
        <ele>1124.14</ele>
        <time>2019-07-03T22:33:33.418000Z</time>
      </trkpt>
      <trkpt lat="37.848905434117455" lon="112.0078075380145">
        <ele>1118.98</ele>
        <time>2019-07-03T22:33:45.418000Z</time>
      </trkpt>
      <trkpt lat="37.84868172389068" lon="112.007482520757">
        <ele>1120.74</ele>
        <time>2019-07-03T22:33:57.418000Z</time>
      </trkpt>
      <trkpt lat="37.848473793123574" lon="112.00717672280739">
        <ele>1119.51</ele>
        <time>2019-07-03T22:34:09.418000Z</time>
      </trkpt>
      <trkpt lat="37.84831313765553" lon="112.00694952399206">
        <ele>1118.36</ele>
        <time>2019-07-03T22:34:18.418000Z</time>
      </trkpt>
      <trkpt lat="37.84824185732738" lon="112.00687492067813">
        <ele>1119.7</ele>
        <time>2019-07-03T22:34:21.418000Z</time>
      </trkpt>
      <trkpt lat="37.848082363354514" lon="112.00679458308879">
        <ele>1117.19</ele>
        <time>2019-07-03T22:34:27.418000Z</time>
      </trkpt>
      <trkpt lat="37.84799097911132" lon="112.0067779827396">
        <ele>1118.34</ele>
        <time>2019-07-03T22:34:30.418000Z</time>
      </trkpt>
      <trkpt lat="37.8476765493084" lon="112.00671468991989">
        <ele>1117.84</ele>
        <time>2019-07-03T22:34:42.418000Z</time>
      </trkpt>
      <trkpt lat="37.84760045302845" lon="112.00670573457742">
        <ele>1118.01</ele>
        <time>2019-07-03T22:34:45.418000Z</time>
      </trkpt>
      <trkpt lat="37.84731602998137" lon="112.00666478461994">
        <ele>1119.0</ele>
        <time>2019-07-03T22:34:57.418000Z</time>
      </trkpt>
      <trkpt lat="37.84705298448354" lon="112.00666231373937">
        <ele>1119.58</ele>
        <time>2019-07-03T22:35:06.418000Z</time>
      </trkpt>
      <trkpt lat="37.84670792751121" lon="112.00663988159907">
        <ele>1123.64</ele>
        <time>2019-07-03T22:35:18.418000Z</time>
      </trkpt>
      <trkpt lat="37.846545731613205" lon="112.00663696197965">
        <ele>1120.54</ele>
        <time>2019-07-03T22:35:24.418000Z</time>
      </trkpt>
      <trkpt lat="37.84646616921069" lon="112.00661355234091">
        <ele>1121.37</ele>
        <time>2019-07-03T22:35:27.418000Z</time>
      </trkpt>
      <trkpt lat="37.846154330460955" lon="112.006559841895">
        <ele>1119.21</ele>
        <time>2019-07-03T22:35:39.418000Z</time>
      </trkpt>
      <trkpt lat="37.84584544448908" lon="112.00644469040348">
        <ele>1121.43</ele>
        <time>2019-07-03T22:35:51.418000Z</time>
      </trkpt>
      <trkpt lat="37.84552883089299" lon="112.00634182230583">
        <ele>1121.72</ele>
        <time>2019-07-03T22:36:03.418000Z</time>
      </trkpt>
      <trkpt lat="37.84537635407098" lon="112.00626780572303">
        <ele>1119.7</ele>
        <time>2019-07-03T22:36:09.418000Z</time>
      </trkpt>
      <trkpt lat="37.845070905098396" lon="112.00616884005316">
        <ele>1121.16</ele>
        <time>2019-07-03T22:36:21.418000Z</time>
      </trkpt>
      <trkpt lat="37.844800561752194" lon="112.00610727857205">
        <ele>1122.17</ele>
        <time>2019-07-03T22:36:30.418000Z</time>
      </trkpt>
      <trkpt lat="37.84447153911862" lon="112.00604684922722">
        <ele>1122.6</ele>
        <time>2019-07-03T22:36:42.418000Z</time>
      </trkpt>
      <trkpt lat="37.84423134645129" lon="112.00618533806069">
        <ele>1121.61</ele>
        <time>2019-07-03T22:36:51.418000Z</time>
      </trkpt>
      <trkpt lat="37.84397657997134" lon="112.00632312374093">
        <ele>1125.46</ele>
        <time>2019-07-03T22:37:00.418000Z</time>
      </trkpt>
      <trkpt lat="37.843672493733706" lon="112.00652873626895">
        <ele>1125.22</ele>
        <time>2019-07-03T22:37:12.418000Z</time>
      </trkpt>
      <trkpt lat="37.843411047426635" lon="112.00672260170349">
        <ele>1125.86</ele>
        <time>2019-07-03T22:37:24.418000Z</time>
      </trkpt>
      <trkpt lat="37.843162688968846" lon="112.00693210485672">
        <ele>1127.37</ele>
        <time>2019-07-03T22:37:36.418000Z</time>
      </trkpt>
      <trkpt lat="37.84288562650953" lon="112.00716335942886">
        <ele>1126.71</ele>
        <time>2019-07-03T22:37:48.418000Z</time>
      </trkpt>
      <trkpt lat="37.84261013606959" lon="112.00740450792128">
        <ele>1126.05</ele>
        <time>2019-07-03T22:38:00.418000Z</time>
      </trkpt>
      <trkpt lat="37.84233552609719" lon="112.00758820295663">
        <ele>1125.52</ele>
        <time>2019-07-03T22:38:12.418000Z</time>
      </trkpt>
      <trkpt lat="37.842049540596506" lon="112.00776396983963">
        <ele>1122.1</ele>
        <time>2019-07-03T22:38:24.418000Z</time>
      </trkpt>
      <trkpt lat="37.84189469572359" lon="112.0079053475666">
        <ele>1122.9</ele>
        <time>2019-07-03T22:38:30.418000Z</time>
      </trkpt>
      <trkpt lat="37.841602213416586" lon="112.00807320679009">
        <ele>1128.47</ele>
        <time>2019-07-03T22:38:42.418000Z</time>
      </trkpt>
      <trkpt lat="37.84127336089601" lon="112.00814071283575">
        <ele>1126.77</ele>
        <time>2019-07-03T22:38:54.418000Z</time>
      </trkpt>
      <trkpt lat="37.84095106784105" lon="112.00810668481907">
        <ele>1127.09</ele>
        <time>2019-07-03T22:39:06.418000Z</time>
      </trkpt>
      <trkpt lat="37.84086919930357" lon="112.00807940287937">
        <ele>1126.22</ele>
        <time>2019-07-03T22:39:09.418000Z</time>
      </trkpt>
      <trkpt lat="37.840522396367184" lon="112.00802925204609">
        <ele>1127.67</ele>
        <time>2019-07-03T22:39:21.418000Z</time>
      </trkpt>
      <trkpt lat="37.84034386003085" lon="112.00797204655282">
        <ele>1126.99</ele>
        <time>2019-07-03T22:39:27.418000Z</time>
      </trkpt>
      <trkpt lat="37.84025500124335" lon="112.00795730273506">
        <ele>1128.7</ele>
        <time>2019-07-03T22:39:30.418000Z</time>
      </trkpt>
      <trkpt lat="37.83991505068981" lon="112.00798170676077">
        <ele>1129.09</ele>
        <time>2019-07-03T22:39:42.418000Z</time>
      </trkpt>
      <trkpt lat="37.839663698647115" lon="112.00803317773831">
        <ele>1125.75</ele>
        <time>2019-07-03T22:39:51.418000Z</time>
      </trkpt>
      <trkpt lat="37.83941731770863" lon="112.00807285618741">
        <ele>1128.1</ele>
        <time>2019-07-03T22:40:00.418000Z</time>
      </trkpt>
      <trkpt lat="37.83907780123857" lon="112.00811487411205">
        <ele>1131.02</ele>
        <time>2019-07-03T22:40:12.418000Z</time>
      </trkpt>
      <trkpt lat="37.83886323316851" lon="112.00812932906332">
        <ele>1131.55</ele>
        <time>2019-07-03T22:40:21.718000Z</time>
      </trkpt>
      <trkpt lat="37.838582342932575" lon="112.00818393687356">
        <ele>1134.46</ele>
        <time>2019-07-03T22:40:31.418000Z</time>
      </trkpt>
      <trkpt lat="37.83841225201417" lon="112.00821701634621">
        <ele>1138.04</ele>
        <time>2019-07-03T22:40:37.418000Z</time>
      </trkpt>
      <trkpt lat="37.83832470723416" lon="112.00820921934692">
        <ele>1138.35</ele>
        <time>2019-07-03T22:40:40.418000Z</time>
      </trkpt>
      <trkpt lat="37.8380730784538" lon="112.0081443286935">
        <ele>1140.1</ele>
        <time>2019-07-03T22:40:49.418000Z</time>
      </trkpt>
      <trkpt lat="37.83800094386412" lon="112.00810718254967">
        <ele>1138.84</ele>
        <time>2019-07-03T22:40:52.418000Z</time>
      </trkpt>
      <trkpt lat="37.83792926877256" lon="112.00807257728161">
        <ele>1140.03</ele>
        <time>2019-07-03T22:40:55.418000Z</time>
      </trkpt>
      <trkpt lat="37.83762999601694" lon="112.00793013098804">
        <ele>1140.52</ele>
        <time>2019-07-03T22:41:07.418000Z</time>
      </trkpt>
      <trkpt lat="37.837327580796185" lon="112.00780624594742">
        <ele>1141.75</ele>
        <time>2019-07-03T22:41:19.418000Z</time>
      </trkpt>
      <trkpt lat="37.83724480515301" lon="112.00778339570321">
        <ele>1142.2</ele>
        <time>2019-07-03T22:41:22.418000Z</time>
      </trkpt>
      <trkpt lat="37.837098074920576" lon="112.00769434997616">
        <ele>1141.18</ele>
        <time>2019-07-03T22:41:28.418000Z</time>
      </trkpt>
      <trkpt lat="37.83677991240183" lon="112.00759264181535">
        <ele>1142.52</ele>
        <time>2019-07-03T22:41:40.418000Z</time>
      </trkpt>
      <trkpt lat="37.83651244228391" lon="112.00749382151615">
        <ele>1145.99</ele>
        <time>2019-07-03T22:41:49.418000Z</time>
      </trkpt>
      <trkpt lat="37.83623324999416" lon="112.00743427570036">
        <ele>1149.43</ele>
        <time>2019-07-03T22:41:58.418000Z</time>
      </trkpt>
      <trkpt lat="37.83598191296899" lon="112.00735653834178">
        <ele>1149.32</ele>
        <time>2019-07-03T22:42:07.418000Z</time>
      </trkpt>
      <trkpt lat="37.8358142182825" lon="112.0073495038125">
        <ele>1152.34</ele>
        <time>2019-07-03T22:42:13.418000Z</time>
      </trkpt>
      <trkpt lat="37.8355167748064" lon="112.00730752140727">
        <ele>1149.6</ele>
        <time>2019-07-03T22:42:25.418000Z</time>
      </trkpt>
      <trkpt lat="37.83543765736309" lon="112.00726915759255">
        <ele>1149.92</ele>
        <time>2019-07-03T22:42:28.418000Z</time>
      </trkpt>
      <trkpt lat="37.8353034773458" lon="112.00702709112072">
        <ele>1147.13</ele>
        <time>2019-07-03T22:42:37.418000Z</time>
      </trkpt>
      <trkpt lat="37.835249532895276" lon="112.00693777901131">
        <ele>1149.44</ele>
        <time>2019-07-03T22:42:40.418000Z</time>
      </trkpt>
      <trkpt lat="37.83518516166887" lon="112.0068890572073">
        <ele>1149.19</ele>
        <time>2019-07-03T22:42:43.418000Z</time>
      </trkpt>
      <trkpt lat="37.835117897529045" lon="112.00683329344093">
        <ele>1150.33</ele>
        <time>2019-07-03T22:42:46.418000Z</time>
      </trkpt>
      <trkpt lat="37.83486195734622" lon="112.00685951208835">
        <ele>1153.21</ele>
        <time>2019-07-03T22:42:55.418000Z</time>
      </trkpt>
      <trkpt lat="37.83477876378496" lon="112.0068792496192">
        <ele>1152.52</ele>
        <time>2019-07-03T22:42:58.418000Z</time>
      </trkpt>
      <trkpt lat="37.83461381880925" lon="112.0069591083277">
        <ele>1155.15</ele>
        <time>2019-07-03T22:43:04.418000Z</time>
      </trkpt>
      <trkpt lat="37.83453205440274" lon="112.00695232678952">
        <ele>1154.95</ele>
        <time>2019-07-03T22:43:07.418000Z</time>
      </trkpt>
      <trkpt lat="37.83420419688748" lon="112.00684367515919">
        <ele>1154.71</ele>
        <time>2019-07-03T22:43:19.418000Z</time>
      </trkpt>
      <trkpt lat="37.8341219382232" lon="112.00681468151768">
        <ele>1155.54</ele>
        <time>2019-07-03T22:43:22.418000Z</time>
      </trkpt>
      <trkpt lat="37.83381137190751" lon="112.00668205225162">
        <ele>1155.94</ele>
        <time>2019-07-03T22:43:34.418000Z</time>
      </trkpt>
      <trkpt lat="37.83351310524173" lon="112.00656660356914">
        <ele>1160.77</ele>
        <time>2019-07-03T22:43:46.418000Z</time>
      </trkpt>
      <trkpt lat="37.833207473072896" lon="112.00647709340468">
        <ele>1160.67</ele>
        <time>2019-07-03T22:43:58.418000Z</time>
      </trkpt>
      <trkpt lat="37.8328809980529" lon="112.0063885473894">
        <ele>1161.74</ele>
        <time>2019-07-03T22:44:10.418000Z</time>
      </trkpt>
      <trkpt lat="37.83256016113042" lon="112.00624855417232">
        <ele>1158.72</ele>
        <time>2019-07-03T22:44:22.418000Z</time>
      </trkpt>
      <trkpt lat="37.83229666647942" lon="112.00613461803903">
        <ele>1159.18</ele>
        <time>2019-07-03T22:44:31.418000Z</time>
      </trkpt>
      <trkpt lat="37.83196852029539" lon="112.00610213964059">
        <ele>1158.18</ele>
        <time>2019-07-03T22:44:43.418000Z</time>
      </trkpt>
      <trkpt lat="37.831890712217344" lon="112.00610414149537">
        <ele>1159.34</ele>
        <time>2019-07-03T22:44:46.418000Z</time>
      </trkpt>
      <trkpt lat="37.831558361988805" lon="112.00610899785984">
        <ele>1160.78</ele>
        <time>2019-07-03T22:44:58.418000Z</time>
      </trkpt>
      <trkpt lat="37.831246409367886" lon="112.00613043029928">
        <ele>1160.02</ele>
        <time>2019-07-03T22:45:10.418000Z</time>
      </trkpt>
      <trkpt lat="37.83092813059595" lon="112.00616114946185">
        <ele>1162.41</ele>
        <time>2019-07-03T22:45:22.418000Z</time>
      </trkpt>
      <trkpt lat="37.830645080268305" lon="112.00619218071137">
        <ele>1164.94</ele>
        <time>2019-07-03T22:45:31.418000Z</time>
      </trkpt>
      <trkpt lat="37.830317908778476" lon="112.0061912477993">
        <ele>1164.18</ele>
        <time>2019-07-03T22:45:43.418000Z</time>
      </trkpt>
      <trkpt lat="37.83008832472913" lon="112.00615226761889">
        <ele>1167.02</ele>
        <time>2019-07-03T22:45:52.418000Z</time>
      </trkpt>
      <trkpt lat="37.82977012237983" lon="112.00613530766336">
        <ele>1167.47</ele>
        <time>2019-07-03T22:46:04.418000Z</time>
      </trkpt>
      <trkpt lat="37.82945911391898" lon="112.00615134322311">
        <ele>1170.76</ele>
        <time>2019-07-03T22:46:16.418000Z</time>
      </trkpt>
      <trkpt lat="37.82916305652713" lon="112.00615426163277">
        <ele>1172.44</ele>
        <time>2019-07-03T22:46:28.418000Z</time>
      </trkpt>
      <trkpt lat="37.828819759129985" lon="112.0061721892238">
        <ele>1174.29</ele>
        <time>2019-07-03T22:46:40.418000Z</time>
      </trkpt>
      <trkpt lat="37.82857031531034" lon="112.00621424526494">
        <ele>1176.1</ele>
        <time>2019-07-03T22:46:49.418000Z</time>
      </trkpt>
      <trkpt lat="37.828281368415105" lon="112.00624535155771">
        <ele>1176.49</ele>
        <time>2019-07-03T22:47:01.418000Z</time>
      </trkpt>
      <trkpt lat="37.82812791304043" lon="112.00621742446108">
        <ele>1175.96</ele>
        <time>2019-07-03T22:47:07.418000Z</time>
      </trkpt>
      <trkpt lat="37.82780478474684" lon="112.00625207779932">
        <ele>1178.54</ele>
        <time>2019-07-03T22:47:19.418000Z</time>
      </trkpt>
      <trkpt lat="37.8275613447329" lon="112.00630280838583">
        <ele>1180.38</ele>
        <time>2019-07-03T22:47:28.418000Z</time>
      </trkpt>
      <trkpt lat="37.82742800231158" lon="112.0063127419138">
        <ele>1179.62</ele>
        <time>2019-07-03T22:47:34.418000Z</time>
      </trkpt>
      <trkpt lat="37.82728472369919" lon="112.00634658413976">
        <ele>1180.33</ele>
        <time>2019-07-03T22:47:40.418000Z</time>
      </trkpt>
      <trkpt lat="37.8271023590723" lon="112.0063299279823">
        <ele>1181.64</ele>
        <time>2019-07-03T22:47:49.418000Z</time>
      </trkpt>
      <trkpt lat="37.82676806429731" lon="112.0063635059473">
        <ele>1186.29</ele>
        <time>2019-07-03T22:48:01.418000Z</time>
      </trkpt>
      <trkpt lat="37.826418920530834" lon="112.00644127510513">
        <ele>1189.29</ele>
        <time>2019-07-03T22:48:13.418000Z</time>
      </trkpt>
      <trkpt lat="37.8260963635727" lon="112.00652183928476">
        <ele>1192.03</ele>
        <time>2019-07-03T22:48:25.418000Z</time>
      </trkpt>
      <trkpt lat="37.825792906204434" lon="112.00652346301273">
        <ele>1187.68</ele>
        <time>2019-07-03T22:48:37.418000Z</time>
      </trkpt>
      <trkpt lat="37.825490021252" lon="112.0064805254962">
        <ele>1190.83</ele>
        <time>2019-07-03T22:48:49.418000Z</time>
      </trkpt>
      <trkpt lat="37.8252643429336" lon="112.00642535530453">
        <ele>1188.44</ele>
        <time>2019-07-03T22:48:58.418000Z</time>
      </trkpt>
      <trkpt lat="37.825082384730216" lon="112.00640791152175">
        <ele>1190.57</ele>
        <time>2019-07-03T22:49:04.418000Z</time>
      </trkpt>
      <trkpt lat="37.824762256103725" lon="112.00634004049394">
        <ele>1192.05</ele>
        <time>2019-07-03T22:49:16.418000Z</time>
      </trkpt>
      <trkpt lat="37.82445235630879" lon="112.00627185442598">
        <ele>1193.32</ele>
        <time>2019-07-03T22:49:28.418000Z</time>
      </trkpt>
      <trkpt lat="37.824125927754196" lon="112.00620113808519">
        <ele>1188.83</ele>
        <time>2019-07-03T22:49:40.418000Z</time>
      </trkpt>
      <trkpt lat="37.82378804486845" lon="112.00612924507377">
        <ele>1190.79</ele>
        <time>2019-07-03T22:49:52.418000Z</time>
      </trkpt>
      <trkpt lat="37.82344179277702" lon="112.00608610939565">
        <ele>1192.74</ele>
        <time>2019-07-03T22:50:04.418000Z</time>
      </trkpt>
      <trkpt lat="37.823168317796565" lon="112.00609172923848">
        <ele>1193.9</ele>
        <time>2019-07-03T22:50:13.418000Z</time>
      </trkpt>
      <trkpt lat="37.82283363366478" lon="112.00611816149643">
        <ele>1194.33</ele>
        <time>2019-07-03T22:50:25.418000Z</time>
      </trkpt>
      <trkpt lat="37.82254507865234" lon="112.00606397804897">
        <ele>1194.43</ele>
        <time>2019-07-03T22:50:37.418000Z</time>
      </trkpt>
      <trkpt lat="37.82226038283015" lon="112.00592230496798">
        <ele>1194.81</ele>
        <time>2019-07-03T22:50:49.418000Z</time>
      </trkpt>
      <trkpt lat="37.822062591013804" lon="112.00577770867214">
        <ele>1197.53</ele>
        <time>2019-07-03T22:50:58.418000Z</time>
      </trkpt>
      <trkpt lat="37.82200686915425" lon="112.00572196586401">
        <ele>1198.48</ele>
        <time>2019-07-03T22:51:01.418000Z</time>
      </trkpt>
      <trkpt lat="37.82173908969392" lon="112.00552043610568">
        <ele>1198.98</ele>
        <time>2019-07-03T22:51:13.418000Z</time>
      </trkpt>
      <trkpt lat="37.82148978854131" lon="112.00531783488583">
        <ele>1200.7</ele>
        <time>2019-07-03T22:51:25.418000Z</time>
      </trkpt>
      <trkpt lat="37.82124091407436" lon="112.00512191584238">
        <ele>1201.18</ele>
        <time>2019-07-03T22:51:37.418000Z</time>
      </trkpt>
      <trkpt lat="37.82096162028059" lon="112.00488772723897">
        <ele>1202.67</ele>
        <time>2019-07-03T22:51:49.418000Z</time>
      </trkpt>
      <trkpt lat="37.82072551868594" lon="112.00470678074196">
        <ele>1205.08</ele>
        <time>2019-07-03T22:51:58.418000Z</time>
      </trkpt>
      <trkpt lat="37.82047163295403" lon="112.00443211758737">
        <ele>1207.43</ele>
        <time>2019-07-03T22:52:10.418000Z</time>
      </trkpt>
      <trkpt lat="37.82042383370889" lon="112.00441681950088">
        <ele>1212.24</ele>
        <time>2019-07-03T22:52:22.418000Z</time>
      </trkpt>
      <trkpt lat="37.820654700995625" lon="112.00468158191252">
        <ele>1211.5</ele>
        <time>2019-07-03T22:52:40.418000Z</time>
      </trkpt>
      <trkpt lat="37.82069699305182" lon="112.00475152512081">
        <ele>1211.99</ele>
        <time>2019-07-03T22:52:46.418000Z</time>
      </trkpt>
      <trkpt lat="37.82092633878064" lon="112.00493924281669">
        <ele>1213.67</ele>
        <time>2019-07-03T22:53:10.418000Z</time>
      </trkpt>
      <trkpt lat="37.82114053300463" lon="112.00507267795668">
        <ele>1211.95</ele>
        <time>2019-07-03T22:53:28.418000Z</time>
      </trkpt>
      <trkpt lat="37.8212455768441" lon="112.0051932035295">
        <ele>1212.06</ele>
        <time>2019-07-03T22:53:40.418000Z</time>
      </trkpt>
      <trkpt lat="37.82132539796115" lon="112.00524019793562">
        <ele>1211.61</ele>
        <time>2019-07-03T22:53:46.418000Z</time>
      </trkpt>
      <trkpt lat="37.82151479952845" lon="112.00541972592582">
        <ele>1210.13</ele>
        <time>2019-07-03T22:53:58.418000Z</time>
      </trkpt>
      <trkpt lat="37.82179751896434" lon="112.0056425937655">
        <ele>1208.84</ele>
        <time>2019-07-03T22:54:10.418000Z</time>
      </trkpt>
      <trkpt lat="37.82187853249256" lon="112.00571694555649">
        <ele>1204.93</ele>
        <time>2019-07-03T22:54:13.418000Z</time>
      </trkpt>
      <trkpt lat="37.82213127797647" lon="112.00583424989722">
        <ele>1199.83</ele>
        <time>2019-07-03T22:54:22.418000Z</time>
      </trkpt>
      <trkpt lat="37.82244372338353" lon="112.0060216439185">
        <ele>1198.85</ele>
        <time>2019-07-03T22:54:34.418000Z</time>
      </trkpt>
      <trkpt lat="37.82268551439697" lon="112.00612293082179">
        <ele>1196.02</ele>
        <time>2019-07-03T22:54:43.418000Z</time>
      </trkpt>
      <trkpt lat="37.822947461397156" lon="112.00616300485467">
        <ele>1192.18</ele>
        <time>2019-07-03T22:54:52.418000Z</time>
      </trkpt>
      <trkpt lat="37.8232201958042" lon="112.00612673693948">
        <ele>1190.63</ele>
        <time>2019-07-03T22:55:01.418000Z</time>
      </trkpt>
      <trkpt lat="37.82336913765441" lon="112.00611248579898">
        <ele>1191.53</ele>
        <time>2019-07-03T22:55:07.418000Z</time>
      </trkpt>
      <trkpt lat="37.8237114781691" lon="112.0061156394702">
        <ele>1188.31</ele>
        <time>2019-07-03T22:55:19.418000Z</time>
      </trkpt>
      <trkpt lat="37.82397899171452" lon="112.00616214283922">
        <ele>1189.28</ele>
        <time>2019-07-03T22:55:28.418000Z</time>
      </trkpt>
      <trkpt lat="37.824290123650755" lon="112.00625514955158">
        <ele>1192.59</ele>
        <time>2019-07-03T22:55:40.418000Z</time>
      </trkpt>
      <trkpt lat="37.82460888880703" lon="112.00631329098991">
        <ele>1194.71</ele>
        <time>2019-07-03T22:55:52.418000Z</time>
      </trkpt>
      <trkpt lat="37.82493053331021" lon="112.0063767893826">
        <ele>1194.05</ele>
        <time>2019-07-03T22:56:04.418000Z</time>
      </trkpt>
      <trkpt lat="37.82524381839714" lon="112.00644720315269">
        <ele>1190.67</ele>
        <time>2019-07-03T22:56:16.418000Z</time>
      </trkpt>
      <trkpt lat="37.82557925125621" lon="112.00650477107311">
        <ele>1187.01</ele>
        <time>2019-07-03T22:56:28.418000Z</time>
      </trkpt>
      <trkpt lat="37.82585409136344" lon="112.00652520380673">
        <ele>1185.37</ele>
        <time>2019-07-03T22:56:37.418000Z</time>
      </trkpt>
      <trkpt lat="37.82612603075463" lon="112.00653385886761">
        <ele>1181.67</ele>
        <time>2019-07-03T22:56:46.418000Z</time>
      </trkpt>
      <trkpt lat="37.82640528263983" lon="112.00647551638664">
        <ele>1181.79</ele>
        <time>2019-07-03T22:56:55.418000Z</time>
      </trkpt>
      <trkpt lat="37.82658318927536" lon="112.00642794596986">
        <ele>1182.17</ele>
        <time>2019-07-03T22:57:01.418000Z</time>
      </trkpt>
      <trkpt lat="37.82686825625125" lon="112.006387267699">
        <ele>1179.9</ele>
        <time>2019-07-03T22:57:10.418000Z</time>
      </trkpt>
      <trkpt lat="37.82714676510348" lon="112.0063651903974">
        <ele>1180.89</ele>
        <time>2019-07-03T22:57:19.418000Z</time>
      </trkpt>
      <trkpt lat="37.82747143823615" lon="112.006324235982">
        <ele>1179.24</ele>
        <time>2019-07-03T22:57:28.418000Z</time>
      </trkpt>
      <trkpt lat="37.827816962056076" lon="112.00628074271896">
        <ele>1175.4</ele>
        <time>2019-07-03T22:57:40.418000Z</time>
      </trkpt>
      <trkpt lat="37.828134850617815" lon="112.00623898573151">
        <ele>1171.44</ele>
        <time>2019-07-03T22:57:52.418000Z</time>
      </trkpt>
      <trkpt lat="37.828401505604084" lon="112.0062119017271">
        <ele>1170.66</ele>
        <time>2019-07-03T22:58:01.418000Z</time>
      </trkpt>
      <trkpt lat="37.828695811250775" lon="112.00620198584328">
        <ele>1172.32</ele>
        <time>2019-07-03T22:58:10.418000Z</time>
      </trkpt>
      <trkpt lat="37.828985764315455" lon="112.00618699324845">
        <ele>1174.19</ele>
        <time>2019-07-03T22:58:19.418000Z</time>
      </trkpt>
      <trkpt lat="37.82934540717703" lon="112.0061736970282">
        <ele>1176.63</ele>
        <time>2019-07-03T22:58:31.418000Z</time>
      </trkpt>
      <trkpt lat="37.82967018079893" lon="112.00617533800092">
        <ele>1175.52</ele>
        <time>2019-07-03T22:58:40.418000Z</time>
      </trkpt>
      <trkpt lat="37.82999888087152" lon="112.0061725642272">
        <ele>1176.38</ele>
        <time>2019-07-03T22:58:49.418000Z</time>
      </trkpt>
      <trkpt lat="37.830316623766244" lon="112.00618316048148">
        <ele>1169.06</ele>
        <time>2019-07-03T22:59:01.418000Z</time>
      </trkpt>
      <trkpt lat="37.830681893750295" lon="112.00617313259129">
        <ele>1168.78</ele>
        <time>2019-07-03T22:59:13.418000Z</time>
      </trkpt>
      <trkpt lat="37.83096088904172" lon="112.00618981231058">
        <ele>1162.3</ele>
        <time>2019-07-03T22:59:22.418000Z</time>
      </trkpt>
      <trkpt lat="37.83128775340625" lon="112.0061829669504">
        <ele>1160.61</ele>
        <time>2019-07-03T22:59:31.418000Z</time>
      </trkpt>
      <trkpt lat="37.83161688066644" lon="112.00612527724782">
        <ele>1164.35</ele>
        <time>2019-07-03T22:59:43.418000Z</time>
      </trkpt>
      <trkpt lat="37.831967371342365" lon="112.00612085017525">
        <ele>1162.94</ele>
        <time>2019-07-03T22:59:55.418000Z</time>
      </trkpt>
      <trkpt lat="37.83224268588937" lon="112.00612755404569">
        <ele>1163.6</ele>
        <time>2019-07-03T23:00:04.418000Z</time>
      </trkpt>
      <trkpt lat="37.832535675259564" lon="112.00618679078805">
        <ele>1164.61</ele>
        <time>2019-07-03T23:00:13.418000Z</time>
      </trkpt>
      <trkpt lat="37.83284749973694" lon="112.00634382091334">
        <ele>1160.93</ele>
        <time>2019-07-03T23:00:25.418000Z</time>
      </trkpt>
      <trkpt lat="37.83298697065976" lon="112.00642439589676">
        <ele>1160.47</ele>
        <time>2019-07-03T23:00:31.418000Z</time>
      </trkpt>
      <trkpt lat="37.8332753755681" lon="112.00651938910039">
        <ele>1159.54</ele>
        <time>2019-07-03T23:00:40.418000Z</time>
      </trkpt>
      <trkpt lat="37.833536200855676" lon="112.00660584046217">
        <ele>1159.52</ele>
        <time>2019-07-03T23:00:49.418000Z</time>
      </trkpt>
      <trkpt lat="37.83382237961214" lon="112.0066949305786">
        <ele>1160.79</ele>
        <time>2019-07-03T23:00:58.418000Z</time>
      </trkpt>
      <trkpt lat="37.8340917119559" lon="112.00678716301915">
        <ele>1158.6</ele>
        <time>2019-07-03T23:01:07.418000Z</time>
      </trkpt>
      <trkpt lat="37.83437574830642" lon="112.00688010981072">
        <ele>1156.35</ele>
        <time>2019-07-03T23:01:16.418000Z</time>
      </trkpt>
      <trkpt lat="37.83465074551415" lon="112.00695559809871">
        <ele>1154.7</ele>
        <time>2019-07-03T23:01:25.418000Z</time>
      </trkpt>
      <trkpt lat="37.83482159502808" lon="112.00695673649582">
        <ele>1154.46</ele>
        <time>2019-07-03T23:01:31.418000Z</time>
      </trkpt>
      <trkpt lat="37.83499775568497" lon="112.00691137228696">
        <ele>1154.12</ele>
        <time>2019-07-03T23:01:37.418000Z</time>
      </trkpt>
      <trkpt lat="37.83508738483529" lon="112.00690279621638">
        <ele>1152.04</ele>
        <time>2019-07-03T23:01:40.418000Z</time>
      </trkpt>
      <trkpt lat="37.835166091513734" lon="112.00690654364317">
        <ele>1152.61</ele>
        <time>2019-07-03T23:01:43.418000Z</time>
      </trkpt>
      <trkpt lat="37.83523990561409" lon="112.00691660755896">
        <ele>1154.19</ele>
        <time>2019-07-03T23:01:46.418000Z</time>
      </trkpt>
      <trkpt lat="37.835374716919716" lon="112.00705845614912">
        <ele>1154.47</ele>
        <time>2019-07-03T23:01:52.418000Z</time>
      </trkpt>
      <trkpt lat="37.83542506598298" lon="112.00713867431907">
        <ele>1154.04</ele>
        <time>2019-07-03T23:01:55.418000Z</time>
      </trkpt>
      <trkpt lat="37.835473005798754" lon="112.0072334749944">
        <ele>1154.67</ele>
        <time>2019-07-03T23:01:58.418000Z</time>
      </trkpt>
      <trkpt lat="37.83554736735502" lon="112.00730596536044">
        <ele>1153.31</ele>
        <time>2019-07-03T23:02:01.418000Z</time>
      </trkpt>
      <trkpt lat="37.835628600447336" lon="112.00734144370749">
        <ele>1153.96</ele>
        <time>2019-07-03T23:02:04.418000Z</time>
      </trkpt>
      <trkpt lat="37.83595452775674" lon="112.00741952747197">
        <ele>1152.94</ele>
        <time>2019-07-03T23:02:16.418000Z</time>
      </trkpt>
      <trkpt lat="37.836036768547864" lon="112.00744554837189">
        <ele>1152.26</ele>
        <time>2019-07-03T23:02:19.418000Z</time>
      </trkpt>
      <trkpt lat="37.836116085397705" lon="112.00746000043733">
        <ele>1152.62</ele>
        <time>2019-07-03T23:02:22.418000Z</time>
      </trkpt>
      <trkpt lat="37.83627046070295" lon="112.0074852410905">
        <ele>1153.07</ele>
        <time>2019-07-03T23:02:28.418000Z</time>
      </trkpt>
      <trkpt lat="37.83653691299298" lon="112.00755845413006">
        <ele>1153.43</ele>
        <time>2019-07-03T23:02:37.418000Z</time>
      </trkpt>
      <trkpt lat="37.83679790675913" lon="112.0076584290856">
        <ele>1151.19</ele>
        <time>2019-07-03T23:02:46.418000Z</time>
      </trkpt>
      <trkpt lat="37.83708079374014" lon="112.0077528696493">
        <ele>1149.87</ele>
        <time>2019-07-03T23:02:55.418000Z</time>
      </trkpt>
      <trkpt lat="37.837437495657845" lon="112.00788172668283">
        <ele>1147.14</ele>
        <time>2019-07-03T23:03:07.418000Z</time>
      </trkpt>
      <trkpt lat="37.837707922181075" lon="112.00798543981442">
        <ele>1145.75</ele>
        <time>2019-07-03T23:03:16.418000Z</time>
      </trkpt>
      <trkpt lat="37.837989809956255" lon="112.00808378805192">
        <ele>1148.34</ele>
        <time>2019-07-03T23:03:25.418000Z</time>
      </trkpt>
      <trkpt lat="37.838324109066924" lon="112.0081865248461">
        <ele>1149.66</ele>
        <time>2019-07-03T23:03:34.418000Z</time>
      </trkpt>
      <trkpt lat="37.8385417101055" lon="112.0082339597219">
        <ele>1150.68</ele>
        <time>2019-07-03T23:03:40.418000Z</time>
      </trkpt>
      <trkpt lat="37.83888385236011" lon="112.0081654630821">
        <ele>1145.45</ele>
        <time>2019-07-03T23:03:52.418000Z</time>
      </trkpt>
      <trkpt lat="37.83910360259085" lon="112.00812486364305">
        <ele>1146.53</ele>
        <time>2019-07-03T23:03:58.418000Z</time>
      </trkpt>
      <trkpt lat="37.83925684327718" lon="112.00808073148217">
        <ele>1144.96</ele>
        <time>2019-07-03T23:04:04.418000Z</time>
      </trkpt>
      <trkpt lat="37.83953762309444" lon="112.00807273824257">
        <ele>1142.23</ele>
        <time>2019-07-03T23:04:13.418000Z</time>
      </trkpt>
      <trkpt lat="37.83980927075875" lon="112.00801925170829">
        <ele>1141.0</ele>
        <time>2019-07-03T23:04:22.418000Z</time>
      </trkpt>
      <trkpt lat="37.84008078905702" lon="112.00797897616994">
        <ele>1137.62</ele>
        <time>2019-07-03T23:04:31.418000Z</time>
      </trkpt>
      <trkpt lat="37.8403469738517" lon="112.00798629832921">
        <ele>1137.18</ele>
        <time>2019-07-03T23:04:40.418000Z</time>
      </trkpt>
      <trkpt lat="37.84061324245375" lon="112.00804773097417">
        <ele>1134.43</ele>
        <time>2019-07-03T23:04:49.418000Z</time>
      </trkpt>
      <trkpt lat="37.84077441234525" lon="112.00810420852191">
        <ele>1133.49</ele>
        <time>2019-07-03T23:04:55.418000Z</time>
      </trkpt>
      <trkpt lat="37.84096239062335" lon="112.00815598818349">
        <ele>1133.65</ele>
        <time>2019-07-03T23:05:01.418000Z</time>
      </trkpt>
      <trkpt lat="37.841265331542814" lon="112.00816682826176">
        <ele>1135.1</ele>
        <time>2019-07-03T23:05:10.418000Z</time>
      </trkpt>
      <trkpt lat="37.84155511288807" lon="112.00810805255358">
        <ele>1132.43</ele>
        <time>2019-07-03T23:05:19.418000Z</time>
      </trkpt>
      <trkpt lat="37.84182859156004" lon="112.00798255359462">
        <ele>1135.59</ele>
        <time>2019-07-03T23:05:28.418000Z</time>
      </trkpt>
      <trkpt lat="37.84210043998436" lon="112.00776291987326">
        <ele>1137.02</ele>
        <time>2019-07-03T23:05:37.418000Z</time>
      </trkpt>
      <trkpt lat="37.842354584036464" lon="112.00758889392343">
        <ele>1135.29</ele>
        <time>2019-07-03T23:05:46.418000Z</time>
      </trkpt>
      <trkpt lat="37.84258903350805" lon="112.00739742925894">
        <ele>1135.72</ele>
        <time>2019-07-03T23:05:55.418000Z</time>
      </trkpt>
      <trkpt lat="37.84267043199747" lon="112.00731267519475">
        <ele>1136.56</ele>
        <time>2019-07-03T23:05:58.418000Z</time>
      </trkpt>
      <trkpt lat="37.842756374378354" lon="112.00723388035898">
        <ele>1138.01</ele>
        <time>2019-07-03T23:06:01.418000Z</time>
      </trkpt>
      <trkpt lat="37.84302014905508" lon="112.007089757586">
        <ele>1139.17</ele>
        <time>2019-07-03T23:06:10.418000Z</time>
      </trkpt>
      <trkpt lat="37.843286675001785" lon="112.00686379309114">
        <ele>1134.52</ele>
        <time>2019-07-03T23:06:19.418000Z</time>
      </trkpt>
      <trkpt lat="37.84352433972922" lon="112.00664937033712">
        <ele>1133.88</ele>
        <time>2019-07-03T23:06:28.418000Z</time>
      </trkpt>
      <trkpt lat="37.84376751674618" lon="112.00646771175174">
        <ele>1131.13</ele>
        <time>2019-07-03T23:06:37.418000Z</time>
      </trkpt>
      <trkpt lat="37.843924010473586" lon="112.00636293052752">
        <ele>1129.65</ele>
        <time>2019-07-03T23:06:43.418000Z</time>
      </trkpt>
      <trkpt lat="37.84409732603577" lon="112.00628765071346">
        <ele>1130.87</ele>
        <time>2019-07-03T23:06:49.418000Z</time>
      </trkpt>
      <trkpt lat="37.84441312146507" lon="112.00610849549321">
        <ele>1127.72</ele>
        <time>2019-07-03T23:07:01.418000Z</time>
      </trkpt>
      <trkpt lat="37.844695948008464" lon="112.00614570145997">
        <ele>1128.44</ele>
        <time>2019-07-03T23:07:10.418000Z</time>
      </trkpt>
      <trkpt lat="37.84478520597528" lon="112.00615343828512">
        <ele>1127.31</ele>
        <time>2019-07-03T23:07:13.418000Z</time>
      </trkpt>
      <trkpt lat="37.84504523010025" lon="112.00623224547344">
        <ele>1128.66</ele>
        <time>2019-07-03T23:07:22.418000Z</time>
      </trkpt>
      <trkpt lat="37.84526336310838" lon="112.00627333415447">
        <ele>1127.34</ele>
        <time>2019-07-03T23:07:28.418000Z</time>
      </trkpt>
      <trkpt lat="37.84553516927745" lon="112.00637476860273">
        <ele>1127.96</ele>
        <time>2019-07-03T23:07:37.418000Z</time>
      </trkpt>
      <trkpt lat="37.84581907298505" lon="112.00648104965421">
        <ele>1127.15</ele>
        <time>2019-07-03T23:07:46.418000Z</time>
      </trkpt>
      <trkpt lat="37.84599716907717" lon="112.0065440052584">
        <ele>1122.57</ele>
        <time>2019-07-03T23:07:52.418000Z</time>
      </trkpt>
      <trkpt lat="37.846345799774745" lon="112.00660849818841">
        <ele>1121.65</ele>
        <time>2019-07-03T23:08:04.418000Z</time>
      </trkpt>
      <trkpt lat="37.84666977907452" lon="112.00664930703037">
        <ele>1122.13</ele>
        <time>2019-07-03T23:08:13.418000Z</time>
      </trkpt>
      <trkpt lat="37.84697691044821" lon="112.0066874025763">
        <ele>1120.99</ele>
        <time>2019-07-03T23:08:22.418000Z</time>
      </trkpt>
      <trkpt lat="37.84728666087301" lon="112.0067297281373">
        <ele>1120.0</ele>
        <time>2019-07-03T23:08:31.418000Z</time>
      </trkpt>
      <trkpt lat="37.84757555158858" lon="112.00677142331702">
        <ele>1120.37</ele>
        <time>2019-07-03T23:08:40.418000Z</time>
      </trkpt>
      <trkpt lat="37.84789362286903" lon="112.00681403525554">
        <ele>1119.77</ele>
        <time>2019-07-03T23:08:49.418000Z</time>
      </trkpt>
      <trkpt lat="37.848091708124215" lon="112.00685177413408">
        <ele>1119.59</ele>
        <time>2019-07-03T23:08:55.418000Z</time>
      </trkpt>
      <trkpt lat="37.84820143777421" lon="112.0068909622977">
        <ele>1119.79</ele>
        <time>2019-07-03T23:08:58.418000Z</time>
      </trkpt>
      <trkpt lat="37.84838458419665" lon="112.00706191293291">
        <ele>1119.88</ele>
        <time>2019-07-03T23:09:04.418000Z</time>
      </trkpt>
      <trkpt lat="37.848600926286636" lon="112.00734194008464">
        <ele>1121.37</ele>
        <time>2019-07-03T23:09:13.418000Z</time>
      </trkpt>
      <trkpt lat="37.84881091019616" lon="112.00765298005255">
        <ele>1121.2</ele>
        <time>2019-07-03T23:09:22.418000Z</time>
      </trkpt>
      <trkpt lat="37.849008082832825" lon="112.00792563797759">
        <ele>1118.2</ele>
        <time>2019-07-03T23:09:31.418000Z</time>
      </trkpt>
      <trkpt lat="37.849207857018236" lon="112.0082220081764">
        <ele>1117.1</ele>
        <time>2019-07-03T23:09:40.418000Z</time>
      </trkpt>
      <trkpt lat="37.84941076329072" lon="112.00855056144671">
        <ele>1118.17</ele>
        <time>2019-07-03T23:09:49.418000Z</time>
      </trkpt>
      <trkpt lat="37.84961196003642" lon="112.00887691529539">
        <ele>1116.48</ele>
        <time>2019-07-03T23:09:58.418000Z</time>
      </trkpt>
      <trkpt lat="37.849797488085215" lon="112.00921697114795">
        <ele>1116.81</ele>
        <time>2019-07-03T23:10:07.418000Z</time>
      </trkpt>
      <trkpt lat="37.84988627084015" lon="112.00945091976004">
        <ele>1114.68</ele>
        <time>2019-07-03T23:10:13.418000Z</time>
      </trkpt>
      <trkpt lat="37.849903053028626" lon="112.00984718340189">
        <ele>1114.76</ele>
        <time>2019-07-03T23:10:22.418000Z</time>
      </trkpt>
      <trkpt lat="37.84987862759197" lon="112.01026962084568">
        <ele>1115.51</ele>
        <time>2019-07-03T23:10:31.418000Z</time>
      </trkpt>
      <trkpt lat="37.84985245311271" lon="112.01069189950714">
        <ele>1116.17</ele>
        <time>2019-07-03T23:10:40.418000Z</time>
      </trkpt>
      <trkpt lat="37.849866989045395" lon="112.01094740320156">
        <ele>1114.18</ele>
        <time>2019-07-03T23:10:46.418000Z</time>
      </trkpt>
      <trkpt lat="37.849834583108176" lon="112.01132357940362">
        <ele>1114.51</ele>
        <time>2019-07-03T23:10:55.418000Z</time>
      </trkpt>
      <trkpt lat="37.84982877899336" lon="112.01156542304336">
        <ele>1113.89</ele>
        <time>2019-07-03T23:11:01.418000Z</time>
      </trkpt>
      <trkpt lat="37.84978943429939" lon="112.0119414608756">
        <ele>1112.33</ele>
        <time>2019-07-03T23:11:10.418000Z</time>
      </trkpt>
      <trkpt lat="37.84975753083393" lon="112.01232402027068">
        <ele>1112.06</ele>
        <time>2019-07-03T23:11:19.418000Z</time>
      </trkpt>
      <trkpt lat="37.84971118484415" lon="112.01266094595974">
        <ele>1110.1</ele>
        <time>2019-07-03T23:11:28.418000Z</time>
      </trkpt>
      <trkpt lat="37.84966236728352" lon="112.01310301383667">
        <ele>1110.95</ele>
        <time>2019-07-03T23:11:40.418000Z</time>
      </trkpt>
      <trkpt lat="37.849643696298834" lon="112.01348657622226">
        <ele>1112.98</ele>
        <time>2019-07-03T23:11:49.418000Z</time>
      </trkpt>
      <trkpt lat="37.849616948129" lon="112.01389494761366">
        <ele>1115.08</ele>
        <time>2019-07-03T23:11:58.418000Z</time>
      </trkpt>
      <trkpt lat="37.849588685746525" lon="112.0142642481714">
        <ele>1112.82</ele>
        <time>2019-07-03T23:12:07.418000Z</time>
      </trkpt>
      <trkpt lat="37.84955229397534" lon="112.01464443788826">
        <ele>1111.3</ele>
        <time>2019-07-03T23:12:16.418000Z</time>
      </trkpt>
      <trkpt lat="37.84950799232409" lon="112.01502783509966">
        <ele>1112.16</ele>
        <time>2019-07-03T23:12:25.418000Z</time>
      </trkpt>
      <trkpt lat="37.84946087831895" lon="112.01539726727817">
        <ele>1110.49</ele>
        <time>2019-07-03T23:12:34.418000Z</time>
      </trkpt>
      <trkpt lat="37.84943188190401" lon="112.0157577917622">
        <ele>1111.87</ele>
        <time>2019-07-03T23:12:43.418000Z</time>
      </trkpt>
      <trkpt lat="37.849423485919694" lon="112.01587756968999">
        <ele>1110.32</ele>
        <time>2019-07-03T23:12:46.418000Z</time>
      </trkpt>
      <trkpt lat="37.84937050191285" lon="112.01624993948126">
        <ele>1108.88</ele>
        <time>2019-07-03T23:12:55.418000Z</time>
      </trkpt>
      <trkpt lat="37.849323587147694" lon="112.01665128266423">
        <ele>1105.85</ele>
        <time>2019-07-03T23:13:04.418000Z</time>
      </trkpt>
      <trkpt lat="37.84927689309707" lon="112.01701339099337">
        <ele>1105.98</ele>
        <time>2019-07-03T23:13:13.418000Z</time>
      </trkpt>
      <trkpt lat="37.84920876929227" lon="112.01736880606938">
        <ele>1102.82</ele>
        <time>2019-07-03T23:13:22.418000Z</time>
      </trkpt>
      <trkpt lat="37.8491635832812" lon="112.01773403817845">
        <ele>1101.29</ele>
        <time>2019-07-03T23:13:31.418000Z</time>
      </trkpt>
      <trkpt lat="37.84913802274486" lon="112.01812159327356">
        <ele>1102.42</ele>
        <time>2019-07-03T23:13:40.418000Z</time>
      </trkpt>
      <trkpt lat="37.8491370254833" lon="112.01820857143228">
        <ele>1104.67</ele>
        <time>2019-07-03T23:13:43.418000Z</time>
      </trkpt>
      <trkpt lat="37.849179574468444" lon="112.01827467043525">
        <ele>1106.68</ele>
        <time>2019-07-03T23:13:49.418000Z</time>
      </trkpt>
      <trkpt lat="37.849198997326525" lon="112.01820451021655">
        <ele>1105.51</ele>
        <time>2019-07-03T23:14:01.418000Z</time>
      </trkpt>
      <trkpt lat="37.849172943838234" lon="112.01797260752414">
        <ele>1106.48</ele>
        <time>2019-07-03T23:14:13.418000Z</time>
      </trkpt>
      <trkpt lat="37.84917612962223" lon="112.01768357614051">
        <ele>1101.78</ele>
        <time>2019-07-03T23:14:31.418000Z</time>
      </trkpt>
      <trkpt lat="37.84916417523302" lon="112.01758197214444">
        <ele>1099.61</ele>
        <time>2019-07-03T23:14:37.418000Z</time>
      </trkpt>
      <trkpt lat="37.84918846663275" lon="112.01735048111786">
        <ele>1101.85</ele>
        <time>2019-07-03T23:14:49.418000Z</time>
      </trkpt>
      <trkpt lat="37.84922085554852" lon="112.01733206459227">
        <ele>1102.73</ele>
        <time>2019-07-03T23:14:55.418000Z</time>
      </trkpt>
      <trkpt lat="37.849235671961225" lon="112.01715422698227">
        <ele>1098.79</ele>
        <time>2019-07-03T23:15:04.418000Z</time>
      </trkpt>
      <trkpt lat="37.84923193788708" lon="112.01680540095923">
        <ele>1094.96</ele>
        <time>2019-07-03T23:15:16.418000Z</time>
      </trkpt>
      <trkpt lat="37.849244570121606" lon="112.01654779228845">
        <ele>1096.41</ele>
        <time>2019-07-03T23:15:31.418000Z</time>
      </trkpt>
      <trkpt lat="37.84924979847745" lon="112.0164212976799">
        <ele>1094.26</ele>
        <time>2019-07-03T23:15:40.418000Z</time>
      </trkpt>
      <trkpt lat="37.849302732589024" lon="112.0161703928929">
        <ele>1097.92</ele>
        <time>2019-07-03T23:15:55.418000Z</time>
      </trkpt>
      <trkpt lat="37.84931481262667" lon="112.01604787152228">
        <ele>1098.4</ele>
        <time>2019-07-03T23:15:58.418000Z</time>
      </trkpt>
      <trkpt lat="37.84936139838511" lon="112.01586117369632">
        <ele>1098.21</ele>
        <time>2019-07-03T23:16:07.418000Z</time>
      </trkpt>
      <trkpt lat="37.849391187268026" lon="112.01576109660951">
        <ele>1095.24</ele>
        <time>2019-07-03T23:16:13.418000Z</time>
      </trkpt>
      <trkpt lat="37.84943948019599" lon="112.0154245153089">
        <ele>1101.0</ele>
        <time>2019-07-03T23:16:22.418000Z</time>
      </trkpt>
      <trkpt lat="37.84950041975381" lon="112.01501070960244">
        <ele>1104.11</ele>
        <time>2019-07-03T23:16:34.418000Z</time>
      </trkpt>
      <trkpt lat="37.84953127493915" lon="112.01467798254338">
        <ele>1105.85</ele>
        <time>2019-07-03T23:16:40.418000Z</time>
      </trkpt>
      <trkpt lat="37.849550376017376" lon="112.01427321601382">
        <ele>1106.2</ele>
        <time>2019-07-03T23:16:49.418000Z</time>
      </trkpt>
      <trkpt lat="37.84956355885775" lon="112.01398980401069">
        <ele>1104.39</ele>
        <time>2019-07-03T23:17:01.418000Z</time>
      </trkpt>
      <trkpt lat="37.849570685391114" lon="112.01393936602376">
        <ele>1104.81</ele>
        <time>2019-07-03T23:17:04.418000Z</time>
      </trkpt>
      <trkpt lat="37.84960361636923" lon="112.01363215793761">
        <ele>1108.02</ele>
        <time>2019-07-03T23:17:13.418000Z</time>
      </trkpt>
      <trkpt lat="37.84959781298175" lon="112.01346522486291">
        <ele>1108.92</ele>
        <time>2019-07-03T23:17:16.418000Z</time>
      </trkpt>
      <trkpt lat="37.84960922465154" lon="112.0133490506403">
        <ele>1109.85</ele>
        <time>2019-07-03T23:17:19.418000Z</time>
      </trkpt>
      <trkpt lat="37.849631204992114" lon="112.01325516846278">
        <ele>1110.39</ele>
        <time>2019-07-03T23:17:22.418000Z</time>
      </trkpt>
      <trkpt lat="37.84964345347415" lon="112.01312006273102">
        <ele>1105.98</ele>
        <time>2019-07-03T23:17:25.418000Z</time>
      </trkpt>
      <trkpt lat="37.8496303415373" lon="112.01301480895778">
        <ele>1105.58</ele>
        <time>2019-07-03T23:17:28.418000Z</time>
      </trkpt>
      <trkpt lat="37.84964057463021" lon="112.01282746290815">
        <ele>1109.98</ele>
        <time>2019-07-03T23:17:31.418000Z</time>
      </trkpt>
      <trkpt lat="37.84968595428409" lon="112.01257073278302">
        <ele>1110.7</ele>
        <time>2019-07-03T23:17:40.418000Z</time>
      </trkpt>
      <trkpt lat="37.84970181957806" lon="112.01215496727353">
        <ele>1108.09</ele>
        <time>2019-07-03T23:17:49.418000Z</time>
      </trkpt>
      <trkpt lat="37.84976276699762" lon="112.01163112589143">
        <ele>1108.82</ele>
        <time>2019-07-03T23:18:07.418000Z</time>
      </trkpt>
      <trkpt lat="37.849783108156366" lon="112.01134091519789">
        <ele>1108.43</ele>
        <time>2019-07-03T23:18:16.418000Z</time>
      </trkpt>
      <trkpt lat="37.84976897231756" lon="112.01094016608464">
        <ele>1102.9</ele>
        <time>2019-07-03T23:18:25.418000Z</time>
      </trkpt>
      <trkpt lat="37.84975408845392" lon="112.01080064445281">
        <ele>1104.63</ele>
        <time>2019-07-03T23:18:28.418000Z</time>
      </trkpt>
      <trkpt lat="37.84977997275365" lon="112.01041173459322">
        <ele>1105.3</ele>
        <time>2019-07-03T23:18:37.418000Z</time>
      </trkpt>
      <trkpt lat="37.849748361904204" lon="112.01003925564402">
        <ele>1102.03</ele>
        <time>2019-07-03T23:18:43.418000Z</time>
      </trkpt>
      <trkpt lat="37.84973687378011" lon="112.00976890424245">
        <ele>1102.99</ele>
        <time>2019-07-03T23:18:49.418000Z</time>
      </trkpt>
      <trkpt lat="37.84976954440799" lon="112.00952620286766">
        <ele>1107.27</ele>
        <time>2019-07-03T23:18:55.418000Z</time>
      </trkpt>
      <trkpt lat="37.84979064025895" lon="112.00939170405091">
        <ele>1109.38</ele>
        <time>2019-07-03T23:19:01.418000Z</time>
      </trkpt>
      <trkpt lat="37.849794011026525" lon="112.00931302852801">
        <ele>1110.12</ele>
        <time>2019-07-03T23:19:04.418000Z</time>
      </trkpt>
      <trkpt lat="37.84966535006954" lon="112.00892094256378">
        <ele>1111.84</ele>
        <time>2019-07-03T23:19:25.418000Z</time>
      </trkpt>
      <trkpt lat="37.849603728129686" lon="112.00886567621795">
        <ele>1111.62</ele>
        <time>2019-07-03T23:19:28.418000Z</time>
      </trkpt>
      <trkpt lat="37.849423719824365" lon="112.00862365779808">
        <ele>1117.31</ele>
        <time>2019-07-03T23:19:37.418000Z</time>
      </trkpt>
      <trkpt lat="37.849210334365345" lon="112.00833551984525">
        <ele>1118.15</ele>
        <time>2019-07-03T23:19:49.418000Z</time>
      </trkpt>
      <trkpt lat="37.84901569411423" lon="112.00801412534624">
        <ele>1118.44</ele>
        <time>2019-07-03T23:20:01.418000Z</time>
      </trkpt>
      <trkpt lat="37.84881408389447" lon="112.00769686317975">
        <ele>1117.77</ele>
        <time>2019-07-03T23:20:13.418000Z</time>
      </trkpt>
      <trkpt lat="37.848588479009976" lon="112.00738440669215">
        <ele>1115.8</ele>
        <time>2019-07-03T23:20:25.418000Z</time>
      </trkpt>
      <trkpt lat="37.84835367689065" lon="112.00705641555152">
        <ele>1118.95</ele>
        <time>2019-07-03T23:20:37.418000Z</time>
      </trkpt>
      <trkpt lat="37.848293096657954" lon="112.00697877673953">
        <ele>1118.3</ele>
        <time>2019-07-03T23:20:40.418000Z</time>
      </trkpt>
      <trkpt lat="37.84813305643722" lon="112.00686214079742">
        <ele>1114.61</ele>
        <time>2019-07-03T23:20:46.418000Z</time>
      </trkpt>
      <trkpt lat="37.847868354645534" lon="112.00678452210892">
        <ele>1120.82</ele>
        <time>2019-07-03T23:20:55.418000Z</time>
      </trkpt>
      <trkpt lat="37.84760243387745" lon="112.00673556034243">
        <ele>1118.26</ele>
        <time>2019-07-03T23:21:04.418000Z</time>
      </trkpt>
      <trkpt lat="37.847455863612595" lon="112.0066903600445">
        <ele>1117.83</ele>
        <time>2019-07-03T23:21:10.418000Z</time>
      </trkpt>
      <trkpt lat="37.84718280485393" lon="112.00668317489647">
        <ele>1119.33</ele>
        <time>2019-07-03T23:21:19.418000Z</time>
      </trkpt>
      <trkpt lat="37.84687900545368" lon="112.00663706196043">
        <ele>1120.45</ele>
        <time>2019-07-03T23:21:31.418000Z</time>
      </trkpt>
      <trkpt lat="37.84673126879234" lon="112.00659522518569">
        <ele>1119.09</ele>
        <time>2019-07-03T23:21:37.418000Z</time>
      </trkpt>
      <trkpt lat="37.84645492965392" lon="112.00658743354748">
        <ele>1123.75</ele>
        <time>2019-07-03T23:21:46.418000Z</time>
      </trkpt>
      <trkpt lat="37.84615693257359" lon="112.00653574759517">
        <ele>1121.01</ele>
        <time>2019-07-03T23:21:58.418000Z</time>
      </trkpt>
      <trkpt lat="37.846013689494086" lon="112.00649168706713">
        <ele>1117.14</ele>
        <time>2019-07-03T23:22:04.418000Z</time>
      </trkpt>
      <trkpt lat="37.84574812849247" lon="112.00643571530371">
        <ele>1116.26</ele>
        <time>2019-07-03T23:22:13.418000Z</time>
      </trkpt>
      <trkpt lat="37.84558100916099" lon="112.0063909722945">
        <ele>1118.5</ele>
        <time>2019-07-03T23:22:19.418000Z</time>
      </trkpt>
      <trkpt lat="37.84543853993244" lon="112.00631197106858">
        <ele>1120.05</ele>
        <time>2019-07-03T23:22:25.418000Z</time>
      </trkpt>
      <trkpt lat="37.84511903513479" lon="112.00622957146544">
        <ele>1122.83</ele>
        <time>2019-07-03T23:22:37.418000Z</time>
      </trkpt>
      <trkpt lat="37.8447961907383" lon="112.00615697539219">
        <ele>1128.66</ele>
        <time>2019-07-03T23:22:49.418000Z</time>
      </trkpt>
      <trkpt lat="37.84449283135871" lon="112.00614522928092">
        <ele>1124.27</ele>
        <time>2019-07-03T23:23:01.418000Z</time>
      </trkpt>
      <trkpt lat="37.84425045268511" lon="112.0062078001632">
        <ele>1124.71</ele>
        <time>2019-07-03T23:23:10.418000Z</time>
      </trkpt>
      <trkpt lat="37.844104645610464" lon="112.00623715683804">
        <ele>1127.12</ele>
        <time>2019-07-03T23:23:16.418000Z</time>
      </trkpt>
      <trkpt lat="37.84386242009006" lon="112.00639632642049">
        <ele>1129.38</ele>
        <time>2019-07-03T23:23:25.418000Z</time>
      </trkpt>
      <trkpt lat="37.8437348777519" lon="112.0064388930813">
        <ele>1127.83</ele>
        <time>2019-07-03T23:23:31.418000Z</time>
      </trkpt>
      <trkpt lat="37.84348090334986" lon="112.0066434528098">
        <ele>1129.18</ele>
        <time>2019-07-03T23:23:43.418000Z</time>
      </trkpt>
      <trkpt lat="37.84331313370071" lon="112.00680273759367">
        <ele>1130.65</ele>
        <time>2019-07-03T23:23:52.418000Z</time>
      </trkpt>
      <trkpt lat="37.843057677112235" lon="112.00703387832328">
        <ele>1132.61</ele>
        <time>2019-07-03T23:24:04.418000Z</time>
      </trkpt>
      <trkpt lat="37.842787959887" lon="112.00723909883503">
        <ele>1134.23</ele>
        <time>2019-07-03T23:24:16.418000Z</time>
      </trkpt>
      <trkpt lat="37.84253396865638" lon="112.00743563366005">
        <ele>1133.12</ele>
        <time>2019-07-03T23:24:28.418000Z</time>
      </trkpt>
      <trkpt lat="37.842275612008926" lon="112.0075815005234">
        <ele>1132.66</ele>
        <time>2019-07-03T23:24:40.418000Z</time>
      </trkpt>
      <trkpt lat="37.84219988470562" lon="112.00762097485875">
        <ele>1133.59</ele>
        <time>2019-07-03T23:24:43.418000Z</time>
      </trkpt>
      <trkpt lat="37.84194187893565" lon="112.00780321106532">
        <ele>1137.12</ele>
        <time>2019-07-03T23:24:55.918000Z</time>
      </trkpt>
      <trkpt lat="37.8417691129255" lon="112.00792814223263">
        <ele>1136.2</ele>
        <time>2019-07-03T23:25:02.418000Z</time>
      </trkpt>
      <trkpt lat="37.84146613640315" lon="112.00808997183928">
        <ele>1140.13</ele>
        <time>2019-07-03T23:25:14.418000Z</time>
      </trkpt>
      <trkpt lat="37.84115731787989" lon="112.00812038671154">
        <ele>1137.32</ele>
        <time>2019-07-03T23:25:26.418000Z</time>
      </trkpt>
      <trkpt lat="37.840939625481546" lon="112.00809966155715">
        <ele>1139.79</ele>
        <time>2019-07-03T23:25:35.418000Z</time>
      </trkpt>
      <trkpt lat="37.84071689726015" lon="112.00803852815474">
        <ele>1134.79</ele>
        <time>2019-07-03T23:25:44.418000Z</time>
      </trkpt>
      <trkpt lat="37.84057021984847" lon="112.00801647516558">
        <ele>1134.68</ele>
        <time>2019-07-03T23:25:50.418000Z</time>
      </trkpt>
      <trkpt lat="37.840502874746825" lon="112.00802138600297">
        <ele>1137.09</ele>
        <time>2019-07-03T23:25:53.418000Z</time>
      </trkpt>
      <trkpt lat="37.84018103070678" lon="112.00797997551757">
        <ele>1134.06</ele>
        <time>2019-07-03T23:26:05.418000Z</time>
      </trkpt>
      <trkpt lat="37.8398590950759" lon="112.0079963259348">
        <ele>1138.47</ele>
        <time>2019-07-03T23:26:17.418000Z</time>
      </trkpt>
      <trkpt lat="37.83956912982644" lon="112.00804259067968">
        <ele>1135.55</ele>
        <time>2019-07-03T23:26:29.418000Z</time>
      </trkpt>
      <trkpt lat="37.839253813317754" lon="112.00809176867365">
        <ele>1137.41</ele>
        <time>2019-07-03T23:26:41.418000Z</time>
      </trkpt>
      <trkpt lat="37.83917579233759" lon="112.00810388955706">
        <ele>1137.43</ele>
        <time>2019-07-03T23:26:44.418000Z</time>
      </trkpt>
      <trkpt lat="37.83910549667239" lon="112.00809254023297">
        <ele>1139.68</ele>
        <time>2019-07-03T23:26:47.418000Z</time>
      </trkpt>
      <trkpt lat="37.8387818389208" lon="112.0081439337959">
        <ele>1142.33</ele>
        <time>2019-07-03T23:26:59.418000Z</time>
      </trkpt>
      <trkpt lat="37.83845439607228" lon="112.00820288967334">
        <ele>1146.13</ele>
        <time>2019-07-03T23:27:11.418000Z</time>
      </trkpt>
      <trkpt lat="37.838305858347404" lon="112.00818871434127">
        <ele>1147.95</ele>
        <time>2019-07-03T23:27:17.418000Z</time>
      </trkpt>
      <trkpt lat="37.83823693440271" lon="112.0081596519014">
        <ele>1145.95</ele>
        <time>2019-07-03T23:27:20.418000Z</time>
      </trkpt>
      <trkpt lat="37.837927707663354" lon="112.00804173795106">
        <ele>1149.52</ele>
        <time>2019-07-03T23:27:32.418000Z</time>
      </trkpt>
      <trkpt lat="37.837669919952354" lon="112.00795823572778">
        <ele>1150.22</ele>
        <time>2019-07-03T23:27:41.418000Z</time>
      </trkpt>
      <trkpt lat="37.837346372481996" lon="112.00782007162391">
        <ele>1147.96</ele>
        <time>2019-07-03T23:27:53.418000Z</time>
      </trkpt>
      <trkpt lat="37.83717934662792" lon="112.00775160634214">
        <ele>1147.82</ele>
        <time>2019-07-03T23:27:59.418000Z</time>
      </trkpt>
      <trkpt lat="37.83699614703177" lon="112.00771353410634">
        <ele>1149.45</ele>
        <time>2019-07-03T23:28:05.418000Z</time>
      </trkpt>
      <trkpt lat="37.83671943376767" lon="112.00761963008854">
        <ele>1149.29</ele>
        <time>2019-07-03T23:28:14.418000Z</time>
      </trkpt>
      <trkpt lat="37.836635004383645" lon="112.00758214515318">
        <ele>1149.26</ele>
        <time>2019-07-03T23:28:17.418000Z</time>
      </trkpt>
      <trkpt lat="37.83636136282939" lon="112.00749674819092">
        <ele>1148.89</ele>
        <time>2019-07-03T23:28:26.418000Z</time>
      </trkpt>
      <trkpt lat="37.83604563037398" lon="112.00740764304389">
        <ele>1149.43</ele>
        <time>2019-07-03T23:28:47.418000Z</time>
      </trkpt>
      <trkpt lat="37.83590434784105" lon="112.00735176047249">
        <ele>1151.53</ele>
        <time>2019-07-03T23:28:59.418000Z</time>
      </trkpt>
      <trkpt lat="37.83576587906295" lon="112.00732205322163">
        <ele>1153.28</ele>
        <time>2019-07-03T23:29:11.418000Z</time>
      </trkpt>
      <trkpt lat="37.835696556477764" lon="112.00732964871254">
        <ele>1152.14</ele>
        <time>2019-07-03T23:29:17.418000Z</time>
      </trkpt>
      <trkpt lat="37.835621064675195" lon="112.00732353036317">
        <ele>1152.75</ele>
        <time>2019-07-03T23:29:23.418000Z</time>
      </trkpt>
      <trkpt lat="37.835479406343346" lon="112.00726777695351">
        <ele>1153.91</ele>
        <time>2019-07-03T23:29:35.418000Z</time>
      </trkpt>
      <trkpt lat="37.83541514479618" lon="112.00721368959458">
        <ele>1151.81</ele>
        <time>2019-07-03T23:29:41.418000Z</time>
      </trkpt>
      <trkpt lat="37.83535835524679" lon="112.0070873528503">
        <ele>1152.61</ele>
        <time>2019-07-03T23:29:50.418000Z</time>
      </trkpt>
      <trkpt lat="37.83532577456067" lon="112.00700562413274">
        <ele>1152.25</ele>
        <time>2019-07-03T23:29:56.418000Z</time>
      </trkpt>
      <trkpt lat="37.83528600476744" lon="112.00692906510642">
        <ele>1156.98</ele>
        <time>2019-07-03T23:30:02.418000Z</time>
      </trkpt>
      <trkpt lat="37.8353099774995" lon="112.00700267546651">
        <ele>1155.61</ele>
        <time>2019-07-03T23:30:11.418000Z</time>
      </trkpt>
      <trkpt lat="37.83540936085352" lon="112.0071762903315">
        <ele>1156.28</ele>
        <time>2019-07-03T23:30:20.418000Z</time>
      </trkpt>
      <trkpt lat="37.83546470211921" lon="112.00725024174062">
        <ele>1157.9</ele>
        <time>2019-07-03T23:30:23.418000Z</time>
      </trkpt>
      <trkpt lat="37.835538742264816" lon="112.00729132210849">
        <ele>1155.86</ele>
        <time>2019-07-03T23:30:26.418000Z</time>
      </trkpt>
      <trkpt lat="37.83583286246799" lon="112.00735540926689">
        <ele>1154.67</ele>
        <time>2019-07-03T23:30:38.418000Z</time>
      </trkpt>
      <trkpt lat="37.835911546934256" lon="112.00736882919954">
        <ele>1154.52</ele>
        <time>2019-07-03T23:30:41.418000Z</time>
      </trkpt>
      <trkpt lat="37.83607793320682" lon="112.00739162870588">
        <ele>1152.53</ele>
        <time>2019-07-03T23:30:47.418000Z</time>
      </trkpt>
      <trkpt lat="37.836398284640545" lon="112.0074896788669">
        <ele>1152.77</ele>
        <time>2019-07-03T23:30:59.418000Z</time>
      </trkpt>
      <trkpt lat="37.83670934473667" lon="112.0075952665967">
        <ele>1154.65</ele>
        <time>2019-07-03T23:31:11.418000Z</time>
      </trkpt>
      <trkpt lat="37.837012129038854" lon="112.00770975223853">
        <ele>1152.23</ele>
        <time>2019-07-03T23:31:23.418000Z</time>
      </trkpt>
      <trkpt lat="37.837313020480664" lon="112.00781819209615">
        <ele>1153.56</ele>
        <time>2019-07-03T23:31:35.418000Z</time>
      </trkpt>
      <trkpt lat="37.83763495529833" lon="112.00793503595271">
        <ele>1151.21</ele>
        <time>2019-07-03T23:31:47.418000Z</time>
      </trkpt>
      <trkpt lat="37.83798011068816" lon="112.00804482082488">
        <ele>1151.42</ele>
        <time>2019-07-03T23:31:59.418000Z</time>
      </trkpt>
      <trkpt lat="37.8381318946275" lon="112.00812565542779">
        <ele>1149.87</ele>
        <time>2019-07-03T23:32:05.418000Z</time>
      </trkpt>
      <trkpt lat="37.838405548462" lon="112.0082017985746">
        <ele>1144.92</ele>
        <time>2019-07-03T23:32:14.418000Z</time>
      </trkpt>
      <trkpt lat="37.838483439210435" lon="112.00821622893044">
        <ele>1145.31</ele>
        <time>2019-07-03T23:32:17.418000Z</time>
      </trkpt>
      <trkpt lat="37.83875215716021" lon="112.00816962288964">
        <ele>1143.34</ele>
        <time>2019-07-03T23:32:26.418000Z</time>
      </trkpt>
      <trkpt lat="37.839090365157425" lon="112.00812274618893">
        <ele>1143.89</ele>
        <time>2019-07-03T23:32:38.418000Z</time>
      </trkpt>
      <trkpt lat="37.839409771196394" lon="112.00808469967575">
        <ele>1142.02</ele>
        <time>2019-07-03T23:32:50.418000Z</time>
      </trkpt>
      <trkpt lat="37.83972364140874" lon="112.00804234975806">
        <ele>1142.21</ele>
        <time>2019-07-03T23:33:02.418000Z</time>
      </trkpt>
      <trkpt lat="37.83998983158145" lon="112.0080074883916">
        <ele>1142.34</ele>
        <time>2019-07-03T23:33:11.418000Z</time>
      </trkpt>
      <trkpt lat="37.8402970313584" lon="112.0079803080214">
        <ele>1143.23</ele>
        <time>2019-07-03T23:33:23.418000Z</time>
      </trkpt>
      <trkpt lat="37.8405916423111" lon="112.00804682460245">
        <ele>1139.5</ele>
        <time>2019-07-03T23:33:35.418000Z</time>
      </trkpt>
      <trkpt lat="37.84087790406607" lon="112.00812165806744">
        <ele>1138.92</ele>
        <time>2019-07-03T23:33:47.418000Z</time>
      </trkpt>
      <trkpt lat="37.84112819068233" lon="112.00815305401699">
        <ele>1137.69</ele>
        <time>2019-07-03T23:33:56.418000Z</time>
      </trkpt>
      <trkpt lat="37.84147402295358" lon="112.00812340944383">
        <ele>1136.45</ele>
        <time>2019-07-03T23:34:08.418000Z</time>
      </trkpt>
      <trkpt lat="37.84179799257844" lon="112.00796936123159">
        <ele>1138.19</ele>
        <time>2019-07-03T23:34:20.418000Z</time>
      </trkpt>
      <trkpt lat="37.84202155208873" lon="112.0077903460276">
        <ele>1138.72</ele>
        <time>2019-07-03T23:34:29.418000Z</time>
      </trkpt>
      <trkpt lat="37.842310798688764" lon="112.00757273047644">
        <ele>1138.9</ele>
        <time>2019-07-03T23:34:41.418000Z</time>
      </trkpt>
      <trkpt lat="37.84253367132837" lon="112.00744845165865">
        <ele>1138.77</ele>
        <time>2019-07-03T23:34:50.418000Z</time>
      </trkpt>
      <trkpt lat="37.8426691417819" lon="112.00734203453476">
        <ele>1135.19</ele>
        <time>2019-07-03T23:34:56.418000Z</time>
      </trkpt>
      <trkpt lat="37.84295862181031" lon="112.00712335601709">
        <ele>1135.41</ele>
        <time>2019-07-03T23:35:08.418000Z</time>
      </trkpt>
      <trkpt lat="37.84324890651123" lon="112.00692338179147">
        <ele>1132.38</ele>
        <time>2019-07-03T23:35:20.418000Z</time>
      </trkpt>
      <trkpt lat="37.843431134886096" lon="112.00675285097152">
        <ele>1132.61</ele>
        <time>2019-07-03T23:35:29.418000Z</time>
      </trkpt>
      <trkpt lat="37.843718568394465" lon="112.00653165510543">
        <ele>1128.39</ele>
        <time>2019-07-03T23:35:41.418000Z</time>
      </trkpt>
      <trkpt lat="37.84403531743603" lon="112.00633890408689">
        <ele>1131.56</ele>
        <time>2019-07-03T23:35:53.418000Z</time>
      </trkpt>
      <trkpt lat="37.844332838174005" lon="112.0061748364796">
        <ele>1134.67</ele>
        <time>2019-07-03T23:36:05.418000Z</time>
      </trkpt>
      <trkpt lat="37.8445461414542" lon="112.0060940473678">
        <ele>1129.99</ele>
        <time>2019-07-03T23:36:14.418000Z</time>
      </trkpt>
      <trkpt lat="37.844886957330736" lon="112.00615460358374">
        <ele>1131.51</ele>
        <time>2019-07-03T23:36:26.418000Z</time>
      </trkpt>
      <trkpt lat="37.845161158301266" lon="112.00623439727993">
        <ele>1131.62</ele>
        <time>2019-07-03T23:36:35.418000Z</time>
      </trkpt>
      <trkpt lat="37.84548263352146" lon="112.00634424860594">
        <ele>1128.54</ele>
        <time>2019-07-03T23:36:47.418000Z</time>
      </trkpt>
      <trkpt lat="37.845801074393684" lon="112.00645442715826">
        <ele>1130.56</ele>
        <time>2019-07-03T23:36:59.418000Z</time>
      </trkpt>
      <trkpt lat="37.846073043687234" lon="112.00655045357257">
        <ele>1128.93</ele>
        <time>2019-07-03T23:37:08.418000Z</time>
      </trkpt>
      <trkpt lat="37.846419085777086" lon="112.00664154026886">
        <ele>1123.48</ele>
        <time>2019-07-03T23:37:20.418000Z</time>
      </trkpt>
      <trkpt lat="37.84669016927336" lon="112.00666993076865">
        <ele>1125.0</ele>
        <time>2019-07-03T23:37:29.418000Z</time>
      </trkpt>
      <trkpt lat="37.84703697327524" lon="112.00669730609063">
        <ele>1124.45</ele>
        <time>2019-07-03T23:37:41.418000Z</time>
      </trkpt>
      <trkpt lat="37.84737171441552" lon="112.00673675933136">
        <ele>1119.64</ele>
        <time>2019-07-03T23:37:53.418000Z</time>
      </trkpt>
      <trkpt lat="37.84771948947932" lon="112.00677859750473">
        <ele>1121.31</ele>
        <time>2019-07-03T23:38:05.418000Z</time>
      </trkpt>
      <trkpt lat="37.84807943017251" lon="112.00682539126696">
        <ele>1122.55</ele>
        <time>2019-07-03T23:38:17.418000Z</time>
      </trkpt>
      <trkpt lat="37.848176399913015" lon="112.0068404732221">
        <ele>1122.57</ele>
        <time>2019-07-03T23:38:20.418000Z</time>
      </trkpt>
      <trkpt lat="37.84826113703976" lon="112.00687740848792">
        <ele>1122.83</ele>
        <time>2019-07-03T23:38:23.418000Z</time>
      </trkpt>
      <trkpt lat="37.84841549368124" lon="112.0070103651264">
        <ele>1123.64</ele>
        <time>2019-07-03T23:38:29.418000Z</time>
      </trkpt>
      <trkpt lat="37.84845713666415" lon="112.00711941614519">
        <ele>1123.62</ele>
        <time>2019-07-03T23:38:32.418000Z</time>
      </trkpt>
      <trkpt lat="37.8486820412513" lon="112.0074542371672">
        <ele>1125.35</ele>
        <time>2019-07-03T23:38:44.418000Z</time>
      </trkpt>
      <trkpt lat="37.84886061418746" lon="112.00774025586166">
        <ele>1123.13</ele>
        <time>2019-07-03T23:38:59.418000Z</time>
      </trkpt>
      <trkpt lat="37.848922777276165" lon="112.00780681009714">
        <ele>1121.17</ele>
        <time>2019-07-03T23:39:05.418000Z</time>
      </trkpt>
      <trkpt lat="37.84909197018645" lon="112.0080808286755">
        <ele>1118.9</ele>
        <time>2019-07-03T23:39:26.418000Z</time>
      </trkpt>
      <trkpt lat="37.84931311607225" lon="112.00840640122694">
        <ele>1117.83</ele>
        <time>2019-07-03T23:39:50.418000Z</time>
      </trkpt>
      <trkpt lat="37.84949744051113" lon="112.0086926817517">
        <ele>1114.09</ele>
        <time>2019-07-03T23:40:11.418000Z</time>
      </trkpt>
      <trkpt lat="37.849637791417045" lon="112.00890319715653">
        <ele>1114.66</ele>
        <time>2019-07-03T23:40:26.418000Z</time>
      </trkpt>
      <trkpt lat="37.84967786673562" lon="112.00900457494342">
        <ele>1115.9</ele>
        <time>2019-07-03T23:40:32.418000Z</time>
      </trkpt>
      <trkpt lat="37.84978737593604" lon="112.00917693795243">
        <ele>1113.83</ele>
        <time>2019-07-03T23:40:44.418000Z</time>
      </trkpt>
      <trkpt lat="37.849871364487385" lon="112.00939044276176">
        <ele>1117.13</ele>
        <time>2019-07-03T23:40:59.418000Z</time>
      </trkpt>
      <trkpt lat="37.849880855378984" lon="112.00955078059705">
        <ele>1117.12</ele>
        <time>2019-07-03T23:41:08.418000Z</time>
      </trkpt>
      <trkpt lat="37.84990816845252" lon="112.00994178158096">
        <ele>1114.01</ele>
        <time>2019-07-03T23:41:29.418000Z</time>
      </trkpt>
      <trkpt lat="37.84991972773028" lon="112.01010514387299">
        <ele>1113.29</ele>
        <time>2019-07-03T23:41:38.418000Z</time>
      </trkpt>
      <trkpt lat="37.84988853923698" lon="112.01045092334066">
        <ele>1116.09</ele>
        <time>2019-07-03T23:41:56.418000Z</time>
      </trkpt>
      <trkpt lat="37.84983889930007" lon="112.01079201892105">
        <ele>1113.3</ele>
        <time>2019-07-03T23:42:14.418000Z</time>
      </trkpt>
      <trkpt lat="37.84982255215179" lon="112.01089849162496">
        <ele>1113.31</ele>
        <time>2019-07-03T23:42:20.418000Z</time>
      </trkpt>
      <trkpt lat="37.84983957398197" lon="112.01108947621132">
        <ele>1111.14</ele>
        <time>2019-07-03T23:42:32.418000Z</time>
      </trkpt>
      <trkpt lat="37.849847678486" lon="112.01124600232306">
        <ele>1112.19</ele>
        <time>2019-07-03T23:42:41.418000Z</time>
      </trkpt>
      <trkpt lat="37.84978258980953" lon="112.01165404672999">
        <ele>1112.14</ele>
        <time>2019-07-03T23:43:02.418000Z</time>
      </trkpt>
      <trkpt lat="37.849731324033534" lon="112.01193818109452">
        <ele>1111.3</ele>
        <time>2019-07-03T23:43:17.418000Z</time>
      </trkpt>
      <trkpt lat="37.84975599349172" lon="112.01221249898325">
        <ele>1111.63</ele>
        <time>2019-07-03T23:43:32.418000Z</time>
      </trkpt>
      <trkpt lat="37.84975235194178" lon="112.01231489937192">
        <ele>1111.07</ele>
        <time>2019-07-03T23:43:38.418000Z</time>
      </trkpt>
      <trkpt lat="37.84973686828148" lon="112.01237248500907">
        <ele>1110.86</ele>
        <time>2019-07-03T23:43:41.418000Z</time>
      </trkpt>
      <trkpt lat="37.84971040757635" lon="112.01276078128">
        <ele>1112.13</ele>
        <time>2019-07-03T23:44:02.418000Z</time>
      </trkpt>
      <trkpt lat="37.849703446037445" lon="112.01295113700924">
        <ele>1107.51</ele>
        <time>2019-07-03T23:44:14.418000Z</time>
      </trkpt>
      <trkpt lat="37.849668887167326" lon="112.01317618858351">
        <ele>1111.47</ele>
        <time>2019-07-03T23:44:26.418000Z</time>
      </trkpt>
      <trkpt lat="37.849654737453584" lon="112.01350151778213">
        <ele>1112.11</ele>
        <time>2019-07-03T23:44:50.418000Z</time>
      </trkpt>
      <trkpt lat="37.849654737453584" lon="112.01350151778213">
        <ele>1112.11</ele>
        <time>2019-07-03T23:45:05.118000Z</time>
      </trkpt>
      <trkpt lat="37.849640215130876" lon="112.01360127907031">
        <ele>1109.75</ele>
        <time>2019-07-03T23:45:14.418000Z</time>
      </trkpt>
      <trkpt lat="37.849618197244396" lon="112.01388466131927">
        <ele>1107.89</ele>
        <time>2019-07-03T23:45:32.418000Z</time>
      </trkpt>
      <trkpt lat="37.84957271807952" lon="112.01427105630808">
        <ele>1111.47</ele>
        <time>2019-07-03T23:45:53.418000Z</time>
      </trkpt>
      <trkpt lat="37.84955039588004" lon="112.01461097654787">
        <ele>1110.31</ele>
        <time>2019-07-03T23:46:14.418000Z</time>
      </trkpt>
      <trkpt lat="37.84952238499745" lon="112.01484056428752">
        <ele>1110.94</ele>
        <time>2019-07-03T23:46:26.418000Z</time>
      </trkpt>
      <trkpt lat="37.84952415698682" lon="112.01494750965922">
        <ele>1110.2</ele>
        <time>2019-07-03T23:46:32.418000Z</time>
      </trkpt>
      <trkpt lat="37.8494976139599" lon="112.01509956125825">
        <ele>1110.54</ele>
        <time>2019-07-03T23:46:41.418000Z</time>
      </trkpt>
      <trkpt lat="37.849461139320404" lon="112.015475212652">
        <ele>1108.64</ele>
        <time>2019-07-03T23:47:05.418000Z</time>
      </trkpt>
      <trkpt lat="37.84940138192656" lon="112.01584478975472">
        <ele>1110.76</ele>
        <time>2019-07-03T23:47:26.418000Z</time>
      </trkpt>
      <trkpt lat="37.84934766938714" lon="112.01603956515572">
        <ele>1109.37</ele>
        <time>2019-07-03T23:47:38.418000Z</time>
      </trkpt>
      <trkpt lat="37.849294928135244" lon="112.01646351071017">
        <ele>1111.44</ele>
        <time>2019-07-03T23:48:02.418000Z</time>
      </trkpt>
      <trkpt lat="37.84928452587503" lon="112.01665409594851">
        <ele>1109.5</ele>
        <time>2019-07-03T23:48:14.418000Z</time>
      </trkpt>
      <trkpt lat="37.84928452587503" lon="112.01665409594851">
        <ele>1109.5</ele>
        <time>2019-07-03T23:48:16.718000Z</time>
      </trkpt>
    </trkseg>
  </trk>
</gpx>