<?xml version="1.0" encoding="UTF-8"?>
<gpx xmlns="http://www.topografix.com/GPX/1/1" xmlns:gpxtpx="http://www.garmin.com/xmlschemas/TrackPointExtension/v1" xmlns:xsi="http://www.w3.org/2001/XMLSchema-instance" xsi:schemaLocation="http://www.topografix.com/GPX/1/1 http://www.topografix.com/GPX/1/1/gpx.xsd" version="1.1" creator="gpx.py -- https://github.com/tkrajina/gpxpy">
  <trk>
    <name>gpx from keep</name>
    <type>Run</type>
    <trkseg>
      <trkpt lat="37.84714249602594" lon="112.02964528304737">
        <ele>1138.97</ele>
        <time>2019-04-12T22:11:27.972000Z</time>
      </trkpt>
      <trkpt lat="37.84709765347197" lon="112.02962949007421">
        <ele>1149.29</ele>
        <time>2019-04-12T22:11:33.972000Z</time>
      </trkpt>
      <trkpt lat="37.847118791451564" lon="112.02949103017507">
        <ele>1121.93</ele>
        <time>2019-04-12T22:11:39.972000Z</time>
      </trkpt>
      <trkpt lat="37.84718368762991" lon="112.0293735196836">
        <ele>1123.78</ele>
        <time>2019-04-12T22:11:45.972000Z</time>
      </trkpt>
      <trkpt lat="37.84728222940797" lon="112.0293511487488">
        <ele>1114.24</ele>
        <time>2019-04-12T22:11:51.972000Z</time>
      </trkpt>
      <trkpt lat="37.8473082413851" lon="112.02923686417188">
        <ele>1111.94</ele>
        <time>2019-04-12T22:11:54.972000Z</time>
      </trkpt>
      <trkpt lat="37.84729856514488" lon="112.02906998887475">
        <ele>1104.68</ele>
        <time>2019-04-12T22:12:00.972000Z</time>
      </trkpt>
      <trkpt lat="37.84734476495406" lon="112.02863906732078">
        <ele>1107.63</ele>
        <time>2019-04-12T22:12:15.972000Z</time>
      </trkpt>
      <trkpt lat="37.84730294371162" lon="112.02822426311891">
        <ele>1110.07</ele>
        <time>2019-04-12T22:12:27.972000Z</time>
      </trkpt>
      <trkpt lat="37.84727941583185" lon="112.02799971926862">
        <ele>1115.0</ele>
        <time>2019-04-12T22:12:33.972000Z</time>
      </trkpt>
      <trkpt lat="37.84732036176157" lon="112.02782509794972">
        <ele>1114.17</ele>
        <time>2019-04-12T22:12:39.972000Z</time>
      </trkpt>
      <trkpt lat="37.84731078176146" lon="112.02770672827667">
        <ele>1114.22</ele>
        <time>2019-04-12T22:12:42.972000Z</time>
      </trkpt>
      <trkpt lat="37.84735365450443" lon="112.02750417820162">
        <ele>1112.12</ele>
        <time>2019-04-12T22:12:48.972000Z</time>
      </trkpt>
      <trkpt lat="37.84740635969416" lon="112.02735919159683">
        <ele>1110.99</ele>
        <time>2019-04-12T22:12:54.972000Z</time>
      </trkpt>
      <trkpt lat="37.84744462193727" lon="112.02708507422004">
        <ele>1109.68</ele>
        <time>2019-04-12T22:13:03.972000Z</time>
      </trkpt>
      <trkpt lat="37.84747245871122" lon="112.02699568076584">
        <ele>1110.74</ele>
        <time>2019-04-12T22:13:06.972000Z</time>
      </trkpt>
      <trkpt lat="37.847625464094335" lon="112.02674657196056">
        <ele>1109.08</ele>
        <time>2019-04-12T22:13:15.972000Z</time>
      </trkpt>
      <trkpt lat="37.84776907014616" lon="112.02650690288954">
        <ele>1109.91</ele>
        <time>2019-04-12T22:13:24.972000Z</time>
      </trkpt>
      <trkpt lat="37.84783712875504" lon="112.02643448110007">
        <ele>1110.69</ele>
        <time>2019-04-12T22:13:27.972000Z</time>
      </trkpt>
      <trkpt lat="37.847996758716086" lon="112.02639633546835">
        <ele>1105.53</ele>
        <time>2019-04-12T22:13:33.972000Z</time>
      </trkpt>
      <trkpt lat="37.84808690913989" lon="112.02639595572822">
        <ele>1106.91</ele>
        <time>2019-04-12T22:13:36.972000Z</time>
      </trkpt>
      <trkpt lat="37.84818234751204" lon="112.02641019598637">
        <ele>1108.72</ele>
        <time>2019-04-12T22:13:39.972000Z</time>
      </trkpt>
      <trkpt lat="37.848291666581545" lon="112.02642822204238">
        <ele>1109.94</ele>
        <time>2019-04-12T22:13:42.972000Z</time>
      </trkpt>
      <trkpt lat="37.848382323214615" lon="112.02643548068508">
        <ele>1110.94</ele>
        <time>2019-04-12T22:13:45.972000Z</time>
      </trkpt>
      <trkpt lat="37.848552627667125" lon="112.02647808691933">
        <ele>1102.15</ele>
        <time>2019-04-12T22:13:51.972000Z</time>
      </trkpt>
      <trkpt lat="37.84882492466545" lon="112.0265413672858">
        <ele>1108.0</ele>
        <time>2019-04-12T22:14:00.972000Z</time>
      </trkpt>
      <trkpt lat="37.848899040315196" lon="112.02656727682228">
        <ele>1108.43</ele>
        <time>2019-04-12T22:14:03.972000Z</time>
      </trkpt>
      <trkpt lat="37.84893950719493" lon="112.02661439489864">
        <ele>1106.62</ele>
        <time>2019-04-12T22:14:06.972000Z</time>
      </trkpt>
      <trkpt lat="37.848976045412414" lon="112.02632129970686">
        <ele>1106.33</ele>
        <time>2019-04-12T22:14:21.972000Z</time>
      </trkpt>
      <trkpt lat="37.84892934680632" lon="112.02618433816438">
        <ele>1107.18</ele>
        <time>2019-04-12T22:14:24.972000Z</time>
      </trkpt>
      <trkpt lat="37.8489375652709" lon="112.0260849159766">
        <ele>1107.7</ele>
        <time>2019-04-12T22:14:27.972000Z</time>
      </trkpt>
      <trkpt lat="37.848973666901536" lon="112.02594443894274">
        <ele>1110.91</ele>
        <time>2019-04-12T22:14:33.972000Z</time>
      </trkpt>
      <trkpt lat="37.84899273374788" lon="112.02580763402139">
        <ele>1109.93</ele>
        <time>2019-04-12T22:14:36.972000Z</time>
      </trkpt>
      <trkpt lat="37.84897998749663" lon="112.02562856161659">
        <ele>1112.02</ele>
        <time>2019-04-12T22:14:39.972000Z</time>
      </trkpt>
      <trkpt lat="37.84895736170482" lon="112.02547000602881">
        <ele>1113.17</ele>
        <time>2019-04-12T22:14:42.972000Z</time>
      </trkpt>
      <trkpt lat="37.8489751948629" lon="112.02534051466282">
        <ele>1112.41</ele>
        <time>2019-04-12T22:14:45.972000Z</time>
      </trkpt>
      <trkpt lat="37.84894188606158" lon="112.02497754417188">
        <ele>1109.65</ele>
        <time>2019-04-12T22:14:54.972000Z</time>
      </trkpt>
      <trkpt lat="37.848939767576724" lon="112.0247022575918">
        <ele>1108.51</ele>
        <time>2019-04-12T22:15:03.972000Z</time>
      </trkpt>
      <trkpt lat="37.849005833466954" lon="112.0244745908806">
        <ele>1106.0</ele>
        <time>2019-04-12T22:15:12.972000Z</time>
      </trkpt>
      <trkpt lat="37.849000621888635" lon="112.0243757714421">
        <ele>1104.03</ele>
        <time>2019-04-12T22:15:15.972000Z</time>
      </trkpt>
      <trkpt lat="37.84899715282468" lon="112.0242792777711">
        <ele>1102.23</ele>
        <time>2019-04-12T22:15:18.972000Z</time>
      </trkpt>
      <trkpt lat="37.84900413204664" lon="112.02416278455262">
        <ele>1100.36</ele>
        <time>2019-04-12T22:15:21.972000Z</time>
      </trkpt>
      <trkpt lat="37.84903191290043" lon="112.02404987434706">
        <ele>1100.03</ele>
        <time>2019-04-12T22:15:24.972000Z</time>
      </trkpt>
      <trkpt lat="37.848983084880324" lon="112.02380907997653">
        <ele>1100.1</ele>
        <time>2019-04-12T22:15:30.972000Z</time>
      </trkpt>
      <trkpt lat="37.8489658680058" lon="112.02350632614807">
        <ele>1105.34</ele>
        <time>2019-04-12T22:15:39.972000Z</time>
      </trkpt>
      <trkpt lat="37.848995382460934" lon="112.02312590302752">
        <ele>1105.44</ele>
        <time>2019-04-12T22:15:51.972000Z</time>
      </trkpt>
      <trkpt lat="37.84901487303041" lon="112.02274373738126">
        <ele>1108.4</ele>
        <time>2019-04-12T22:16:03.972000Z</time>
      </trkpt>
      <trkpt lat="37.84904489678601" lon="112.02237182347162">
        <ele>1106.67</ele>
        <time>2019-04-12T22:16:15.972000Z</time>
      </trkpt>
      <trkpt lat="37.849046182977595" lon="112.0219319293472">
        <ele>1107.71</ele>
        <time>2019-04-12T22:16:27.972000Z</time>
      </trkpt>
      <trkpt lat="37.84903492412383" lon="112.02152539206674">
        <ele>1110.13</ele>
        <time>2019-04-12T22:16:39.972000Z</time>
      </trkpt>
      <trkpt lat="37.84902752085296" lon="112.02124438618019">
        <ele>1111.09</ele>
        <time>2019-04-12T22:16:48.972000Z</time>
      </trkpt>
      <trkpt lat="37.84904968750241" lon="112.02094667286859">
        <ele>1110.12</ele>
        <time>2019-04-12T22:16:57.972000Z</time>
      </trkpt>
      <trkpt lat="37.84905137400168" lon="112.02075482141137">
        <ele>1111.56</ele>
        <time>2019-04-12T22:17:03.972000Z</time>
      </trkpt>
      <trkpt lat="37.84907290374005" lon="112.02068294845036">
        <ele>1109.87</ele>
        <time>2019-04-12T22:17:06.972000Z</time>
      </trkpt>
      <trkpt lat="37.84906801966282" lon="112.02047357667892">
        <ele>1110.95</ele>
        <time>2019-04-12T22:17:12.972000Z</time>
      </trkpt>
      <trkpt lat="37.84909850198924" lon="112.02007557936149">
        <ele>1113.99</ele>
        <time>2019-04-12T22:17:24.972000Z</time>
      </trkpt>
      <trkpt lat="37.849084932607404" lon="112.01967481835477">
        <ele>1109.44</ele>
        <time>2019-04-12T22:17:36.972000Z</time>
      </trkpt>
      <trkpt lat="37.84908218428864" lon="112.01922888105037">
        <ele>1112.73</ele>
        <time>2019-04-12T22:17:48.972000Z</time>
      </trkpt>
      <trkpt lat="37.84909500768604" lon="112.01878928583061">
        <ele>1112.79</ele>
        <time>2019-04-12T22:18:00.972000Z</time>
      </trkpt>
      <trkpt lat="37.849135877594584" lon="112.01840301929003">
        <ele>1111.59</ele>
        <time>2019-04-12T22:18:15.972000Z</time>
      </trkpt>
      <trkpt lat="37.84916800020751" lon="112.01803585651938">
        <ele>1112.26</ele>
        <time>2019-04-12T22:18:27.972000Z</time>
      </trkpt>
      <trkpt lat="37.84916833561619" lon="112.01758881383458">
        <ele>1108.15</ele>
        <time>2019-04-12T22:18:39.972000Z</time>
      </trkpt>
      <trkpt lat="37.84922235549731" lon="112.01717685673142">
        <ele>1111.31</ele>
        <time>2019-04-12T22:18:51.972000Z</time>
      </trkpt>
      <trkpt lat="37.84931651636627" lon="112.01676555045982">
        <ele>1111.92</ele>
        <time>2019-04-12T22:19:03.972000Z</time>
      </trkpt>
      <trkpt lat="37.84935344145228" lon="112.01639074062159">
        <ele>1112.05</ele>
        <time>2019-04-12T22:19:15.972000Z</time>
      </trkpt>
      <trkpt lat="37.849387694394174" lon="112.01598389763691">
        <ele>1111.85</ele>
        <time>2019-04-12T22:19:27.972000Z</time>
      </trkpt>
      <trkpt lat="37.84943622003365" lon="112.0155975981976">
        <ele>1112.03</ele>
        <time>2019-04-12T22:19:39.972000Z</time>
      </trkpt>
      <trkpt lat="37.84946333022812" lon="112.01525516535608">
        <ele>1113.21</ele>
        <time>2019-04-12T22:19:48.972000Z</time>
      </trkpt>
      <trkpt lat="37.84950522401795" lon="112.01482904306268">
        <ele>1112.23</ele>
        <time>2019-04-12T22:20:00.972000Z</time>
      </trkpt>
      <trkpt lat="37.849554489718955" lon="112.01441437326274">
        <ele>1114.1</ele>
        <time>2019-04-12T22:20:12.972000Z</time>
      </trkpt>
      <trkpt lat="37.84957927514848" lon="112.01411034759137">
        <ele>1113.0</ele>
        <time>2019-04-12T22:20:21.972000Z</time>
      </trkpt>
      <trkpt lat="37.84961122145893" lon="112.01393807748534">
        <ele>1112.64</ele>
        <time>2019-04-12T22:20:27.972000Z</time>
      </trkpt>
      <trkpt lat="37.84962144768236" lon="112.01350480846378">
        <ele>1113.77</ele>
        <time>2019-04-12T22:20:39.972000Z</time>
      </trkpt>
      <trkpt lat="37.849661255933036" lon="112.01308492188079">
        <ele>1111.73</ele>
        <time>2019-04-12T22:20:51.972000Z</time>
      </trkpt>
      <trkpt lat="37.849704867990965" lon="112.01270448063029">
        <ele>1107.97</ele>
        <time>2019-04-12T22:21:03.972000Z</time>
      </trkpt>
      <trkpt lat="37.84974052808985" lon="112.01228518641796">
        <ele>1109.16</ele>
        <time>2019-04-12T22:21:15.972000Z</time>
      </trkpt>
      <trkpt lat="37.849762654154404" lon="112.01193962094334">
        <ele>1108.58</ele>
        <time>2019-04-12T22:21:24.972000Z</time>
      </trkpt>
      <trkpt lat="37.84979080623938" lon="112.0115242593603">
        <ele>1109.75</ele>
        <time>2019-04-12T22:21:36.972000Z</time>
      </trkpt>
      <trkpt lat="37.84982755112646" lon="112.01113802164369">
        <ele>1110.78</ele>
        <time>2019-04-12T22:21:48.972000Z</time>
      </trkpt>
      <trkpt lat="37.8498533747491" lon="112.0107184119507">
        <ele>1111.99</ele>
        <time>2019-04-12T22:22:00.972000Z</time>
      </trkpt>
      <trkpt lat="37.84986294759862" lon="112.01026992102092">
        <ele>1116.83</ele>
        <time>2019-04-12T22:22:12.972000Z</time>
      </trkpt>
      <trkpt lat="37.849859696749434" lon="112.0098705619847">
        <ele>1122.27</ele>
        <time>2019-04-12T22:22:24.972000Z</time>
      </trkpt>
      <trkpt lat="37.84985035385311" lon="112.00954589922335">
        <ele>1124.09</ele>
        <time>2019-04-12T22:22:33.972000Z</time>
      </trkpt>
      <trkpt lat="37.84979826422863" lon="112.00922915283975">
        <ele>1124.73</ele>
        <time>2019-04-12T22:22:42.972000Z</time>
      </trkpt>
      <trkpt lat="37.84959562027496" lon="112.00888174583665">
        <ele>1120.71</ele>
        <time>2019-04-12T22:22:54.972000Z</time>
      </trkpt>
      <trkpt lat="37.84937113442345" lon="112.00857375362764">
        <ele>1121.13</ele>
        <time>2019-04-12T22:23:06.972000Z</time>
      </trkpt>
      <trkpt lat="37.84920902081172" lon="112.00830035410503">
        <ele>1119.09</ele>
        <time>2019-04-12T22:23:15.972000Z</time>
      </trkpt>
      <trkpt lat="37.848998975680004" lon="112.00798668256424">
        <ele>1118.92</ele>
        <time>2019-04-12T22:23:27.972000Z</time>
      </trkpt>
      <trkpt lat="37.84879271058264" lon="112.00766183085909">
        <ele>1116.9</ele>
        <time>2019-04-12T22:23:39.972000Z</time>
      </trkpt>
      <trkpt lat="37.8485788365116" lon="112.0073474806788">
        <ele>1118.97</ele>
        <time>2019-04-12T22:23:51.972000Z</time>
      </trkpt>
      <trkpt lat="37.84837518264046" lon="112.00702481051857">
        <ele>1118.01</ele>
        <time>2019-04-12T22:24:03.972000Z</time>
      </trkpt>
      <trkpt lat="37.84825084706017" lon="112.00689181279864">
        <ele>1118.66</ele>
        <time>2019-04-12T22:24:09.972000Z</time>
      </trkpt>
      <trkpt lat="37.848094044252214" lon="112.00682561989905">
        <ele>1120.95</ele>
        <time>2019-04-12T22:24:15.972000Z</time>
      </trkpt>
      <trkpt lat="37.847799432165246" lon="112.00677913962505">
        <ele>1122.36</ele>
        <time>2019-04-12T22:24:24.972000Z</time>
      </trkpt>
      <trkpt lat="37.84746583020031" lon="112.00673608995817">
        <ele>1121.5</ele>
        <time>2019-04-12T22:24:36.972000Z</time>
      </trkpt>
      <trkpt lat="37.847170838187466" lon="112.00669089979937">
        <ele>1123.42</ele>
        <time>2019-04-12T22:24:48.972000Z</time>
      </trkpt>
      <trkpt lat="37.846838695944555" lon="112.00664026965312">
        <ele>1123.5</ele>
        <time>2019-04-12T22:25:00.972000Z</time>
      </trkpt>
      <trkpt lat="37.846566295376526" lon="112.00663073160989">
        <ele>1126.16</ele>
        <time>2019-04-12T22:25:09.972000Z</time>
      </trkpt>
      <trkpt lat="37.84624261376051" lon="112.00659548239335">
        <ele>1127.24</ele>
        <time>2019-04-12T22:25:21.972000Z</time>
      </trkpt>
      <trkpt lat="37.845937304148514" lon="112.00653974011719">
        <ele>1125.67</ele>
        <time>2019-04-12T22:25:33.972000Z</time>
      </trkpt>
      <trkpt lat="37.845616868565465" lon="112.00641739277896">
        <ele>1129.24</ele>
        <time>2019-04-12T22:25:45.972000Z</time>
      </trkpt>
      <trkpt lat="37.84529950446372" lon="112.00627764194229">
        <ele>1131.1</ele>
        <time>2019-04-12T22:25:57.972000Z</time>
      </trkpt>
      <trkpt lat="37.84498438743959" lon="112.00619137881192">
        <ele>1132.97</ele>
        <time>2019-04-12T22:26:09.972000Z</time>
      </trkpt>
      <trkpt lat="37.84464933364964" lon="112.00609485605843">
        <ele>1135.57</ele>
        <time>2019-04-12T22:26:21.972000Z</time>
      </trkpt>
      <trkpt lat="37.84449134239755" lon="112.0060635656454">
        <ele>1134.42</ele>
        <time>2019-04-12T22:26:27.972000Z</time>
      </trkpt>
      <trkpt lat="37.84426652533149" lon="112.00614793291646">
        <ele>1133.95</ele>
        <time>2019-04-12T22:26:36.972000Z</time>
      </trkpt>
      <trkpt lat="37.84395924164471" lon="112.00632273664084">
        <ele>1133.55</ele>
        <time>2019-04-12T22:26:48.972000Z</time>
      </trkpt>
      <trkpt lat="37.84378979454185" lon="112.00640201321798">
        <ele>1134.16</ele>
        <time>2019-04-12T22:26:54.972000Z</time>
      </trkpt>
      <trkpt lat="37.84349260316778" lon="112.00662925053079">
        <ele>1133.26</ele>
        <time>2019-04-12T22:27:06.972000Z</time>
      </trkpt>
      <trkpt lat="37.843219822178526" lon="112.00685859810706">
        <ele>1134.05</ele>
        <time>2019-04-12T22:27:18.972000Z</time>
      </trkpt>
      <trkpt lat="37.84301339880875" lon="112.00702305103411">
        <ele>1133.32</ele>
        <time>2019-04-12T22:27:27.972000Z</time>
      </trkpt>
      <trkpt lat="37.84280864674769" lon="112.00721472599686">
        <ele>1133.9</ele>
        <time>2019-04-12T22:27:36.972000Z</time>
      </trkpt>
      <trkpt lat="37.84255515405784" lon="112.00738820039876">
        <ele>1135.61</ele>
        <time>2019-04-12T22:27:48.972000Z</time>
      </trkpt>
      <trkpt lat="37.84227223218397" lon="112.00757674635535">
        <ele>1134.98</ele>
        <time>2019-04-12T22:28:00.972000Z</time>
      </trkpt>
      <trkpt lat="37.84200617116364" lon="112.00777946342318">
        <ele>1131.72</ele>
        <time>2019-04-12T22:28:12.972000Z</time>
      </trkpt>
      <trkpt lat="37.841712714790965" lon="112.00797728166656">
        <ele>1136.38</ele>
        <time>2019-04-12T22:28:24.972000Z</time>
      </trkpt>
      <trkpt lat="37.84155624562183" lon="112.00805853307504">
        <ele>1137.21</ele>
        <time>2019-04-12T22:28:30.972000Z</time>
      </trkpt>
      <trkpt lat="37.84124579978792" lon="112.00811253687861">
        <ele>1137.53</ele>
        <time>2019-04-12T22:28:42.972000Z</time>
      </trkpt>
      <trkpt lat="37.84097394235786" lon="112.0081059549252">
        <ele>1140.1</ele>
        <time>2019-04-12T22:28:51.972000Z</time>
      </trkpt>
      <trkpt lat="37.84064279206251" lon="112.00803456499362">
        <ele>1144.86</ele>
        <time>2019-04-12T22:29:03.972000Z</time>
      </trkpt>
      <trkpt lat="37.84034096969152" lon="112.00798863443316">
        <ele>1144.96</ele>
        <time>2019-04-12T22:29:15.972000Z</time>
      </trkpt>
      <trkpt lat="37.840089617640885" lon="112.007948563843">
        <ele>1145.76</ele>
        <time>2019-04-12T22:29:24.972000Z</time>
      </trkpt>
      <trkpt lat="37.83978338038309" lon="112.00801165138867">
        <ele>1143.75</ele>
        <time>2019-04-12T22:29:36.972000Z</time>
      </trkpt>
      <trkpt lat="37.839495253138296" lon="112.0080742887571">
        <ele>1141.37</ele>
        <time>2019-04-12T22:29:48.972000Z</time>
      </trkpt>
      <trkpt lat="37.83916620337328" lon="112.0080840925862">
        <ele>1145.98</ele>
        <time>2019-04-12T22:30:00.972000Z</time>
      </trkpt>
      <trkpt lat="37.838858035574575" lon="112.00813489928636">
        <ele>1146.47</ele>
        <time>2019-04-12T22:30:12.972000Z</time>
      </trkpt>
      <trkpt lat="37.838584306733935" lon="112.00816316398398">
        <ele>1151.07</ele>
        <time>2019-04-12T22:30:21.972000Z</time>
      </trkpt>
      <trkpt lat="37.83827320759855" lon="112.00818573860987">
        <ele>1151.92</ele>
        <time>2019-04-12T22:30:33.972000Z</time>
      </trkpt>
      <trkpt lat="37.83797214200372" lon="112.0080727629796">
        <ele>1149.75</ele>
        <time>2019-04-12T22:30:45.972000Z</time>
      </trkpt>
      <trkpt lat="37.837676987098426" lon="112.00797294835189">
        <ele>1149.49</ele>
        <time>2019-04-12T22:30:57.972000Z</time>
      </trkpt>
      <trkpt lat="37.837366991846544" lon="112.00786468331361">
        <ele>1151.13</ele>
        <time>2019-04-12T22:31:09.972000Z</time>
      </trkpt>
      <trkpt lat="37.83703791586602" lon="112.0077393172982">
        <ele>1152.95</ele>
        <time>2019-04-12T22:31:21.972000Z</time>
      </trkpt>
      <trkpt lat="37.83671366040479" lon="112.00762353202879">
        <ele>1155.56</ele>
        <time>2019-04-12T22:31:33.972000Z</time>
      </trkpt>
      <trkpt lat="37.83641192540558" lon="112.00751616723419">
        <ele>1153.94</ele>
        <time>2019-04-12T22:31:45.972000Z</time>
      </trkpt>
      <trkpt lat="37.83627444382984" lon="112.00748269616369">
        <ele>1152.62</ele>
        <time>2019-04-12T22:31:51.972000Z</time>
      </trkpt>
      <trkpt lat="37.836210902112896" lon="112.00744470408813">
        <ele>1153.21</ele>
        <time>2019-04-12T22:31:54.972000Z</time>
      </trkpt>
      <trkpt lat="37.83588826825354" lon="112.00736151130249">
        <ele>1158.89</ele>
        <time>2019-04-12T22:32:06.972000Z</time>
      </trkpt>
      <trkpt lat="37.835574645975605" lon="112.0073139709465">
        <ele>1158.08</ele>
        <time>2019-04-12T22:32:18.972000Z</time>
      </trkpt>
      <trkpt lat="37.83550150570505" lon="112.00730888128109">
        <ele>1156.21</ele>
        <time>2019-04-12T22:32:21.972000Z</time>
      </trkpt>
      <trkpt lat="37.835428554046125" lon="112.00727154938453">
        <ele>1153.51</ele>
        <time>2019-04-12T22:32:24.972000Z</time>
      </trkpt>
      <trkpt lat="37.835376070325246" lon="112.00718535395244">
        <ele>1152.33</ele>
        <time>2019-04-12T22:32:27.972000Z</time>
      </trkpt>
      <trkpt lat="37.83532258214782" lon="112.00699145131182">
        <ele>1153.87</ele>
        <time>2019-04-12T22:32:33.972000Z</time>
      </trkpt>
      <trkpt lat="37.83526745859956" lon="112.0069062961392">
        <ele>1153.67</ele>
        <time>2019-04-12T22:32:36.972000Z</time>
      </trkpt>
      <trkpt lat="37.835116905521" lon="112.00683337272015">
        <ele>1153.4</ele>
        <time>2019-04-12T22:32:42.972000Z</time>
      </trkpt>
      <trkpt lat="37.83486768606935" lon="112.00685110623373">
        <ele>1153.97</ele>
        <time>2019-04-12T22:32:51.972000Z</time>
      </trkpt>
      <trkpt lat="37.83460536869217" lon="112.00691971325286">
        <ele>1153.83</ele>
        <time>2019-04-12T22:33:00.972000Z</time>
      </trkpt>
      <trkpt lat="37.83427202514739" lon="112.00683855099888">
        <ele>1153.84</ele>
        <time>2019-04-12T22:33:12.972000Z</time>
      </trkpt>
      <trkpt lat="37.83393769118087" lon="112.00674599805308">
        <ele>1153.77</ele>
        <time>2019-04-12T22:33:24.972000Z</time>
      </trkpt>
      <trkpt lat="37.833759017454234" lon="112.00665560384385">
        <ele>1158.84</ele>
        <time>2019-04-12T22:33:51.972000Z</time>
      </trkpt>
      <trkpt lat="37.83402506099295" lon="112.00673980682761">
        <ele>1157.78</ele>
        <time>2019-04-12T22:34:06.972000Z</time>
      </trkpt>
      <trkpt lat="37.83433333478055" lon="112.00682846975734">
        <ele>1158.01</ele>
        <time>2019-04-12T22:34:27.972000Z</time>
      </trkpt>
      <trkpt lat="37.834645129786225" lon="112.00694564460936">
        <ele>1152.52</ele>
        <time>2019-04-12T22:34:54.972000Z</time>
      </trkpt>
      <trkpt lat="37.834713399869656" lon="112.0069465240268">
        <ele>1152.76</ele>
        <time>2019-04-12T22:35:03.972000Z</time>
      </trkpt>
      <trkpt lat="37.834988995911566" lon="112.00684516470108">
        <ele>1152.4</ele>
        <time>2019-04-12T22:35:21.972000Z</time>
      </trkpt>
      <trkpt lat="37.83516338612276" lon="112.00684739320992">
        <ele>1154.69</ele>
        <time>2019-04-12T22:35:33.972000Z</time>
      </trkpt>
      <trkpt lat="37.83526500002558" lon="112.00694104847867">
        <ele>1153.56</ele>
        <time>2019-04-12T22:35:45.972000Z</time>
      </trkpt>
      <trkpt lat="37.835334705325515" lon="112.00706752632374">
        <ele>1152.4</ele>
        <time>2019-04-12T22:35:57.972000Z</time>
      </trkpt>
      <trkpt lat="37.83537038092555" lon="112.00719955497861">
        <ele>1151.02</ele>
        <time>2019-04-12T22:36:03.972000Z</time>
      </trkpt>
      <trkpt lat="37.83548016628637" lon="112.00732267243791">
        <ele>1153.98</ele>
        <time>2019-04-12T22:36:12.972000Z</time>
      </trkpt>
      <trkpt lat="37.83578423845417" lon="112.00736778271725">
        <ele>1150.39</ele>
        <time>2019-04-12T22:36:24.972000Z</time>
      </trkpt>
      <trkpt lat="37.83609242256799" lon="112.00745692606071">
        <ele>1147.94</ele>
        <time>2019-04-12T22:36:36.972000Z</time>
      </trkpt>
      <trkpt lat="37.83641601658174" lon="112.00754259906721">
        <ele>1148.33</ele>
        <time>2019-04-12T22:36:48.972000Z</time>
      </trkpt>
      <trkpt lat="37.836745845643804" lon="112.00766071950609">
        <ele>1146.42</ele>
        <time>2019-04-12T22:37:00.972000Z</time>
      </trkpt>
      <trkpt lat="37.83706683069795" lon="112.00777704768568">
        <ele>1143.39</ele>
        <time>2019-04-12T22:37:12.972000Z</time>
      </trkpt>
      <trkpt lat="37.83733535215611" lon="112.00787185413559">
        <ele>1141.69</ele>
        <time>2019-04-12T22:37:21.972000Z</time>
      </trkpt>
      <trkpt lat="37.83759213730398" lon="112.00797859956752">
        <ele>1140.36</ele>
        <time>2019-04-12T22:37:30.972000Z</time>
      </trkpt>
      <trkpt lat="37.83785851219085" lon="112.00807838446775">
        <ele>1138.7</ele>
        <time>2019-04-12T22:37:39.972000Z</time>
      </trkpt>
      <trkpt lat="37.83820568849914" lon="112.00820547073236">
        <ele>1138.89</ele>
        <time>2019-04-12T22:37:51.972000Z</time>
      </trkpt>
      <trkpt lat="37.83837163091994" lon="112.0082532827852">
        <ele>1137.45</ele>
        <time>2019-04-12T22:37:57.972000Z</time>
      </trkpt>
      <trkpt lat="37.838474791293635" lon="112.00825952228719">
        <ele>1139.21</ele>
        <time>2019-04-12T22:38:00.972000Z</time>
      </trkpt>
      <trkpt lat="37.83872962353666" lon="112.00821883066575">
        <ele>1138.15</ele>
        <time>2019-04-12T22:38:09.972000Z</time>
      </trkpt>
      <trkpt lat="37.83902953833127" lon="112.00819001181303">
        <ele>1135.42</ele>
        <time>2019-04-12T22:38:18.972000Z</time>
      </trkpt>
      <trkpt lat="37.839305696894996" lon="112.0081560066556">
        <ele>1133.44</ele>
        <time>2019-04-12T22:38:27.972000Z</time>
      </trkpt>
      <trkpt lat="37.83962282558273" lon="112.00812387125991">
        <ele>1132.21</ele>
        <time>2019-04-12T22:38:39.972000Z</time>
      </trkpt>
      <trkpt lat="37.83996382347903" lon="112.00807457436589">
        <ele>1133.27</ele>
        <time>2019-04-12T22:38:51.972000Z</time>
      </trkpt>
      <trkpt lat="37.84025021205672" lon="112.00803083560092">
        <ele>1134.97</ele>
        <time>2019-04-12T22:39:00.972000Z</time>
      </trkpt>
      <trkpt lat="37.840553134644054" lon="112.00809045999992">
        <ele>1133.72</ele>
        <time>2019-04-12T22:39:12.972000Z</time>
      </trkpt>
      <trkpt lat="37.84082224703787" lon="112.00813681093179">
        <ele>1135.12</ele>
        <time>2019-04-12T22:39:21.972000Z</time>
      </trkpt>
      <trkpt lat="37.841133189613345" lon="112.00818609170445">
        <ele>1136.42</ele>
        <time>2019-04-12T22:39:30.972000Z</time>
      </trkpt>
      <trkpt lat="37.841424819075144" lon="112.00817060779103">
        <ele>1135.82</ele>
        <time>2019-04-12T22:39:39.972000Z</time>
      </trkpt>
      <trkpt lat="37.84169375568075" lon="112.00809548962711">
        <ele>1133.42</ele>
        <time>2019-04-12T22:39:48.972000Z</time>
      </trkpt>
      <trkpt lat="37.84185520175109" lon="112.00800994174162">
        <ele>1126.8</ele>
        <time>2019-04-12T22:39:54.972000Z</time>
      </trkpt>
      <trkpt lat="37.84211267096221" lon="112.00777343198193">
        <ele>1130.94</ele>
        <time>2019-04-12T22:40:03.972000Z</time>
      </trkpt>
      <trkpt lat="37.84218800751422" lon="112.00769653571889">
        <ele>1129.59</ele>
        <time>2019-04-12T22:40:06.972000Z</time>
      </trkpt>
      <trkpt lat="37.84249183000003" lon="112.00752424055966">
        <ele>1127.99</ele>
        <time>2019-04-12T22:40:18.972000Z</time>
      </trkpt>
      <trkpt lat="37.84266741393823" lon="112.0073836590231">
        <ele>1128.93</ele>
        <time>2019-04-12T22:40:24.972000Z</time>
      </trkpt>
      <trkpt lat="37.842930217626765" lon="112.00723330612698">
        <ele>1126.28</ele>
        <time>2019-04-12T22:40:33.972000Z</time>
      </trkpt>
      <trkpt lat="37.84317739855244" lon="112.00701413888751">
        <ele>1124.06</ele>
        <time>2019-04-12T22:40:42.972000Z</time>
      </trkpt>
      <trkpt lat="37.84342168008374" lon="112.00680352256721">
        <ele>1124.92</ele>
        <time>2019-04-12T22:40:51.972000Z</time>
      </trkpt>
      <trkpt lat="37.8437232502256" lon="112.00655024327008">
        <ele>1123.81</ele>
        <time>2019-04-12T22:41:03.972000Z</time>
      </trkpt>
      <trkpt lat="37.84387421491041" lon="112.00641010293194">
        <ele>1123.17</ele>
        <time>2019-04-12T22:41:09.972000Z</time>
      </trkpt>
      <trkpt lat="37.84402905166732" lon="112.00632204593896">
        <ele>1124.13</ele>
        <time>2019-04-12T22:41:15.972000Z</time>
      </trkpt>
      <trkpt lat="37.84434938723768" lon="112.00619788520642">
        <ele>1123.79</ele>
        <time>2019-04-12T22:41:27.972000Z</time>
      </trkpt>
      <trkpt lat="37.844425106149885" lon="112.00616710259679">
        <ele>1123.0</ele>
        <time>2019-04-12T22:41:30.972000Z</time>
      </trkpt>
      <trkpt lat="37.844636776186334" lon="112.006164090414">
        <ele>1124.66</ele>
        <time>2019-04-12T22:41:36.972000Z</time>
      </trkpt>
      <trkpt lat="37.844915158154954" lon="112.00621193073336">
        <ele>1125.66</ele>
        <time>2019-04-12T22:41:45.972000Z</time>
      </trkpt>
      <trkpt lat="37.845191291325534" lon="112.00629147306121">
        <ele>1125.11</ele>
        <time>2019-04-12T22:41:54.972000Z</time>
      </trkpt>
      <trkpt lat="37.84541232339837" lon="112.00634223414615">
        <ele>1126.75</ele>
        <time>2019-04-12T22:42:00.972000Z</time>
      </trkpt>
      <trkpt lat="37.84568871830056" lon="112.00646528929875">
        <ele>1123.19</ele>
        <time>2019-04-12T22:42:12.972000Z</time>
      </trkpt>
      <trkpt lat="37.84579172006681" lon="112.00650904111102">
        <ele>1122.53</ele>
        <time>2019-04-12T22:42:15.972000Z</time>
      </trkpt>
      <trkpt lat="37.84605966292758" lon="112.00657753296662">
        <ele>1119.32</ele>
        <time>2019-04-12T22:42:24.972000Z</time>
      </trkpt>
      <trkpt lat="37.84635441474572" lon="112.00661851282217">
        <ele>1118.04</ele>
        <time>2019-04-12T22:42:33.972000Z</time>
      </trkpt>
      <trkpt lat="37.846638216483" lon="112.00665741265749">
        <ele>1118.36</ele>
        <time>2019-04-12T22:42:42.972000Z</time>
      </trkpt>
      <trkpt lat="37.8469298269855" lon="112.00668799914727">
        <ele>1115.26</ele>
        <time>2019-04-12T22:42:51.972000Z</time>
      </trkpt>
      <trkpt lat="37.847210913019346" lon="112.00671577131902">
        <ele>1114.95</ele>
        <time>2019-04-12T22:43:00.972000Z</time>
      </trkpt>
      <trkpt lat="37.84747955118087" lon="112.00676027141103">
        <ele>1109.68</ele>
        <time>2019-04-12T22:43:09.972000Z</time>
      </trkpt>
      <trkpt lat="37.847862233312604" lon="112.00680645082709">
        <ele>1111.22</ele>
        <time>2019-04-12T22:43:21.972000Z</time>
      </trkpt>
      <trkpt lat="37.84807936561045" lon="112.00685927226192">
        <ele>1110.83</ele>
        <time>2019-04-12T22:43:27.972000Z</time>
      </trkpt>
      <trkpt lat="37.84817887766126" lon="112.0069077145363">
        <ele>1111.15</ele>
        <time>2019-04-12T22:43:30.972000Z</time>
      </trkpt>
      <trkpt lat="37.84844264821085" lon="112.00715623879042">
        <ele>1118.47</ele>
        <time>2019-04-12T22:43:39.972000Z</time>
      </trkpt>
      <trkpt lat="37.848675021081796" lon="112.00745049697076">
        <ele>1121.52</ele>
        <time>2019-04-12T22:43:48.972000Z</time>
      </trkpt>
      <trkpt lat="37.84887044320176" lon="112.00771844419452">
        <ele>1121.51</ele>
        <time>2019-04-12T22:43:57.972000Z</time>
      </trkpt>
      <trkpt lat="37.849085377254944" lon="112.00801889413202">
        <ele>1120.02</ele>
        <time>2019-04-12T22:44:06.972000Z</time>
      </trkpt>
      <trkpt lat="37.84928565035362" lon="112.00828981257848">
        <ele>1121.19</ele>
        <time>2019-04-12T22:44:15.972000Z</time>
      </trkpt>
      <trkpt lat="37.84945846431381" lon="112.0085703325348">
        <ele>1121.09</ele>
        <time>2019-04-12T22:44:24.972000Z</time>
      </trkpt>
      <trkpt lat="37.84965428803559" lon="112.00883760175412">
        <ele>1125.0</ele>
        <time>2019-04-12T22:44:33.972000Z</time>
      </trkpt>
      <trkpt lat="37.84978676838171" lon="112.00903443633173">
        <ele>1125.97</ele>
        <time>2019-04-12T22:44:39.972000Z</time>
      </trkpt>
      <trkpt lat="37.84991328609015" lon="112.00936365220463">
        <ele>1124.42</ele>
        <time>2019-04-12T22:44:48.972000Z</time>
      </trkpt>
      <trkpt lat="37.84994356493853" lon="112.0097038706705">
        <ele>1121.89</ele>
        <time>2019-04-12T22:44:57.972000Z</time>
      </trkpt>
      <trkpt lat="37.84990683466733" lon="112.00987582585077">
        <ele>1120.48</ele>
        <time>2019-04-12T22:45:00.972000Z</time>
      </trkpt>
      <trkpt lat="37.8498813699933" lon="112.01030998443902">
        <ele>1119.34</ele>
        <time>2019-04-12T22:45:09.972000Z</time>
      </trkpt>
      <trkpt lat="37.84983189464177" lon="112.01071692201603">
        <ele>1116.28</ele>
        <time>2019-04-12T22:45:18.972000Z</time>
      </trkpt>
      <trkpt lat="37.84981556613036" lon="112.01105988432049">
        <ele>1118.63</ele>
        <time>2019-04-12T22:45:27.972000Z</time>
      </trkpt>
      <trkpt lat="37.84979152629611" lon="112.01121886972284">
        <ele>1117.13</ele>
        <time>2019-04-12T22:45:30.972000Z</time>
      </trkpt>
      <trkpt lat="37.8498061157178" lon="112.01136394358171">
        <ele>1117.18</ele>
        <time>2019-04-12T22:45:33.972000Z</time>
      </trkpt>
      <trkpt lat="37.84979455847898" lon="112.01170791744923">
        <ele>1117.16</ele>
        <time>2019-04-12T22:45:42.972000Z</time>
      </trkpt>
      <trkpt lat="37.84977481932091" lon="112.01204969782374">
        <ele>1117.86</ele>
        <time>2019-04-12T22:45:51.972000Z</time>
      </trkpt>
      <trkpt lat="37.84976294571664" lon="112.01239308738293">
        <ele>1115.27</ele>
        <time>2019-04-12T22:46:03.972000Z</time>
      </trkpt>
      <trkpt lat="37.849782382202314" lon="112.01205657260114">
        <ele>1106.28</ele>
        <time>2019-04-12T22:46:24.972000Z</time>
      </trkpt>
      <trkpt lat="37.84977758049518" lon="112.01188583538604">
        <ele>1108.06</ele>
        <time>2019-04-12T22:46:30.972000Z</time>
      </trkpt>
      <trkpt lat="37.84974388959461" lon="112.01201912916312">
        <ele>1105.82</ele>
        <time>2019-04-12T22:46:36.972000Z</time>
      </trkpt>
      <trkpt lat="37.84971346376645" lon="112.0123660250404">
        <ele>1104.07</ele>
        <time>2019-04-12T22:46:45.972000Z</time>
      </trkpt>
      <trkpt lat="37.84967052301164" lon="112.01277388833275">
        <ele>1102.9</ele>
        <time>2019-04-12T22:46:57.972000Z</time>
      </trkpt>
      <trkpt lat="37.8496278623354" lon="112.01312449633694">
        <ele>1101.65</ele>
        <time>2019-04-12T22:47:06.972000Z</time>
      </trkpt>
      <trkpt lat="37.849632726290345" lon="112.01335561180254">
        <ele>1105.32</ele>
        <time>2019-04-12T22:47:12.972000Z</time>
      </trkpt>
      <trkpt lat="37.849610260340974" lon="112.01379692141624">
        <ele>1108.3</ele>
        <time>2019-04-12T22:47:21.972000Z</time>
      </trkpt>
      <trkpt lat="37.849582655792794" lon="112.01424268290793">
        <ele>1110.9</ele>
        <time>2019-04-12T22:47:30.972000Z</time>
      </trkpt>
      <trkpt lat="37.84954384316869" lon="112.01445663833898">
        <ele>1109.24</ele>
        <time>2019-04-12T22:47:36.972000Z</time>
      </trkpt>
      <trkpt lat="37.84954248400879" lon="112.01458841394172">
        <ele>1111.08</ele>
        <time>2019-04-12T22:47:39.972000Z</time>
      </trkpt>
      <trkpt lat="37.84952252533681" lon="112.01472509042327">
        <ele>1111.67</ele>
        <time>2019-04-12T22:47:42.972000Z</time>
      </trkpt>
      <trkpt lat="37.84948000381009" lon="112.01482678302918">
        <ele>1110.53</ele>
        <time>2019-04-12T22:47:45.972000Z</time>
      </trkpt>
      <trkpt lat="37.84944255614545" lon="112.01497345110651">
        <ele>1108.58</ele>
        <time>2019-04-12T22:47:48.972000Z</time>
      </trkpt>
      <trkpt lat="37.84942064566062" lon="112.01531843356878">
        <ele>1110.34</ele>
        <time>2019-04-12T22:47:57.972000Z</time>
      </trkpt>
      <trkpt lat="37.84939756084102" lon="112.01571307452026">
        <ele>1111.38</ele>
        <time>2019-04-12T22:48:09.972000Z</time>
      </trkpt>
      <trkpt lat="37.84938047846343" lon="112.01591797927664">
        <ele>1111.94</ele>
        <time>2019-04-12T22:48:15.972000Z</time>
      </trkpt>
      <trkpt lat="37.84934671118957" lon="112.0160595077278">
        <ele>1108.47</ele>
        <time>2019-04-12T22:48:18.972000Z</time>
      </trkpt>
      <trkpt lat="37.84931412910539" lon="112.0164738318839">
        <ele>1111.05</ele>
        <time>2019-04-12T22:48:27.972000Z</time>
      </trkpt>
      <trkpt lat="37.84929267563147" lon="112.01654428135639">
        <ele>1109.88</ele>
        <time>2019-04-12T22:48:30.972000Z</time>
      </trkpt>
      <trkpt lat="37.84929359787963" lon="112.01678178284088">
        <ele>1112.21</ele>
        <time>2019-04-12T22:48:48.972000Z</time>
      </trkpt>
      <trkpt lat="37.849240673905264" lon="112.01716019429288">
        <ele>1110.55</ele>
        <time>2019-04-12T22:49:12.972000Z</time>
      </trkpt>
      <trkpt lat="37.84920826831456" lon="112.01751429313668">
        <ele>1112.08</ele>
        <time>2019-04-12T22:49:21.972000Z</time>
      </trkpt>
      <trkpt lat="37.849188653619244" lon="112.01787063300384">
        <ele>1111.24</ele>
        <time>2019-04-12T22:49:30.972000Z</time>
      </trkpt>
      <trkpt lat="37.84913401093925" lon="112.01833821998343">
        <ele>1111.51</ele>
        <time>2019-04-12T22:49:42.972000Z</time>
      </trkpt>
      <trkpt lat="37.849143873337475" lon="112.01845871725116">
        <ele>1111.46</ele>
        <time>2019-04-12T22:49:45.972000Z</time>
      </trkpt>
      <trkpt lat="37.84912193947828" lon="112.01880617805423">
        <ele>1109.12</ele>
        <time>2019-04-12T22:49:54.972000Z</time>
      </trkpt>
      <trkpt lat="37.84910137564638" lon="112.01924141274338">
        <ele>1110.74</ele>
        <time>2019-04-12T22:50:06.972000Z</time>
      </trkpt>
      <trkpt lat="37.84907953135951" lon="112.01966345667421">
        <ele>1109.22</ele>
        <time>2019-04-12T22:50:15.972000Z</time>
      </trkpt>
      <trkpt lat="37.84908219100241" lon="112.02006334355072">
        <ele>1106.87</ele>
        <time>2019-04-12T22:50:30.972000Z</time>
      </trkpt>
      <trkpt lat="37.8490718346038" lon="112.02049882630514">
        <ele>1107.75</ele>
        <time>2019-04-12T22:50:39.972000Z</time>
      </trkpt>
      <trkpt lat="37.849086852079445" lon="112.02089552716397">
        <ele>1109.45</ele>
        <time>2019-04-12T22:50:48.972000Z</time>
      </trkpt>
      <trkpt lat="37.849085227862844" lon="112.02130352526466">
        <ele>1110.8</ele>
        <time>2019-04-12T22:50:57.972000Z</time>
      </trkpt>
      <trkpt lat="37.84907336004972" lon="112.02165848364766">
        <ele>1109.84</ele>
        <time>2019-04-12T22:51:06.972000Z</time>
      </trkpt>
      <trkpt lat="37.8490560369623" lon="112.02204697851744">
        <ele>1110.54</ele>
        <time>2019-04-12T22:51:18.972000Z</time>
      </trkpt>
      <trkpt lat="37.84903106235444" lon="112.02241697127882">
        <ele>1108.86</ele>
        <time>2019-04-12T22:51:27.972000Z</time>
      </trkpt>
      <trkpt lat="37.8490545833864" lon="112.02266644371038">
        <ele>1106.27</ele>
        <time>2019-04-12T22:51:33.972000Z</time>
      </trkpt>
      <trkpt lat="37.84905139435961" lon="112.02307104376233">
        <ele>1105.4</ele>
        <time>2019-04-12T22:51:42.972000Z</time>
      </trkpt>
      <trkpt lat="37.849031539016245" lon="112.02342028522966">
        <ele>1106.83</ele>
        <time>2019-04-12T22:51:51.972000Z</time>
      </trkpt>
      <trkpt lat="37.84902768571517" lon="112.02378032925256">
        <ele>1109.32</ele>
        <time>2019-04-12T22:52:00.972000Z</time>
      </trkpt>
      <trkpt lat="37.84903397279564" lon="112.0239156243534">
        <ele>1110.82</ele>
        <time>2019-04-12T22:52:03.972000Z</time>
      </trkpt>
      <trkpt lat="37.8490230435751" lon="112.02436421894842">
        <ele>1109.55</ele>
        <time>2019-04-12T22:52:15.972000Z</time>
      </trkpt>
      <trkpt lat="37.849044221132594" lon="112.02465911838874">
        <ele>1110.82</ele>
        <time>2019-04-12T22:52:21.972000Z</time>
      </trkpt>
      <trkpt lat="37.84903064440261" lon="112.02480114928987">
        <ele>1107.5</ele>
        <time>2019-04-12T22:52:27.972000Z</time>
      </trkpt>
      <trkpt lat="37.848999814391455" lon="112.02519931088912">
        <ele>1106.26</ele>
        <time>2019-04-12T22:52:39.972000Z</time>
      </trkpt>
      <trkpt lat="37.8489783806404" lon="112.02543056518138">
        <ele>1107.51</ele>
        <time>2019-04-12T22:52:45.972000Z</time>
      </trkpt>
      <trkpt lat="37.84897387285899" lon="112.02553627462622">
        <ele>1109.74</ele>
        <time>2019-04-12T22:52:48.972000Z</time>
      </trkpt>
      <trkpt lat="37.848989919415565" lon="112.02562889552223">
        <ele>1107.98</ele>
        <time>2019-04-12T22:52:51.972000Z</time>
      </trkpt>
      <trkpt lat="37.84899927033184" lon="112.02590798820863">
        <ele>1108.49</ele>
        <time>2019-04-12T22:53:00.972000Z</time>
      </trkpt>
      <trkpt lat="37.84898829912029" lon="112.02617898099186">
        <ele>1113.31</ele>
        <time>2019-04-12T22:53:09.972000Z</time>
      </trkpt>
      <trkpt lat="37.84897253670745" lon="112.02623427580842">
        <ele>1113.96</ele>
        <time>2019-04-12T22:53:12.972000Z</time>
      </trkpt>
      <trkpt lat="37.848789461561225" lon="112.02633145177332">
        <ele>1104.62</ele>
        <time>2019-04-12T22:53:18.972000Z</time>
      </trkpt>
      <trkpt lat="37.848474800603164" lon="112.02637118896672">
        <ele>1102.47</ele>
        <time>2019-04-12T22:53:27.972000Z</time>
      </trkpt>
      <trkpt lat="37.8481436193113" lon="112.02643351425868">
        <ele>1100.22</ele>
        <time>2019-04-12T22:53:39.972000Z</time>
      </trkpt>
      <trkpt lat="37.84807464828906" lon="112.02638828223715">
        <ele>1099.88</ele>
        <time>2019-04-12T22:53:42.972000Z</time>
      </trkpt>
      <trkpt lat="37.84799580147107" lon="112.02637976515432">
        <ele>1099.04</ele>
        <time>2019-04-12T22:53:45.972000Z</time>
      </trkpt>
      <trkpt lat="37.84790776594974" lon="112.02641139215855">
        <ele>1099.2</ele>
        <time>2019-04-12T22:53:48.972000Z</time>
      </trkpt>
      <trkpt lat="37.84771565065262" lon="112.0266527312897">
        <ele>1096.27</ele>
        <time>2019-04-12T22:53:57.972000Z</time>
      </trkpt>
      <trkpt lat="37.847617514953306" lon="112.02682036529494">
        <ele>1096.69</ele>
        <time>2019-04-12T22:54:03.972000Z</time>
      </trkpt>
      <trkpt lat="37.84749557713114" lon="112.02713846195158">
        <ele>1099.47</ele>
        <time>2019-04-12T22:54:12.972000Z</time>
      </trkpt>
      <trkpt lat="37.84746653068277" lon="112.02722228246628">
        <ele>1097.1</ele>
        <time>2019-04-12T22:54:15.972000Z</time>
      </trkpt>
      <trkpt lat="37.847442173885945" lon="112.02744632526434">
        <ele>1105.31</ele>
        <time>2019-04-12T22:54:21.972000Z</time>
      </trkpt>
      <trkpt lat="37.84733141673888" lon="112.02783307436655">
        <ele>1098.9</ele>
        <time>2019-04-12T22:54:30.972000Z</time>
      </trkpt>
      <trkpt lat="37.84735356629445" lon="112.02792071028283">
        <ele>1097.52</ele>
        <time>2019-04-12T22:54:33.972000Z</time>
      </trkpt>
      <trkpt lat="37.84761839992898" lon="112.02806549190024">
        <ele>1103.99</ele>
        <time>2019-04-12T22:54:45.972000Z</time>
      </trkpt>
      <trkpt lat="37.84773558023999" lon="112.0280724792422">
        <ele>1103.32</ele>
        <time>2019-04-12T22:54:48.972000Z</time>
      </trkpt>
      <trkpt lat="37.847837759734844" lon="112.02807732615118">
        <ele>1103.92</ele>
        <time>2019-04-12T22:54:51.972000Z</time>
      </trkpt>
      <trkpt lat="37.84793808905167" lon="112.02808208210483">
        <ele>1105.22</ele>
        <time>2019-04-12T22:54:54.972000Z</time>
      </trkpt>
      <trkpt lat="37.84823872612023" lon="112.02809871839104">
        <ele>1100.02</ele>
        <time>2019-04-12T22:55:03.972000Z</time>
      </trkpt>
      <trkpt lat="37.848559829722284" lon="112.02811898401427">
        <ele>1097.38</ele>
        <time>2019-04-12T22:55:12.972000Z</time>
      </trkpt>
      <trkpt lat="37.84865610746793" lon="112.02808519100275">
        <ele>1095.31</ele>
        <time>2019-04-12T22:55:15.972000Z</time>
      </trkpt>
      <trkpt lat="37.848736803194285" lon="112.02799337974929">
        <ele>1096.26</ele>
        <time>2019-04-12T22:55:18.972000Z</time>
      </trkpt>
      <trkpt lat="37.848816095225445" lon="112.02771761579871">
        <ele>1099.58</ele>
        <time>2019-04-12T22:55:27.972000Z</time>
      </trkpt>
      <trkpt lat="37.84881845212137" lon="112.02759014066368">
        <ele>1099.1</ele>
        <time>2019-04-12T22:55:30.972000Z</time>
      </trkpt>
      <trkpt lat="37.84883328663167" lon="112.02745469902888">
        <ele>1102.94</ele>
        <time>2019-04-12T22:55:33.972000Z</time>
      </trkpt>
      <trkpt lat="37.84887239764702" lon="112.02703721652139">
        <ele>1105.9</ele>
        <time>2019-04-12T22:55:42.972000Z</time>
      </trkpt>
      <trkpt lat="37.84887764799702" lon="112.0268346562491">
        <ele>1102.25</ele>
        <time>2019-04-12T22:55:48.972000Z</time>
      </trkpt>
      <trkpt lat="37.84891957025298" lon="112.02664365815862">
        <ele>1102.84</ele>
        <time>2019-04-12T22:56:00.972000Z</time>
      </trkpt>
      <trkpt lat="37.84889763983355" lon="112.02657180424256">
        <ele>1097.54</ele>
        <time>2019-04-12T22:56:06.972000Z</time>
      </trkpt>
      <trkpt lat="37.848604342964755" lon="112.02652580798349">
        <ele>1098.69</ele>
        <time>2019-04-12T22:56:21.972000Z</time>
      </trkpt>
      <trkpt lat="37.84828275166212" lon="112.02652010233415">
        <ele>1100.25</ele>
        <time>2019-04-12T22:56:33.972000Z</time>
      </trkpt>
      <trkpt lat="37.84812350474336" lon="112.02644978999346">
        <ele>1099.0</ele>
        <time>2019-04-12T22:56:39.972000Z</time>
      </trkpt>
      <trkpt lat="37.84801209104862" lon="112.02644627799356">
        <ele>1100.72</ele>
        <time>2019-04-12T22:56:42.972000Z</time>
      </trkpt>
      <trkpt lat="37.84791965426018" lon="112.0264690633218">
        <ele>1100.7</ele>
        <time>2019-04-12T22:56:45.972000Z</time>
      </trkpt>
      <trkpt lat="37.847846292555644" lon="112.02652696535414">
        <ele>1102.24</ele>
        <time>2019-04-12T22:56:48.972000Z</time>
      </trkpt>
      <trkpt lat="37.84766688327886" lon="112.02680862250693">
        <ele>1105.75</ele>
        <time>2019-04-12T22:56:57.972000Z</time>
      </trkpt>
      <trkpt lat="37.847534387139305" lon="112.02710869338118">
        <ele>1102.13</ele>
        <time>2019-04-12T22:57:06.972000Z</time>
      </trkpt>
      <trkpt lat="37.84747479476116" lon="112.0272960114444">
        <ele>1109.04</ele>
        <time>2019-04-12T22:57:12.972000Z</time>
      </trkpt>
      <trkpt lat="37.847398452239595" lon="112.02774845363125">
        <ele>1116.62</ele>
        <time>2019-04-12T22:57:24.972000Z</time>
      </trkpt>
      <trkpt lat="37.84737686624694" lon="112.02787020694207">
        <ele>1110.4</ele>
        <time>2019-04-12T22:57:27.972000Z</time>
      </trkpt>
      <trkpt lat="37.847418847987" lon="112.02803800500261">
        <ele>1111.62</ele>
        <time>2019-04-12T22:57:36.972000Z</time>
      </trkpt>
      <trkpt lat="37.847351486486744" lon="112.02830391807726">
        <ele>1109.69</ele>
        <time>2019-04-12T22:57:45.972000Z</time>
      </trkpt>
      <trkpt lat="37.847350192107804" lon="112.02866518324163">
        <ele>1112.69</ele>
        <time>2019-04-12T22:58:03.972000Z</time>
      </trkpt>
      <trkpt lat="37.84735075601859" lon="112.02901147601486">
        <ele>1116.65</ele>
        <time>2019-04-12T22:58:21.972000Z</time>
      </trkpt>
      <trkpt lat="37.84735791216005" lon="112.02911440771956">
        <ele>1119.11</ele>
        <time>2019-04-12T22:58:27.972000Z</time>
      </trkpt>
      <trkpt lat="37.84732606526003" lon="112.02937638289983">
        <ele>1114.83</ele>
        <time>2019-04-12T22:58:42.972000Z</time>
      </trkpt>
      <trkpt lat="37.8472852798112" lon="112.02943412129984">
        <ele>1112.4</ele>
        <time>2019-04-12T22:58:48.972000Z</time>
      </trkpt>
      <trkpt lat="37.8472777963916" lon="112.02949664015024">
        <ele>1116.77</ele>
        <time>2019-04-12T22:58:51.972000Z</time>
      </trkpt>
      <trkpt lat="37.84695083655498" lon="112.02958680228629">
        <ele>1127.34</ele>
        <time>2019-04-12T22:59:21.972000Z</time>
      </trkpt>
      <trkpt lat="37.84691223726935" lon="112.02959147365219">
        <ele>1134.35</ele>
        <time>2019-04-12T22:59:24.972000Z</time>
      </trkpt>
      <trkpt lat="37.84704897319194" lon="112.02956520672879">
        <ele>1125.25</ele>
        <time>2019-04-12T23:12:13.972000Z</time>
      </trkpt>
      <trkpt lat="37.84712043876536" lon="112.02953704001617">
        <ele>1125.47</ele>
        <time>2019-04-12T23:12:20.072000Z</time>
      </trkpt>
      <trkpt lat="37.84725874022496" lon="112.02948262705965">
        <ele>1113.93</ele>
        <time>2019-04-12T23:12:34.972000Z</time>
      </trkpt>
      <trkpt lat="37.84737382809049" lon="112.02946862298">
        <ele>1110.8</ele>
        <time>2019-04-12T23:12:40.972000Z</time>
      </trkpt>
      <trkpt lat="37.84735483007706" lon="112.0296069528127">
        <ele>1107.91</ele>
        <time>2019-04-12T23:12:49.972000Z</time>
      </trkpt>
      <trkpt lat="37.84740599340598" lon="112.0296902302389">
        <ele>1111.97</ele>
        <time>2019-04-12T23:12:55.972000Z</time>
      </trkpt>
      <trkpt lat="37.847432172482534" lon="112.02987158913457">
        <ele>1118.73</ele>
        <time>2019-04-12T23:13:07.972000Z</time>
      </trkpt>
      <trkpt lat="37.84768107131996" lon="112.02986315496833">
        <ele>1115.07</ele>
        <time>2019-04-12T23:13:22.972000Z</time>
      </trkpt>
      <trkpt lat="37.847880066084045" lon="112.02988767775568">
        <ele>1107.64</ele>
        <time>2019-04-12T23:13:31.972000Z</time>
      </trkpt>
      <trkpt lat="37.848088223250286" lon="112.02986404588704">
        <ele>1102.97</ele>
        <time>2019-04-12T23:13:49.972000Z</time>
      </trkpt>
      <trkpt lat="37.8482028914708" lon="112.02987527482199">
        <ele>1102.19</ele>
        <time>2019-04-12T23:13:58.972000Z</time>
      </trkpt>
      <trkpt lat="37.848267422650004" lon="112.0298530294116">
        <ele>1098.45</ele>
        <time>2019-04-12T23:14:01.972000Z</time>
      </trkpt>
      <trkpt lat="37.84851264249386" lon="112.02985879731756">
        <ele>1094.07</ele>
        <time>2019-04-12T23:14:10.972000Z</time>
      </trkpt>
      <trkpt lat="37.848658909912935" lon="112.02993301239842">
        <ele>1094.95</ele>
        <time>2019-04-12T23:14:16.972000Z</time>
      </trkpt>
      <trkpt lat="37.84892106469446" lon="112.03017296713992">
        <ele>1097.65</ele>
        <time>2019-04-12T23:14:28.972000Z</time>
      </trkpt>
      <trkpt lat="37.848969881542416" lon="112.03023604306307">
        <ele>1096.91</ele>
        <time>2019-04-12T23:14:31.972000Z</time>
      </trkpt>
      <trkpt lat="37.84903474471441" lon="112.03037340722666">
        <ele>1097.43</ele>
        <time>2019-04-12T23:14:37.972000Z</time>
      </trkpt>
      <trkpt lat="37.849118784661556" lon="112.03052046068741">
        <ele>1104.02</ele>
        <time>2019-04-12T23:14:43.972000Z</time>
      </trkpt>
      <trkpt lat="37.8491442428043" lon="112.03062231255447">
        <ele>1097.72</ele>
        <time>2019-04-12T23:14:46.972000Z</time>
      </trkpt>
      <trkpt lat="37.8492912836034" lon="112.03092594485805">
        <ele>1095.08</ele>
        <time>2019-04-12T23:14:58.972000Z</time>
      </trkpt>
      <trkpt lat="37.84947602462041" lon="112.03126434121866">
        <ele>1099.47</ele>
        <time>2019-04-12T23:15:10.972000Z</time>
      </trkpt>
      <trkpt lat="37.8495646910004" lon="112.03145016282531">
        <ele>1102.75</ele>
        <time>2019-04-12T23:15:16.972000Z</time>
      </trkpt>
      <trkpt lat="37.84961924324334" lon="112.03153371680149">
        <ele>1102.38</ele>
        <time>2019-04-12T23:15:19.972000Z</time>
      </trkpt>
      <trkpt lat="37.84975505093292" lon="112.03190592971039">
        <ele>1101.74</ele>
        <time>2019-04-12T23:15:31.972000Z</time>
      </trkpt>
      <trkpt lat="37.84984516497672" lon="112.03210490441907">
        <ele>1100.85</ele>
        <time>2019-04-12T23:15:43.972000Z</time>
      </trkpt>
      <trkpt lat="37.85002961232238" lon="112.03237957594972">
        <ele>1101.73</ele>
        <time>2019-04-12T23:16:04.972000Z</time>
      </trkpt>
      <trkpt lat="37.850257253086426" lon="112.03267170157409">
        <ele>1103.44</ele>
        <time>2019-04-12T23:16:28.972000Z</time>
      </trkpt>
      <trkpt lat="37.85048794507269" lon="112.03291141537977">
        <ele>1102.21</ele>
        <time>2019-04-12T23:16:46.972000Z</time>
      </trkpt>
      <trkpt lat="37.85060294438372" lon="112.03302112002562">
        <ele>1101.38</ele>
        <time>2019-04-12T23:16:58.972000Z</time>
      </trkpt>
      <trkpt lat="37.85063117873131" lon="112.03310267893188">
        <ele>1101.12</ele>
        <time>2019-04-12T23:17:04.972000Z</time>
      </trkpt>
      <trkpt lat="37.850814454584636" lon="112.03336175836219">
        <ele>1100.42</ele>
        <time>2019-04-12T23:17:22.972000Z</time>
      </trkpt>
      <trkpt lat="37.850864284952806" lon="112.03342006170865">
        <ele>1100.13</ele>
        <time>2019-04-12T23:17:28.972000Z</time>
      </trkpt>
      <trkpt lat="37.851030084201895" lon="112.03375208919438">
        <ele>1096.13</ele>
        <time>2019-04-12T23:17:49.972000Z</time>
      </trkpt>
      <trkpt lat="37.85128433315678" lon="112.03402380195627">
        <ele>1104.61</ele>
        <time>2019-04-12T23:18:07.972000Z</time>
      </trkpt>
      <trkpt lat="37.85133684703932" lon="112.03410059995353">
        <ele>1101.13</ele>
        <time>2019-04-12T23:18:10.972000Z</time>
      </trkpt>
      <trkpt lat="37.851580534982205" lon="112.03436441143567">
        <ele>1105.0</ele>
        <time>2019-04-12T23:18:22.972000Z</time>
      </trkpt>
      <trkpt lat="37.851704187008096" lon="112.03453984289938">
        <ele>1104.0</ele>
        <time>2019-04-12T23:18:28.972000Z</time>
      </trkpt>
      <trkpt lat="37.85175447653243" lon="112.03464652843385">
        <ele>1103.89</ele>
        <time>2019-04-12T23:18:31.972000Z</time>
      </trkpt>
      <trkpt lat="37.8519859476939" lon="112.03497860761942">
        <ele>1097.48</ele>
        <time>2019-04-12T23:18:43.972000Z</time>
      </trkpt>
      <trkpt lat="37.85217197370064" lon="112.03524929828596">
        <ele>1098.15</ele>
        <time>2019-04-12T23:18:52.972000Z</time>
      </trkpt>
      <trkpt lat="37.852258566894086" lon="112.03540479037854">
        <ele>1098.18</ele>
        <time>2019-04-12T23:18:58.972000Z</time>
      </trkpt>
      <trkpt lat="37.85251434974451" lon="112.03568645813718">
        <ele>1101.77</ele>
        <time>2019-04-12T23:19:10.972000Z</time>
      </trkpt>
      <trkpt lat="37.85263044043094" lon="112.03584927780483">
        <ele>1100.85</ele>
        <time>2019-04-12T23:19:16.972000Z</time>
      </trkpt>
      <trkpt lat="37.852776792429545" lon="112.03601828889293">
        <ele>1096.08</ele>
        <time>2019-04-12T23:19:22.972000Z</time>
      </trkpt>
      <trkpt lat="37.85283396932462" lon="112.03610734079311">
        <ele>1096.03</ele>
        <time>2019-04-12T23:19:25.972000Z</time>
      </trkpt>
      <trkpt lat="37.85292173847857" lon="112.03619171668122">
        <ele>1098.51</ele>
        <time>2019-04-12T23:19:28.972000Z</time>
      </trkpt>
      <trkpt lat="37.853075314077685" lon="112.0365514910843">
        <ele>1090.94</ele>
        <time>2019-04-12T23:19:40.972000Z</time>
      </trkpt>
      <trkpt lat="37.8532604641353" lon="112.0368634390457">
        <ele>1090.37</ele>
        <time>2019-04-12T23:19:52.972000Z</time>
      </trkpt>
      <trkpt lat="37.853439171046205" lon="112.03715700285468">
        <ele>1094.5</ele>
        <time>2019-04-12T23:20:13.972000Z</time>
      </trkpt>
      <trkpt lat="37.853545901781565" lon="112.0372633093031">
        <ele>1090.19</ele>
        <time>2019-04-12T23:20:25.972000Z</time>
      </trkpt>
      <trkpt lat="37.85361649389277" lon="112.03742783124473">
        <ele>1087.03</ele>
        <time>2019-04-12T23:20:31.972000Z</time>
      </trkpt>
      <trkpt lat="37.85379623094552" lon="112.03766751188533">
        <ele>1093.24</ele>
        <time>2019-04-12T23:20:46.972000Z</time>
      </trkpt>
      <trkpt lat="37.853849510067036" lon="112.03771375344549">
        <ele>1093.55</ele>
        <time>2019-04-12T23:20:52.972000Z</time>
      </trkpt>
      <trkpt lat="37.853992840737085" lon="112.03791974596561">
        <ele>1088.51</ele>
        <time>2019-04-12T23:21:04.972000Z</time>
      </trkpt>
      <trkpt lat="37.85415397530207" lon="112.03819479673143">
        <ele>1090.31</ele>
        <time>2019-04-12T23:21:16.972000Z</time>
      </trkpt>
      <trkpt lat="37.854378177448865" lon="112.03845585360045">
        <ele>1090.24</ele>
        <time>2019-04-12T23:21:40.972000Z</time>
      </trkpt>
      <trkpt lat="37.85444764919618" lon="112.03856439173192">
        <ele>1087.16</ele>
        <time>2019-04-12T23:21:46.972000Z</time>
      </trkpt>
      <trkpt lat="37.85452104419725" lon="112.0386390108675">
        <ele>1086.01</ele>
        <time>2019-04-12T23:21:55.972000Z</time>
      </trkpt>
      <trkpt lat="37.85471004310931" lon="112.03893131703664">
        <ele>1086.1</ele>
        <time>2019-04-12T23:22:10.972000Z</time>
      </trkpt>
      <trkpt lat="37.85477631138549" lon="112.03897207731879">
        <ele>1088.53</ele>
        <time>2019-04-12T23:22:16.972000Z</time>
      </trkpt>
      <trkpt lat="37.85494491646208" lon="112.03924353858261">
        <ele>1087.6</ele>
        <time>2019-04-12T23:22:34.972000Z</time>
      </trkpt>
      <trkpt lat="37.855069201180775" lon="112.03941380330347">
        <ele>1091.54</ele>
        <time>2019-04-12T23:22:40.972000Z</time>
      </trkpt>
      <trkpt lat="37.85519155411817" lon="112.0395258024219">
        <ele>1092.82</ele>
        <time>2019-04-12T23:22:55.972000Z</time>
      </trkpt>
      <trkpt lat="37.85530272599159" lon="112.03973004674303">
        <ele>1095.27</ele>
        <time>2019-04-12T23:23:01.972000Z</time>
      </trkpt>
      <trkpt lat="37.855374085979314" lon="112.03977845922795">
        <ele>1090.63</ele>
        <time>2019-04-12T23:23:13.972000Z</time>
      </trkpt>
      <trkpt lat="37.85559716005985" lon="112.04013727501297">
        <ele>1092.2</ele>
        <time>2019-04-12T23:23:31.972000Z</time>
      </trkpt>
      <trkpt lat="37.855674872217875" lon="112.04029230677952">
        <ele>1091.93</ele>
        <time>2019-04-12T23:23:37.972000Z</time>
      </trkpt>
      <trkpt lat="37.85579083133169" lon="112.04028757439144">
        <ele>1085.83</ele>
        <time>2019-04-12T23:23:52.972000Z</time>
      </trkpt>
      <trkpt lat="37.856011649765065" lon="112.04061571266477">
        <ele>1088.69</ele>
        <time>2019-04-12T23:24:10.972000Z</time>
      </trkpt>
      <trkpt lat="37.856264836811945" lon="112.04093500872871">
        <ele>1088.45</ele>
        <time>2019-04-12T23:24:28.972000Z</time>
      </trkpt>
      <trkpt lat="37.85638915158891" lon="112.04105238020257">
        <ele>1087.45</ele>
        <time>2019-04-12T23:24:37.972000Z</time>
      </trkpt>
      <trkpt lat="37.85644008136609" lon="112.04100358614613">
        <ele>1085.61</ele>
        <time>2019-04-12T23:24:40.972000Z</time>
      </trkpt>
      <trkpt lat="37.856524005941864" lon="112.04088220163204">
        <ele>1083.56</ele>
        <time>2019-04-12T23:24:49.972000Z</time>
      </trkpt>
      <trkpt lat="37.85656930105961" lon="112.04085874469791">
        <ele>1082.12</ele>
        <time>2019-04-12T23:24:55.972000Z</time>
      </trkpt>
      <trkpt lat="37.85676904087997" lon="112.0406180762038">
        <ele>1084.99</ele>
        <time>2019-04-12T23:25:07.972000Z</time>
      </trkpt>
      <trkpt lat="37.856779655707015" lon="112.04054527601093">
        <ele>1078.64</ele>
        <time>2019-04-12T23:25:19.972000Z</time>
      </trkpt>
      <trkpt lat="37.856767365400486" lon="112.04025509630559">
        <ele>1078.51</ele>
        <time>2019-04-12T23:25:40.972000Z</time>
      </trkpt>
      <trkpt lat="37.85678849494027" lon="112.04013427437896">
        <ele>1077.26</ele>
        <time>2019-04-12T23:25:46.972000Z</time>
      </trkpt>
      <trkpt lat="37.85682877728323" lon="112.04004857139427">
        <ele>1075.41</ele>
        <time>2019-04-12T23:25:52.972000Z</time>
      </trkpt>
      <trkpt lat="37.85683928374305" lon="112.0399954136816">
        <ele>1076.59</ele>
        <time>2019-04-12T23:25:55.972000Z</time>
      </trkpt>
      <trkpt lat="37.85668379134585" lon="112.03965304286669">
        <ele>1080.1</ele>
        <time>2019-04-12T23:26:10.972000Z</time>
      </trkpt>
      <trkpt lat="37.85664758362111" lon="112.0396154330104">
        <ele>1080.83</ele>
        <time>2019-04-12T23:26:13.972000Z</time>
      </trkpt>
      <trkpt lat="37.85653251646052" lon="112.03938476171473">
        <ele>1079.66</ele>
        <time>2019-04-12T23:26:28.972000Z</time>
      </trkpt>
      <trkpt lat="37.856448205028954" lon="112.03913177441521">
        <ele>1080.41</ele>
        <time>2019-04-12T23:26:43.972000Z</time>
      </trkpt>
      <trkpt lat="37.85637819970904" lon="112.03900685157392">
        <ele>1081.59</ele>
        <time>2019-04-12T23:26:52.972000Z</time>
      </trkpt>
    </trkseg>
  </trk>
</gpx>