<?xml version="1.0" encoding="UTF-8"?>
<gpx xmlns="http://www.topografix.com/GPX/1/1" xmlns:gpxtpx="http://www.garmin.com/xmlschemas/TrackPointExtension/v1" xmlns:xsi="http://www.w3.org/2001/XMLSchema-instance" xsi:schemaLocation="http://www.topografix.com/GPX/1/1 http://www.topografix.com/GPX/1/1/gpx.xsd" version="1.1" creator="gpx.py -- https://github.com/tkrajina/gpxpy">
  <trk>
    <name>gpx from keep</name>
    <type>Run</type>
    <trkseg>
      <trkpt lat="37.84665066455012" lon="112.02960568152996">
        <ele>0.0</ele>
        <time>2016-06-28T09:16:53.600000Z</time>
      </trkpt>
      <trkpt lat="37.846885067178064" lon="112.02946108070165">
        <ele>0.0</ele>
        <time>2016-06-28T09:16:56.900000Z</time>
      </trkpt>
      <trkpt lat="37.847091455014315" lon="112.02995394131341">
        <ele>1027.189972544511</ele>
        <time>2016-06-28T09:18:45.100000Z</time>
      </trkpt>
      <trkpt lat="37.847051014367764" lon="112.02985197846266">
        <ele>1024.3892351350546</ele>
        <time>2016-06-28T09:18:53.100000Z</time>
      </trkpt>
      <trkpt lat="37.847095999040235" lon="112.02976515202454">
        <ele>1020.7809220581128</ele>
        <time>2016-06-28T09:19:00.100000Z</time>
      </trkpt>
      <trkpt lat="37.84707740488931" lon="112.0296072001944">
        <ele>1048.2698288476815</ele>
        <time>2016-06-28T09:19:14.500000Z</time>
      </trkpt>
      <trkpt lat="37.847147275380905" lon="112.02944274740395">
        <ele>1052.3703640570295</ele>
        <time>2016-06-28T09:19:17.500000Z</time>
      </trkpt>
      <trkpt lat="37.847186783001014" lon="112.02926910341024">
        <ele>1053.310929085813</ele>
        <time>2016-06-28T09:19:24.500000Z</time>
      </trkpt>
      <trkpt lat="37.84727376481579" lon="112.02909788894748">
        <ele>1053.0536167846183</ele>
        <time>2016-06-28T09:19:31.500000Z</time>
      </trkpt>
      <trkpt lat="37.847341009010684" lon="112.02890017263279">
        <ele>1050.4997165656605</ele>
        <time>2016-06-28T09:19:37.500000Z</time>
      </trkpt>
      <trkpt lat="37.84734953675783" lon="112.028747361131">
        <ele>1050.0638418751103</ele>
        <time>2016-06-28T09:19:41.500000Z</time>
      </trkpt>
      <trkpt lat="37.84730261656174" lon="112.02852775385985">
        <ele>1050.063341292475</ele>
        <time>2016-06-28T09:19:47.500000Z</time>
      </trkpt>
      <trkpt lat="37.847307913928624" lon="112.02815344148281">
        <ele>1053.2294940980273</ele>
        <time>2016-06-28T09:19:57.500000Z</time>
      </trkpt>
      <trkpt lat="37.847345572794296" lon="112.0277512735914">
        <ele>1056.3840536577013</ele>
        <time>2016-06-28T09:20:08.500000Z</time>
      </trkpt>
      <trkpt lat="37.84746151064859" lon="112.02729609420503">
        <ele>1061.0582345661103</ele>
        <time>2016-06-28T09:20:23.500000Z</time>
      </trkpt>
      <trkpt lat="37.84749066332554" lon="112.02714382955548">
        <ele>1062.0799665604425</ele>
        <time>2016-06-28T09:20:27.500000Z</time>
      </trkpt>
      <trkpt lat="37.8476244765837" lon="112.02680792219216">
        <ele>1067.4417775105699</ele>
        <time>2016-06-28T09:20:37.500000Z</time>
      </trkpt>
      <trkpt lat="37.84771264090213" lon="112.02660372832308">
        <ele>1071.305771935388</ele>
        <time>2016-06-28T09:20:44.500000Z</time>
      </trkpt>
      <trkpt lat="37.84779669087975" lon="112.02652123398053">
        <ele>1073.8261462307453</ele>
        <time>2016-06-28T09:20:48.500000Z</time>
      </trkpt>
      <trkpt lat="37.8481150105873" lon="112.02649388131243">
        <ele>1079.8866902585494</ele>
        <time>2016-06-28T09:21:03.500000Z</time>
      </trkpt>
      <trkpt lat="37.84816901429274" lon="112.0264890069099">
        <ele>1080.4570663082488</ele>
        <time>2016-06-28T09:21:07.500000Z</time>
      </trkpt>
      <trkpt lat="37.84845564008133" lon="112.02654684655438">
        <ele>1082.304356237761</ele>
        <time>2016-06-28T09:21:14.600000Z</time>
      </trkpt>
      <trkpt lat="37.848665953869165" lon="112.02652870179853">
        <ele>1082.8193271683992</ele>
        <time>2016-06-28T09:21:22.500000Z</time>
      </trkpt>
      <trkpt lat="37.84871493508071" lon="112.02647298536002">
        <ele>1082.6586069432756</ele>
        <time>2016-06-28T09:21:26.500000Z</time>
      </trkpt>
      <trkpt lat="37.84882346869184" lon="112.02626148950893">
        <ele>1079.2833176627844</ele>
        <time>2016-06-28T09:21:34.600000Z</time>
      </trkpt>
      <trkpt lat="37.84892275108265" lon="112.02616439069477">
        <ele>1077.4131651569571</ele>
        <time>2016-06-28T09:21:38.500000Z</time>
      </trkpt>
      <trkpt lat="37.848985391771095" lon="112.02607297574541">
        <ele>1076.155360778563</ele>
        <time>2016-06-28T09:21:41.500000Z</time>
      </trkpt>
      <trkpt lat="37.84912627217985" lon="112.02573572729379">
        <ele>1072.1892615184847</ele>
        <time>2016-06-28T09:21:55.500000Z</time>
      </trkpt>
      <trkpt lat="37.84905713663085" lon="112.0254074319624">
        <ele>1071.8117496035725</ele>
        <time>2016-06-28T09:22:02.500000Z</time>
      </trkpt>
      <trkpt lat="37.848972622611285" lon="112.0250475019967">
        <ele>1072.05917008642</ele>
        <time>2016-06-28T09:22:09.500000Z</time>
      </trkpt>
      <trkpt lat="37.84888785845537" lon="112.02468081559631">
        <ele>1072.9557898543765</ele>
        <time>2016-06-28T09:22:16.500000Z</time>
      </trkpt>
      <trkpt lat="37.84882404543662" lon="112.02449693571916">
        <ele>1073.7842362478104</ele>
        <time>2016-06-28T09:22:20.600000Z</time>
      </trkpt>
      <trkpt lat="37.848768942146165" lon="112.02409915393797">
        <ele>1076.6819956699628</ele>
        <time>2016-06-28T09:22:31.500000Z</time>
      </trkpt>
      <trkpt lat="37.84873504714285" lon="112.02378709631373">
        <ele>1078.3420353447343</ele>
        <time>2016-06-28T09:22:39.500000Z</time>
      </trkpt>
      <trkpt lat="37.84876696637491" lon="112.02341743575003">
        <ele>1079.2846225582398</ele>
        <time>2016-06-28T09:22:50.600000Z</time>
      </trkpt>
      <trkpt lat="37.848850504328624" lon="112.0231240288631">
        <ele>1079.56806019524</ele>
        <time>2016-06-28T09:22:57.500000Z</time>
      </trkpt>
      <trkpt lat="37.848892963277315" lon="112.0228725428142">
        <ele>1079.6467414356607</ele>
        <time>2016-06-28T09:23:04.600000Z</time>
      </trkpt>
      <trkpt lat="37.84893185994899" lon="112.02273517085584">
        <ele>1079.9304041991443</ele>
        <time>2016-06-28T09:23:07.600000Z</time>
      </trkpt>
      <trkpt lat="37.84896298313491" lon="112.02246259747075">
        <ele>1080.7275962231556</ele>
        <time>2016-06-28T09:23:18.500000Z</time>
      </trkpt>
      <trkpt lat="37.84898185794423" lon="112.02210512127493">
        <ele>1080.7585367823904</ele>
        <time>2016-06-28T09:23:26.500000Z</time>
      </trkpt>
      <trkpt lat="37.84894374181473" lon="112.0217544156483">
        <ele>1081.4341165557037</ele>
        <time>2016-06-28T09:23:34.500000Z</time>
      </trkpt>
      <trkpt lat="37.84896236251109" lon="112.02129338497818">
        <ele>1084.0650816105256</ele>
        <time>2016-06-28T09:23:47.500000Z</time>
      </trkpt>
      <trkpt lat="37.848978487271204" lon="112.02115115497023">
        <ele>1084.9271182549282</ele>
        <time>2016-06-28T09:23:50.500000Z</time>
      </trkpt>
      <trkpt lat="37.848985485601844" lon="112.02097323464915">
        <ele>1086.1692394711843</ele>
        <time>2016-06-28T09:23:54.500000Z</time>
      </trkpt>
      <trkpt lat="37.84896465218628" lon="112.02085318256263">
        <ele>1086.4204994512452</ele>
        <time>2016-06-28T09:23:57.500000Z</time>
      </trkpt>
      <trkpt lat="37.84898847272113" lon="112.02057656898866">
        <ele>1086.7327696067039</ele>
        <time>2016-06-28T09:24:05.500000Z</time>
      </trkpt>
      <trkpt lat="37.848974101411855" lon="112.02037621178918">
        <ele>1086.5712892573658</ele>
        <time>2016-06-28T09:24:11.600000Z</time>
      </trkpt>
      <trkpt lat="37.84901461868524" lon="112.02014583609812">
        <ele>1086.6308887230857</ele>
        <time>2016-06-28T09:24:18.600000Z</time>
      </trkpt>
      <trkpt lat="37.84906466473568" lon="112.02000225464658">
        <ele>1087.4142100124066</ele>
        <time>2016-06-28T09:24:22.500000Z</time>
      </trkpt>
      <trkpt lat="37.84906823995001" lon="112.01969022966145">
        <ele>1089.1708366285845</ele>
        <time>2016-06-28T09:24:29.600000Z</time>
      </trkpt>
      <trkpt lat="37.849119950404464" lon="112.01933818504793">
        <ele>1093.1291588422885</ele>
        <time>2016-06-28T09:24:40.500000Z</time>
      </trkpt>
      <trkpt lat="37.84911337201494" lon="112.01897155026862">
        <ele>1094.2704539635297</ele>
        <time>2016-06-28T09:24:48.500000Z</time>
      </trkpt>
      <trkpt lat="37.849077170633706" lon="112.0186238489279">
        <ele>1095.0764927833295</ele>
        <time>2016-06-28T09:24:58.500000Z</time>
      </trkpt>
      <trkpt lat="37.84907530636626" lon="112.01851407647354">
        <ele>1094.958681820306</ele>
        <time>2016-06-28T09:25:01.500000Z</time>
      </trkpt>
      <trkpt lat="37.84915884274637" lon="112.01832967069498">
        <ele>1094.8995718189872</ele>
        <time>2016-06-28T09:25:08.600000Z</time>
      </trkpt>
      <trkpt lat="37.84920707994198" lon="112.01796195749051">
        <ele>1095.671301036612</ele>
        <time>2016-06-28T09:25:20.600000Z</time>
      </trkpt>
      <trkpt lat="37.84920638635348" lon="112.0175323390559">
        <ele>1097.2978450302605</ele>
        <time>2016-06-28T09:25:33.600000Z</time>
      </trkpt>
      <trkpt lat="37.84922766807108" lon="112.01710434479688">
        <ele>1097.8927329567218</ele>
        <time>2016-06-28T09:25:48.500000Z</time>
      </trkpt>
      <trkpt lat="37.849202424490684" lon="112.01672394456835">
        <ele>1097.8332773822513</ele>
        <time>2016-06-28T09:26:02.500000Z</time>
      </trkpt>
      <trkpt lat="37.849188030456816" lon="112.0166331042449">
        <ele>1097.067081638002</ele>
        <time>2016-06-28T09:26:06.600000Z</time>
      </trkpt>
      <trkpt lat="37.84920749092888" lon="112.01637166177281">
        <ele>1096.3804593210884</ele>
        <time>2016-06-28T09:26:13.500000Z</time>
      </trkpt>
      <trkpt lat="37.84927610518127" lon="112.01618997119338">
        <ele>1095.5400106813047</ele>
        <time>2016-06-28T09:26:20.500000Z</time>
      </trkpt>
      <trkpt lat="37.84929433470187" lon="112.01607614757252">
        <ele>1095.261565148297</ele>
        <time>2016-06-28T09:26:23.600000Z</time>
      </trkpt>
      <trkpt lat="37.84933259777251" lon="112.01597773230276">
        <ele>1094.9574542193543</ele>
        <time>2016-06-28T09:26:26.600000Z</time>
      </trkpt>
      <trkpt lat="37.84936511349646" lon="112.01580145488866">
        <ele>1095.2626730002391</ele>
        <time>2016-06-28T09:26:30.500000Z</time>
      </trkpt>
      <trkpt lat="37.849510946975315" lon="112.015561901259">
        <ele>1095.5036913607921</ele>
        <time>2016-06-28T09:26:40.600000Z</time>
      </trkpt>
      <trkpt lat="37.84955251833601" lon="112.01544537296026">
        <ele>1094.7935917055772</ele>
        <time>2016-06-28T09:26:44.500000Z</time>
      </trkpt>
      <trkpt lat="37.8495726146763" lon="112.01496332957899">
        <ele>1093.1866504842255</ele>
        <time>2016-06-28T09:26:55.500000Z</time>
      </trkpt>
      <trkpt lat="37.849589262158" lon="112.01483436967516">
        <ele>1092.8058827020739</ele>
        <time>2016-06-28T09:26:59.500000Z</time>
      </trkpt>
      <trkpt lat="37.849571730819896" lon="112.01470325142795">
        <ele>1092.5468568147874</ele>
        <time>2016-06-28T09:27:03.500000Z</time>
      </trkpt>
      <trkpt lat="37.8495775992308" lon="112.01454888066472">
        <ele>1091.721909123759</ele>
        <time>2016-06-28T09:27:07.500000Z</time>
      </trkpt>
      <trkpt lat="37.84955763216304" lon="112.01441587109534">
        <ele>1090.9860441220205</ele>
        <time>2016-06-28T09:27:11.600000Z</time>
      </trkpt>
      <trkpt lat="37.849576501069784" lon="112.01398628610995">
        <ele>1091.8883997048713</ele>
        <time>2016-06-28T09:27:22.600000Z</time>
      </trkpt>
      <trkpt lat="37.849615913315816" lon="112.01358427775293">
        <ele>1094.1248333726749</ele>
        <time>2016-06-28T09:27:36.500000Z</time>
      </trkpt>
      <trkpt lat="37.84965877330067" lon="112.0132106583219">
        <ele>1094.7567975925567</ele>
        <time>2016-06-28T09:27:47.500000Z</time>
      </trkpt>
      <trkpt lat="37.84970682725927" lon="112.01282433519268">
        <ele>1094.056102547126</ele>
        <time>2016-06-28T09:27:58.500000Z</time>
      </trkpt>
      <trkpt lat="37.84974932720823" lon="112.01248289188406">
        <ele>1093.7807040518153</ele>
        <time>2016-06-28T09:28:08.500000Z</time>
      </trkpt>
      <trkpt lat="37.84978703255702" lon="112.01211144417172">
        <ele>1094.896703181239</ele>
        <time>2016-06-28T09:28:20.500000Z</time>
      </trkpt>
      <trkpt lat="37.84980285585284" lon="112.01170837270804">
        <ele>1098.2897942579611</ele>
        <time>2016-06-28T09:28:34.500000Z</time>
      </trkpt>
      <trkpt lat="37.849857629101564" lon="112.01125393668637">
        <ele>1100.211521932386</ele>
        <time>2016-06-28T09:28:46.600000Z</time>
      </trkpt>
      <trkpt lat="37.84987160907711" lon="112.01111201108615">
        <ele>1100.28350422436</ele>
        <time>2016-06-28T09:28:50.500000Z</time>
      </trkpt>
      <trkpt lat="37.84980006086183" lon="112.01071409397211">
        <ele>1099.598266536006</ele>
        <time>2016-06-28T09:29:00.500000Z</time>
      </trkpt>
      <trkpt lat="37.8498080749548" lon="112.0104789073376">
        <ele>1100.13717958138</ele>
        <time>2016-06-28T09:29:07.500000Z</time>
      </trkpt>
      <trkpt lat="37.84988195748314" lon="112.01017207731802">
        <ele>1100.4811963117231</ele>
        <time>2016-06-28T09:29:18.500000Z</time>
      </trkpt>
      <trkpt lat="37.84988912033309" lon="112.0100425903132">
        <ele>1101.1414238658099</ele>
        <time>2016-06-28T09:29:22.500000Z</time>
      </trkpt>
      <trkpt lat="37.84989333746178" lon="112.00980767727772">
        <ele>1101.9816196772226</ele>
        <time>2016-06-28T09:29:29.600000Z</time>
      </trkpt>
      <trkpt lat="37.849859285385214" lon="112.00967008630448">
        <ele>1102.5874815648287</ele>
        <time>2016-06-28T09:29:33.500000Z</time>
      </trkpt>
      <trkpt lat="37.84985272762493" lon="112.00940922508553">
        <ele>1102.7470353055314</ele>
        <time>2016-06-28T09:29:41.600000Z</time>
      </trkpt>
      <trkpt lat="37.849829863791484" lon="112.00925000795111">
        <ele>1102.9127578086077</ele>
        <time>2016-06-28T09:29:45.500000Z</time>
      </trkpt>
      <trkpt lat="37.84967788095159" lon="112.0088983382266">
        <ele>1101.9897716424148</ele>
        <time>2016-06-28T09:29:56.500000Z</time>
      </trkpt>
      <trkpt lat="37.84951566305223" lon="112.00861371087018">
        <ele>1100.1155658555151</ele>
        <time>2016-06-28T09:30:13.500000Z</time>
      </trkpt>
      <trkpt lat="37.84945106716204" lon="112.00852991970203">
        <ele>1099.3196915490669</ele>
        <time>2016-06-28T09:30:17.500000Z</time>
      </trkpt>
      <trkpt lat="37.84937231358788" lon="112.00846289008123">
        <ele>1098.5534908158338</ele>
        <time>2016-06-28T09:30:21.500000Z</time>
      </trkpt>
      <trkpt lat="37.84918872525438" lon="112.00815745283823">
        <ele>1096.4794781453568</ele>
        <time>2016-06-28T09:30:39.500000Z</time>
      </trkpt>
      <trkpt lat="37.84910057149777" lon="112.00796661971067">
        <ele>1095.727814346319</ele>
        <time>2016-06-28T09:30:46.600000Z</time>
      </trkpt>
      <trkpt lat="37.84890324597126" lon="112.00762820803138">
        <ele>1093.852128413013</ele>
        <time>2016-06-28T09:30:57.500000Z</time>
      </trkpt>
      <trkpt lat="37.84868113528323" lon="112.00732250899691">
        <ele>1092.6964009257529</ele>
        <time>2016-06-28T09:31:08.500000Z</time>
      </trkpt>
      <trkpt lat="37.84854605453732" lon="112.00712898075258">
        <ele>1092.7634220513219</ele>
        <time>2016-06-28T09:31:15.500000Z</time>
      </trkpt>
      <trkpt lat="37.848196000975975" lon="112.00687601004218">
        <ele>1094.4368127326943</ele>
        <time>2016-06-28T09:31:28.500000Z</time>
      </trkpt>
      <trkpt lat="37.84771818783979" lon="112.00670495976968">
        <ele>1098.0164926564646</ele>
        <time>2016-06-28T09:31:40.500000Z</time>
      </trkpt>
      <trkpt lat="37.847401842557524" lon="112.00670364595138">
        <ele>1105.020565492727</ele>
        <time>2016-06-28T09:31:56.500000Z</time>
      </trkpt>
      <trkpt lat="37.84726503152001" lon="112.00672717936133">
        <ele>1106.5811275733154</ele>
        <time>2016-06-28T09:32:01.500000Z</time>
      </trkpt>
      <trkpt lat="37.8469620498052" lon="112.00670261717013">
        <ele>1109.6793300668057</ele>
        <time>2016-06-28T09:32:12.500000Z</time>
      </trkpt>
      <trkpt lat="37.84658873651992" lon="112.00669887734436">
        <ele>1111.6271512786225</ele>
        <time>2016-06-28T09:32:26.500000Z</time>
      </trkpt>
      <trkpt lat="37.8463186665314" lon="112.0066464691842">
        <ele>1111.3595604807845</ele>
        <time>2016-06-28T09:32:36.600000Z</time>
      </trkpt>
      <trkpt lat="37.84585087751005" lon="112.00657164884225">
        <ele>1112.5767002562784</ele>
        <time>2016-06-28T09:32:56.600000Z</time>
      </trkpt>
      <trkpt lat="37.845747876663964" lon="112.00653895352403">
        <ele>1112.9931078211046</ele>
        <time>2016-06-28T09:33:01.500000Z</time>
      </trkpt>
      <trkpt lat="37.8453480625806" lon="112.00632383420273">
        <ele>1113.5222971338255</ele>
        <time>2016-06-28T09:33:17.500000Z</time>
      </trkpt>
      <trkpt lat="37.84520357462102" lon="112.00628330495974">
        <ele>1112.0318194458507</ele>
        <time>2016-06-28T09:33:25.600000Z</time>
      </trkpt>
      <trkpt lat="37.84512242195074" lon="112.00629358640978">
        <ele>1110.4346340554964</ele>
        <time>2016-06-28T09:33:29.500000Z</time>
      </trkpt>
      <trkpt lat="37.84498747028389" lon="112.0065125537756">
        <ele>1107.8719148979712</ele>
        <time>2016-06-28T09:33:36.600000Z</time>
      </trkpt>
      <trkpt lat="37.84485765401961" lon="112.00646499460464">
        <ele>1104.212679485341</ele>
        <time>2016-06-28T09:33:48.500000Z</time>
      </trkpt>
      <trkpt lat="37.844643707989185" lon="112.00642528449669">
        <ele>1098.9640110620871</ele>
        <time>2016-06-28T09:33:58.500000Z</time>
      </trkpt>
      <trkpt lat="37.84429652842309" lon="112.00630125358083">
        <ele>1093.090432400529</ele>
        <time>2016-06-28T09:34:10.500000Z</time>
      </trkpt>
      <trkpt lat="37.84423660334943" lon="112.00628963740525">
        <ele>1091.4867285672576</ele>
        <time>2016-06-28T09:34:14.500000Z</time>
      </trkpt>
      <trkpt lat="37.8439381137132" lon="112.00630562128198">
        <ele>1087.2785405495354</ele>
        <time>2016-06-28T09:34:25.500000Z</time>
      </trkpt>
      <trkpt lat="37.84370469660131" lon="112.00642674803815">
        <ele>1088.574780115652</ele>
        <time>2016-06-28T09:34:35.600000Z</time>
      </trkpt>
      <trkpt lat="37.84341409186245" lon="112.00671033878655">
        <ele>1090.9051875656714</ele>
        <time>2016-06-28T09:34:46.500000Z</time>
      </trkpt>
      <trkpt lat="37.84333490623131" lon="112.00678900889336">
        <ele>1091.4154651902586</ele>
        <time>2016-06-28T09:34:50.500000Z</time>
      </trkpt>
      <trkpt lat="37.84319062376981" lon="112.0068617399901">
        <ele>1092.5768527927662</ele>
        <time>2016-06-28T09:35:01.500000Z</time>
      </trkpt>
      <trkpt lat="37.84301741078125" lon="112.00708341683973">
        <ele>1093.7523180736641</ele>
        <time>2016-06-28T09:35:09.500000Z</time>
      </trkpt>
      <trkpt lat="37.842944585119156" lon="112.00721317582446">
        <ele>1095.393834307828</ele>
        <time>2016-06-28T09:35:16.500000Z</time>
      </trkpt>
      <trkpt lat="37.84282901139089" lon="112.00730293371328">
        <ele>1098.1700772335673</ele>
        <time>2016-06-28T09:35:27.500000Z</time>
      </trkpt>
      <trkpt lat="37.8427448576337" lon="112.00741025839297">
        <ele>1100.743468992287</ele>
        <time>2016-06-28T09:35:35.500000Z</time>
      </trkpt>
      <trkpt lat="37.84255837574447" lon="112.00753246275961">
        <ele>1106.3188033110553</ele>
        <time>2016-06-28T09:35:57.500000Z</time>
      </trkpt>
      <trkpt lat="37.84236473868977" lon="112.00759736141548">
        <ele>1107.3760648767147</ele>
        <time>2016-06-28T09:36:09.500000Z</time>
      </trkpt>
      <trkpt lat="37.84216305448465" lon="112.00781417841861">
        <ele>1110.3838529158218</ele>
        <time>2016-06-28T09:36:27.500000Z</time>
      </trkpt>
      <trkpt lat="37.84186281786396" lon="112.00805371451922">
        <ele>1111.7364655483634</ele>
        <time>2016-06-28T09:36:41.500000Z</time>
      </trkpt>
      <trkpt lat="37.8416746419305" lon="112.00810698941484">
        <ele>1111.9651243703074</ele>
        <time>2016-06-28T09:36:49.500000Z</time>
      </trkpt>
      <trkpt lat="37.84158876613124" lon="112.00815484580207">
        <ele>1112.1698088963544</ele>
        <time>2016-06-28T09:36:53.500000Z</time>
      </trkpt>
      <trkpt lat="37.8412955427284" lon="112.00822516332455">
        <ele>1112.794915867753</ele>
        <time>2016-06-28T09:37:05.500000Z</time>
      </trkpt>
      <trkpt lat="37.84099822726464" lon="112.00821141260981">
        <ele>1115.055306847992</ele>
        <time>2016-06-28T09:37:16.600000Z</time>
      </trkpt>
      <trkpt lat="37.840662998824634" lon="112.00817387848878">
        <ele>1115.3120338134943</ele>
        <time>2016-06-28T09:37:31.600000Z</time>
      </trkpt>
      <trkpt lat="37.840355248855666" lon="112.0081106609794">
        <ele>1113.7840951411022</ele>
        <time>2016-06-28T09:37:43.500000Z</time>
      </trkpt>
      <trkpt lat="37.84013945236475" lon="112.00805446079647">
        <ele>1115.4766919635153</ele>
        <time>2016-06-28T09:37:53.500000Z</time>
      </trkpt>
      <trkpt lat="37.84007184726928" lon="112.00807095819428">
        <ele>1115.7514531583145</ele>
        <time>2016-06-28T09:37:56.500000Z</time>
      </trkpt>
      <trkpt lat="37.83995576330455" lon="112.00805853746775">
        <ele>1116.3285704398693</ele>
        <time>2016-06-28T09:38:00.500000Z</time>
      </trkpt>
      <trkpt lat="37.839627312229474" lon="112.00811453227958">
        <ele>1117.2818009818645</ele>
        <time>2016-06-28T09:38:13.500000Z</time>
      </trkpt>
      <trkpt lat="37.839462330028546" lon="112.00812320211433">
        <ele>1118.6120500484183</ele>
        <time>2016-06-28T09:38:20.500000Z</time>
      </trkpt>
      <trkpt lat="37.83935047501238" lon="112.0081486252799">
        <ele>1119.8120302306522</ele>
        <time>2016-06-28T09:38:24.500000Z</time>
      </trkpt>
      <trkpt lat="37.83924765887606" lon="112.00814512342369">
        <ele>1120.9548426787846</ele>
        <time>2016-06-28T09:38:29.500000Z</time>
      </trkpt>
      <trkpt lat="37.83937284810435" lon="112.00810618281223">
        <ele>1123.2591105229212</ele>
        <time>2016-06-28T09:38:35.500000Z</time>
      </trkpt>
      <trkpt lat="37.839469630591076" lon="112.00813158107592">
        <ele>1124.4244034645237</ele>
        <time>2016-06-28T09:38:39.600000Z</time>
      </trkpt>
      <trkpt lat="37.83977273770111" lon="112.0081134336585">
        <ele>1125.6927708206786</ele>
        <time>2016-06-28T09:38:50.500000Z</time>
      </trkpt>
      <trkpt lat="37.840081559201984" lon="112.00808960890683">
        <ele>1126.628302340508</ele>
        <time>2016-06-28T09:39:01.500000Z</time>
      </trkpt>
      <trkpt lat="37.840349742609895" lon="112.00813769335234">
        <ele>1127.358416607502</ele>
        <time>2016-06-28T09:39:12.500000Z</time>
      </trkpt>
      <trkpt lat="37.840423758308646" lon="112.00815525514165">
        <ele>1127.1823256183716</ele>
        <time>2016-06-28T09:39:15.600000Z</time>
      </trkpt>
      <trkpt lat="37.840632951395754" lon="112.00815090510237">
        <ele>1126.1727192229712</ele>
        <time>2016-06-28T09:39:23.500000Z</time>
      </trkpt>
      <trkpt lat="37.84097101301513" lon="112.00823952888595">
        <ele>1123.5483936787646</ele>
        <time>2016-06-28T09:39:34.500000Z</time>
      </trkpt>
      <trkpt lat="37.841190653689516" lon="112.00828032065158">
        <ele>1123.2260118315019</ele>
        <time>2016-06-28T09:39:45.500000Z</time>
      </trkpt>
      <trkpt lat="37.841486870241724" lon="112.0082070292172">
        <ele>1123.3098177665327</ele>
        <time>2016-06-28T09:39:56.500000Z</time>
      </trkpt>
      <trkpt lat="37.84179258925565" lon="112.00803993674216">
        <ele>1123.654529258554</ele>
        <time>2016-06-28T09:40:06.500000Z</time>
      </trkpt>
      <trkpt lat="37.84208931008449" lon="112.00779661669091">
        <ele>1125.1270205070584</ele>
        <time>2016-06-28T09:40:17.500000Z</time>
      </trkpt>
      <trkpt lat="37.84235351630037" lon="112.00763061150018">
        <ele>1127.5016190756771</ele>
        <time>2016-06-28T09:40:33.500000Z</time>
      </trkpt>
      <trkpt lat="37.84268056421245" lon="112.00740783323593">
        <ele>1128.3412403397413</ele>
        <time>2016-06-28T09:40:47.500000Z</time>
      </trkpt>
      <trkpt lat="37.8428897016226" lon="112.00723967308807">
        <ele>1129.1321562082146</ele>
        <time>2016-06-28T09:40:57.500000Z</time>
      </trkpt>
      <trkpt lat="37.84297557640538" lon="112.00719235800048">
        <ele>1129.0463657805524</ele>
        <time>2016-06-28T09:41:01.500000Z</time>
      </trkpt>
      <trkpt lat="37.84320815553318" lon="112.00698770340053">
        <ele>1129.126096134336</ele>
        <time>2016-06-28T09:41:11.500000Z</time>
      </trkpt>
      <trkpt lat="37.84332281756387" lon="112.00693092412541">
        <ele>1129.0947528744814</ele>
        <time>2016-06-28T09:41:15.500000Z</time>
      </trkpt>
      <trkpt lat="37.84360156929023" lon="112.00670977580255">
        <ele>1130.1244132118181</ele>
        <time>2016-06-28T09:41:25.500000Z</time>
      </trkpt>
      <trkpt lat="37.84376744408568" lon="112.00658379102089">
        <ele>1131.1315056684373</ele>
        <time>2016-06-28T09:41:32.500000Z</time>
      </trkpt>
      <trkpt lat="37.84412175873752" lon="112.00640750626884">
        <ele>1130.7827164231064</ele>
        <time>2016-06-28T09:41:44.500000Z</time>
      </trkpt>
      <trkpt lat="37.8443162986628" lon="112.00631314485689">
        <ele>1130.7338463851302</ele>
        <time>2016-06-28T09:41:52.500000Z</time>
      </trkpt>
      <trkpt lat="37.84441213916306" lon="112.00629042740063">
        <ele>1131.1564712877862</ele>
        <time>2016-06-28T09:41:56.500000Z</time>
      </trkpt>
      <trkpt lat="37.84480718149531" lon="112.00637687947297">
        <ele>1131.1772449944194</ele>
        <time>2016-06-28T09:42:10.500000Z</time>
      </trkpt>
      <trkpt lat="37.84515639578205" lon="112.0064554981089">
        <ele>1131.1530358524094</ele>
        <time>2016-06-28T09:42:22.500000Z</time>
      </trkpt>
      <trkpt lat="37.84543698136046" lon="112.00652980004267">
        <ele>1129.598770652173</ele>
        <time>2016-06-28T09:42:33.500000Z</time>
      </trkpt>
      <trkpt lat="37.84579309061136" lon="112.0066619396129">
        <ele>1129.2818730322056</ele>
        <time>2016-06-28T09:42:47.500000Z</time>
      </trkpt>
      <trkpt lat="37.846028707199544" lon="112.00671327065075">
        <ele>1129.2449517147522</ele>
        <time>2016-06-28T09:42:54.600000Z</time>
      </trkpt>
      <trkpt lat="37.84637046373136" lon="112.00674539694415">
        <ele>1128.6016475064155</ele>
        <time>2016-06-28T09:43:05.600000Z</time>
      </trkpt>
      <trkpt lat="37.84664301018621" lon="112.00678618147933">
        <ele>1127.4606948894411</ele>
        <time>2016-06-28T09:43:17.500000Z</time>
      </trkpt>
      <trkpt lat="37.84702839573614" lon="112.0068358728656">
        <ele>1127.883193471332</ele>
        <time>2016-06-28T09:43:29.500000Z</time>
      </trkpt>
      <trkpt lat="37.8473069610701" lon="112.0068598973906">
        <ele>1127.7061019590756</ele>
        <time>2016-06-28T09:43:39.500000Z</time>
      </trkpt>
      <trkpt lat="37.84750686057883" lon="112.00687906569176">
        <ele>1126.733109132434</ele>
        <time>2016-06-28T09:43:46.500000Z</time>
      </trkpt>
      <trkpt lat="37.847857790617674" lon="112.00692849093764">
        <ele>1125.499188118176</ele>
        <time>2016-06-28T09:43:57.500000Z</time>
      </trkpt>
      <trkpt lat="37.84808669241611" lon="112.00695711672569">
        <ele>1124.5729014643796</ele>
        <time>2016-06-28T09:44:04.500000Z</time>
      </trkpt>
      <trkpt lat="37.84826132911066" lon="112.0070779255928">
        <ele>1123.9312105331187</ele>
        <time>2016-06-28T09:44:11.500000Z</time>
      </trkpt>
      <trkpt lat="37.84848380893386" lon="112.00735037486541">
        <ele>1122.2390490675548</ele>
        <time>2016-06-28T09:44:21.500000Z</time>
      </trkpt>
      <trkpt lat="37.848663100549075" lon="112.00763986023716">
        <ele>1120.4826774977098</ele>
        <time>2016-06-28T09:44:31.500000Z</time>
      </trkpt>
      <trkpt lat="37.84887446383357" lon="112.00800205815608">
        <ele>1118.682982520971</ele>
        <time>2016-06-28T09:44:45.500000Z</time>
      </trkpt>
      <trkpt lat="37.849070279775596" lon="112.00830100556794">
        <ele>1116.9528032072012</ele>
        <time>2016-06-28T09:44:56.500000Z</time>
      </trkpt>
      <trkpt lat="37.84926127793632" lon="112.00857805912479">
        <ele>1115.4669552322391</ele>
        <time>2016-06-28T09:45:04.500000Z</time>
      </trkpt>
      <trkpt lat="37.84943758475059" lon="112.00886917232353">
        <ele>1113.2040963546776</ele>
        <time>2016-06-28T09:45:16.500000Z</time>
      </trkpt>
      <trkpt lat="37.849619187439025" lon="112.00920488935675">
        <ele>1112.1142949183986</ele>
        <time>2016-06-28T09:45:27.500000Z</time>
      </trkpt>
      <trkpt lat="37.849749239166215" lon="112.00954169572701">
        <ele>1110.5306473892192</ele>
        <time>2016-06-28T09:45:38.500000Z</time>
      </trkpt>
      <trkpt lat="37.849782048138216" lon="112.0096406302302">
        <ele>1109.4430855111414</ele>
        <time>2016-06-28T09:45:42.500000Z</time>
      </trkpt>
      <trkpt lat="37.8498249720887" lon="112.00971361257139">
        <ele>1108.7009954575424</ele>
        <time>2016-06-28T09:45:45.600000Z</time>
      </trkpt>
      <trkpt lat="37.84988740451275" lon="112.0099801453204">
        <ele>1107.5023482365348</ele>
        <time>2016-06-28T09:45:52.500000Z</time>
      </trkpt>
      <trkpt lat="37.84990549037723" lon="112.01028885558924">
        <ele>1106.2754355876332</ele>
        <time>2016-06-28T09:46:02.500000Z</time>
      </trkpt>
      <trkpt lat="37.849864169587434" lon="112.01077977628375">
        <ele>1103.1412219426732</ele>
        <time>2016-06-28T09:46:17.500000Z</time>
      </trkpt>
      <trkpt lat="37.8498164054619" lon="112.01124853498087">
        <ele>1102.1924380501127</ele>
        <time>2016-06-28T09:46:29.500000Z</time>
      </trkpt>
      <trkpt lat="37.84978194749951" lon="112.01152806274287">
        <ele>1101.6811255871821</ele>
        <time>2016-06-28T09:46:36.500000Z</time>
      </trkpt>
      <trkpt lat="37.849787505633174" lon="112.01185543644803">
        <ele>1101.6281090961056</ele>
        <time>2016-06-28T09:46:43.600000Z</time>
      </trkpt>
      <trkpt lat="37.84973784547997" lon="112.01204548808113">
        <ele>1102.3054562013479</ele>
        <time>2016-06-28T09:46:47.500000Z</time>
      </trkpt>
      <trkpt lat="37.84971402070547" lon="112.01230825798395">
        <ele>1102.8473930110392</ele>
        <time>2016-06-28T09:46:55.500000Z</time>
      </trkpt>
      <trkpt lat="37.84966826210381" lon="112.01274404889311">
        <ele>1102.7054144324914</ele>
        <time>2016-06-28T09:47:05.500000Z</time>
      </trkpt>
      <trkpt lat="37.849663914467435" lon="112.01293382814455">
        <ele>1102.5773478287376</ele>
        <time>2016-06-28T09:47:11.600000Z</time>
      </trkpt>
      <trkpt lat="37.849643964136774" lon="112.01307765194183">
        <ele>1102.4166210703597</ele>
        <time>2016-06-28T09:47:15.500000Z</time>
      </trkpt>
      <trkpt lat="37.849558481736075" lon="112.01336611730424">
        <ele>1102.0375005687863</ele>
        <time>2016-06-28T09:47:23.500000Z</time>
      </trkpt>
      <trkpt lat="37.84957576250257" lon="112.01367728107503">
        <ele>1101.3998963806703</ele>
        <time>2016-06-28T09:47:31.500000Z</time>
      </trkpt>
      <trkpt lat="37.8495629777588" lon="112.01378298753949">
        <ele>1101.1181609560895</ele>
        <time>2016-06-28T09:47:34.500000Z</time>
      </trkpt>
      <trkpt lat="37.849563659390085" lon="112.01411199897973">
        <ele>1101.1486842604581</ele>
        <time>2016-06-28T09:47:45.500000Z</time>
      </trkpt>
      <trkpt lat="37.8495222314549" lon="112.01455591638937">
        <ele>1099.8049038131637</ele>
        <time>2016-06-28T09:47:56.500000Z</time>
      </trkpt>
      <trkpt lat="37.84948278570133" lon="112.0149719916095">
        <ele>1098.5530574045163</ele>
        <time>2016-06-28T09:48:07.600000Z</time>
      </trkpt>
      <trkpt lat="37.849451469256195" lon="112.01539266579238">
        <ele>1098.3302941678314</ele>
        <time>2016-06-28T09:48:18.500000Z</time>
      </trkpt>
      <trkpt lat="37.84937908110483" lon="112.01575549244833">
        <ele>1098.395383848214</ele>
        <time>2016-06-28T09:48:29.500000Z</time>
      </trkpt>
      <trkpt lat="37.84933074393238" lon="112.01615292533621">
        <ele>1098.8239635296793</ele>
        <time>2016-06-28T09:48:40.500000Z</time>
      </trkpt>
      <trkpt lat="37.84930308600459" lon="112.01653035267432">
        <ele>1099.4441633942458</ele>
        <time>2016-06-28T09:48:51.500000Z</time>
      </trkpt>
      <trkpt lat="37.84925676335549" lon="112.01698511006113">
        <ele>1099.8758727292466</ele>
        <time>2016-06-28T09:49:03.500000Z</time>
      </trkpt>
      <trkpt lat="37.849237852198385" lon="112.01705270369548">
        <ele>1100.0143241860605</ele>
        <time>2016-06-28T09:49:06.500000Z</time>
      </trkpt>
      <trkpt lat="37.849310627288396" lon="112.01693400460805">
        <ele>1100.5359202048653</ele>
        <time>2016-06-28T09:49:16.500000Z</time>
      </trkpt>
      <trkpt lat="37.84934517760222" lon="112.0165168295216">
        <ele>1101.7707425404726</ele>
        <time>2016-06-28T09:49:28.500000Z</time>
      </trkpt>
      <trkpt lat="37.84940455227281" lon="112.01614886109992">
        <ele>1102.162854045592</ele>
        <time>2016-06-28T09:49:42.600000Z</time>
      </trkpt>
      <trkpt lat="37.84941866726789" lon="112.01576440950065">
        <ele>1102.3071309239858</ele>
        <time>2016-06-28T09:49:53.500000Z</time>
      </trkpt>
      <trkpt lat="37.849468889484726" lon="112.01537292779295">
        <ele>1103.4611935883624</ele>
        <time>2016-06-28T09:50:04.600000Z</time>
      </trkpt>
      <trkpt lat="37.84950413223956" lon="112.01509743277343">
        <ele>1104.0396131151224</ele>
        <time>2016-06-28T09:50:12.500000Z</time>
      </trkpt>
      <trkpt lat="37.84954185443178" lon="112.01499901979312">
        <ele>1104.3506431126225</ele>
        <time>2016-06-28T09:50:16.600000Z</time>
      </trkpt>
      <trkpt lat="37.84958793542625" lon="112.01453968753178">
        <ele>1105.7711645260508</ele>
        <time>2016-06-28T09:50:31.500000Z</time>
      </trkpt>
      <trkpt lat="37.84960848050088" lon="112.0141874205805">
        <ele>1105.4996231650205</ele>
        <time>2016-06-28T09:50:42.500000Z</time>
      </trkpt>
      <trkpt lat="37.84964432620201" lon="112.01379865784264">
        <ele>1104.7641057872584</ele>
        <time>2016-06-28T09:50:56.500000Z</time>
      </trkpt>
      <trkpt lat="37.849655155239915" lon="112.01343017707869">
        <ele>1104.3657444402904</ele>
        <time>2016-06-28T09:51:06.500000Z</time>
      </trkpt>
      <trkpt lat="37.84969875821049" lon="112.01308143016747">
        <ele>1104.1211293754227</ele>
        <time>2016-06-28T09:51:17.500000Z</time>
      </trkpt>
      <trkpt lat="37.84974314341976" lon="112.01274431027707">
        <ele>1102.8896765346863</ele>
        <time>2016-06-28T09:51:28.500000Z</time>
      </trkpt>
      <trkpt lat="37.84977390837284" lon="112.01242665864679">
        <ele>1103.5693676643664</ele>
        <time>2016-06-28T09:51:39.500000Z</time>
      </trkpt>
      <trkpt lat="37.84980989144798" lon="112.01218118820663">
        <ele>1103.9278895758982</ele>
        <time>2016-06-28T09:51:47.500000Z</time>
      </trkpt>
      <trkpt lat="37.849816486461634" lon="112.0118724640765">
        <ele>1104.2373606526517</ele>
        <time>2016-06-28T09:51:56.600000Z</time>
      </trkpt>
      <trkpt lat="37.84977020678447" lon="112.01146048092426">
        <ele>1105.3601663338013</ele>
        <time>2016-06-28T09:52:08.500000Z</time>
      </trkpt>
      <trkpt lat="37.84977307840119" lon="112.01122015534622">
        <ele>1105.9774346104148</ele>
        <time>2016-06-28T09:52:15.600000Z</time>
      </trkpt>
      <trkpt lat="37.84980494700867" lon="112.01089872836994">
        <ele>1108.0790138561952</ele>
        <time>2016-06-28T09:52:25.500000Z</time>
      </trkpt>
      <trkpt lat="37.84979483085295" lon="112.01064705306011">
        <ele>1109.6257494446331</ele>
        <time>2016-06-28T09:52:33.500000Z</time>
      </trkpt>
      <trkpt lat="37.84981275505402" lon="112.01054838106332">
        <ele>1110.3361964464555</ele>
        <time>2016-06-28T09:52:36.500000Z</time>
      </trkpt>
      <trkpt lat="37.84983217807535" lon="112.01012369487839">
        <ele>1113.7716403726401</ele>
        <time>2016-06-28T09:52:48.500000Z</time>
      </trkpt>
      <trkpt lat="37.84986525647726" lon="112.00985390615197">
        <ele>1115.2083968997788</ele>
        <time>2016-06-28T09:52:55.500000Z</time>
      </trkpt>
      <trkpt lat="37.84985945793076" lon="112.00961142602208">
        <ele>1115.7188264512665</ele>
        <time>2016-06-28T09:53:02.500000Z</time>
      </trkpt>
      <trkpt lat="37.84983834564425" lon="112.00950221789131">
        <ele>1116.3168670825328</ele>
        <time>2016-06-28T09:53:06.500000Z</time>
      </trkpt>
      <trkpt lat="37.849805264021555" lon="112.00912755515408">
        <ele>1117.702895872043</ele>
        <time>2016-06-28T09:53:19.500000Z</time>
      </trkpt>
      <trkpt lat="37.84957479038156" lon="112.00880373846755">
        <ele>1119.4013194588733</ele>
        <time>2016-06-28T09:53:35.500000Z</time>
      </trkpt>
      <trkpt lat="37.84945807783475" lon="112.00863642455877">
        <ele>1119.5356448751731</ele>
        <time>2016-06-28T09:53:42.500000Z</time>
      </trkpt>
      <trkpt lat="37.84933476944976" lon="112.00849776565961">
        <ele>1119.5307935592155</ele>
        <time>2016-06-28T09:53:49.500000Z</time>
      </trkpt>
      <trkpt lat="37.84912120541591" lon="112.00814502630884">
        <ele>1118.990112573265</ele>
        <time>2016-06-28T09:54:00.500000Z</time>
      </trkpt>
      <trkpt lat="37.84897257906029" lon="112.00785256157452">
        <ele>1119.1282566248678</ele>
        <time>2016-06-28T09:54:11.500000Z</time>
      </trkpt>
      <trkpt lat="37.8487997991857" lon="112.00765417062084">
        <ele>1120.5133358384978</ele>
        <time>2016-06-28T09:54:21.500000Z</time>
      </trkpt>
      <trkpt lat="37.84868698290663" lon="112.00745469184942">
        <ele>1121.7474838891048</ele>
        <time>2016-06-28T09:54:32.500000Z</time>
      </trkpt>
      <trkpt lat="37.848486981433716" lon="112.00719575513808">
        <ele>1122.4454859098457</ele>
        <time>2016-06-28T09:54:43.500000Z</time>
      </trkpt>
      <trkpt lat="37.84823592831755" lon="112.00695223329915">
        <ele>1122.2601963496468</ele>
        <time>2016-06-28T09:54:54.500000Z</time>
      </trkpt>
      <trkpt lat="37.84797287315607" lon="112.00682170397502">
        <ele>1121.9767151042433</ele>
        <time>2016-06-28T09:55:05.500000Z</time>
      </trkpt>
      <trkpt lat="37.84763770980033" lon="112.00676200508335">
        <ele>1124.7702473990066</ele>
        <time>2016-06-28T09:55:17.500000Z</time>
      </trkpt>
      <trkpt lat="37.84734380844602" lon="112.00669473260132">
        <ele>1126.6119619400006</ele>
        <time>2016-06-28T09:55:28.500000Z</time>
      </trkpt>
      <trkpt lat="37.84706865429482" lon="112.00670963254788">
        <ele>1128.121571599359</ele>
        <time>2016-06-28T09:55:39.500000Z</time>
      </trkpt>
      <trkpt lat="37.846790145388475" lon="112.00666668627936">
        <ele>1129.087699952402</ele>
        <time>2016-06-28T09:55:50.500000Z</time>
      </trkpt>
      <trkpt lat="37.846609952738326" lon="112.00668076395766">
        <ele>1130.6366184043359</ele>
        <time>2016-06-28T09:55:57.500000Z</time>
      </trkpt>
      <trkpt lat="37.84633044080041" lon="112.00661024609916">
        <ele>1133.5113800614715</ele>
        <time>2016-06-28T09:56:09.500000Z</time>
      </trkpt>
      <trkpt lat="37.84603601409221" lon="112.00653729729132">
        <ele>1136.081320485707</ele>
        <time>2016-06-28T09:56:20.500000Z</time>
      </trkpt>
      <trkpt lat="37.84574367340832" lon="112.00649273090808">
        <ele>1137.289718155272</ele>
        <time>2016-06-28T09:56:33.500000Z</time>
      </trkpt>
      <trkpt lat="37.84549411477883" lon="112.00638571777905">
        <ele>1136.2355012359192</ele>
        <time>2016-06-28T09:56:44.500000Z</time>
      </trkpt>
      <trkpt lat="37.84521946027048" lon="112.0063241198503">
        <ele>1134.5399040210536</ele>
        <time>2016-06-28T09:56:55.500000Z</time>
      </trkpt>
      <trkpt lat="37.844889882874355" lon="112.00621116970005">
        <ele>1133.7193378741085</ele>
        <time>2016-06-28T09:57:06.500000Z</time>
      </trkpt>
      <trkpt lat="37.84456509491411" lon="112.00612984531908">
        <ele>1133.2886851129897</ele>
        <time>2016-06-28T09:57:21.500000Z</time>
      </trkpt>
      <trkpt lat="37.84429311544211" lon="112.00617204600036">
        <ele>1134.1961350992185</ele>
        <time>2016-06-28T09:57:31.500000Z</time>
      </trkpt>
      <trkpt lat="37.8442344517852" lon="112.00619232620078">
        <ele>1134.49214585084</ele>
        <time>2016-06-28T09:57:35.500000Z</time>
      </trkpt>
      <trkpt lat="37.84396790768947" lon="112.00641347144297">
        <ele>1132.9219935544443</ele>
        <time>2016-06-28T09:57:47.500000Z</time>
      </trkpt>
      <trkpt lat="37.843875292364174" lon="112.00644646034826">
        <ele>1131.7959986846613</ele>
        <time>2016-06-28T09:57:51.500000Z</time>
      </trkpt>
      <trkpt lat="37.84380316298233" lon="112.00652431838525">
        <ele>1131.4277371641838</ele>
        <time>2016-06-28T09:57:54.500000Z</time>
      </trkpt>
      <trkpt lat="37.84350763536264" lon="112.0067300603642">
        <ele>1131.8154129275622</ele>
        <time>2016-06-28T09:58:06.500000Z</time>
      </trkpt>
      <trkpt lat="37.84326482814196" lon="112.00699823882783">
        <ele>1131.1167601930479</ele>
        <time>2016-06-28T09:58:16.500000Z</time>
      </trkpt>
      <trkpt lat="37.84318673765984" lon="112.00707366537846">
        <ele>1130.825355626306</ele>
        <time>2016-06-28T09:58:20.500000Z</time>
      </trkpt>
      <trkpt lat="37.843091977048964" lon="112.00709827515367">
        <ele>1130.562808949505</ele>
        <time>2016-06-28T09:58:24.500000Z</time>
      </trkpt>
      <trkpt lat="37.84292710527945" lon="112.00706964165765">
        <ele>1130.2706723257895</ele>
        <time>2016-06-28T09:58:31.500000Z</time>
      </trkpt>
      <trkpt lat="37.842865447811334" lon="112.00709316623109">
        <ele>1130.5553269433178</ele>
        <time>2016-06-28T09:58:35.500000Z</time>
      </trkpt>
      <trkpt lat="37.84279065895712" lon="112.0071531846434">
        <ele>1130.830135455993</ele>
        <time>2016-06-28T09:58:39.500000Z</time>
      </trkpt>
      <trkpt lat="37.842738073448075" lon="112.00722806769785">
        <ele>1131.0812656648052</ele>
        <time>2016-06-28T09:58:42.500000Z</time>
      </trkpt>
      <trkpt lat="37.842650195125486" lon="112.00731052383105">
        <ele>1131.5963746073667</ele>
        <time>2016-06-28T09:58:46.500000Z</time>
      </trkpt>
      <trkpt lat="37.84234520978531" lon="112.0075041051576">
        <ele>1131.9621804610445</ele>
        <time>2016-06-28T09:58:59.500000Z</time>
      </trkpt>
      <trkpt lat="37.842088335926846" lon="112.00766767631556">
        <ele>1135.7327454834228</ele>
        <time>2016-06-28T09:59:09.500000Z</time>
      </trkpt>
      <trkpt lat="37.841831005555576" lon="112.00780232414292">
        <ele>1139.7745018781713</ele>
        <time>2016-06-28T09:59:19.600000Z</time>
      </trkpt>
      <trkpt lat="37.841754056378406" lon="112.00785909966521">
        <ele>1141.423568905321</ele>
        <time>2016-06-28T09:59:23.500000Z</time>
      </trkpt>
      <trkpt lat="37.84164981198636" lon="112.00797129335272">
        <ele>1143.0607458633506</ele>
        <time>2016-06-28T09:59:30.500000Z</time>
      </trkpt>
      <trkpt lat="37.84158866620756" lon="112.00800536053679">
        <ele>1144.0140565645618</ele>
        <time>2016-06-28T09:59:34.500000Z</time>
      </trkpt>
      <trkpt lat="37.841304351893946" lon="112.00809054426283">
        <ele>1143.7902444167132</ele>
        <time>2016-06-28T09:59:46.500000Z</time>
      </trkpt>
      <trkpt lat="37.841194789663675" lon="112.00816624614342">
        <ele>1143.8786930327608</ele>
        <time>2016-06-28T09:59:50.500000Z</time>
      </trkpt>
      <trkpt lat="37.84111253057825" lon="112.0081838265884">
        <ele>1143.8842621214092</ele>
        <time>2016-06-28T10:00:05.500000Z</time>
      </trkpt>
      <trkpt lat="37.841355979303124" lon="112.00815568453329">
        <ele>1142.6839461275042</ele>
        <time>2016-06-28T10:00:16.500000Z</time>
      </trkpt>
      <trkpt lat="37.84162383168342" lon="112.00804076783032">
        <ele>1141.9155967745376</ele>
        <time>2016-06-28T10:00:26.500000Z</time>
      </trkpt>
      <trkpt lat="37.841879259257205" lon="112.00790720099619">
        <ele>1141.881209578997</ele>
        <time>2016-06-28T10:00:34.500000Z</time>
      </trkpt>
      <trkpt lat="37.842208728091606" lon="112.00769117938017">
        <ele>1142.0496692614597</ele>
        <time>2016-06-28T10:00:47.500000Z</time>
      </trkpt>
      <trkpt lat="37.84247842172802" lon="112.00750462989356">
        <ele>1143.3250881261345</ele>
        <time>2016-06-28T10:01:01.500000Z</time>
      </trkpt>
      <trkpt lat="37.84273438889945" lon="112.00737241566858">
        <ele>1141.8658303549666</ele>
        <time>2016-06-28T10:01:12.500000Z</time>
      </trkpt>
      <trkpt lat="37.84298666881696" lon="112.0072028988965">
        <ele>1139.848689909511</ele>
        <time>2016-06-28T10:01:23.500000Z</time>
      </trkpt>
      <trkpt lat="37.8432610330061" lon="112.00699715803046">
        <ele>1138.414993055774</ele>
        <time>2016-06-28T10:01:35.500000Z</time>
      </trkpt>
      <trkpt lat="37.843574785271905" lon="112.00677546469733">
        <ele>1136.814650729105</ele>
        <time>2016-06-28T10:01:47.500000Z</time>
      </trkpt>
      <trkpt lat="37.84377527586901" lon="112.00659595407883">
        <ele>1136.296418180217</ele>
        <time>2016-06-28T10:01:55.500000Z</time>
      </trkpt>
      <trkpt lat="37.84401859127624" lon="112.00643076525722">
        <ele>1136.3589674254</ele>
        <time>2016-06-28T10:02:05.500000Z</time>
      </trkpt>
      <trkpt lat="37.844322071155595" lon="112.00628800535382">
        <ele>1135.9455856328327</ele>
        <time>2016-06-28T10:02:19.500000Z</time>
      </trkpt>
      <trkpt lat="37.84450198542661" lon="112.00618526625169">
        <ele>1135.104282282389</ele>
        <time>2016-06-28T10:02:26.500000Z</time>
      </trkpt>
      <trkpt lat="37.84482472144282" lon="112.00622685542342">
        <ele>1134.3803077740026</ele>
        <time>2016-06-28T10:02:39.500000Z</time>
      </trkpt>
      <trkpt lat="37.84512458034929" lon="112.00629764079946">
        <ele>1133.4101079477564</ele>
        <time>2016-06-28T10:02:50.500000Z</time>
      </trkpt>
      <trkpt lat="37.845436022752224" lon="112.00639626680382">
        <ele>1133.3002595201897</ele>
        <time>2016-06-28T10:03:01.500000Z</time>
      </trkpt>
      <trkpt lat="37.845749895847284" lon="112.00649867699802">
        <ele>1133.250727363443</ele>
        <time>2016-06-28T10:03:12.500000Z</time>
      </trkpt>
      <trkpt lat="37.846052107563445" lon="112.00659946686109">
        <ele>1132.40427612583</ele>
        <time>2016-06-28T10:03:23.500000Z</time>
      </trkpt>
      <trkpt lat="37.84623461394726" lon="112.00662836836776">
        <ele>1132.0684706912782</ele>
        <time>2016-06-28T10:03:30.500000Z</time>
      </trkpt>
      <trkpt lat="37.84654691190562" lon="112.00671320883485">
        <ele>1129.9118261848266</ele>
        <time>2016-06-28T10:03:41.500000Z</time>
      </trkpt>
      <trkpt lat="37.846821968582105" lon="112.00673101657573">
        <ele>1129.6807534321044</ele>
        <time>2016-06-28T10:03:48.500000Z</time>
      </trkpt>
      <trkpt lat="37.84708397982632" lon="112.00675639459901">
        <ele>1128.8657937523544</ele>
        <time>2016-06-28T10:03:56.500000Z</time>
      </trkpt>
      <trkpt lat="37.84714993507796" lon="112.00674746645093">
        <ele>1128.5683425592806</ele>
        <time>2016-06-28T10:03:59.500000Z</time>
      </trkpt>
      <trkpt lat="37.84742654731919" lon="112.0067896020579">
        <ele>1127.2833303863974</ele>
        <time>2016-06-28T10:04:09.500000Z</time>
      </trkpt>
      <trkpt lat="37.84753478132562" lon="112.00679607662576">
        <ele>1126.3471794741122</ele>
        <time>2016-06-28T10:04:13.500000Z</time>
      </trkpt>
      <trkpt lat="37.84784128137766" lon="112.00682361185667">
        <ele>1124.1109296286872</ele>
        <time>2016-06-28T10:04:23.500000Z</time>
      </trkpt>
      <trkpt lat="37.84804486347953" lon="112.00688170462567">
        <ele>1123.5074622873688</ele>
        <time>2016-06-28T10:04:30.500000Z</time>
      </trkpt>
      <trkpt lat="37.84815609724526" lon="112.00688304291484">
        <ele>1122.9844954142795</ele>
        <time>2016-06-28T10:04:36.500000Z</time>
      </trkpt>
      <trkpt lat="37.848265247671826" lon="112.00694628293118">
        <ele>1123.1594922387283</ele>
        <time>2016-06-28T10:04:40.500000Z</time>
      </trkpt>
      <trkpt lat="37.84850246771163" lon="112.00727982075922">
        <ele>1122.7694519056586</ele>
        <time>2016-06-28T10:04:51.500000Z</time>
      </trkpt>
      <trkpt lat="37.84874579508889" lon="112.00756713566459">
        <ele>1120.968577982273</ele>
        <time>2016-06-28T10:05:03.500000Z</time>
      </trkpt>
      <trkpt lat="37.84891943720042" lon="112.00784067401852">
        <ele>1119.2265152653404</ele>
        <time>2016-06-28T10:05:13.500000Z</time>
      </trkpt>
      <trkpt lat="37.84910195187854" lon="112.00814178480161">
        <ele>1118.451887559197</ele>
        <time>2016-06-28T10:05:24.500000Z</time>
      </trkpt>
      <trkpt lat="37.849248151061424" lon="112.00842965573842">
        <ele>1116.6243571605003</ele>
        <time>2016-06-28T10:05:34.500000Z</time>
      </trkpt>
      <trkpt lat="37.84931937143317" lon="112.00856696911076">
        <ele>1116.2803702208994</ele>
        <time>2016-06-28T10:05:38.500000Z</time>
      </trkpt>
      <trkpt lat="37.849489043843086" lon="112.00880780350627">
        <ele>1115.422125497217</ele>
        <time>2016-06-28T10:05:46.500000Z</time>
      </trkpt>
      <trkpt lat="37.8496561163128" lon="112.0090105238985">
        <ele>1114.003126723483</ele>
        <time>2016-06-28T10:05:54.500000Z</time>
      </trkpt>
      <trkpt lat="37.84981898398903" lon="112.00935138008286">
        <ele>1113.954721838541</ele>
        <time>2016-06-28T10:06:04.500000Z</time>
      </trkpt>
      <trkpt lat="37.84989381912961" lon="112.00964386076477">
        <ele>1113.9691487080383</ele>
        <time>2016-06-28T10:06:12.500000Z</time>
      </trkpt>
      <trkpt lat="37.849912255666986" lon="112.01001744726659">
        <ele>1114.7790056148597</ele>
        <time>2016-06-28T10:06:23.500000Z</time>
      </trkpt>
      <trkpt lat="37.849894457664206" lon="112.01016531766746">
        <ele>1115.1753835671145</ele>
        <time>2016-06-28T10:06:27.500000Z</time>
      </trkpt>
      <trkpt lat="37.84988866461158" lon="112.01056810594942">
        <ele>1116.101531568327</ele>
        <time>2016-06-28T10:06:37.500000Z</time>
      </trkpt>
      <trkpt lat="37.849841785368945" lon="112.0109192690408">
        <ele>1116.5511894272945</ele>
        <time>2016-06-28T10:06:48.600000Z</time>
      </trkpt>
      <trkpt lat="37.84979790178292" lon="112.01136018427256">
        <ele>1116.8349026875408</ele>
        <time>2016-06-28T10:07:00.500000Z</time>
      </trkpt>
      <trkpt lat="37.84980251369931" lon="112.01173270281457">
        <ele>1116.9652566385334</ele>
        <time>2016-06-28T10:07:10.500000Z</time>
      </trkpt>
      <trkpt lat="37.84976719772023" lon="112.01212144898093">
        <ele>1116.448084741551</ele>
        <time>2016-06-28T10:07:21.500000Z</time>
      </trkpt>
      <trkpt lat="37.849761945614055" lon="112.0125288478771">
        <ele>1116.7118756760929</ele>
        <time>2016-06-28T10:07:32.500000Z</time>
      </trkpt>
      <trkpt lat="37.849729947291074" lon="112.01289786496044">
        <ele>1116.5038021328046</ele>
        <time>2016-06-28T10:07:43.500000Z</time>
      </trkpt>
      <trkpt lat="37.84965016590259" lon="112.01327878562022">
        <ele>1115.1558670843858</ele>
        <time>2016-06-28T10:07:54.500000Z</time>
      </trkpt>
      <trkpt lat="37.84961556125981" lon="112.01370647356063">
        <ele>1113.68803298701</ele>
        <time>2016-06-28T10:08:06.500000Z</time>
      </trkpt>
      <trkpt lat="37.84957911158958" lon="112.01392762062552">
        <ele>1113.7323688602128</ele>
        <time>2016-06-28T10:08:13.500000Z</time>
      </trkpt>
      <trkpt lat="37.84954685645324" lon="112.01438910783045">
        <ele>1113.517408199326</ele>
        <time>2016-06-28T10:08:27.500000Z</time>
      </trkpt>
      <trkpt lat="37.849505324866236" lon="112.01477517275536">
        <ele>1112.0430472160506</ele>
        <time>2016-06-28T10:08:38.500000Z</time>
      </trkpt>
      <trkpt lat="37.84948218818493" lon="112.0148962930565">
        <ele>1111.554932888523</ele>
        <time>2016-06-28T10:08:42.500000Z</time>
      </trkpt>
      <trkpt lat="37.84945474434253" lon="112.01529074166699">
        <ele>1111.473204558092</ele>
        <time>2016-06-28T10:08:53.500000Z</time>
      </trkpt>
      <trkpt lat="37.849408685629896" lon="112.01574440425517">
        <ele>1111.5576329525845</ele>
        <time>2016-06-28T10:09:05.500000Z</time>
      </trkpt>
      <trkpt lat="37.84936718640232" lon="112.01612237032164">
        <ele>1111.6997247640254</ele>
        <time>2016-06-28T10:09:16.500000Z</time>
      </trkpt>
      <trkpt lat="37.84933155080151" lon="112.01653846013389">
        <ele>1111.49471544073</ele>
        <time>2016-06-28T10:09:28.500000Z</time>
      </trkpt>
      <trkpt lat="37.849295117496915" lon="112.01694995799899">
        <ele>1110.6721606052229</ele>
        <time>2016-06-28T10:09:41.500000Z</time>
      </trkpt>
      <trkpt lat="37.8492797920315" lon="112.01718923357832">
        <ele>1110.3789474331904</ele>
        <time>2016-06-28T10:09:48.500000Z</time>
      </trkpt>
      <trkpt lat="37.849208658747784" lon="112.01759263109616">
        <ele>1109.7254647967916</ele>
        <time>2016-06-28T10:09:59.500000Z</time>
      </trkpt>
      <trkpt lat="37.849178225769535" lon="112.01770564927813">
        <ele>1109.8493545970948</ele>
        <time>2016-06-28T10:10:02.500000Z</time>
      </trkpt>
      <trkpt lat="37.849138236580615" lon="112.01803388471517">
        <ele>1110.4839488485018</ele>
        <time>2016-06-28T10:10:10.500000Z</time>
      </trkpt>
      <trkpt lat="37.84913774431276" lon="112.01850109095967">
        <ele>1110.3393345654033</ele>
        <time>2016-06-28T10:10:23.500000Z</time>
      </trkpt>
      <trkpt lat="37.84912775406661" lon="112.01887313075211">
        <ele>1110.3058886428503</ele>
        <time>2016-06-28T10:10:33.500000Z</time>
      </trkpt>
      <trkpt lat="37.84911056099872" lon="112.01929979201614">
        <ele>1109.774222367429</ele>
        <time>2016-06-28T10:10:45.500000Z</time>
      </trkpt>
      <trkpt lat="37.84908956365435" lon="112.01972997358646">
        <ele>1108.8237442968027</ele>
        <time>2016-06-28T10:10:55.500000Z</time>
      </trkpt>
      <trkpt lat="37.84914087426759" lon="112.02001279057698">
        <ele>1108.6151616037416</ele>
        <time>2016-06-28T10:11:02.500000Z</time>
      </trkpt>
      <trkpt lat="37.84912991457539" lon="112.02044568318009">
        <ele>1108.521303766711</ele>
        <time>2016-06-28T10:11:14.500000Z</time>
      </trkpt>
      <trkpt lat="37.84910223174812" lon="112.02084424309767">
        <ele>1107.8442308265335</ele>
        <time>2016-06-28T10:11:25.500000Z</time>
      </trkpt>
      <trkpt lat="37.849105814070164" lon="112.02102216150044">
        <ele>1107.7192488524904</ele>
        <time>2016-06-28T10:11:29.500000Z</time>
      </trkpt>
      <trkpt lat="37.8491370383874" lon="112.02121197488079">
        <ele>1107.8026046645416</ele>
        <time>2016-06-28T10:11:33.500000Z</time>
      </trkpt>
      <trkpt lat="37.84909562194152" lon="112.02157512288287">
        <ele>1106.9773873561487</ele>
        <time>2016-06-28T10:11:43.500000Z</time>
      </trkpt>
      <trkpt lat="37.84909838731691" lon="112.02185498592515">
        <ele>1106.1791975038977</ele>
        <time>2016-06-28T10:11:50.500000Z</time>
      </trkpt>
      <trkpt lat="37.84906404856127" lon="112.02211133066722">
        <ele>1106.2770813700395</ele>
        <time>2016-06-28T10:11:58.500000Z</time>
      </trkpt>
      <trkpt lat="37.84910346788937" lon="112.02238254073184">
        <ele>1107.1783032862847</ele>
        <time>2016-06-28T10:12:06.500000Z</time>
      </trkpt>
      <trkpt lat="37.84909582159713" lon="112.02260157013663">
        <ele>1108.1593065123395</ele>
        <time>2016-06-28T10:12:10.500000Z</time>
      </trkpt>
      <trkpt lat="37.849112825710556" lon="112.02283547046005">
        <ele>1109.5604225333711</ele>
        <time>2016-06-28T10:12:17.500000Z</time>
      </trkpt>
      <trkpt lat="37.84909529013546" lon="112.02310074416454">
        <ele>1109.746082310058</ele>
        <time>2016-06-28T10:12:24.500000Z</time>
      </trkpt>
      <trkpt lat="37.849113455855544" lon="112.02320620222888">
        <ele>1109.6823416647262</ele>
        <time>2016-06-28T10:12:27.500000Z</time>
      </trkpt>
      <trkpt lat="37.84909400882241" lon="112.023375752895">
        <ele>1109.4434722938659</ele>
        <time>2016-06-28T10:12:31.500000Z</time>
      </trkpt>
      <trkpt lat="37.84908167066886" lon="112.02362642791319">
        <ele>1108.9908467591245</ele>
        <time>2016-06-28T10:12:37.500000Z</time>
      </trkpt>
      <trkpt lat="37.84901835884351" lon="112.02376380651164">
        <ele>1108.9044818788939</ele>
        <time>2016-06-28T10:12:41.500000Z</time>
      </trkpt>
      <trkpt lat="37.84899193285523" lon="112.02400772575767">
        <ele>1109.0507553863438</ele>
        <time>2016-06-28T10:12:48.500000Z</time>
      </trkpt>
      <trkpt lat="37.849003931695215" lon="112.02429031231375">
        <ele>1110.3697857773236</ele>
        <time>2016-06-28T10:12:55.500000Z</time>
      </trkpt>
      <trkpt lat="37.84911888785254" lon="112.02472919370923">
        <ele>1111.5619879307867</ele>
        <time>2016-06-28T10:13:10.500000Z</time>
      </trkpt>
      <trkpt lat="37.84915201761311" lon="112.0250255758801">
        <ele>1111.7386382362436</ele>
        <time>2016-06-28T10:13:17.500000Z</time>
      </trkpt>
      <trkpt lat="37.84915208405455" lon="112.02520595092905">
        <ele>1111.7604369699823</ele>
        <time>2016-06-28T10:13:21.500000Z</time>
      </trkpt>
      <trkpt lat="37.84911674051456" lon="112.02533657224663">
        <ele>1111.605569679014</ele>
        <time>2016-06-28T10:13:25.500000Z</time>
      </trkpt>
      <trkpt lat="37.849094332896044" lon="112.02581037066788">
        <ele>1111.1317329136048</ele>
        <time>2016-06-28T10:13:37.500000Z</time>
      </trkpt>
      <trkpt lat="37.84907358774378" lon="112.02616924042252">
        <ele>1110.6030272307437</ele>
        <time>2016-06-28T10:13:51.500000Z</time>
      </trkpt>
      <trkpt lat="37.84902049504174" lon="112.02655299876994">
        <ele>1109.2111677776566</ele>
        <time>2016-06-28T10:14:01.500000Z</time>
      </trkpt>
      <trkpt lat="37.84888527883012" lon="112.02669688946531">
        <ele>1108.6246549188652</ele>
        <time>2016-06-28T10:14:05.500000Z</time>
      </trkpt>
      <trkpt lat="37.848721558341296" lon="112.0267428842088">
        <ele>1108.1897839204541</ele>
        <time>2016-06-28T10:14:08.500000Z</time>
      </trkpt>
      <trkpt lat="37.8485022899549" lon="112.02676157105606">
        <ele>1108.0613219381391</ele>
        <time>2016-06-28T10:14:16.500000Z</time>
      </trkpt>
      <trkpt lat="37.84831950038321" lon="112.02662853590529">
        <ele>1107.6267117873788</ele>
        <time>2016-06-28T10:14:24.500000Z</time>
      </trkpt>
      <trkpt lat="37.8480656996892" lon="112.0265720443594">
        <ele>1106.249500869218</ele>
        <time>2016-06-28T10:14:34.500000Z</time>
      </trkpt>
      <trkpt lat="37.84796968351255" lon="112.0265612382953">
        <ele>1104.7312480881556</ele>
        <time>2016-06-28T10:14:38.500000Z</time>
      </trkpt>
      <trkpt lat="37.847877246161424" lon="112.02663480920846">
        <ele>1103.3029616560561</ele>
        <time>2016-06-28T10:14:42.500000Z</time>
      </trkpt>
      <trkpt lat="37.84779143924627" lon="112.02666267493665">
        <ele>1102.7244515332059</ele>
        <time>2016-06-28T10:14:46.500000Z</time>
      </trkpt>
      <trkpt lat="37.84774185036565" lon="112.0267435428742">
        <ele>1102.5444171732527</ele>
        <time>2016-06-28T10:14:50.500000Z</time>
      </trkpt>
      <trkpt lat="37.84739148734968" lon="112.0267819877487">
        <ele>1103.2504299809218</ele>
        <time>2016-06-28T10:15:05.500000Z</time>
      </trkpt>
      <trkpt lat="37.847288912620286" lon="112.02678930201789">
        <ele>1103.140617263693</ele>
        <time>2016-06-28T10:15:09.500000Z</time>
      </trkpt>
      <trkpt lat="37.84724397561887" lon="112.02685502494067">
        <ele>1103.3524871368459</ele>
        <time>2016-06-28T10:15:13.500000Z</time>
      </trkpt>
      <trkpt lat="37.8472215568882" lon="112.02692101574428">
        <ele>1103.675004565998</ele>
        <time>2016-06-28T10:15:16.500000Z</time>
      </trkpt>
      <trkpt lat="37.847240007835715" lon="112.0271297965358">
        <ele>1103.642997819453</ele>
        <time>2016-06-28T10:15:20.500000Z</time>
      </trkpt>
      <trkpt lat="37.84748626122747" lon="112.02758790474546">
        <ele>1107.2602245481373</ele>
        <time>2016-06-28T10:15:36.500000Z</time>
      </trkpt>
      <trkpt lat="37.84738552374753" lon="112.02772476460432">
        <ele>1111.635764081948</ele>
        <time>2016-06-28T10:15:51.500000Z</time>
      </trkpt>
      <trkpt lat="37.84735989840835" lon="112.02787784319497">
        <ele>1112.1763961714626</ele>
        <time>2016-06-28T10:15:58.500000Z</time>
      </trkpt>
      <trkpt lat="37.8474123273864" lon="112.02795789083252">
        <ele>1112.6271753553858</ele>
        <time>2016-06-28T10:16:01.500000Z</time>
      </trkpt>
      <trkpt lat="37.84742602277316" lon="112.0280130616256">
        <ele>1113.0744343221381</ele>
        <time>2016-06-28T10:16:04.500000Z</time>
      </trkpt>
      <trkpt lat="37.84740327310745" lon="112.02810312548205">
        <ele>1113.0410580228402</ele>
        <time>2016-06-28T10:16:12.500000Z</time>
      </trkpt>
      <trkpt lat="37.84741938705708" lon="112.02827351021324">
        <ele>1111.3925880379468</ele>
        <time>2016-06-28T10:16:31.500000Z</time>
      </trkpt>
      <trkpt lat="37.847491858690034" lon="112.0284736395032">
        <ele>1110.803012040337</ele>
        <time>2016-06-28T10:16:41.500000Z</time>
      </trkpt>
      <trkpt lat="37.84742380594918" lon="112.02856181703739">
        <ele>1110.33686235855</ele>
        <time>2016-06-28T10:16:48.500000Z</time>
      </trkpt>
      <trkpt lat="37.847376807011784" lon="112.02858616396992">
        <ele>1110.3393876259345</ele>
        <time>2016-06-28T10:16:52.500000Z</time>
      </trkpt>
      <trkpt lat="37.84734354922611" lon="112.02864810309583">
        <ele>1110.5735777619905</ele>
        <time>2016-06-28T10:16:56.500000Z</time>
      </trkpt>
      <trkpt lat="37.847380055786665" lon="112.02869542913035">
        <ele>1111.046718823807</ele>
        <time>2016-06-28T10:17:00.500000Z</time>
      </trkpt>
      <trkpt lat="37.847323806884916" lon="112.0287297843126">
        <ele>1111.6510558052753</ele>
        <time>2016-06-28T10:17:04.500000Z</time>
      </trkpt>
      <trkpt lat="37.847296662326016" lon="112.02884175829092">
        <ele>1111.4283286932086</ele>
        <time>2016-06-28T10:17:08.500000Z</time>
      </trkpt>
    </trkseg>
  </trk>
</gpx>