<?xml version="1.0" encoding="UTF-8"?>
<gpx xmlns="http://www.topografix.com/GPX/1/1" xmlns:gpxtpx="http://www.garmin.com/xmlschemas/TrackPointExtension/v1" xmlns:xsi="http://www.w3.org/2001/XMLSchema-instance" xsi:schemaLocation="http://www.topografix.com/GPX/1/1 http://www.topografix.com/GPX/1/1/gpx.xsd" version="1.1" creator="gpx.py -- https://github.com/tkrajina/gpxpy">
  <trk>
    <name>gpx from keep</name>
    <type>Run</type>
    <trkseg>
      <trkpt lat="37.84749560719565" lon="112.02934804222075">
        <ele>1128.0</ele>
        <time>2018-04-23T01:40:36Z</time>
      </trkpt>
      <trkpt lat="37.84741180154047" lon="112.02922904750415">
        <ele>1122.0</ele>
        <time>2018-04-23T01:40:39Z</time>
      </trkpt>
      <trkpt lat="37.84736671895068" lon="112.02908660693188">
        <ele>1119.0</ele>
        <time>2018-04-23T01:40:45Z</time>
      </trkpt>
      <trkpt lat="37.84737506860498" lon="112.02894966307757">
        <ele>1115.0</ele>
        <time>2018-04-23T01:40:51Z</time>
      </trkpt>
      <trkpt lat="37.84732795240232" lon="112.0289134268322">
        <ele>1109.0</ele>
        <time>2018-04-23T01:40:54Z</time>
      </trkpt>
      <trkpt lat="37.84727035300523" lon="112.0287319544242">
        <ele>1105.0</ele>
        <time>2018-04-23T01:41:03.100000Z</time>
      </trkpt>
      <trkpt lat="37.84728606931602" lon="112.02852667401748">
        <ele>1103.0</ele>
        <time>2018-04-23T01:41:09.200000Z</time>
      </trkpt>
      <trkpt lat="37.84727315904839" lon="112.02816399339844">
        <ele>1103.0</ele>
        <time>2018-04-23T01:41:21.100000Z</time>
      </trkpt>
      <trkpt lat="37.847267153004694" lon="112.02807258054116">
        <ele>1105.0</ele>
        <time>2018-04-23T01:41:24.100000Z</time>
      </trkpt>
      <trkpt lat="37.84732752650533" lon="112.02780563645643">
        <ele>1106.0</ele>
        <time>2018-04-23T01:41:33.100000Z</time>
      </trkpt>
      <trkpt lat="37.84736109040563" lon="112.02773071745908">
        <ele>1107.0</ele>
        <time>2018-04-23T01:41:36.100000Z</time>
      </trkpt>
      <trkpt lat="37.84740765615414" lon="112.02734829695487">
        <ele>1107.0</ele>
        <time>2018-04-23T01:41:48.100000Z</time>
      </trkpt>
      <trkpt lat="37.847515166051494" lon="112.02711110273559">
        <ele>1109.0</ele>
        <time>2018-04-23T01:42:02.800000Z</time>
      </trkpt>
      <trkpt lat="37.84767470122221" lon="112.02690013713354">
        <ele>1108.0</ele>
        <time>2018-04-23T01:42:06.100000Z</time>
      </trkpt>
      <trkpt lat="37.8477231785463" lon="112.02682927527837">
        <ele>1109.0</ele>
        <time>2018-04-23T01:42:09.100000Z</time>
      </trkpt>
      <trkpt lat="37.84773400692096" lon="112.02673407835715">
        <ele>1108.0</ele>
        <time>2018-04-23T01:42:12.100000Z</time>
      </trkpt>
      <trkpt lat="37.84786302263405" lon="112.02647065381481">
        <ele>1107.0</ele>
        <time>2018-04-23T01:42:21.200000Z</time>
      </trkpt>
      <trkpt lat="37.84794256063229" lon="112.02645387702165">
        <ele>1108.0</ele>
        <time>2018-04-23T01:42:24.100000Z</time>
      </trkpt>
      <trkpt lat="37.84803370232653" lon="112.02646116792364">
        <ele>1109.0</ele>
        <time>2018-04-23T01:42:27.100000Z</time>
      </trkpt>
      <trkpt lat="37.84855320015272" lon="112.02648571545306">
        <ele>1115.0</ele>
        <time>2018-04-23T01:42:48.100000Z</time>
      </trkpt>
      <trkpt lat="37.84861498528088" lon="112.02651410417921">
        <ele>1113.0</ele>
        <time>2018-04-23T01:42:51.100000Z</time>
      </trkpt>
      <trkpt lat="37.848697769882826" lon="112.02650084268576">
        <ele>1114.0</ele>
        <time>2018-04-23T01:42:54.100000Z</time>
      </trkpt>
      <trkpt lat="37.84877267095479" lon="112.0264935318143">
        <ele>1112.0</ele>
        <time>2018-04-23T01:42:57.100000Z</time>
      </trkpt>
      <trkpt lat="37.84884772291467" lon="112.02653246610475">
        <ele>1109.0</ele>
        <time>2018-04-23T01:43:00.100000Z</time>
      </trkpt>
      <trkpt lat="37.84890534947353" lon="112.02649081146963">
        <ele>1107.0</ele>
        <time>2018-04-23T01:43:03.100000Z</time>
      </trkpt>
      <trkpt lat="37.84890524794564" lon="112.02621766884765">
        <ele>1104.0</ele>
        <time>2018-04-23T01:43:12.100000Z</time>
      </trkpt>
      <trkpt lat="37.848989228861015" lon="112.02585094834107">
        <ele>1102.0</ele>
        <time>2018-04-23T01:43:24.100000Z</time>
      </trkpt>
      <trkpt lat="37.848983754537024" lon="112.02566245722763">
        <ele>1103.0</ele>
        <time>2018-04-23T01:43:30.100000Z</time>
      </trkpt>
      <trkpt lat="37.84896118387552" lon="112.02557889652499">
        <ele>1103.0</ele>
        <time>2018-04-23T01:43:33.100000Z</time>
      </trkpt>
      <trkpt lat="37.848985301778306" lon="112.02528060922916">
        <ele>1104.0</ele>
        <time>2018-04-23T01:43:42.100000Z</time>
      </trkpt>
      <trkpt lat="37.84893965187352" lon="112.0252040834579">
        <ele>1103.0</ele>
        <time>2018-04-23T01:43:45.100000Z</time>
      </trkpt>
      <trkpt lat="37.84887508969382" lon="112.02499478053666">
        <ele>1104.0</ele>
        <time>2018-04-23T01:43:51.100000Z</time>
      </trkpt>
      <trkpt lat="37.84891221039374" lon="112.02480818246148">
        <ele>1105.0</ele>
        <time>2018-04-23T01:43:57.100000Z</time>
      </trkpt>
      <trkpt lat="37.848930124773666" lon="112.02460049479922">
        <ele>1108.0</ele>
        <time>2018-04-23T01:44:06.100000Z</time>
      </trkpt>
      <trkpt lat="37.848963519818376" lon="112.02448934714711">
        <ele>1109.0</ele>
        <time>2018-04-23T01:44:09.100000Z</time>
      </trkpt>
      <trkpt lat="37.84897415718976" lon="112.02426408512942">
        <ele>1108.0</ele>
        <time>2018-04-23T01:44:15.100000Z</time>
      </trkpt>
      <trkpt lat="37.84900128344967" lon="112.02416402658848">
        <ele>1107.0</ele>
        <time>2018-04-23T01:44:18.100000Z</time>
      </trkpt>
      <trkpt lat="37.84899316969793" lon="112.02405261502007">
        <ele>1107.0</ele>
        <time>2018-04-23T01:44:21.100000Z</time>
      </trkpt>
      <trkpt lat="37.84904522948186" lon="112.02365834124853">
        <ele>1111.0</ele>
        <time>2018-04-23T01:44:33.100000Z</time>
      </trkpt>
      <trkpt lat="37.84910710434561" lon="112.02334871006292">
        <ele>1113.0</ele>
        <time>2018-04-23T01:44:42.100000Z</time>
      </trkpt>
      <trkpt lat="37.84912525597968" lon="112.02315644516717">
        <ele>1113.0</ele>
        <time>2018-04-23T01:44:48.100000Z</time>
      </trkpt>
      <trkpt lat="37.849113799707204" lon="112.0230782978819">
        <ele>1112.0</ele>
        <time>2018-04-23T01:44:51.100000Z</time>
      </trkpt>
      <trkpt lat="37.84906292912757" lon="112.02302773730722">
        <ele>1112.0</ele>
        <time>2018-04-23T01:44:54.100000Z</time>
      </trkpt>
      <trkpt lat="37.849108991629606" lon="112.02284872092977">
        <ele>1109.0</ele>
        <time>2018-04-23T01:45:00.100000Z</time>
      </trkpt>
      <trkpt lat="37.84910224223096" lon="112.02253477904709">
        <ele>1106.0</ele>
        <time>2018-04-23T01:45:09.100000Z</time>
      </trkpt>
      <trkpt lat="37.84914039987491" lon="112.02247041792826">
        <ele>1105.0</ele>
        <time>2018-04-23T01:45:12.100000Z</time>
      </trkpt>
      <trkpt lat="37.849143988501716" lon="112.02234738327985">
        <ele>1106.0</ele>
        <time>2018-04-23T01:45:15.100000Z</time>
      </trkpt>
      <trkpt lat="37.84912229638461" lon="112.02224246914494">
        <ele>1105.0</ele>
        <time>2018-04-23T01:45:18.100000Z</time>
      </trkpt>
      <trkpt lat="37.849139035536545" lon="112.02207265412996">
        <ele>1106.0</ele>
        <time>2018-04-23T01:45:24.100000Z</time>
      </trkpt>
      <trkpt lat="37.849113565545764" lon="112.02196044045614">
        <ele>1105.0</ele>
        <time>2018-04-23T01:45:27.100000Z</time>
      </trkpt>
      <trkpt lat="37.84910539313817" lon="112.02167327643323">
        <ele>1103.0</ele>
        <time>2018-04-23T01:45:36.100000Z</time>
      </trkpt>
      <trkpt lat="37.849120041481925" lon="112.02157457915588">
        <ele>1103.0</ele>
        <time>2018-04-23T01:45:39.100000Z</time>
      </trkpt>
      <trkpt lat="37.84909212228691" lon="112.02136610604089">
        <ele>1103.0</ele>
        <time>2018-04-23T01:45:45.100000Z</time>
      </trkpt>
      <trkpt lat="37.849088584101615" lon="112.02097322228">
        <ele>1105.0</ele>
        <time>2018-04-23T01:45:57.100000Z</time>
      </trkpt>
      <trkpt lat="37.84909423491788" lon="112.02069336525769">
        <ele>1108.0</ele>
        <time>2018-04-23T01:46:04.700000Z</time>
      </trkpt>
      <trkpt lat="37.84907754413893" lon="112.02034970125376">
        <ele>1111.0</ele>
        <time>2018-04-23T01:46:17.100000Z</time>
      </trkpt>
      <trkpt lat="37.84906363521202" lon="112.02017881750207">
        <ele>1111.0</ele>
        <time>2018-04-23T01:46:23.100000Z</time>
      </trkpt>
      <trkpt lat="37.84908162562739" lon="112.01995169039454">
        <ele>1109.0</ele>
        <time>2018-04-23T01:46:29.100000Z</time>
      </trkpt>
      <trkpt lat="37.84904093158811" lon="112.01985246374473">
        <ele>1110.0</ele>
        <time>2018-04-23T01:46:32.200000Z</time>
      </trkpt>
      <trkpt lat="37.84906241247935" lon="112.01963912780309">
        <ele>1111.0</ele>
        <time>2018-04-23T01:46:38.100000Z</time>
      </trkpt>
      <trkpt lat="37.849888948410374" lon="112.01065650331549">
        <ele>1122.0</ele>
        <time>2018-04-23T01:51:12.100000Z</time>
      </trkpt>
      <trkpt lat="37.849915737498385" lon="112.01049538447042">
        <ele>1120.0</ele>
        <time>2018-04-23T01:51:18Z</time>
      </trkpt>
      <trkpt lat="37.849905923612184" lon="112.0103261606569">
        <ele>1117.0</ele>
        <time>2018-04-23T01:51:24.100000Z</time>
      </trkpt>
      <trkpt lat="37.849929586494966" lon="112.00993634758595">
        <ele>1116.0</ele>
        <time>2018-04-23T01:51:36.100000Z</time>
      </trkpt>
      <trkpt lat="37.84993224194082" lon="112.00986362984298">
        <ele>1117.0</ele>
        <time>2018-04-23T01:51:45.800000Z</time>
      </trkpt>
      <trkpt lat="37.839412176869835" lon="112.00810996255892">
        <ele>1137.0</ele>
        <time>2018-04-23T01:59:40.100000Z</time>
      </trkpt>
      <trkpt lat="37.83945653411145" lon="112.00806481432473">
        <ele>1143.0</ele>
        <time>2018-04-23T01:59:46.200000Z</time>
      </trkpt>
      <trkpt lat="37.83965244087627" lon="112.00805776270974">
        <ele>1148.0</ele>
        <time>2018-04-23T02:00:02.100000Z</time>
      </trkpt>
      <trkpt lat="37.8399180353093" lon="112.0079723109406">
        <ele>1142.0</ele>
        <time>2018-04-23T02:00:17.100000Z</time>
      </trkpt>
      <trkpt lat="37.840158233798704" lon="112.00794227715386">
        <ele>1141.0</ele>
        <time>2018-04-23T02:00:35.100000Z</time>
      </trkpt>
      <trkpt lat="37.84043046596787" lon="112.00799738923914">
        <ele>1142.0</ele>
        <time>2018-04-23T02:00:57Z</time>
      </trkpt>
      <trkpt lat="37.84073774850464" lon="112.00803519691137">
        <ele>1141.0</ele>
        <time>2018-04-23T02:01:27.100000Z</time>
      </trkpt>
      <trkpt lat="37.84080415870223" lon="112.00805573306535">
        <ele>1141.0</ele>
        <time>2018-04-23T02:01:33.100000Z</time>
      </trkpt>
      <trkpt lat="37.84085216067816" lon="112.00810150960605">
        <ele>1140.0</ele>
        <time>2018-04-23T02:01:38Z</time>
      </trkpt>
      <trkpt lat="37.84108867767983" lon="112.00808462302524">
        <ele>1144.0</ele>
        <time>2018-04-23T02:01:59.100000Z</time>
      </trkpt>
      <trkpt lat="37.84760937137938" lon="112.02708783314047">
        <ele>1137.0</ele>
        <time>2018-04-23T02:43:35.200000Z</time>
      </trkpt>
      <trkpt lat="37.84761772379567" lon="112.02721521194623">
        <ele>1122.0</ele>
        <time>2018-04-23T02:43:38.100000Z</time>
      </trkpt>
      <trkpt lat="37.8476617003246" lon="112.02735834296223">
        <ele>1113.0</ele>
        <time>2018-04-23T02:43:44Z</time>
      </trkpt>
      <trkpt lat="37.8476724234113" lon="112.02741769726458">
        <ele>1108.0</ele>
        <time>2018-04-23T02:43:47Z</time>
      </trkpt>
      <trkpt lat="37.84756161351971" lon="112.02765094682401">
        <ele>1114.0</ele>
        <time>2018-04-23T02:44:08Z</time>
      </trkpt>
      <trkpt lat="37.84748610456604" lon="112.02764032386095">
        <ele>1117.0</ele>
        <time>2018-04-23T02:44:11.100000Z</time>
      </trkpt>
      <trkpt lat="37.84729126182452" lon="112.02778900858635">
        <ele>1111.0</ele>
        <time>2018-04-23T02:44:25.100000Z</time>
      </trkpt>
      <trkpt lat="37.847366819214564" lon="112.02792976921954">
        <ele>1118.0</ele>
        <time>2018-04-23T02:44:31.100000Z</time>
      </trkpt>
      <trkpt lat="37.84739839147024" lon="112.02820833295762">
        <ele>1112.0</ele>
        <time>2018-04-23T02:44:49.100000Z</time>
      </trkpt>
      <trkpt lat="37.84739834058137" lon="112.02854694488491">
        <ele>1112.0</ele>
        <time>2018-04-23T02:45:11.100000Z</time>
      </trkpt>
      <trkpt lat="37.84739834058137" lon="112.02854694488491">
        <ele>1112.0</ele>
        <time>2018-04-23T02:45:16.700000Z</time>
      </trkpt>
      <trkpt lat="37.84739996906183" lon="112.02875979624017">
        <ele>1111.0</ele>
        <time>2018-04-23T02:45:32.100000Z</time>
      </trkpt>
      <trkpt lat="37.8474150160299" lon="112.02881740255579">
        <ele>1111.0</ele>
        <time>2018-04-23T02:45:35.100000Z</time>
      </trkpt>
      <trkpt lat="37.84737842972935" lon="112.02886612275336">
        <ele>1111.0</ele>
        <time>2018-04-23T02:45:38.100000Z</time>
      </trkpt>
      <trkpt lat="37.847346402658744" lon="112.02918408695574">
        <ele>1113.0</ele>
        <time>2018-04-23T02:45:59Z</time>
      </trkpt>
      <trkpt lat="37.84736105513346" lon="112.02923822261728">
        <ele>1116.6</ele>
        <time>2018-04-23T02:46:02.100000Z</time>
      </trkpt>
      <trkpt lat="37.847437845734675" lon="112.02944073455652">
        <ele>1108.0</ele>
        <time>2018-04-23T02:46:18Z</time>
      </trkpt>
      <trkpt lat="37.84733522510923" lon="112.02951172965518">
        <ele>1120.0</ele>
        <time>2018-04-23T02:46:30.100000Z</time>
      </trkpt>
      <trkpt lat="37.847278097362654" lon="112.0294965721315">
        <ele>1122.0</ele>
        <time>2018-04-23T02:46:33Z</time>
      </trkpt>
      <trkpt lat="37.84717646644374" lon="112.02948655957007">
        <ele>1123.0</ele>
        <time>2018-04-23T02:46:39Z</time>
      </trkpt>
    </trkseg>
  </trk>
</gpx>