<?xml version="1.0" encoding="UTF-8"?>
<gpx xmlns="http://www.topografix.com/GPX/1/1" xmlns:gpxtpx="http://www.garmin.com/xmlschemas/TrackPointExtension/v1" xmlns:xsi="http://www.w3.org/2001/XMLSchema-instance" xsi:schemaLocation="http://www.topografix.com/GPX/1/1 http://www.topografix.com/GPX/1/1/gpx.xsd" version="1.1" creator="gpx.py -- https://github.com/tkrajina/gpxpy">
  <trk>
    <name>gpx from keep</name>
    <type>Run</type>
    <trkseg>
      <trkpt lat="37.85009834007935" lon="112.03261407075483">
        <ele>1085.0</ele>
        <time>2018-10-28T11:00:00.407000Z</time>
      </trkpt>
      <trkpt lat="37.85024230286541" lon="112.03265679222055">
        <ele>1098.0</ele>
        <time>2018-10-28T11:00:03.407000Z</time>
      </trkpt>
      <trkpt lat="37.85028865186724" lon="112.03267545107522">
        <ele>1099.0</ele>
        <time>2018-10-28T11:00:08.807000Z</time>
      </trkpt>
    </trkseg>
  </trk>
</gpx>