<?xml version="1.0" encoding="UTF-8"?>
<gpx xmlns="http://www.topografix.com/GPX/1/1" xmlns:gpxtpx="http://www.garmin.com/xmlschemas/TrackPointExtension/v1" xmlns:xsi="http://www.w3.org/2001/XMLSchema-instance" xsi:schemaLocation="http://www.topografix.com/GPX/1/1 http://www.topografix.com/GPX/1/1/gpx.xsd" version="1.1" creator="gpx.py -- https://github.com/tkrajina/gpxpy">
  <trk>
    <name>gpx from keep</name>
    <type>Run</type>
    <trkseg>
      <trkpt lat="37.84734117408236" lon="112.0291560305774">
        <ele>1140.1</ele>
        <time>2017-02-03T08:31:30.500000Z</time>
      </trkpt>
      <trkpt lat="37.847369576177535" lon="112.02908273146069">
        <ele>1138.1</ele>
        <time>2017-02-03T08:31:36.500000Z</time>
      </trkpt>
      <trkpt lat="37.84735429593891" lon="112.02889870994191">
        <ele>1133.0</ele>
        <time>2017-02-03T08:31:48.500000Z</time>
      </trkpt>
      <trkpt lat="37.84737439542009" lon="112.02868082498571">
        <ele>1130.0</ele>
        <time>2017-02-03T08:32:06.500000Z</time>
      </trkpt>
      <trkpt lat="37.84736320661929" lon="112.02848679251332">
        <ele>1129.6</ele>
        <time>2017-02-03T08:32:18.400000Z</time>
      </trkpt>
      <trkpt lat="37.8473335869958" lon="112.0283778843976">
        <ele>1128.9</ele>
        <time>2017-02-03T08:32:24.700000Z</time>
      </trkpt>
      <trkpt lat="37.847316724119864" lon="112.02811709620697">
        <ele>1129.9</ele>
        <time>2017-02-03T08:32:40.500000Z</time>
      </trkpt>
      <trkpt lat="37.84735939537101" lon="112.02786242748763">
        <ele>1131.3</ele>
        <time>2017-02-03T08:32:58.500000Z</time>
      </trkpt>
      <trkpt lat="37.847447569262236" lon="112.02765227643964">
        <ele>1128.4</ele>
        <time>2017-02-03T08:33:13.800000Z</time>
      </trkpt>
      <trkpt lat="37.84748007194262" lon="112.02752705051324">
        <ele>1127.8</ele>
        <time>2017-02-03T08:33:23.500000Z</time>
      </trkpt>
      <trkpt lat="37.8475189058329" lon="112.02744238262724">
        <ele>1127.7</ele>
        <time>2017-02-03T08:33:29.500000Z</time>
      </trkpt>
      <trkpt lat="37.84751686163309" lon="112.0273497081167">
        <ele>1127.6</ele>
        <time>2017-02-03T08:33:35.500000Z</time>
      </trkpt>
      <trkpt lat="37.84767335580484" lon="112.02712886396725">
        <ele>1123.2</ele>
        <time>2017-02-03T08:33:56.700000Z</time>
      </trkpt>
      <trkpt lat="37.84770847706899" lon="112.02698357333766">
        <ele>1122.8</ele>
        <time>2017-02-03T08:34:05.500000Z</time>
      </trkpt>
      <trkpt lat="37.84783774774599" lon="112.02668737896404">
        <ele>1121.2</ele>
        <time>2017-02-03T08:34:17.500000Z</time>
      </trkpt>
      <trkpt lat="37.84807267556277" lon="112.02658733303421">
        <ele>1122.3</ele>
        <time>2017-02-03T08:34:29.500000Z</time>
      </trkpt>
      <trkpt lat="37.848203833518525" lon="112.02659066587643">
        <ele>1122.6</ele>
        <time>2017-02-03T08:34:35.500000Z</time>
      </trkpt>
      <trkpt lat="37.8483516765406" lon="112.02663677660163">
        <ele>1123.3</ele>
        <time>2017-02-03T08:34:41.500000Z</time>
      </trkpt>
      <trkpt lat="37.848429684117235" lon="112.02664044884122">
        <ele>1123.5</ele>
        <time>2017-02-03T08:34:44.500000Z</time>
      </trkpt>
      <trkpt lat="37.84870151027968" lon="112.02656577248102">
        <ele>1128.9</ele>
        <time>2017-02-03T08:34:53.500000Z</time>
      </trkpt>
      <trkpt lat="37.84881799495068" lon="112.02639194485928">
        <ele>1130.5</ele>
        <time>2017-02-03T08:34:59.500000Z</time>
      </trkpt>
      <trkpt lat="37.848872520899015" lon="112.02633486233329">
        <ele>1130.2</ele>
        <time>2017-02-03T08:35:02.500000Z</time>
      </trkpt>
      <trkpt lat="37.84889717905106" lon="112.02615253384931">
        <ele>1130.5</ele>
        <time>2017-02-03T08:35:08.500000Z</time>
      </trkpt>
      <trkpt lat="37.84887016841981" lon="112.02586148249763">
        <ele>1128.5</ele>
        <time>2017-02-03T08:35:17.500000Z</time>
      </trkpt>
      <trkpt lat="37.84887533852537" lon="112.02566632181782">
        <ele>1124.7</ele>
        <time>2017-02-03T08:35:26.500000Z</time>
      </trkpt>
      <trkpt lat="37.84897212883578" lon="112.02549373798973">
        <ele>1121.8</ele>
        <time>2017-02-03T08:35:32.500000Z</time>
      </trkpt>
      <trkpt lat="37.848991634181765" lon="112.0253801729123">
        <ele>1120.9</ele>
        <time>2017-02-03T08:35:35.500000Z</time>
      </trkpt>
      <trkpt lat="37.848956148161136" lon="112.02527220323066">
        <ele>1119.9</ele>
        <time>2017-02-03T08:35:38.500000Z</time>
      </trkpt>
      <trkpt lat="37.848966069380815" lon="112.02518856226347">
        <ele>1118.4</ele>
        <time>2017-02-03T08:35:41.500000Z</time>
      </trkpt>
      <trkpt lat="37.84895272215158" lon="112.02506615131331">
        <ele>1117.1</ele>
        <time>2017-02-03T08:35:44.500000Z</time>
      </trkpt>
      <trkpt lat="37.848999095357904" lon="112.02487714005407">
        <ele>1114.9</ele>
        <time>2017-02-03T08:35:50.500000Z</time>
      </trkpt>
      <trkpt lat="37.848954577656045" lon="112.02461788897931">
        <ele>1114.3</ele>
        <time>2017-02-03T08:35:56.500000Z</time>
      </trkpt>
      <trkpt lat="37.848952744572415" lon="112.02451568504519">
        <ele>1112.7</ele>
        <time>2017-02-03T08:35:59.500000Z</time>
      </trkpt>
      <trkpt lat="37.84898014771059" lon="112.02418832736845">
        <ele>1106.2</ele>
        <time>2017-02-03T08:36:08.500000Z</time>
      </trkpt>
      <trkpt lat="37.84898019115085" lon="112.02379563239222">
        <ele>1102.8</ele>
        <time>2017-02-03T08:36:17.500000Z</time>
      </trkpt>
      <trkpt lat="37.84898062985251" lon="112.02348767064744">
        <ele>1094.8</ele>
        <time>2017-02-03T08:36:26.500000Z</time>
      </trkpt>
      <trkpt lat="37.84903406212576" lon="112.02329018524789">
        <ele>1095.1</ele>
        <time>2017-02-03T08:36:32.500000Z</time>
      </trkpt>
      <trkpt lat="37.84906355543988" lon="112.02288150947882">
        <ele>1091.7</ele>
        <time>2017-02-03T08:36:44.500000Z</time>
      </trkpt>
      <trkpt lat="37.849098574675544" lon="112.02246005624771">
        <ele>1088.8</ele>
        <time>2017-02-03T08:36:56.500000Z</time>
      </trkpt>
      <trkpt lat="37.84911669128815" lon="112.02235307951128">
        <ele>1088.4</ele>
        <time>2017-02-03T08:36:59.500000Z</time>
      </trkpt>
      <trkpt lat="37.84912215236038" lon="112.02195607031204">
        <ele>1089.8</ele>
        <time>2017-02-03T08:37:11.500000Z</time>
      </trkpt>
      <trkpt lat="37.849136708459916" lon="112.02153340451419">
        <ele>1089.8</ele>
        <time>2017-02-03T08:37:23.400000Z</time>
      </trkpt>
      <trkpt lat="37.849166608108824" lon="112.02112288070312">
        <ele>1088.2</ele>
        <time>2017-02-03T08:37:35.500000Z</time>
      </trkpt>
      <trkpt lat="37.849181714701295" lon="112.02073250162157">
        <ele>1085.2</ele>
        <time>2017-02-03T08:37:47.500000Z</time>
      </trkpt>
      <trkpt lat="37.849193199668505" lon="112.02032484769708">
        <ele>1083.6</ele>
        <time>2017-02-03T08:37:59.500000Z</time>
      </trkpt>
      <trkpt lat="37.84919342801058" lon="112.01989150476385">
        <ele>1085.1</ele>
        <time>2017-02-03T08:38:11.500000Z</time>
      </trkpt>
      <trkpt lat="37.84920449476038" lon="112.0197848196389">
        <ele>1084.9</ele>
        <time>2017-02-03T08:38:14.500000Z</time>
      </trkpt>
      <trkpt lat="37.849208389918516" lon="112.0194346449222">
        <ele>1084.5</ele>
        <time>2017-02-03T08:38:23.600000Z</time>
      </trkpt>
      <trkpt lat="37.84921003466682" lon="112.01901692953487">
        <ele>1087.4</ele>
        <time>2017-02-03T08:38:35.500000Z</time>
      </trkpt>
      <trkpt lat="37.849206867593004" lon="112.01890252888695">
        <ele>1088.0</ele>
        <time>2017-02-03T08:38:38.500000Z</time>
      </trkpt>
      <trkpt lat="37.849234374734756" lon="112.01852369273185">
        <ele>1083.6</ele>
        <time>2017-02-03T08:38:50.500000Z</time>
      </trkpt>
      <trkpt lat="37.84922526455586" lon="112.01821612684418">
        <ele>1083.9</ele>
        <time>2017-02-03T08:38:59.500000Z</time>
      </trkpt>
      <trkpt lat="37.84924756095546" lon="112.01784028625613">
        <ele>1082.6</ele>
        <time>2017-02-03T08:39:11.500000Z</time>
      </trkpt>
      <trkpt lat="37.84927031825348" lon="112.01773879101886">
        <ele>1082.9</ele>
        <time>2017-02-03T08:39:14.500000Z</time>
      </trkpt>
      <trkpt lat="37.84929300125497" lon="112.0173393947782">
        <ele>1081.0</ele>
        <time>2017-02-03T08:39:26.500000Z</time>
      </trkpt>
      <trkpt lat="37.849349188299065" lon="112.01699299694498">
        <ele>1078.2</ele>
        <time>2017-02-03T08:39:35.500000Z</time>
      </trkpt>
      <trkpt lat="37.84939115596519" lon="112.01666418618098">
        <ele>1078.6</ele>
        <time>2017-02-03T08:39:44.500000Z</time>
      </trkpt>
      <trkpt lat="37.84939542603893" lon="112.01625823014477">
        <ele>1082.6</ele>
        <time>2017-02-03T08:39:53.500000Z</time>
      </trkpt>
      <trkpt lat="37.849398750587625" lon="112.01614757328768">
        <ele>1083.2</ele>
        <time>2017-02-03T08:39:56.500000Z</time>
      </trkpt>
      <trkpt lat="37.8494556381043" lon="112.01572260937552">
        <ele>1085.8</ele>
        <time>2017-02-03T08:40:08.500000Z</time>
      </trkpt>
      <trkpt lat="37.84950272955996" lon="112.01531511321659">
        <ele>1089.3</ele>
        <time>2017-02-03T08:40:20.500000Z</time>
      </trkpt>
      <trkpt lat="37.84954785631892" lon="112.01489554088023">
        <ele>1090.8</ele>
        <time>2017-02-03T08:40:32.500000Z</time>
      </trkpt>
      <trkpt lat="37.84957631127853" lon="112.01449706865309">
        <ele>1092.3</ele>
        <time>2017-02-03T08:40:44.500000Z</time>
      </trkpt>
      <trkpt lat="37.84960767729639" lon="112.0141480256828">
        <ele>1103.5</ele>
        <time>2017-02-03T08:40:56.500000Z</time>
      </trkpt>
      <trkpt lat="37.849652773042386" lon="112.0136918704827">
        <ele>1112.7</ele>
        <time>2017-02-03T08:41:19.500000Z</time>
      </trkpt>
      <trkpt lat="37.84967605889111" lon="112.01333176968757">
        <ele>1113.4</ele>
        <time>2017-02-03T08:41:31.500000Z</time>
      </trkpt>
      <trkpt lat="37.84970867830978" lon="112.01312272791127">
        <ele>1112.5</ele>
        <time>2017-02-03T08:41:37.500000Z</time>
      </trkpt>
      <trkpt lat="37.849768513867595" lon="112.01282396824797">
        <ele>1110.6</ele>
        <time>2017-02-03T08:41:46.500000Z</time>
      </trkpt>
      <trkpt lat="37.849784967204336" lon="112.01248393705276">
        <ele>1108.4</ele>
        <time>2017-02-03T08:41:55.500000Z</time>
      </trkpt>
      <trkpt lat="37.8498259316707" lon="112.01205032992671">
        <ele>1105.6</ele>
        <time>2017-02-03T08:42:07.500000Z</time>
      </trkpt>
      <trkpt lat="37.8498590166226" lon="112.01174148331218">
        <ele>1105.8</ele>
        <time>2017-02-03T08:42:16.400000Z</time>
      </trkpt>
      <trkpt lat="37.84984809937821" lon="112.01131009902488">
        <ele>1104.3</ele>
        <time>2017-02-03T08:42:28.500000Z</time>
      </trkpt>
      <trkpt lat="37.84986563697413" lon="112.01090649231095">
        <ele>1104.4</ele>
        <time>2017-02-03T08:42:40.500000Z</time>
      </trkpt>
      <trkpt lat="37.84989074663102" lon="112.01048509729917">
        <ele>1102.8</ele>
        <time>2017-02-03T08:42:52.400000Z</time>
      </trkpt>
      <trkpt lat="37.849933759493766" lon="112.01010585979138">
        <ele>1100.2</ele>
        <time>2017-02-03T08:43:04.400000Z</time>
      </trkpt>
      <trkpt lat="37.849951228895456" lon="112.00970837753978">
        <ele>1098.1</ele>
        <time>2017-02-03T08:43:16.500000Z</time>
      </trkpt>
      <trkpt lat="37.84990346494235" lon="112.00941642557332">
        <ele>1097.1</ele>
        <time>2017-02-03T08:43:25.400000Z</time>
      </trkpt>
      <trkpt lat="37.84982120775344" lon="112.00921687210197">
        <ele>1096.9</ele>
        <time>2017-02-03T08:43:31.500000Z</time>
      </trkpt>
      <trkpt lat="37.849626178541236" lon="112.00895436515525">
        <ele>1102.3</ele>
        <time>2017-02-03T08:43:40.500000Z</time>
      </trkpt>
      <trkpt lat="37.84941233207445" lon="112.00868140494791">
        <ele>1108.0</ele>
        <time>2017-02-03T08:43:52.500000Z</time>
      </trkpt>
      <trkpt lat="37.849305655535666" lon="112.00867848347825">
        <ele>1111.6</ele>
        <time>2017-02-03T08:43:55.500000Z</time>
      </trkpt>
      <trkpt lat="37.849126509354434" lon="112.00838847807681">
        <ele>1116.5</ele>
        <time>2017-02-03T08:44:07.500000Z</time>
      </trkpt>
      <trkpt lat="37.848967949187596" lon="112.00807072522676">
        <ele>1122.8</ele>
        <time>2017-02-03T08:44:22.500000Z</time>
      </trkpt>
      <trkpt lat="37.8487875626298" lon="112.00778584813277">
        <ele>1126.7</ele>
        <time>2017-02-03T08:44:37.500000Z</time>
      </trkpt>
      <trkpt lat="37.84856979230673" lon="112.00746747548477">
        <ele>1128.2</ele>
        <time>2017-02-03T08:44:49.500000Z</time>
      </trkpt>
      <trkpt lat="37.848357229236036" lon="112.00718740514694">
        <ele>1127.5</ele>
        <time>2017-02-03T08:45:01.400000Z</time>
      </trkpt>
      <trkpt lat="37.84819079146232" lon="112.0070287992391">
        <ele>1129.7</ele>
        <time>2017-02-03T08:45:10.500000Z</time>
      </trkpt>
      <trkpt lat="37.84804987439569" lon="112.00697547701704">
        <ele>1131.2</ele>
        <time>2017-02-03T08:45:16.500000Z</time>
      </trkpt>
      <trkpt lat="37.84777784272962" lon="112.00691436254505">
        <ele>1128.8</ele>
        <time>2017-02-03T08:45:28.400000Z</time>
      </trkpt>
      <trkpt lat="37.84750203896926" lon="112.00686800074885">
        <ele>1130.6</ele>
        <time>2017-02-03T08:45:40.400000Z</time>
      </trkpt>
      <trkpt lat="37.84719994620948" lon="112.00680636105577">
        <ele>1134.3</ele>
        <time>2017-02-03T08:45:55.500000Z</time>
      </trkpt>
      <trkpt lat="37.84690394662925" lon="112.00680804559799">
        <ele>1135.1</ele>
        <time>2017-02-03T08:46:19.400000Z</time>
      </trkpt>
      <trkpt lat="37.84683561636802" lon="112.00679453816412">
        <ele>1135.1</ele>
        <time>2017-02-03T08:46:25.500000Z</time>
      </trkpt>
      <trkpt lat="37.84650962459843" lon="112.00679903966007">
        <ele>1131.4</ele>
        <time>2017-02-03T08:46:49.400000Z</time>
      </trkpt>
      <trkpt lat="37.84637710972406" lon="112.00679134912112">
        <ele>1132.4</ele>
        <time>2017-02-03T08:47:01.400000Z</time>
      </trkpt>
      <trkpt lat="37.84631704935982" lon="112.00682008909226">
        <ele>1132.9</ele>
        <time>2017-02-03T08:47:07.500000Z</time>
      </trkpt>
      <trkpt lat="37.84621939612546" lon="112.00679204735364">
        <ele>1133.0</ele>
        <time>2017-02-03T08:47:13.500000Z</time>
      </trkpt>
      <trkpt lat="37.846064168929374" lon="112.00666996394057">
        <ele>1135.9</ele>
        <time>2017-02-03T08:47:24.500000Z</time>
      </trkpt>
      <trkpt lat="37.845934493667464" lon="112.00659094645465">
        <ele>1137.6</ele>
        <time>2017-02-03T08:47:36.500000Z</time>
      </trkpt>
      <trkpt lat="37.84565393301552" lon="112.00647138708229">
        <ele>1142.5</ele>
        <time>2017-02-03T08:48:00.500000Z</time>
      </trkpt>
      <trkpt lat="37.84539539053339" lon="112.00637464683881">
        <ele>1145.3</ele>
        <time>2017-02-03T08:48:24.600000Z</time>
      </trkpt>
      <trkpt lat="37.845110510859925" lon="112.0062846676075">
        <ele>1147.9</ele>
        <time>2017-02-03T08:48:48.700000Z</time>
      </trkpt>
      <trkpt lat="37.84503212611945" lon="112.00627656766324">
        <ele>1148.5</ele>
        <time>2017-02-03T08:48:57.500000Z</time>
      </trkpt>
      <trkpt lat="37.84489448211866" lon="112.00621241375575">
        <ele>1148.7</ele>
        <time>2017-02-03T08:49:09.500000Z</time>
      </trkpt>
      <trkpt lat="37.84461712211978" lon="112.00615146385374">
        <ele>1151.2</ele>
        <time>2017-02-03T08:49:33.500000Z</time>
      </trkpt>
      <trkpt lat="37.8443738492067" lon="112.00621123123989">
        <ele>1150.3</ele>
        <time>2017-02-03T08:49:57.500000Z</time>
      </trkpt>
      <trkpt lat="37.84419556042693" lon="112.0063147811153">
        <ele>1149.2</ele>
        <time>2017-02-03T08:50:15.500000Z</time>
      </trkpt>
      <trkpt lat="37.84410266717191" lon="112.00633190620403">
        <ele>1149.6</ele>
        <time>2017-02-03T08:50:22.900000Z</time>
      </trkpt>
      <trkpt lat="37.84383221741415" lon="112.00651620559997">
        <ele>1151.3</ele>
        <time>2017-02-03T08:50:48.500000Z</time>
      </trkpt>
      <trkpt lat="37.84356069400315" lon="112.00676978983368">
        <ele>1151.0</ele>
        <time>2017-02-03T08:51:15.500000Z</time>
      </trkpt>
      <trkpt lat="37.84326548493477" lon="112.006959854382">
        <ele>1151.3</ele>
        <time>2017-02-03T08:51:36.500000Z</time>
      </trkpt>
      <trkpt lat="37.842990570001774" lon="112.00716829833291">
        <ele>1153.3</ele>
        <time>2017-02-03T08:51:48.500000Z</time>
      </trkpt>
      <trkpt lat="37.8427433716943" lon="112.00733698891834">
        <ele>1149.0</ele>
        <time>2017-02-03T08:52:00.500000Z</time>
      </trkpt>
      <trkpt lat="37.84253017938463" lon="112.00752124350487">
        <ele>1143.0</ele>
        <time>2017-02-03T08:52:12.500000Z</time>
      </trkpt>
      <trkpt lat="37.842327069859294" lon="112.0077326148942">
        <ele>1150.6</ele>
        <time>2017-02-03T08:52:24.400000Z</time>
      </trkpt>
      <trkpt lat="37.842077934346676" lon="112.00790049365067">
        <ele>1151.8</ele>
        <time>2017-02-03T08:52:36.500000Z</time>
      </trkpt>
      <trkpt lat="37.84178126408068" lon="112.00804187055726">
        <ele>1150.5</ele>
        <time>2017-02-03T08:52:48.500000Z</time>
      </trkpt>
      <trkpt lat="37.84148382830686" lon="112.008150114366">
        <ele>1151.6</ele>
        <time>2017-02-03T08:53:00.500000Z</time>
      </trkpt>
      <trkpt lat="37.841182214408256" lon="112.0082138363017">
        <ele>1153.2</ele>
        <time>2017-02-03T08:53:12.500000Z</time>
      </trkpt>
      <trkpt lat="37.84105332898401" lon="112.0082093295701">
        <ele>1153.7</ele>
        <time>2017-02-03T08:53:18.500000Z</time>
      </trkpt>
      <trkpt lat="37.840722885846894" lon="112.00814287371892">
        <ele>1154.6</ele>
        <time>2017-02-03T08:53:30.500000Z</time>
      </trkpt>
      <trkpt lat="37.84043705865703" lon="112.00805695559454">
        <ele>1159.0</ele>
        <time>2017-02-03T08:53:42.400000Z</time>
      </trkpt>
      <trkpt lat="37.84022215299857" lon="112.00804221381159">
        <ele>1160.4</ele>
        <time>2017-02-03T08:53:51.500000Z</time>
      </trkpt>
      <trkpt lat="37.839945577528226" lon="112.00810827700955">
        <ele>1161.0</ele>
        <time>2017-02-03T08:54:12.500000Z</time>
      </trkpt>
      <trkpt lat="37.83967388313924" lon="112.00814642415152">
        <ele>1160.4</ele>
        <time>2017-02-03T08:54:27.500000Z</time>
      </trkpt>
      <trkpt lat="37.83952817327143" lon="112.00816309173285">
        <ele>1159.7</ele>
        <time>2017-02-03T08:54:33.500000Z</time>
      </trkpt>
      <trkpt lat="37.83930488972336" lon="112.00812748366981">
        <ele>1159.8</ele>
        <time>2017-02-03T08:54:42.400000Z</time>
      </trkpt>
      <trkpt lat="37.83933180470238" lon="112.00815781955662">
        <ele>1160.2</ele>
        <time>2017-02-03T08:54:48.400000Z</time>
      </trkpt>
      <trkpt lat="37.839637593325065" lon="112.00814772251564">
        <ele>1159.9</ele>
        <time>2017-02-03T08:55:06.500000Z</time>
      </trkpt>
      <trkpt lat="37.83991389906844" lon="112.00808638510844">
        <ele>1155.8</ele>
        <time>2017-02-03T08:55:18.400000Z</time>
      </trkpt>
      <trkpt lat="37.84016159304315" lon="112.0080676164867">
        <ele>1148.7</ele>
        <time>2017-02-03T08:55:27.400000Z</time>
      </trkpt>
      <trkpt lat="37.84043147538671" lon="112.00812694669692">
        <ele>1144.9</ele>
        <time>2017-02-03T08:55:39.400000Z</time>
      </trkpt>
      <trkpt lat="37.84052180188961" lon="112.00809391786895">
        <ele>1143.7</ele>
        <time>2017-02-03T08:55:42.400000Z</time>
      </trkpt>
      <trkpt lat="37.840619815476835" lon="112.0081069904335">
        <ele>1142.2</ele>
        <time>2017-02-03T08:55:45.500000Z</time>
      </trkpt>
      <trkpt lat="37.84069649776332" lon="112.00809401081622">
        <ele>1141.0</ele>
        <time>2017-02-03T08:55:48.500000Z</time>
      </trkpt>
      <trkpt lat="37.84102915586126" lon="112.00813696409445">
        <ele>1137.2</ele>
        <time>2017-02-03T08:56:00.400000Z</time>
      </trkpt>
      <trkpt lat="37.841310148979446" lon="112.00810709047887">
        <ele>1139.3</ele>
        <time>2017-02-03T08:56:09.500000Z</time>
      </trkpt>
      <trkpt lat="37.84148030097993" lon="112.00807909932747">
        <ele>1138.7</ele>
        <time>2017-02-03T08:56:15.400000Z</time>
      </trkpt>
      <trkpt lat="37.8417474744351" lon="112.00793473761287">
        <ele>1144.7</ele>
        <time>2017-02-03T08:56:24.500000Z</time>
      </trkpt>
      <trkpt lat="37.841915793654195" lon="112.00787135605945">
        <ele>1146.0</ele>
        <time>2017-02-03T08:56:30.500000Z</time>
      </trkpt>
      <trkpt lat="37.84218345213746" lon="112.00771443267602">
        <ele>1140.3</ele>
        <time>2017-02-03T08:56:42.400000Z</time>
      </trkpt>
      <trkpt lat="37.84245570170454" lon="112.00757798545732">
        <ele>1135.4</ele>
        <time>2017-02-03T08:56:54.400000Z</time>
      </trkpt>
      <trkpt lat="37.84274376368129" lon="112.00735747793227">
        <ele>1134.4</ele>
        <time>2017-02-03T08:57:06.400000Z</time>
      </trkpt>
      <trkpt lat="37.84295390283757" lon="112.0072092758085">
        <ele>1134.8</ele>
        <time>2017-02-03T08:57:15.400000Z</time>
      </trkpt>
      <trkpt lat="37.84309583646471" lon="112.00701611810157">
        <ele>1142.7</ele>
        <time>2017-02-03T08:57:21.400000Z</time>
      </trkpt>
      <trkpt lat="37.84334019329834" lon="112.00681008791123">
        <ele>1141.5</ele>
        <time>2017-02-03T08:57:30.400000Z</time>
      </trkpt>
      <trkpt lat="37.84362257729841" lon="112.00658047291152">
        <ele>1139.8</ele>
        <time>2017-02-03T08:57:42.400000Z</time>
      </trkpt>
      <trkpt lat="37.84391710683401" lon="112.00638288375612">
        <ele>1150.4</ele>
        <time>2017-02-03T08:57:54.400000Z</time>
      </trkpt>
      <trkpt lat="37.8442187671147" lon="112.00623592711632">
        <ele>1151.9</ele>
        <time>2017-02-03T08:58:06.500000Z</time>
      </trkpt>
      <trkpt lat="37.84433501125388" lon="112.00616477332821">
        <ele>1149.2</ele>
        <time>2017-02-03T08:58:12.400000Z</time>
      </trkpt>
      <trkpt lat="37.844668391694725" lon="112.00616613989598">
        <ele>1142.5</ele>
        <time>2017-02-03T08:58:24.400000Z</time>
      </trkpt>
      <trkpt lat="37.84497600480253" lon="112.00618038965581">
        <ele>1141.1</ele>
        <time>2017-02-03T08:58:33.400000Z</time>
      </trkpt>
      <trkpt lat="37.8452799923704" lon="112.00625551239412">
        <ele>1141.5</ele>
        <time>2017-02-03T08:58:42.400000Z</time>
      </trkpt>
      <trkpt lat="37.84556715068429" lon="112.00636786860125">
        <ele>1139.0</ele>
        <time>2017-02-03T08:59:03.400000Z</time>
      </trkpt>
      <trkpt lat="37.845720523502614" lon="112.00643137320303">
        <ele>1138.9</ele>
        <time>2017-02-03T08:59:15.400000Z</time>
      </trkpt>
      <trkpt lat="37.84586574910109" lon="112.00654238485156">
        <ele>1140.1</ele>
        <time>2017-02-03T08:59:27.400000Z</time>
      </trkpt>
      <trkpt lat="37.84615723707973" lon="112.00664621812919">
        <ele>1140.4</ele>
        <time>2017-02-03T08:59:57.400000Z</time>
      </trkpt>
      <trkpt lat="37.846398865223435" lon="112.00668322193918">
        <ele>1140.5</ele>
        <time>2017-02-03T09:00:06.400000Z</time>
      </trkpt>
      <trkpt lat="37.84670066979452" lon="112.00670994458217">
        <ele>1138.0</ele>
        <time>2017-02-03T09:00:18.500000Z</time>
      </trkpt>
      <trkpt lat="37.847035366515165" lon="112.00675460161855">
        <ele>1135.5</ele>
        <time>2017-02-03T09:00:30.400000Z</time>
      </trkpt>
      <trkpt lat="37.84736742600101" lon="112.00679485611919">
        <ele>1136.2</ele>
        <time>2017-02-03T09:00:42.400000Z</time>
      </trkpt>
      <trkpt lat="37.84770718734101" lon="112.0068197118638">
        <ele>1136.4</ele>
        <time>2017-02-03T09:00:54.400000Z</time>
      </trkpt>
      <trkpt lat="37.84804061166137" lon="112.00687269422545">
        <ele>1137.5</ele>
        <time>2017-02-03T09:01:06.400000Z</time>
      </trkpt>
      <trkpt lat="37.8482253807445" lon="112.00693259026022">
        <ele>1137.5</ele>
        <time>2017-02-03T09:01:12.400000Z</time>
      </trkpt>
      <trkpt lat="37.84849122632753" lon="112.00718609384518">
        <ele>1136.1</ele>
        <time>2017-02-03T09:01:24.400000Z</time>
      </trkpt>
      <trkpt lat="37.84872449041888" lon="112.00747065606932">
        <ele>1134.7</ele>
        <time>2017-02-03T09:01:36.400000Z</time>
      </trkpt>
      <trkpt lat="37.8489178855315" lon="112.00777290609065">
        <ele>1133.6</ele>
        <time>2017-02-03T09:01:48.400000Z</time>
      </trkpt>
      <trkpt lat="37.849143672874206" lon="112.0080665044604">
        <ele>1133.3</ele>
        <time>2017-02-03T09:02:00.500000Z</time>
      </trkpt>
      <trkpt lat="37.84935748939227" lon="112.00837625675469">
        <ele>1134.6</ele>
        <time>2017-02-03T09:02:12.500000Z</time>
      </trkpt>
      <trkpt lat="37.84951546618879" lon="112.0085965292831">
        <ele>1136.5</ele>
        <time>2017-02-03T09:02:21.400000Z</time>
      </trkpt>
      <trkpt lat="37.849710686868086" lon="112.00895428072224">
        <ele>1139.2</ele>
        <time>2017-02-03T09:02:33.500000Z</time>
      </trkpt>
      <trkpt lat="37.8498009128656" lon="112.00911472147429">
        <ele>1139.1</ele>
        <time>2017-02-03T09:02:39.500000Z</time>
      </trkpt>
      <trkpt lat="37.84989979356938" lon="112.00955742239026">
        <ele>1141.7</ele>
        <time>2017-02-03T09:02:51.400000Z</time>
      </trkpt>
      <trkpt lat="37.84994325401016" lon="112.00997799546884">
        <ele>1131.2</ele>
        <time>2017-02-03T09:03:03.400000Z</time>
      </trkpt>
      <trkpt lat="37.849964337068045" lon="112.01037024713547">
        <ele>1124.4</ele>
        <time>2017-02-03T09:03:15.500000Z</time>
      </trkpt>
      <trkpt lat="37.84998070872452" lon="112.01075491680133">
        <ele>1123.3</ele>
        <time>2017-02-03T09:03:27.400000Z</time>
      </trkpt>
      <trkpt lat="37.849934942870526" lon="112.0110116187465">
        <ele>1128.0</ele>
        <time>2017-02-03T09:03:39.500000Z</time>
      </trkpt>
      <trkpt lat="37.849933949796515" lon="112.01141180148532">
        <ele>1129.2</ele>
        <time>2017-02-03T09:04:00.400000Z</time>
      </trkpt>
      <trkpt lat="37.84988862454957" lon="112.01148985730582">
        <ele>1130.4</ele>
        <time>2017-02-03T09:04:06.400000Z</time>
      </trkpt>
      <trkpt lat="37.84986332136862" lon="112.0115783792881">
        <ele>1132.8</ele>
        <time>2017-02-03T09:04:12.500000Z</time>
      </trkpt>
      <trkpt lat="37.84985113772188" lon="112.01176478225526">
        <ele>1134.6</ele>
        <time>2017-02-03T09:04:24.500000Z</time>
      </trkpt>
      <trkpt lat="37.849804439766636" lon="112.01219342743552">
        <ele>1133.5</ele>
        <time>2017-02-03T09:04:39.500000Z</time>
      </trkpt>
      <trkpt lat="37.84979089213914" lon="112.01243084603232">
        <ele>1130.8</ele>
        <time>2017-02-03T09:04:45.500000Z</time>
      </trkpt>
      <trkpt lat="37.84972461544944" lon="112.01281575702255">
        <ele>1128.9</ele>
        <time>2017-02-03T09:04:54.500000Z</time>
      </trkpt>
      <trkpt lat="37.84972395497617" lon="112.01305381151015">
        <ele>1127.7</ele>
        <time>2017-02-03T09:05:00.500000Z</time>
      </trkpt>
      <trkpt lat="37.84969580545671" lon="112.01333172896403">
        <ele>1127.3</ele>
        <time>2017-02-03T09:05:09.900000Z</time>
      </trkpt>
      <trkpt lat="37.84969903039861" lon="112.01354725627928">
        <ele>1128.5</ele>
        <time>2017-02-03T09:05:19.500000Z</time>
      </trkpt>
      <trkpt lat="37.84964332970093" lon="112.0139025357067">
        <ele>1127.8</ele>
        <time>2017-02-03T09:05:37.500000Z</time>
      </trkpt>
      <trkpt lat="37.84961926588899" lon="112.01430529106597">
        <ele>1129.3</ele>
        <time>2017-02-03T09:05:49.500000Z</time>
      </trkpt>
      <trkpt lat="37.84960594342036" lon="112.01475342270834">
        <ele>1135.3</ele>
        <time>2017-02-03T09:06:01.500000Z</time>
      </trkpt>
      <trkpt lat="37.849548321428806" lon="112.01517556825364">
        <ele>1132.0</ele>
        <time>2017-02-03T09:06:13.500000Z</time>
      </trkpt>
      <trkpt lat="37.849479640369694" lon="112.01562864213196">
        <ele>1132.3</ele>
        <time>2017-02-03T09:06:25.500000Z</time>
      </trkpt>
      <trkpt lat="37.84944734306103" lon="112.01605928685804">
        <ele>1128.9</ele>
        <time>2017-02-03T09:06:37.500000Z</time>
      </trkpt>
      <trkpt lat="37.84941650965827" lon="112.01635924199832">
        <ele>1129.8</ele>
        <time>2017-02-03T09:06:46.500000Z</time>
      </trkpt>
      <trkpt lat="37.84937310143176" lon="112.01650864803801">
        <ele>1130.6</ele>
        <time>2017-02-03T09:06:55.500000Z</time>
      </trkpt>
      <trkpt lat="37.84935449166081" lon="112.01686911182576">
        <ele>1131.2</ele>
        <time>2017-02-03T09:07:16.500000Z</time>
      </trkpt>
      <trkpt lat="37.84937781253927" lon="112.01706566448422">
        <ele>1129.1</ele>
        <time>2017-02-03T09:07:28.500000Z</time>
      </trkpt>
      <trkpt lat="37.84929137241603" lon="112.01741255562496">
        <ele>1126.5</ele>
        <time>2017-02-03T09:07:49.500000Z</time>
      </trkpt>
      <trkpt lat="37.849264923794955" lon="112.01765237601836">
        <ele>1125.5</ele>
        <time>2017-02-03T09:08:02.500000Z</time>
      </trkpt>
      <trkpt lat="37.84927236978184" lon="112.01772371275598">
        <ele>1125.5</ele>
        <time>2017-02-03T09:08:05.500000Z</time>
      </trkpt>
      <trkpt lat="37.8492034016364" lon="112.0180908924018">
        <ele>1122.5</ele>
        <time>2017-02-03T09:08:17.600000Z</time>
      </trkpt>
      <trkpt lat="37.84919937793491" lon="112.01844492008087">
        <ele>1118.1</ele>
        <time>2017-02-03T09:08:26.400000Z</time>
      </trkpt>
      <trkpt lat="37.84917634229485" lon="112.01889634873756">
        <ele>1117.3</ele>
        <time>2017-02-03T09:08:35.500000Z</time>
      </trkpt>
      <trkpt lat="37.8491716837673" lon="112.0191463232752">
        <ele>1115.1</ele>
        <time>2017-02-03T09:08:44.500000Z</time>
      </trkpt>
      <trkpt lat="37.84920620570673" lon="112.01946241080428">
        <ele>1121.3</ele>
        <time>2017-02-03T09:08:59.400000Z</time>
      </trkpt>
      <trkpt lat="37.84914654063932" lon="112.01972942598513">
        <ele>1121.5</ele>
        <time>2017-02-03T09:09:14.500000Z</time>
      </trkpt>
      <trkpt lat="37.84912165271716" lon="112.02009607200557">
        <ele>1120.2</ele>
        <time>2017-02-03T09:09:35.500000Z</time>
      </trkpt>
      <trkpt lat="37.84907488162436" lon="112.02033131512852">
        <ele>1119.7</ele>
        <time>2017-02-03T09:09:47.500000Z</time>
      </trkpt>
      <trkpt lat="37.84907514811374" lon="112.02072797768157">
        <ele>1118.5</ele>
        <time>2017-02-03T09:10:08.500000Z</time>
      </trkpt>
      <trkpt lat="37.849080091169235" lon="112.02084756930647">
        <ele>1119.5</ele>
        <time>2017-02-03T09:10:14.500000Z</time>
      </trkpt>
      <trkpt lat="37.84915567772132" lon="112.02108779906519">
        <ele>1119.9</ele>
        <time>2017-02-03T09:10:26.500000Z</time>
      </trkpt>
      <trkpt lat="37.8491466403036" lon="112.02147128396706">
        <ele>1120.0</ele>
        <time>2017-02-03T09:10:50.500000Z</time>
      </trkpt>
      <trkpt lat="37.849140234034515" lon="112.02183118566809">
        <ele>1118.9</ele>
        <time>2017-02-03T09:11:08.500000Z</time>
      </trkpt>
      <trkpt lat="37.84912386696799" lon="112.0219869153002">
        <ele>1117.5</ele>
        <time>2017-02-03T09:11:17.500000Z</time>
      </trkpt>
      <trkpt lat="37.84913614720898" lon="112.02208484602505">
        <ele>1116.3</ele>
        <time>2017-02-03T09:11:23.500000Z</time>
      </trkpt>
      <trkpt lat="37.84908621366028" lon="112.0224671425268">
        <ele>1114.2</ele>
        <time>2017-02-03T09:11:41.500000Z</time>
      </trkpt>
      <trkpt lat="37.849058735413294" lon="112.0227716606555">
        <ele>1110.5</ele>
        <time>2017-02-03T09:11:59.500000Z</time>
      </trkpt>
      <trkpt lat="37.84913689913069" lon="112.02316509691943">
        <ele>1105.5</ele>
        <time>2017-02-03T09:12:17.500000Z</time>
      </trkpt>
      <trkpt lat="37.849162272110576" lon="112.02335655175858">
        <ele>1104.2</ele>
        <time>2017-02-03T09:12:23.500000Z</time>
      </trkpt>
      <trkpt lat="37.849148118227355" lon="112.0236017769078">
        <ele>1103.9</ele>
        <time>2017-02-03T09:12:29.500000Z</time>
      </trkpt>
      <trkpt lat="37.849163686880075" lon="112.02371139378495">
        <ele>1103.3</ele>
        <time>2017-02-03T09:12:32.500000Z</time>
      </trkpt>
      <trkpt lat="37.84915243690981" lon="112.02388485787941">
        <ele>1105.3</ele>
        <time>2017-02-03T09:12:38.500000Z</time>
      </trkpt>
      <trkpt lat="37.84925141594723" lon="112.02399703404552">
        <ele>1106.9</ele>
        <time>2017-02-03T09:12:44.500000Z</time>
      </trkpt>
      <trkpt lat="37.84926149173638" lon="112.02407079754835">
        <ele>1108.2</ele>
        <time>2017-02-03T09:12:47.400000Z</time>
      </trkpt>
      <trkpt lat="37.849244610536275" lon="112.02415225960969">
        <ele>1109.0</ele>
        <time>2017-02-03T09:12:50.500000Z</time>
      </trkpt>
      <trkpt lat="37.849091014346726" lon="112.02429714048199">
        <ele>1106.8</ele>
        <time>2017-02-03T09:12:56.600000Z</time>
      </trkpt>
      <trkpt lat="37.849065683977706" lon="112.02448055481867">
        <ele>1106.0</ele>
        <time>2017-02-03T09:13:05.600000Z</time>
      </trkpt>
      <trkpt lat="37.84901267248536" lon="112.02458747661478">
        <ele>1107.0</ele>
        <time>2017-02-03T09:13:08.500000Z</time>
      </trkpt>
      <trkpt lat="37.84897026141456" lon="112.02480288245864">
        <ele>1109.5</ele>
        <time>2017-02-03T09:13:20.500000Z</time>
      </trkpt>
      <trkpt lat="37.849009016629395" lon="112.02498284389812">
        <ele>1113.7</ele>
        <time>2017-02-03T09:13:26.500000Z</time>
      </trkpt>
      <trkpt lat="37.848987210197635" lon="112.02508547086903">
        <ele>1116.5</ele>
        <time>2017-02-03T09:13:29.700000Z</time>
      </trkpt>
      <trkpt lat="37.84900013767538" lon="112.02523409664387">
        <ele>1118.9</ele>
        <time>2017-02-03T09:13:38.400000Z</time>
      </trkpt>
      <trkpt lat="37.84899122984809" lon="112.02535782072695">
        <ele>1120.1</ele>
        <time>2017-02-03T09:13:44.500000Z</time>
      </trkpt>
      <trkpt lat="37.848945572339794" lon="112.02555633447902">
        <ele>1123.8</ele>
        <time>2017-02-03T09:13:57.500000Z</time>
      </trkpt>
      <trkpt lat="37.848949761015014" lon="112.02567467666255">
        <ele>1126.6</ele>
        <time>2017-02-03T09:14:03.400000Z</time>
      </trkpt>
      <trkpt lat="37.84898336273601" lon="112.0257426210983">
        <ele>1128.5</ele>
        <time>2017-02-03T09:14:06.500000Z</time>
      </trkpt>
      <trkpt lat="37.84896639319106" lon="112.02582434872376">
        <ele>1130.5</ele>
        <time>2017-02-03T09:14:12.500000Z</time>
      </trkpt>
      <trkpt lat="37.848982249045726" lon="112.02588734019517">
        <ele>1131.4</ele>
        <time>2017-02-03T09:14:15.500000Z</time>
      </trkpt>
      <trkpt lat="37.84896029593173" lon="112.02604215721051">
        <ele>1134.5</ele>
        <time>2017-02-03T09:14:27.500000Z</time>
      </trkpt>
      <trkpt lat="37.848963926792806" lon="112.0261306902654">
        <ele>1135.2</ele>
        <time>2017-02-03T09:14:33.400000Z</time>
      </trkpt>
      <trkpt lat="37.84888070103293" lon="112.02636938852581">
        <ele>1134.5</ele>
        <time>2017-02-03T09:14:51.500000Z</time>
      </trkpt>
      <trkpt lat="37.8489109544178" lon="112.02663062832727">
        <ele>1130.3</ele>
        <time>2017-02-03T09:15:09.500000Z</time>
      </trkpt>
      <trkpt lat="37.848887627383675" lon="112.02683724855859">
        <ele>1128.8</ele>
        <time>2017-02-03T09:15:24.500000Z</time>
      </trkpt>
    </trkseg>
  </trk>
</gpx>