<?xml version="1.0" encoding="UTF-8"?>
<gpx xmlns="http://www.topografix.com/GPX/1/1" xmlns:gpxtpx="http://www.garmin.com/xmlschemas/TrackPointExtension/v1" xmlns:xsi="http://www.w3.org/2001/XMLSchema-instance" xsi:schemaLocation="http://www.topografix.com/GPX/1/1 http://www.topografix.com/GPX/1/1/gpx.xsd" version="1.1" creator="gpx.py -- https://github.com/tkrajina/gpxpy">
  <trk>
    <name>gpx from keep</name>
    <type>Run</type>
    <trkseg>
      <trkpt lat="37.847265687407685" lon="112.02939513101447">
        <ele>1128.1279004990683</ele>
        <time>2016-05-03T07:40:16.500000Z</time>
      </trkpt>
      <trkpt lat="37.84730784865739" lon="112.02935239226976">
        <ele>1127.9033950795629</ele>
        <time>2016-05-03T07:40:19.900000Z</time>
      </trkpt>
      <trkpt lat="37.847287423989954" lon="112.02895400101782">
        <ele>1124.841713970039</ele>
        <time>2016-05-03T07:40:34.900000Z</time>
      </trkpt>
      <trkpt lat="37.847265114838095" lon="112.02876468075114">
        <ele>1122.4535897206108</ele>
        <time>2016-05-03T07:40:42.900000Z</time>
      </trkpt>
      <trkpt lat="37.84726453824805" lon="112.02845852121976">
        <ele>1119.128776887775</ele>
        <time>2016-05-03T07:40:53.900000Z</time>
      </trkpt>
      <trkpt lat="37.84727911275935" lon="112.02827596118816">
        <ele>1118.1942268916757</ele>
        <time>2016-05-03T07:40:57.900000Z</time>
      </trkpt>
      <trkpt lat="37.84726950948684" lon="112.0282118643774">
        <ele>1117.8033839076743</ele>
        <time>2016-05-03T07:41:00.900000Z</time>
      </trkpt>
      <trkpt lat="37.847321073745384" lon="112.02799414251629">
        <ele>1117.627450498072</ele>
        <time>2016-05-03T07:41:06.900000Z</time>
      </trkpt>
      <trkpt lat="37.84732678550501" lon="112.02767176337471">
        <ele>1116.5570864030583</ele>
        <time>2016-05-03T07:41:17.900000Z</time>
      </trkpt>
      <trkpt lat="37.84733915115967" lon="112.02761091064879">
        <ele>1116.3917613107642</ele>
        <time>2016-05-03T07:41:23.100000Z</time>
      </trkpt>
      <trkpt lat="37.84745569156948" lon="112.02734315268154">
        <ele>1116.0859737880874</ele>
        <time>2016-05-03T07:41:30Z</time>
      </trkpt>
      <trkpt lat="37.84756192738945" lon="112.02696938422446">
        <ele>1116.7238479187251</ele>
        <time>2016-05-03T07:41:43.900000Z</time>
      </trkpt>
      <trkpt lat="37.84762495019344" lon="112.02673003484294">
        <ele>1115.5615824057875</ele>
        <time>2016-05-03T07:41:51.900000Z</time>
      </trkpt>
      <trkpt lat="37.84783693796997" lon="112.02648553111574">
        <ele>1113.5051843693439</ele>
        <time>2016-05-03T07:42:01.900000Z</time>
      </trkpt>
      <trkpt lat="37.84796073287621" lon="112.02645603835049">
        <ele>1113.2441872945408</ele>
        <time>2016-05-03T07:42:06Z</time>
      </trkpt>
      <trkpt lat="37.848263997339835" lon="112.02647980055158">
        <ele>1111.916661976265</ele>
        <time>2016-05-03T07:42:15.900000Z</time>
      </trkpt>
      <trkpt lat="37.84843490188959" lon="112.0264881636289">
        <ele>1111.6569612994138</ele>
        <time>2016-05-03T07:42:22.900000Z</time>
      </trkpt>
      <trkpt lat="37.84851497760066" lon="112.02647327983661">
        <ele>1111.7487850805792</ele>
        <time>2016-05-03T07:42:25.900000Z</time>
      </trkpt>
      <trkpt lat="37.84879466129847" lon="112.02648812038129">
        <ele>1112.8915846084021</ele>
        <time>2016-05-03T07:42:36.900000Z</time>
      </trkpt>
      <trkpt lat="37.84898328007569" lon="112.02646619211937">
        <ele>1113.570471738858</ele>
        <time>2016-05-03T07:42:43.900000Z</time>
      </trkpt>
      <trkpt lat="37.849005419845106" lon="112.02640344761681">
        <ele>1113.6178216510348</ele>
        <time>2016-05-03T07:42:48Z</time>
      </trkpt>
      <trkpt lat="37.84902864539164" lon="112.02623658461309">
        <ele>1111.8103160165665</ele>
        <time>2016-05-03T07:42:55.100000Z</time>
      </trkpt>
      <trkpt lat="37.8490230036955" lon="112.02611137312493">
        <ele>1110.2585308087957</ele>
        <time>2016-05-03T07:42:58.900000Z</time>
      </trkpt>
      <trkpt lat="37.84906000751589" lon="112.02576034464978">
        <ele>1109.437735443289</ele>
        <time>2016-05-03T07:43:10Z</time>
      </trkpt>
      <trkpt lat="37.84906544903902" lon="112.02534171656696">
        <ele>1110.0697457002175</ele>
        <time>2016-05-03T07:43:22Z</time>
      </trkpt>
      <trkpt lat="37.849070791091904" lon="112.02516783035104">
        <ele>1110.0434812243495</ele>
        <time>2016-05-03T07:43:27.600000Z</time>
      </trkpt>
      <trkpt lat="37.84904433504391" lon="112.02491228027951">
        <ele>1110.8018835344649</ele>
        <time>2016-05-03T07:43:31Z</time>
      </trkpt>
      <trkpt lat="37.84898253315608" lon="112.02458345186163">
        <ele>1111.8581918231962</ele>
        <time>2016-05-03T07:43:38.900000Z</time>
      </trkpt>
      <trkpt lat="37.84899667607196" lon="112.02426408242447">
        <ele>1111.766137548025</ele>
        <time>2016-05-03T07:43:53Z</time>
      </trkpt>
      <trkpt lat="37.848988617521734" lon="112.0241318482338">
        <ele>1111.9174228028796</ele>
        <time>2016-05-03T07:43:56.900000Z</time>
      </trkpt>
      <trkpt lat="37.849032494682575" lon="112.0239566119338">
        <ele>1110.8911391050424</ele>
        <time>2016-05-03T07:44:05Z</time>
      </trkpt>
      <trkpt lat="37.849032640068636" lon="112.02380058138174">
        <ele>1109.727885571743</ele>
        <time>2016-05-03T07:44:08.900000Z</time>
      </trkpt>
      <trkpt lat="37.84898482780359" lon="112.02351935546727">
        <ele>1107.3389672894643</ele>
        <time>2016-05-03T07:44:16.900000Z</time>
      </trkpt>
      <trkpt lat="37.849044671272075" lon="112.0231583477195">
        <ele>1108.0585229172868</ele>
        <time>2016-05-03T07:44:27.900000Z</time>
      </trkpt>
      <trkpt lat="37.849076949046044" lon="112.02275840848996">
        <ele>1107.9730690566107</ele>
        <time>2016-05-03T07:44:41.900000Z</time>
      </trkpt>
      <trkpt lat="37.849073968084085" lon="112.02235550381728">
        <ele>1106.6875946574924</ele>
        <time>2016-05-03T07:44:55.900000Z</time>
      </trkpt>
      <trkpt lat="37.84908321974786" lon="112.02194530162767">
        <ele>1103.2687985129105</ele>
        <time>2016-05-03T07:45:08.900000Z</time>
      </trkpt>
      <trkpt lat="37.84910742984327" lon="112.02152320503033">
        <ele>1099.5596199870706</ele>
        <time>2016-05-03T07:45:24Z</time>
      </trkpt>
      <trkpt lat="37.84908903264809" lon="112.02130526721065">
        <ele>1098.5201557302678</ele>
        <time>2016-05-03T07:45:31Z</time>
      </trkpt>
      <trkpt lat="37.84911152389566" lon="112.02091860004911">
        <ele>1096.1121450801106</ele>
        <time>2016-05-03T07:45:42Z</time>
      </trkpt>
      <trkpt lat="37.84906920853705" lon="112.0206184698809">
        <ele>1094.512520078827</ele>
        <time>2016-05-03T07:45:52Z</time>
      </trkpt>
      <trkpt lat="37.84906854507764" lon="112.02026777457095">
        <ele>1094.1516327898478</ele>
        <time>2016-05-03T07:46:02.900000Z</time>
      </trkpt>
      <trkpt lat="37.849077568340654" lon="112.02004551494522">
        <ele>1094.9246706505203</ele>
        <time>2016-05-03T07:46:10.100000Z</time>
      </trkpt>
      <trkpt lat="37.84911391223418" lon="112.01985326614844">
        <ele>1095.4596916267212</ele>
        <time>2016-05-03T07:46:16.100000Z</time>
      </trkpt>
      <trkpt lat="37.84915635567865" lon="112.0195160921525">
        <ele>1094.314708466584</ele>
        <time>2016-05-03T07:46:26.900000Z</time>
      </trkpt>
      <trkpt lat="37.84916864367446" lon="112.01909645890014">
        <ele>1094.835960336073</ele>
        <time>2016-05-03T07:46:37.900000Z</time>
      </trkpt>
      <trkpt lat="37.84917441480027" lon="112.01868007561174">
        <ele>1095.65794096556</ele>
        <time>2016-05-03T07:46:54.800000Z</time>
      </trkpt>
      <trkpt lat="37.84916922748977" lon="112.01820583818154">
        <ele>1098.022229270714</ele>
        <time>2016-05-03T07:47:02.900000Z</time>
      </trkpt>
      <trkpt lat="37.8491753675247" lon="112.01785408307536">
        <ele>1098.932461140715</ele>
        <time>2016-05-03T07:47:13Z</time>
      </trkpt>
      <trkpt lat="37.84918369754558" lon="112.01768942642065">
        <ele>1099.777532016534</ele>
        <time>2016-05-03T07:47:17Z</time>
      </trkpt>
      <trkpt lat="37.84923231754224" lon="112.01747663999205">
        <ele>1101.7772551392804</ele>
        <time>2016-05-03T07:47:25Z</time>
      </trkpt>
      <trkpt lat="37.84924244335238" lon="112.01725277425538">
        <ele>1102.8271700871114</ele>
        <time>2016-05-03T07:47:32Z</time>
      </trkpt>
      <trkpt lat="37.849300229282925" lon="112.01686911832577">
        <ele>1104.4362027805</ele>
        <time>2016-05-03T07:47:43.900000Z</time>
      </trkpt>
      <trkpt lat="37.849336699960936" lon="112.016444643897">
        <ele>1106.3826060270592</ele>
        <time>2016-05-03T07:48:00Z</time>
      </trkpt>
      <trkpt lat="37.84943798379146" lon="112.01603206182004">
        <ele>1106.0191864155488</ele>
        <time>2016-05-03T07:48:13Z</time>
      </trkpt>
      <trkpt lat="37.84949298418971" lon="112.01558163940935">
        <ele>1104.298588503908</ele>
        <time>2016-05-03T07:48:28Z</time>
      </trkpt>
      <trkpt lat="37.84951864225422" lon="112.01524179989569">
        <ele>1104.9534362339039</ele>
        <time>2016-05-03T07:48:39Z</time>
      </trkpt>
      <trkpt lat="37.849560663822174" lon="112.01487303339725">
        <ele>1106.0077611876407</ele>
        <time>2016-05-03T07:48:50Z</time>
      </trkpt>
      <trkpt lat="37.849592941473205" lon="112.01449697167622">
        <ele>1105.5584314105793</ele>
        <time>2016-05-03T07:49:04Z</time>
      </trkpt>
      <trkpt lat="37.84962840197296" lon="112.01414713639755">
        <ele>1107.3569895841342</ele>
        <time>2016-05-03T07:49:15.200000Z</time>
      </trkpt>
      <trkpt lat="37.8496500292002" lon="112.01379676474185">
        <ele>1108.0785973546588</ele>
        <time>2016-05-03T07:49:26Z</time>
      </trkpt>
      <trkpt lat="37.849692337454336" lon="112.01342584713665">
        <ele>1106.6012866228568</ele>
        <time>2016-05-03T07:49:39.900000Z</time>
      </trkpt>
      <trkpt lat="37.84973514761286" lon="112.0130698011352">
        <ele>1106.1119592304574</ele>
        <time>2016-05-03T07:49:51Z</time>
      </trkpt>
      <trkpt lat="37.84979272149234" lon="112.01276917559254">
        <ele>1105.656043664463</ele>
        <time>2016-05-03T07:50:02Z</time>
      </trkpt>
      <trkpt lat="37.84979776265293" lon="112.01243395491582">
        <ele>1106.211414462927</ele>
        <time>2016-05-03T07:50:13Z</time>
      </trkpt>
      <trkpt lat="37.849852021458275" lon="112.01206142424286">
        <ele>1106.9111167250085</ele>
        <time>2016-05-03T07:50:24.100000Z</time>
      </trkpt>
      <trkpt lat="37.849880484927304" lon="112.01169673906699">
        <ele>1107.0430193534924</ele>
        <time>2016-05-03T07:50:36Z</time>
      </trkpt>
      <trkpt lat="37.84988348098835" lon="112.01132043522507">
        <ele>1108.4750736854076</ele>
        <time>2016-05-03T07:50:47Z</time>
      </trkpt>
      <trkpt lat="37.84988382285368" lon="112.01111038764077">
        <ele>1108.931010685369</ele>
        <time>2016-05-03T07:50:53.900000Z</time>
      </trkpt>
      <trkpt lat="37.84989726491922" lon="112.01068867144143">
        <ele>1107.4108421711917</ele>
        <time>2016-05-03T07:51:09.100000Z</time>
      </trkpt>
      <trkpt lat="37.849892416668446" lon="112.01030615807315">
        <ele>1108.2764873036647</ele>
        <time>2016-05-03T07:51:22.100000Z</time>
      </trkpt>
      <trkpt lat="37.84991925678825" lon="112.00994310694975">
        <ele>1108.4985536381882</ele>
        <time>2016-05-03T07:51:33Z</time>
      </trkpt>
      <trkpt lat="37.84991540943592" lon="112.00959060442148">
        <ele>1110.7266816492356</ele>
        <time>2016-05-03T07:51:44.100000Z</time>
      </trkpt>
      <trkpt lat="37.84990204367182" lon="112.00933839468642">
        <ele>1110.6415664182082</ele>
        <time>2016-05-03T07:51:52Z</time>
      </trkpt>
      <trkpt lat="37.849863352266304" lon="112.00921026663262">
        <ele>1110.2081980275038</ele>
        <time>2016-05-03T07:51:56.100000Z</time>
      </trkpt>
      <trkpt lat="37.84980750784288" lon="112.00910268531939">
        <ele>1109.349923318937</ele>
        <time>2016-05-03T07:52:00Z</time>
      </trkpt>
      <trkpt lat="37.84970144597083" lon="112.00881967222519">
        <ele>1107.9700749605715</ele>
        <time>2016-05-03T07:52:10.200000Z</time>
      </trkpt>
      <trkpt lat="37.849556882495854" lon="112.00862046392784">
        <ele>1106.9536664140956</ele>
        <time>2016-05-03T07:52:18Z</time>
      </trkpt>
      <trkpt lat="37.84952238623958" lon="112.00854207553357">
        <ele>1107.1781544560258</ele>
        <time>2016-05-03T07:52:22Z</time>
      </trkpt>
      <trkpt lat="37.849478572748104" lon="112.00849504530427">
        <ele>1107.4757793659326</ele>
        <time>2016-05-03T07:52:25.200000Z</time>
      </trkpt>
      <trkpt lat="37.849381681819644" lon="112.00832259382005">
        <ele>1107.9477691986142</ele>
        <time>2016-05-03T07:52:35.200000Z</time>
      </trkpt>
      <trkpt lat="37.84917564319333" lon="112.00799418302671">
        <ele>1108.3539171715372</ele>
        <time>2016-05-03T07:52:46.100000Z</time>
      </trkpt>
      <trkpt lat="37.849105701031064" lon="112.00788363202201">
        <ele>1108.5616860561697</ele>
        <time>2016-05-03T07:52:49.900000Z</time>
      </trkpt>
      <trkpt lat="37.848892827058556" lon="112.00766497212258">
        <ele>1111.6926605852761</ele>
        <time>2016-05-03T07:53:01Z</time>
      </trkpt>
      <trkpt lat="37.8486758229951" lon="112.00737549114525">
        <ele>1112.8245704399653</ele>
        <time>2016-05-03T07:53:12Z</time>
      </trkpt>
      <trkpt lat="37.848458944514746" lon="112.00704411292597">
        <ele>1115.5833143190468</ele>
        <time>2016-05-03T07:53:24.900000Z</time>
      </trkpt>
      <trkpt lat="37.84830878862767" lon="112.00690221685286">
        <ele>1116.6108099533299</ele>
        <time>2016-05-03T07:53:31.900000Z</time>
      </trkpt>
      <trkpt lat="37.848138948077846" lon="112.00681087169178">
        <ele>1117.1850008376152</ele>
        <time>2016-05-03T07:53:39Z</time>
      </trkpt>
      <trkpt lat="37.847773413886685" lon="112.0067457702033">
        <ele>1116.05983151805</ele>
        <time>2016-05-03T07:53:54Z</time>
      </trkpt>
      <trkpt lat="37.84767201335808" lon="112.00672226520506">
        <ele>1115.715688101848</ele>
        <time>2016-05-03T07:53:58Z</time>
      </trkpt>
      <trkpt lat="37.84731673685474" lon="112.00667473279809">
        <ele>1114.8249013913237</ele>
        <time>2016-05-03T07:54:14.900000Z</time>
      </trkpt>
      <trkpt lat="37.847141881796254" lon="112.00662744920983">
        <ele>1114.0184790859214</ele>
        <time>2016-05-03T07:54:22Z</time>
      </trkpt>
      <trkpt lat="37.846813588460655" lon="112.00662965085964">
        <ele>1115.4996775082273</ele>
        <time>2016-05-03T07:54:34Z</time>
      </trkpt>
      <trkpt lat="37.84652327234935" lon="112.00663401046737">
        <ele>1117.266376380474</ele>
        <time>2016-05-03T07:54:45.100000Z</time>
      </trkpt>
      <trkpt lat="37.846347212994175" lon="112.00662673307018">
        <ele>1118.549766207611</ele>
        <time>2016-05-03T07:54:52Z</time>
      </trkpt>
      <trkpt lat="37.846273484736685" lon="112.00660376542984">
        <ele>1119.7879244055896</ele>
        <time>2016-05-03T07:54:55Z</time>
      </trkpt>
      <trkpt lat="37.84608420764054" lon="112.00666190488721">
        <ele>1122.4746625825026</ele>
        <time>2016-05-03T07:55:01.900000Z</time>
      </trkpt>
      <trkpt lat="37.84589776766096" lon="112.00658732127954">
        <ele>1124.8059746345166</ele>
        <time>2016-05-03T07:55:10Z</time>
      </trkpt>
      <trkpt lat="37.84582388570039" lon="112.00652488830211">
        <ele>1125.9377253606158</ele>
        <time>2016-05-03T07:55:13.900000Z</time>
      </trkpt>
      <trkpt lat="37.845724375673555" lon="112.00650435656398">
        <ele>1126.8576138975525</ele>
        <time>2016-05-03T07:55:18Z</time>
      </trkpt>
      <trkpt lat="37.84548655190831" lon="112.0063743656561">
        <ele>1128.6016128260685</ele>
        <time>2016-05-03T07:55:28Z</time>
      </trkpt>
      <trkpt lat="37.84529597808455" lon="112.00632140762542">
        <ele>1130.0649447172923</ele>
        <time>2016-05-03T07:55:36Z</time>
      </trkpt>
      <trkpt lat="37.84500444674004" lon="112.00627846313246">
        <ele>1133.1117209321274</ele>
        <time>2016-05-03T07:55:47Z</time>
      </trkpt>
      <trkpt lat="37.844632318341276" lon="112.0062414750863">
        <ele>1133.5973723673321</ele>
        <time>2016-05-03T07:56:01Z</time>
      </trkpt>
      <trkpt lat="37.84442832386764" lon="112.0062309573398">
        <ele>1133.9089182831615</ele>
        <time>2016-05-03T07:56:09Z</time>
      </trkpt>
      <trkpt lat="37.84411932821887" lon="112.00640372221545">
        <ele>1134.6923548389248</ele>
        <time>2016-05-03T07:56:21Z</time>
      </trkpt>
      <trkpt lat="37.843861902967774" lon="112.00656945327803">
        <ele>1133.5865546518828</ele>
        <time>2016-05-03T07:56:32Z</time>
      </trkpt>
      <trkpt lat="37.84378777469086" lon="112.00658973543635">
        <ele>1133.5046560469157</ele>
        <time>2016-05-03T07:56:36Z</time>
      </trkpt>
      <trkpt lat="37.84346159070239" lon="112.0067949406405">
        <ele>1134.1496853640751</ele>
        <time>2016-05-03T07:56:52Z</time>
      </trkpt>
      <trkpt lat="37.84318288985934" lon="112.00699905953957">
        <ele>1133.0470614175726</ele>
        <time>2016-05-03T07:57:05Z</time>
      </trkpt>
      <trkpt lat="37.84289307704116" lon="112.00719939598825">
        <ele>1132.176147675724</ele>
        <time>2016-05-03T07:57:19.900000Z</time>
      </trkpt>
      <trkpt lat="37.84259122833616" lon="112.00743298311599">
        <ele>1133.6709999223801</ele>
        <time>2016-05-03T07:57:31.900000Z</time>
      </trkpt>
      <trkpt lat="37.84230351574356" lon="112.00765737866375">
        <ele>1135.707302336244</ele>
        <time>2016-05-03T07:57:45.900000Z</time>
      </trkpt>
      <trkpt lat="37.84206203637552" lon="112.00784473616883">
        <ele>1134.2757854196298</ele>
        <time>2016-05-03T07:57:57Z</time>
      </trkpt>
      <trkpt lat="37.84191932751257" lon="112.00793612005768">
        <ele>1132.7082537674744</ele>
        <time>2016-05-03T07:58:04.200000Z</time>
      </trkpt>
      <trkpt lat="37.84184413042395" lon="112.00795099643143">
        <ele>1131.8168628218032</ele>
        <time>2016-05-03T07:58:08Z</time>
      </trkpt>
      <trkpt lat="37.84169723995578" lon="112.00808022533393">
        <ele>1128.9818079006482</ele>
        <time>2016-05-03T07:58:15Z</time>
      </trkpt>
      <trkpt lat="37.841555045200096" lon="112.00818134092451">
        <ele>1127.770298527023</ele>
        <time>2016-05-03T07:58:19Z</time>
      </trkpt>
      <trkpt lat="37.84143892749595" lon="112.00818027351193">
        <ele>1126.9490378277</ele>
        <time>2016-05-03T07:58:23Z</time>
      </trkpt>
      <trkpt lat="37.841285064834466" lon="112.008098656075">
        <ele>1126.940250015246</ele>
        <time>2016-05-03T07:58:30Z</time>
      </trkpt>
      <trkpt lat="37.84097536518323" lon="112.00805246883367">
        <ele>1129.0407908061466</ele>
        <time>2016-05-03T07:58:41Z</time>
      </trkpt>
      <trkpt lat="37.84089161193053" lon="112.00802490651499">
        <ele>1130.1702118883493</ele>
        <time>2016-05-03T07:58:45.200000Z</time>
      </trkpt>
      <trkpt lat="37.84079963369805" lon="112.00802626907392">
        <ele>1130.996503225797</ele>
        <time>2016-05-03T07:58:49Z</time>
      </trkpt>
      <trkpt lat="37.84062293056982" lon="112.0080533218387">
        <ele>1132.476733206806</ele>
        <time>2016-05-03T07:58:55.900000Z</time>
      </trkpt>
      <trkpt lat="37.84034168022581" lon="112.00802010643352">
        <ele>1135.2009678723273</ele>
        <time>2016-05-03T07:59:06Z</time>
      </trkpt>
      <trkpt lat="37.84022252535619" lon="112.00803688029013">
        <ele>1136.2530346035687</ele>
        <time>2016-05-03T07:59:10Z</time>
      </trkpt>
      <trkpt lat="37.84015367820067" lon="112.00801472253195">
        <ele>1137.1917129210185</ele>
        <time>2016-05-03T07:59:13Z</time>
      </trkpt>
      <trkpt lat="37.83988407335411" lon="112.00808017137652">
        <ele>1138.3654519721101</ele>
        <time>2016-05-03T07:59:24Z</time>
      </trkpt>
      <trkpt lat="37.83952008393983" lon="112.00804345170903">
        <ele>1139.2689554426709</ele>
        <time>2016-05-03T07:59:37.900000Z</time>
      </trkpt>
      <trkpt lat="37.83930152795783" lon="112.00809456768812">
        <ele>1138.780122921953</ele>
        <time>2016-05-03T07:59:47.900000Z</time>
      </trkpt>
      <trkpt lat="37.839364787226856" lon="112.00817133022728">
        <ele>1139.068161818032</ele>
        <time>2016-05-03T07:59:55.100000Z</time>
      </trkpt>
      <trkpt lat="37.83966140452082" lon="112.00805424752076">
        <ele>1138.8114913170396</ele>
        <time>2016-05-03T08:00:07Z</time>
      </trkpt>
      <trkpt lat="37.83978710121455" lon="112.0080272008413">
        <ele>1138.7739133331145</ele>
        <time>2016-05-03T08:00:11Z</time>
      </trkpt>
      <trkpt lat="37.84007696225547" lon="112.00799283603673">
        <ele>1140.4588421838316</ele>
        <time>2016-05-03T08:00:22Z</time>
      </trkpt>
      <trkpt lat="37.84039690597466" lon="112.00796955063741">
        <ele>1140.9294117952288</ele>
        <time>2016-05-03T08:00:37.900000Z</time>
      </trkpt>
      <trkpt lat="37.84050643206295" lon="112.0079976504914">
        <ele>1141.1267837876921</ele>
        <time>2016-05-03T08:00:45Z</time>
      </trkpt>
      <trkpt lat="37.84065047384138" lon="112.0080057428032">
        <ele>1141.8090354685228</ele>
        <time>2016-05-03T08:00:59Z</time>
      </trkpt>
      <trkpt lat="37.840692159552226" lon="112.00803817583588">
        <ele>1141.2523774955662</ele>
        <time>2016-05-03T08:01:06Z</time>
      </trkpt>
      <trkpt lat="37.840702528509226" lon="112.00810980858827">
        <ele>1138.7899640959236</ele>
        <time>2016-05-03T08:01:42Z</time>
      </trkpt>
      <trkpt lat="37.84066355587366" lon="112.00807737519573">
        <ele>1136.4140248605959</ele>
        <time>2016-05-03T08:02:04Z</time>
      </trkpt>
      <trkpt lat="37.84061653672746" lon="112.00810522345903">
        <ele>1137.0542145573033</ele>
        <time>2016-05-03T08:02:21.900000Z</time>
      </trkpt>
      <trkpt lat="37.840754962773765" lon="112.00799410672025">
        <ele>1138.2375739417837</ele>
        <time>2016-05-03T08:03:01.900000Z</time>
      </trkpt>
      <trkpt lat="37.84076770864196" lon="112.0080876348127">
        <ele>1139.8925015644202</ele>
        <time>2016-05-03T08:03:25Z</time>
      </trkpt>
      <trkpt lat="37.84080367045689" lon="112.00812898903563">
        <ele>1141.249185196115</ele>
        <time>2016-05-03T08:04:03Z</time>
      </trkpt>
      <trkpt lat="37.84087696437092" lon="112.00802382699588">
        <ele>1141.2299837887194</ele>
        <time>2016-05-03T08:04:10Z</time>
      </trkpt>
      <trkpt lat="37.84099541493452" lon="112.00806165721467">
        <ele>1141.4184169288205</ele>
        <time>2016-05-03T08:04:35Z</time>
      </trkpt>
      <trkpt lat="37.84104159849311" lon="112.0081327450842">
        <ele>1142.395731327493</ele>
        <time>2016-05-03T08:04:58Z</time>
      </trkpt>
      <trkpt lat="37.841009856009535" lon="112.00822411614689">
        <ele>1142.4969593029637</ele>
        <time>2016-05-03T08:05:07.900000Z</time>
      </trkpt>
      <trkpt lat="37.8409607576216" lon="112.00822114851277">
        <ele>1142.9308987271895</ele>
        <time>2016-05-03T08:05:18.900000Z</time>
      </trkpt>
      <trkpt lat="37.84107721620047" lon="112.00810706070638">
        <ele>1144.1855138809628</ele>
        <time>2016-05-03T08:05:34.900000Z</time>
      </trkpt>
      <trkpt lat="37.84112794725341" lon="112.00810840623807">
        <ele>1142.8485759476378</ele>
        <time>2016-05-03T08:05:57Z</time>
      </trkpt>
      <trkpt lat="37.84109388781667" lon="112.00806597053447">
        <ele>1142.5279996089869</ele>
        <time>2016-05-03T08:06:19Z</time>
      </trkpt>
      <trkpt lat="37.84110421758468" lon="112.00815084886582">
        <ele>1141.4767061406126</ele>
        <time>2016-05-03T08:06:34.100000Z</time>
      </trkpt>
      <trkpt lat="37.84124930946532" lon="112.0081708350321">
        <ele>1139.2495554988677</ele>
        <time>2016-05-03T08:06:49Z</time>
      </trkpt>
      <trkpt lat="37.841388049964955" lon="112.00813675849943">
        <ele>1138.1862612606576</ele>
        <time>2016-05-03T08:06:56Z</time>
      </trkpt>
      <trkpt lat="37.841459074095674" lon="112.00815675349972">
        <ele>1138.2802199180444</ele>
        <time>2016-05-03T08:07:03Z</time>
      </trkpt>
      <trkpt lat="37.84151641745731" lon="112.00812403827392">
        <ele>1140.6109601546334</ele>
        <time>2016-05-03T08:07:35Z</time>
      </trkpt>
      <trkpt lat="37.84164668813849" lon="112.00810996623848">
        <ele>1140.2096304727613</ele>
        <time>2016-05-03T08:07:45.900000Z</time>
      </trkpt>
      <trkpt lat="37.8417233474139" lon="112.0080594078163">
        <ele>1139.8211742798842</ele>
        <time>2016-05-03T08:07:52.900000Z</time>
      </trkpt>
      <trkpt lat="37.841748865169436" lon="112.00796290172224">
        <ele>1139.4159893158824</ele>
        <time>2016-05-03T08:08:03Z</time>
      </trkpt>
      <trkpt lat="37.841788351786015" lon="112.00791342911714">
        <ele>1141.1416408739196</ele>
        <time>2016-05-03T08:08:10Z</time>
      </trkpt>
      <trkpt lat="37.84179965615892" lon="112.00776096958072">
        <ele>1144.7172370566045</ele>
        <time>2016-05-03T08:08:29.900000Z</time>
      </trkpt>
      <trkpt lat="37.84202219306975" lon="112.00764849182869">
        <ele>1149.1850324699108</ele>
        <time>2016-05-03T08:08:51Z</time>
      </trkpt>
      <trkpt lat="37.84235241482409" lon="112.00754465149396">
        <ele>1147.7125625008518</ele>
        <time>2016-05-03T08:09:19Z</time>
      </trkpt>
      <trkpt lat="37.84244558912182" lon="112.00750598538355">
        <ele>1147.478411316294</ele>
        <time>2016-05-03T08:09:26.900000Z</time>
      </trkpt>
      <trkpt lat="37.84257704071806" lon="112.00736837973035">
        <ele>1146.2017662302765</ele>
        <time>2016-05-03T08:09:41.900000Z</time>
      </trkpt>
      <trkpt lat="37.84281616596346" lon="112.00724319593601">
        <ele>1143.9487155630375</ele>
        <time>2016-05-03T08:09:59Z</time>
      </trkpt>
      <trkpt lat="37.84310514463958" lon="112.00704961727479">
        <ele>1142.924744633522</ele>
        <time>2016-05-03T08:10:11Z</time>
      </trkpt>
      <trkpt lat="37.8434097140082" lon="112.00681386865173">
        <ele>1141.4918164519386</ele>
        <time>2016-05-03T08:10:22.900000Z</time>
      </trkpt>
      <trkpt lat="37.84359347423042" lon="112.00669490964287">
        <ele>1139.7397228150005</ele>
        <time>2016-05-03T08:10:31Z</time>
      </trkpt>
      <trkpt lat="37.8437961354762" lon="112.00651539897137">
        <ele>1138.1049441584044</ele>
        <time>2016-05-03T08:10:43Z</time>
      </trkpt>
      <trkpt lat="37.844077768740604" lon="112.00632912158854">
        <ele>1136.9815362041593</ele>
        <time>2016-05-03T08:10:53.900000Z</time>
      </trkpt>
      <trkpt lat="37.844339247992686" lon="112.00616879678674">
        <ele>1137.1451059842777</ele>
        <time>2016-05-03T08:11:05Z</time>
      </trkpt>
      <trkpt lat="37.84453181156945" lon="112.00610038559142">
        <ele>1136.2347316845382</ele>
        <time>2016-05-03T08:11:11.900000Z</time>
      </trkpt>
      <trkpt lat="37.84461513149204" lon="112.0060911851471">
        <ele>1135.9564532300622</ele>
        <time>2016-05-03T08:11:15.100000Z</time>
      </trkpt>
      <trkpt lat="37.84494397861321" lon="112.006176023023">
        <ele>1136.9078238802458</ele>
        <time>2016-05-03T08:11:27Z</time>
      </trkpt>
      <trkpt lat="37.845206093003256" lon="112.00625762523683">
        <ele>1137.7042487765157</ele>
        <time>2016-05-03T08:11:38Z</time>
      </trkpt>
      <trkpt lat="37.84557840877489" lon="112.00641381998527">
        <ele>1138.7787561397724</ele>
        <time>2016-05-03T08:11:52Z</time>
      </trkpt>
      <trkpt lat="37.84592092414014" lon="112.00655542183873">
        <ele>1137.9163949698434</ele>
        <time>2016-05-03T08:12:04Z</time>
      </trkpt>
      <trkpt lat="37.84617493350104" lon="112.00662567237623">
        <ele>1137.4660250419054</ele>
        <time>2016-05-03T08:12:11.900000Z</time>
      </trkpt>
      <trkpt lat="37.84651046194626" lon="112.0066537447062">
        <ele>1136.3689002757133</ele>
        <time>2016-05-03T08:12:22.900000Z</time>
      </trkpt>
      <trkpt lat="37.846833584200375" lon="112.00665694989546">
        <ele>1135.2017926152635</ele>
        <time>2016-05-03T08:12:34Z</time>
      </trkpt>
      <trkpt lat="37.8471440788934" lon="112.00670962355028">
        <ele>1134.2351131304608</ele>
        <time>2016-05-03T08:12:47Z</time>
      </trkpt>
      <trkpt lat="37.847431032339415" lon="112.00674121575327">
        <ele>1133.298370937156</ele>
        <time>2016-05-03T08:12:58Z</time>
      </trkpt>
      <trkpt lat="37.84771769924897" lon="112.00677794392374">
        <ele>1131.7649811188003</ele>
        <time>2016-05-03T08:13:08.900000Z</time>
      </trkpt>
      <trkpt lat="37.84800004535216" lon="112.00680791483427">
        <ele>1131.1815443542407</ele>
        <time>2016-05-03T08:13:19.900000Z</time>
      </trkpt>
      <trkpt lat="37.848122072851936" lon="112.00682898459326">
        <ele>1130.755003112684</ele>
        <time>2016-05-03T08:13:23.900000Z</time>
      </trkpt>
      <trkpt lat="37.84823453206282" lon="112.0068743835733">
        <ele>1130.5642137987243</ele>
        <time>2016-05-03T08:13:28Z</time>
      </trkpt>
      <trkpt lat="37.848334673717815" lon="112.00695627620206">
        <ele>1130.3664909500053</ele>
        <time>2016-05-03T08:13:31.900000Z</time>
      </trkpt>
      <trkpt lat="37.848559742599754" lon="112.00727035295037">
        <ele>1129.626395022653</ele>
        <time>2016-05-03T08:13:43Z</time>
      </trkpt>
      <trkpt lat="37.848790237279715" lon="112.00758497113549">
        <ele>1128.7988110611045</ele>
        <time>2016-05-03T08:13:54Z</time>
      </trkpt>
      <trkpt lat="37.84901016481351" lon="112.00789526701585">
        <ele>1126.846781949779</ele>
        <time>2016-05-03T08:14:05.900000Z</time>
      </trkpt>
      <trkpt lat="37.8491794878467" lon="112.0081617790161">
        <ele>1125.4736801873455</ele>
        <time>2016-05-03T08:14:16Z</time>
      </trkpt>
      <trkpt lat="37.8493593897325" lon="112.00842937213953">
        <ele>1123.2456420261708</ele>
        <time>2016-05-03T08:14:26Z</time>
      </trkpt>
      <trkpt lat="37.849564155022186" lon="112.0087302127449">
        <ele>1122.2759984853633</ele>
        <time>2016-05-03T08:14:36Z</time>
      </trkpt>
      <trkpt lat="37.84971011123162" lon="112.0089172568093">
        <ele>1121.1617984065308</ele>
        <time>2016-05-03T08:14:43.100000Z</time>
      </trkpt>
      <trkpt lat="37.84985565632455" lon="112.00915187806991">
        <ele>1120.3371295663146</ele>
        <time>2016-05-03T08:14:50.900000Z</time>
      </trkpt>
      <trkpt lat="37.84997620395907" lon="112.00949138850041">
        <ele>1119.6170151118656</ele>
        <time>2016-05-03T08:15:02Z</time>
      </trkpt>
      <trkpt lat="37.85002705341883" lon="112.00972926723351">
        <ele>1119.190993583896</ele>
        <time>2016-05-03T08:15:08.900000Z</time>
      </trkpt>
      <trkpt lat="37.850042917679794" lon="112.0101474583995">
        <ele>1118.974982546047</ele>
        <time>2016-05-03T08:15:19.900000Z</time>
      </trkpt>
      <trkpt lat="37.85002095270174" lon="112.01051375419601">
        <ele>1118.3486185592353</ele>
        <time>2016-05-03T08:15:30Z</time>
      </trkpt>
      <trkpt lat="37.84997323576152" lon="112.01096575010466">
        <ele>1116.4409561457346</ele>
        <time>2016-05-03T08:15:41Z</time>
      </trkpt>
      <trkpt lat="37.8499010184715" lon="112.01135395430667">
        <ele>1117.4310523533911</ele>
        <time>2016-05-03T08:15:52Z</time>
      </trkpt>
      <trkpt lat="37.84986808462494" lon="112.01176243173792">
        <ele>1116.641345826009</ele>
        <time>2016-05-03T08:16:02.900000Z</time>
      </trkpt>
      <trkpt lat="37.84986284069888" lon="112.01188624561419">
        <ele>1116.0777735791248</ele>
        <time>2016-05-03T08:16:05.900000Z</time>
      </trkpt>
      <trkpt lat="37.849801918718555" lon="112.01231068050805">
        <ele>1114.4299240272821</ele>
        <time>2016-05-03T08:16:19Z</time>
      </trkpt>
      <trkpt lat="37.84977884079594" lon="112.01259697117312">
        <ele>1113.0823118884584</ele>
        <time>2016-05-03T08:16:27Z</time>
      </trkpt>
      <trkpt lat="37.849755526418676" lon="112.01296544704732">
        <ele>1111.6458729429394</ele>
        <time>2016-05-03T08:16:38Z</time>
      </trkpt>
      <trkpt lat="37.8497105402897" lon="112.01351127353745">
        <ele>1109.8570261161226</ele>
        <time>2016-05-03T08:16:53Z</time>
      </trkpt>
      <trkpt lat="37.84966306907841" lon="112.01388516623892">
        <ele>1109.0702387785984</ele>
        <time>2016-05-03T08:17:04Z</time>
      </trkpt>
      <trkpt lat="37.849618769625216" lon="112.01438369224552">
        <ele>1108.0426559871325</ele>
        <time>2016-05-03T08:17:16Z</time>
      </trkpt>
      <trkpt lat="37.84959966405516" lon="112.01480219659844">
        <ele>1107.1216167226517</ele>
        <time>2016-05-03T08:17:26.900000Z</time>
      </trkpt>
      <trkpt lat="37.84955953117488" lon="112.01517447687837">
        <ele>1104.0193077506708</ele>
        <time>2016-05-03T08:17:39Z</time>
      </trkpt>
      <trkpt lat="37.84951578670788" lon="112.01557731097988">
        <ele>1102.768764646799</ele>
        <time>2016-05-03T08:17:49.900000Z</time>
      </trkpt>
      <trkpt lat="37.84948835060302" lon="112.0158752478211">
        <ele>1103.068153279597</ele>
        <time>2016-05-03T08:17:58Z</time>
      </trkpt>
      <trkpt lat="37.849422740017346" lon="112.01624105171739">
        <ele>1103.1337582436922</ele>
        <time>2016-05-03T08:18:08.900000Z</time>
      </trkpt>
      <trkpt lat="37.849379526953356" lon="112.01665065490262">
        <ele>1103.0170788732676</ele>
        <time>2016-05-03T08:18:19.900000Z</time>
      </trkpt>
      <trkpt lat="37.84936220301169" lon="112.01702078565874">
        <ele>1103.0786180024934</ele>
        <time>2016-05-03T08:18:30Z</time>
      </trkpt>
      <trkpt lat="37.84929073094056" lon="112.01744770357048">
        <ele>1104.3731654811686</ele>
        <time>2016-05-03T08:18:40.900000Z</time>
      </trkpt>
      <trkpt lat="37.849250555249704" lon="112.01774511466314">
        <ele>1105.0668028582063</ele>
        <time>2016-05-03T08:18:50.900000Z</time>
      </trkpt>
      <trkpt lat="37.84924696002189" lon="112.01747961229164">
        <ele>1104.6858805438594</ele>
        <time>2016-05-03T08:19:02Z</time>
      </trkpt>
      <trkpt lat="37.84930756486672" lon="112.01705783229274">
        <ele>1105.9475522323148</ele>
        <time>2016-05-03T08:19:14Z</time>
      </trkpt>
      <trkpt lat="37.84935354446537" lon="112.01662821788746">
        <ele>1105.97321864079</ele>
        <time>2016-05-03T08:19:28Z</time>
      </trkpt>
      <trkpt lat="37.84939835720776" lon="112.01622861806091">
        <ele>1105.1918704196007</ele>
        <time>2016-05-03T08:19:41.100000Z</time>
      </trkpt>
      <trkpt lat="37.84943960436545" lon="112.01584362177584">
        <ele>1104.560551441175</ele>
        <time>2016-05-03T08:19:51.900000Z</time>
      </trkpt>
      <trkpt lat="37.84951541794967" lon="112.01542104542534">
        <ele>1101.8251606034326</ele>
        <time>2016-05-03T08:20:05Z</time>
      </trkpt>
      <trkpt lat="37.84958477365733" lon="112.01507579486734">
        <ele>1100.1376115210205</ele>
        <time>2016-05-03T08:20:17Z</time>
      </trkpt>
      <trkpt lat="37.84961869674092" lon="112.01488275911882">
        <ele>1099.2742832394906</ele>
        <time>2016-05-03T08:20:23.900000Z</time>
      </trkpt>
      <trkpt lat="37.84962687019024" lon="112.01449183097361">
        <ele>1099.7638662668815</ele>
        <time>2016-05-03T08:20:35Z</time>
      </trkpt>
      <trkpt lat="37.8496560297472" lon="112.01406873237569">
        <ele>1099.719217048133</ele>
        <time>2016-05-03T08:20:45.900000Z</time>
      </trkpt>
      <trkpt lat="37.849687118001775" lon="112.01363644570581">
        <ele>1100.6423119695871</ele>
        <time>2016-05-03T08:20:59.900000Z</time>
      </trkpt>
      <trkpt lat="37.84971857203638" lon="112.0131725329417">
        <ele>1102.1151733308807</ele>
        <time>2016-05-03T08:21:13.900000Z</time>
      </trkpt>
      <trkpt lat="37.849762642654156" lon="112.01275647322628">
        <ele>1104.2816626738731</ele>
        <time>2016-05-03T08:21:28Z</time>
      </trkpt>
      <trkpt lat="37.849798269283994" lon="112.01253992740773">
        <ele>1105.3768633909601</ele>
        <time>2016-05-03T08:21:35.900000Z</time>
      </trkpt>
      <trkpt lat="37.849829929597476" lon="112.01247504244029">
        <ele>1106.0671004048752</ele>
        <time>2016-05-03T08:21:39.900000Z</time>
      </trkpt>
      <trkpt lat="37.84985757298501" lon="112.01229850868097">
        <ele>1106.990910441137</ele>
        <time>2016-05-03T08:21:49Z</time>
      </trkpt>
      <trkpt lat="37.84986930741804" lon="112.01180838843995">
        <ele>1107.4575137698512</ele>
        <time>2016-05-03T08:21:59Z</time>
      </trkpt>
      <trkpt lat="37.84985884137588" lon="112.01167565561157">
        <ele>1107.2658992285312</ele>
        <time>2016-05-03T08:22:02Z</time>
      </trkpt>
      <trkpt lat="37.84985297182629" lon="112.0112693461496">
        <ele>1107.573590899117</ele>
        <time>2016-05-03T08:22:13Z</time>
      </trkpt>
      <trkpt lat="37.84985788762225" lon="112.01088682753043">
        <ele>1108.2449215414977</ele>
        <time>2016-05-03T08:22:25Z</time>
      </trkpt>
      <trkpt lat="37.84987669312407" lon="112.01048700897262">
        <ele>1109.921288158717</ele>
        <time>2016-05-03T08:22:50Z</time>
      </trkpt>
      <trkpt lat="37.84989735086833" lon="112.01010395329253">
        <ele>1113.3383266246249</ele>
        <time>2016-05-03T08:23:11Z</time>
      </trkpt>
      <trkpt lat="37.84990804124836" lon="112.00969738320323">
        <ele>1116.2144657001159</ele>
        <time>2016-05-03T08:23:38Z</time>
      </trkpt>
      <trkpt lat="37.849891907094744" lon="112.00946382561993">
        <ele>1115.8596859518334</ele>
        <time>2016-05-03T08:23:46Z</time>
      </trkpt>
      <trkpt lat="37.84986462411695" lon="112.00933110045152">
        <ele>1115.664370379819</ele>
        <time>2016-05-03T08:23:49Z</time>
      </trkpt>
      <trkpt lat="37.849814327659224" lon="112.00918215902615">
        <ele>1115.757442688364</ele>
        <time>2016-05-03T08:23:53Z</time>
      </trkpt>
      <trkpt lat="37.84961272696568" lon="112.008819682819">
        <ele>1115.713445774613</ele>
        <time>2016-05-03T08:24:05Z</time>
      </trkpt>
      <trkpt lat="37.849391651067755" lon="112.00843774815738">
        <ele>1116.0527639703776</ele>
        <time>2016-05-03T08:24:19Z</time>
      </trkpt>
      <trkpt lat="37.84917502200882" lon="112.00811231151953">
        <ele>1115.5435889128048</ele>
        <time>2016-05-03T08:24:33Z</time>
      </trkpt>
      <trkpt lat="37.8489584888518" lon="112.00775497928659">
        <ele>1116.1413594894866</ele>
        <time>2016-05-03T08:24:47Z</time>
      </trkpt>
      <trkpt lat="37.848712094484355" lon="112.00740386978818">
        <ele>1116.4157670889076</ele>
        <time>2016-05-03T08:25:01Z</time>
      </trkpt>
      <trkpt lat="37.848493628694634" lon="112.00715007142314">
        <ele>1117.6635309202677</ele>
        <time>2016-05-03T08:25:12Z</time>
      </trkpt>
      <trkpt lat="37.84834276964966" lon="112.00697087210149">
        <ele>1118.4437283011725</ele>
        <time>2016-05-03T08:25:18.900000Z</time>
      </trkpt>
      <trkpt lat="37.84812221545803" lon="112.00687223447761">
        <ele>1118.6796228657258</ele>
        <time>2016-05-03T08:25:28Z</time>
      </trkpt>
      <trkpt lat="37.84783473691505" lon="112.00683469542139">
        <ele>1119.5607765858367</ele>
        <time>2016-05-03T08:25:38.900000Z</time>
      </trkpt>
      <trkpt lat="37.84756219264574" lon="112.00679309992721">
        <ele>1119.9811210236237</ele>
        <time>2016-05-03T08:25:48.900000Z</time>
      </trkpt>
      <trkpt lat="37.8472631428015" lon="112.00672366553832">
        <ele>1120.015048073671</ele>
        <time>2016-05-03T08:26:01.900000Z</time>
      </trkpt>
      <trkpt lat="37.84696130831088" lon="112.00667828924348">
        <ele>1120.3599481602116</ele>
        <time>2016-05-03T08:26:12.900000Z</time>
      </trkpt>
      <trkpt lat="37.846680569375096" lon="112.00665534628142">
        <ele>1122.2502821575772</ele>
        <time>2016-05-03T08:26:24Z</time>
      </trkpt>
      <trkpt lat="37.846374353792896" lon="112.00662348610025">
        <ele>1125.5396281423004</ele>
        <time>2016-05-03T08:26:35.900000Z</time>
      </trkpt>
      <trkpt lat="37.84630486265816" lon="112.00663538807581">
        <ele>1125.4832663721152</ele>
        <time>2016-05-03T08:26:39Z</time>
      </trkpt>
      <trkpt lat="37.84612180881044" lon="112.00660810849763">
        <ele>1125.4116030192943</ele>
        <time>2016-05-03T08:26:49Z</time>
      </trkpt>
      <trkpt lat="37.84583564551518" lon="112.0064935308697">
        <ele>1125.5136355348968</ele>
        <time>2016-05-03T08:26:58.900000Z</time>
      </trkpt>
      <trkpt lat="37.84573396742106" lon="112.00647218846768">
        <ele>1125.6201442829847</ele>
        <time>2016-05-03T08:27:02.900000Z</time>
      </trkpt>
      <trkpt lat="37.845388248072275" lon="112.00631328732436">
        <ele>1125.781050725427</ele>
        <time>2016-05-03T08:27:16.900000Z</time>
      </trkpt>
      <trkpt lat="37.845087642087286" lon="112.0062200663296">
        <ele>1125.7068045320689</ele>
        <time>2016-05-03T08:27:27Z</time>
      </trkpt>
      <trkpt lat="37.84481738519048" lon="112.00613954636465">
        <ele>1125.523721148047</ele>
        <time>2016-05-03T08:27:37Z</time>
      </trkpt>
      <trkpt lat="37.844557956650284" lon="112.00606713446312">
        <ele>1125.9855174627987</ele>
        <time>2016-05-03T08:27:47.900000Z</time>
      </trkpt>
      <trkpt lat="37.84423139363157" lon="112.0061261007843">
        <ele>1125.889614806681</ele>
        <time>2016-05-03T08:28:01.900000Z</time>
      </trkpt>
      <trkpt lat="37.8439599701356" lon="112.0062548004399">
        <ele>1123.3994319426838</ele>
        <time>2016-05-03T08:28:12Z</time>
      </trkpt>
      <trkpt lat="37.84376086843539" lon="112.00642322730499">
        <ele>1121.459448904638</ele>
        <time>2016-05-03T08:28:19.900000Z</time>
      </trkpt>
      <trkpt lat="37.843576188414985" lon="112.00657759668096">
        <ele>1120.286220335333</ele>
        <time>2016-05-03T08:28:27.900000Z</time>
      </trkpt>
      <trkpt lat="37.84336723476607" lon="112.00668358355172">
        <ele>1120.6144111558078</ele>
        <time>2016-05-03T08:28:36.900000Z</time>
      </trkpt>
      <trkpt lat="37.84321899535585" lon="112.00680956641159">
        <ele>1121.4483262371655</ele>
        <time>2016-05-03T08:28:43.900000Z</time>
      </trkpt>
      <trkpt lat="37.843082299972615" lon="112.0068855403702">
        <ele>1122.5269842409184</ele>
        <time>2016-05-03T08:28:50.900000Z</time>
      </trkpt>
      <trkpt lat="37.84301044392371" lon="112.00696285824061">
        <ele>1123.0090170770472</ele>
        <time>2016-05-03T08:28:53.900000Z</time>
      </trkpt>
      <trkpt lat="37.842928914811736" lon="112.0070085507744">
        <ele>1123.323222474482</ele>
        <time>2016-05-03T08:28:57.900000Z</time>
      </trkpt>
      <trkpt lat="37.84267841480647" lon="112.0072180732183">
        <ele>1123.2930763387672</ele>
        <time>2016-05-03T08:29:08.900000Z</time>
      </trkpt>
      <trkpt lat="37.84245426539045" lon="112.00741651028798">
        <ele>1122.7485296630123</ele>
        <time>2016-05-03T08:29:20.900000Z</time>
      </trkpt>
      <trkpt lat="37.842269284659004" lon="112.00758142422472">
        <ele>1121.958912556331</ele>
        <time>2016-05-03T08:29:27.900000Z</time>
      </trkpt>
      <trkpt lat="37.84219022337198" lon="112.00761846680578">
        <ele>1121.9456377455906</ele>
        <time>2016-05-03T08:29:30.900000Z</time>
      </trkpt>
      <trkpt lat="37.84208958182957" lon="112.00770497967923">
        <ele>1122.239085170747</ele>
        <time>2016-05-03T08:29:34.900000Z</time>
      </trkpt>
      <trkpt lat="37.84197276113558" lon="112.00775797545464">
        <ele>1122.4905656170731</ele>
        <time>2016-05-03T08:29:38.900000Z</time>
      </trkpt>
      <trkpt lat="37.84183560308691" lon="112.00789882640292">
        <ele>1123.531140549501</ele>
        <time>2016-05-03T08:29:45Z</time>
      </trkpt>
      <trkpt lat="37.84157125909199" lon="112.00801995971423">
        <ele>1124.7323036086927</ele>
        <time>2016-05-03T08:29:56.900000Z</time>
      </trkpt>
      <trkpt lat="37.841198083043416" lon="112.00806190334767">
        <ele>1126.9475067198725</ele>
        <time>2016-05-03T08:30:12Z</time>
      </trkpt>
      <trkpt lat="37.84099299155461" lon="112.00805544021577">
        <ele>1128.2971567306972</ele>
        <time>2016-05-03T08:30:19.900000Z</time>
      </trkpt>
      <trkpt lat="37.84112606248836" lon="112.00810354075567">
        <ele>1129.0964055408099</ele>
        <time>2016-05-03T08:30:30.900000Z</time>
      </trkpt>
      <trkpt lat="37.84140540263261" lon="112.00814054086959">
        <ele>1128.6653803435993</ele>
        <time>2016-05-03T08:30:56.900000Z</time>
      </trkpt>
      <trkpt lat="37.84153997745324" lon="112.00813890290706">
        <ele>1129.4148303668048</ele>
        <time>2016-05-03T08:31:04.200000Z</time>
      </trkpt>
      <trkpt lat="37.84169591062176" lon="112.00807103471672">
        <ele>1129.9976943344839</ele>
        <time>2016-05-03T08:31:10.900000Z</time>
      </trkpt>
      <trkpt lat="37.84196080225892" lon="112.00785664215178">
        <ele>1130.5957692202778</ele>
        <time>2016-05-03T08:31:21.900000Z</time>
      </trkpt>
      <trkpt lat="37.842146306957694" lon="112.00778931136489">
        <ele>1130.8835687490148</ele>
        <time>2016-05-03T08:31:28.900000Z</time>
      </trkpt>
      <trkpt lat="37.84242625322776" lon="112.00762195273992">
        <ele>1131.9624161346303</ele>
        <time>2016-05-03T08:31:39.900000Z</time>
      </trkpt>
      <trkpt lat="37.84272913284824" lon="112.0074064758707">
        <ele>1131.7950807931688</ele>
        <time>2016-05-03T08:31:52.900000Z</time>
      </trkpt>
      <trkpt lat="37.8429789925888" lon="112.0072296608378">
        <ele>1131.6155166500657</ele>
        <time>2016-05-03T08:32:04.100000Z</time>
      </trkpt>
      <trkpt lat="37.843291233734405" lon="112.00696850130699">
        <ele>1132.0786831776338</ele>
        <time>2016-05-03T08:32:15.900000Z</time>
      </trkpt>
      <trkpt lat="37.84351061495371" lon="112.00673168187768">
        <ele>1132.9906295133762</ele>
        <time>2016-05-03T08:32:26.900000Z</time>
      </trkpt>
      <trkpt lat="37.84368437543883" lon="112.00659974927402">
        <ele>1132.96306398178</ele>
        <time>2016-05-03T08:32:33.900000Z</time>
      </trkpt>
      <trkpt lat="37.84386669339615" lon="112.00641861940916">
        <ele>1133.0670066110736</ele>
        <time>2016-05-03T08:32:40.900000Z</time>
      </trkpt>
      <trkpt lat="37.84415507094388" lon="112.00624531633552">
        <ele>1134.001961491536</ele>
        <time>2016-05-03T08:32:52.900000Z</time>
      </trkpt>
      <trkpt lat="37.84446757699445" lon="112.00607822790926">
        <ele>1133.4567202777375</ele>
        <time>2016-05-03T08:33:03.900000Z</time>
      </trkpt>
      <trkpt lat="37.84459517386339" lon="112.00605118179772">
        <ele>1133.5325808151392</ele>
        <time>2016-05-03T08:33:07Z</time>
      </trkpt>
      <trkpt lat="37.8449567366876" lon="112.00617385902665">
        <ele>1133.9111999843506</ele>
        <time>2016-05-03T08:33:19Z</time>
      </trkpt>
      <trkpt lat="37.84528204723611" lon="112.00626194113319">
        <ele>1135.0909111453434</ele>
        <time>2016-05-03T08:33:30.900000Z</time>
      </trkpt>
      <trkpt lat="37.8456008222891" lon="112.00635813342342">
        <ele>1134.827639121723</ele>
        <time>2016-05-03T08:33:41.900000Z</time>
      </trkpt>
      <trkpt lat="37.845922314647716" lon="112.00645297396261">
        <ele>1133.954804661488</ele>
        <time>2016-05-03T08:33:53Z</time>
      </trkpt>
      <trkpt lat="37.84626058096202" lon="112.0065637609589">
        <ele>1132.2313738336163</ele>
        <time>2016-05-03T08:34:07Z</time>
      </trkpt>
      <trkpt lat="37.84636768694962" lon="112.00658456211794">
        <ele>1131.5945284965053</ele>
        <time>2016-05-03T08:34:10.900000Z</time>
      </trkpt>
      <trkpt lat="37.84665783637161" lon="112.00663615690429">
        <ele>1129.636764757603</ele>
        <time>2016-05-03T08:34:22.900000Z</time>
      </trkpt>
      <trkpt lat="37.846976844707" lon="112.0066542296946">
        <ele>1128.070504319686</ele>
        <time>2016-05-03T08:34:34Z</time>
      </trkpt>
      <trkpt lat="37.84731802338598" lon="112.00669824972417">
        <ele>1125.8811842676353</ele>
        <time>2016-05-03T08:34:44.900000Z</time>
      </trkpt>
      <trkpt lat="37.847631220853266" lon="112.00675443713457">
        <ele>1125.890841059653</ele>
        <time>2016-05-03T08:34:55Z</time>
      </trkpt>
      <trkpt lat="37.84797967364658" lon="112.00681575630496">
        <ele>1124.7494412628243</ele>
        <time>2016-05-03T08:35:05.900000Z</time>
      </trkpt>
      <trkpt lat="37.84810387324895" lon="112.00683628518351">
        <ele>1124.815157263775</ele>
        <time>2016-05-03T08:35:09.900000Z</time>
      </trkpt>
      <trkpt lat="37.8482136338231" lon="112.00687681887442">
        <ele>1125.0422576368248</ele>
        <time>2016-05-03T08:35:13.900000Z</time>
      </trkpt>
      <trkpt lat="37.8482907911793" lon="112.00693276427216">
        <ele>1125.2487086870365</ele>
        <time>2016-05-03T08:35:16.900000Z</time>
      </trkpt>
      <trkpt lat="37.84845221281684" lon="112.00711817943176">
        <ele>1125.0256757459783</ele>
        <time>2016-05-03T08:35:23.900000Z</time>
      </trkpt>
      <trkpt lat="37.848663158835265" lon="112.00743739458107">
        <ele>1124.3359222542406</ele>
        <time>2016-05-03T08:35:34Z</time>
      </trkpt>
      <trkpt lat="37.84888934121256" lon="112.00774255302755">
        <ele>1122.4444414091913</ele>
        <time>2016-05-03T08:35:44.900000Z</time>
      </trkpt>
      <trkpt lat="37.84913560821103" lon="112.00804554796088">
        <ele>1121.4718990073475</ele>
        <time>2016-05-03T08:35:57Z</time>
      </trkpt>
      <trkpt lat="37.84929195024113" lon="112.00820636794556">
        <ele>1120.5535295615184</ele>
        <time>2016-05-03T08:36:04Z</time>
      </trkpt>
      <trkpt lat="37.84953469755477" lon="112.00850747326187">
        <ele>1118.7912700854</ele>
        <time>2016-05-03T08:36:14.100000Z</time>
      </trkpt>
      <trkpt lat="37.849758142986985" lon="112.00882209833561">
        <ele>1118.5231772413529</ele>
        <time>2016-05-03T08:36:26.100000Z</time>
      </trkpt>
      <trkpt lat="37.84992473135583" lon="112.00909699457273">
        <ele>1113.554985633819</ele>
        <time>2016-05-03T08:36:34Z</time>
      </trkpt>
      <trkpt lat="37.849996854495316" lon="112.00920457393096">
        <ele>1112.320619615814</ele>
        <time>2016-05-03T08:36:37Z</time>
      </trkpt>
      <trkpt lat="37.85009612730642" lon="112.00930593282828">
        <ele>1111.1471604019343</ele>
        <time>2016-05-03T08:36:41Z</time>
      </trkpt>
      <trkpt lat="37.85013540607415" lon="112.0094189229412">
        <ele>1110.7628564407662</ele>
        <time>2016-05-03T08:36:45Z</time>
      </trkpt>
      <trkpt lat="37.85012528108502" lon="112.00972493031276">
        <ele>1110.8647923317633</ele>
        <time>2016-05-03T08:36:52.900000Z</time>
      </trkpt>
      <trkpt lat="37.850066088522475" lon="112.00983306715601">
        <ele>1110.8088796146856</ele>
        <time>2016-05-03T08:36:56Z</time>
      </trkpt>
      <trkpt lat="37.84998801441089" lon="112.01027343710021">
        <ele>1109.9181191666173</ele>
        <time>2016-05-03T08:37:07.200000Z</time>
      </trkpt>
      <trkpt lat="37.84996989978904" lon="112.010714884663">
        <ele>1109.4444529589616</ele>
        <time>2016-05-03T08:37:22Z</time>
      </trkpt>
      <trkpt lat="37.84995313109045" lon="112.01116093126387">
        <ele>1108.240556203084</ele>
        <time>2016-05-03T08:37:33Z</time>
      </trkpt>
      <trkpt lat="37.84994886503866" lon="112.01150722714802">
        <ele>1109.0563887906094</ele>
        <time>2016-05-03T08:37:43Z</time>
      </trkpt>
      <trkpt lat="37.84993021743027" lon="112.01176161330703">
        <ele>1108.8112780167003</ele>
        <time>2016-05-03T08:37:49.900000Z</time>
      </trkpt>
      <trkpt lat="37.84985290689993" lon="112.01203682357988">
        <ele>1108.160971406887</ele>
        <time>2016-05-03T08:37:57Z</time>
      </trkpt>
      <trkpt lat="37.84982233381866" lon="112.01228769941089">
        <ele>1107.2411499814366</ele>
        <time>2016-05-03T08:38:04Z</time>
      </trkpt>
      <trkpt lat="37.84971912114225" lon="112.01270132918025">
        <ele>1106.957132685399</ele>
        <time>2016-05-03T08:38:15Z</time>
      </trkpt>
      <trkpt lat="37.84973434766651" lon="112.01297112673703">
        <ele>1106.2482484878255</ele>
        <time>2016-05-03T08:38:23Z</time>
      </trkpt>
      <trkpt lat="37.84971621145746" lon="112.0131444176716">
        <ele>1106.1526286663725</ele>
        <time>2016-05-03T08:38:27Z</time>
      </trkpt>
      <trkpt lat="37.84972283281876" lon="112.01357642497845">
        <ele>1107.094729925002</ele>
        <time>2016-05-03T08:38:38.900000Z</time>
      </trkpt>
      <trkpt lat="37.84966214470694" lon="112.01392355549689">
        <ele>1106.945228221926</ele>
        <time>2016-05-03T08:38:49Z</time>
      </trkpt>
      <trkpt lat="37.84962592521946" lon="112.01415930233422">
        <ele>1106.6399499806423</ele>
        <time>2016-05-03T08:38:55.900000Z</time>
      </trkpt>
      <trkpt lat="37.84958465358093" lon="112.01426501330543">
        <ele>1106.489524480955</ele>
        <time>2016-05-03T08:38:59Z</time>
      </trkpt>
      <trkpt lat="37.849550298228344" lon="112.01451346810818">
        <ele>1106.110212413189</ele>
        <time>2016-05-03T08:39:06Z</time>
      </trkpt>
      <trkpt lat="37.849559155041185" lon="112.01483139941105">
        <ele>1105.4029833119553</ele>
        <time>2016-05-03T08:39:13Z</time>
      </trkpt>
      <trkpt lat="37.84951405986294" lon="112.01532642136321">
        <ele>1103.1780374588548</ele>
        <time>2016-05-03T08:39:25Z</time>
      </trkpt>
      <trkpt lat="37.84946283668052" lon="112.01568816350165">
        <ele>1102.1950616494303</ele>
        <time>2016-05-03T08:39:35.100000Z</time>
      </trkpt>
      <trkpt lat="37.849426700376924" lon="112.0160882978937">
        <ele>1101.4879956301693</ele>
        <time>2016-05-03T08:39:46.900000Z</time>
      </trkpt>
      <trkpt lat="37.84939279997324" lon="112.01656224468894">
        <ele>1101.7238206717202</ele>
        <time>2016-05-03T08:39:57Z</time>
      </trkpt>
      <trkpt lat="37.84935647267393" lon="112.01703241206279">
        <ele>1100.5039945718684</ele>
        <time>2016-05-03T08:40:10Z</time>
      </trkpt>
      <trkpt lat="37.84929143692731" lon="112.0174860958084">
        <ele>1100.6578825093366</ele>
        <time>2016-05-03T08:40:23.900000Z</time>
      </trkpt>
      <trkpt lat="37.849263277119924" lon="112.0178524503143">
        <ele>1100.49473869044</ele>
        <time>2016-05-03T08:40:34Z</time>
      </trkpt>
      <trkpt lat="37.84918943977986" lon="112.01825450302297">
        <ele>1100.3555591281283</ele>
        <time>2016-05-03T08:40:45Z</time>
      </trkpt>
      <trkpt lat="37.84916655353906" lon="112.01867764316265">
        <ele>1100.3078081405708</ele>
        <time>2016-05-03T08:40:56Z</time>
      </trkpt>
      <trkpt lat="37.849156415858154" lon="112.01910321986152">
        <ele>1100.963282534879</ele>
        <time>2016-05-03T08:41:07Z</time>
      </trkpt>
      <trkpt lat="37.84912035731129" lon="112.019387124088">
        <ele>1101.2129059133117</ele>
        <time>2016-05-03T08:41:15Z</time>
      </trkpt>
      <trkpt lat="37.849171188918106" lon="112.01984244386996">
        <ele>1100.2392096406804</ele>
        <time>2016-05-03T08:41:28Z</time>
      </trkpt>
      <trkpt lat="37.84920034901916" lon="112.01999196369296">
        <ele>1100.15295992079</ele>
        <time>2016-05-03T08:41:32Z</time>
      </trkpt>
      <trkpt lat="37.849210934339304" lon="112.02038429505727">
        <ele>1099.524212711908</ele>
        <time>2016-05-03T08:41:43Z</time>
      </trkpt>
      <trkpt lat="37.849176800263876" lon="112.02085964653814">
        <ele>1099.1177532430017</ele>
        <time>2016-05-03T08:41:55.900000Z</time>
      </trkpt>
      <trkpt lat="37.84915714373897" lon="112.0213009326989">
        <ele>1099.423467567427</ele>
        <time>2016-05-03T08:42:06.100000Z</time>
      </trkpt>
      <trkpt lat="37.84915027119481" lon="112.021731947695">
        <ele>1098.7533756584737</ele>
        <time>2016-05-03T08:42:16.900000Z</time>
      </trkpt>
      <trkpt lat="37.84914587556782" lon="112.02205156194363">
        <ele>1097.3193582182862</ele>
        <time>2016-05-03T08:42:27Z</time>
      </trkpt>
      <trkpt lat="37.84910709799085" lon="112.02244473342587">
        <ele>1096.6198512422807</ele>
        <time>2016-05-03T08:42:38Z</time>
      </trkpt>
      <trkpt lat="37.84905312616997" lon="112.02283953375219">
        <ele>1094.6112338433268</ele>
        <time>2016-05-03T08:42:49Z</time>
      </trkpt>
      <trkpt lat="37.84904765652359" lon="112.022956351014">
        <ele>1093.8992503759825</ele>
        <time>2016-05-03T08:42:51.900000Z</time>
      </trkpt>
      <trkpt lat="37.84907325422638" lon="112.02332491783756">
        <ele>1093.197534586045</ele>
        <time>2016-05-03T08:42:59Z</time>
      </trkpt>
      <trkpt lat="37.84905928934468" lon="112.02357505183413">
        <ele>1093.569534817767</ele>
        <time>2016-05-03T08:43:06Z</time>
      </trkpt>
      <trkpt lat="37.84907293301111" lon="112.02374865666972">
        <ele>1093.929027711878</ele>
        <time>2016-05-03T08:43:09.900000Z</time>
      </trkpt>
      <trkpt lat="37.84903321139017" lon="112.02409479549708">
        <ele>1094.4528472240845</ele>
        <time>2016-05-03T08:43:19.900000Z</time>
      </trkpt>
      <trkpt lat="37.849039063616274" lon="112.0245466675897">
        <ele>1094.0946118887782</ele>
        <time>2016-05-03T08:43:34Z</time>
      </trkpt>
      <trkpt lat="37.849014209490875" lon="112.02471108787893">
        <ele>1093.6058490652904</ele>
        <time>2016-05-03T08:43:37.900000Z</time>
      </trkpt>
      <trkpt lat="37.84888592130389" lon="112.02510538379956">
        <ele>1092.6583986882888</ele>
        <time>2016-05-03T08:43:47.900000Z</time>
      </trkpt>
      <trkpt lat="37.84887433349803" lon="112.02517840064392">
        <ele>1092.6146202421683</ele>
        <time>2016-05-03T08:43:50.900000Z</time>
      </trkpt>
      <trkpt lat="37.848934851179614" lon="112.02579145950106">
        <ele>1090.523429500995</ele>
        <time>2016-05-03T08:44:09.900000Z</time>
      </trkpt>
      <trkpt lat="37.84903469677175" lon="112.0257903657681">
        <ele>1090.1036354367916</ele>
        <time>2016-05-03T08:44:13.900000Z</time>
      </trkpt>
      <trkpt lat="37.84899606560834" lon="112.02603754740001">
        <ele>1087.674496827833</ele>
        <time>2016-05-03T08:44:24.900000Z</time>
      </trkpt>
      <trkpt lat="37.848995825839616" lon="112.02623307287472">
        <ele>1085.238529984435</ele>
        <time>2016-05-03T08:44:36Z</time>
      </trkpt>
      <trkpt lat="37.848938169763514" lon="112.02638993376951">
        <ele>1083.952725315115</ele>
        <time>2016-05-03T08:44:43.900000Z</time>
      </trkpt>
      <trkpt lat="37.84876920820986" lon="112.02657304154785">
        <ele>1085.5195890862644</ele>
        <time>2016-05-03T08:44:51.900000Z</time>
      </trkpt>
      <trkpt lat="37.848558846465934" lon="112.02671396651814">
        <ele>1088.8310567575397</ele>
        <time>2016-05-03T08:45:02Z</time>
      </trkpt>
      <trkpt lat="37.848342286989" lon="112.02673427567136">
        <ele>1094.7633028848013</ele>
        <time>2016-05-03T08:45:16.900000Z</time>
      </trkpt>
      <trkpt lat="37.848197325013665" lon="112.02666127393726">
        <ele>1098.2423527316305</ele>
        <time>2016-05-03T08:45:31.900000Z</time>
      </trkpt>
      <trkpt lat="37.84813808712767" lon="112.02659231867995">
        <ele>1098.5360273926804</ele>
        <time>2016-05-03T08:45:34.900000Z</time>
      </trkpt>
      <trkpt lat="37.84789289809096" lon="112.02656287016657">
        <ele>1103.3806401001502</ele>
        <time>2016-05-03T08:45:57.900000Z</time>
      </trkpt>
      <trkpt lat="37.84780081155145" lon="112.02660588124787">
        <ele>1104.8210995344698</ele>
        <time>2016-05-03T08:46:04.900000Z</time>
      </trkpt>
      <trkpt lat="37.84770839754724" lon="112.02677491815605">
        <ele>1108.6043104909206</ele>
        <time>2016-05-03T08:46:22Z</time>
      </trkpt>
      <trkpt lat="37.84764312687924" lon="112.02683496419606">
        <ele>1109.829194851509</ele>
        <time>2016-05-03T08:46:28.900000Z</time>
      </trkpt>
      <trkpt lat="37.847493121521765" lon="112.02692801462383">
        <ele>1111.400792546215</ele>
        <time>2016-05-03T08:46:49Z</time>
      </trkpt>
      <trkpt lat="37.847492673790946" lon="112.02710082852829">
        <ele>1111.5662287101977</ele>
        <time>2016-05-03T08:46:56Z</time>
      </trkpt>
      <trkpt lat="37.847400475697405" lon="112.02739724881222">
        <ele>1113.7373293656403</ele>
        <time>2016-05-03T08:47:13.900000Z</time>
      </trkpt>
      <trkpt lat="37.847374566550634" lon="112.02755465291261">
        <ele>1113.8515948896859</ele>
        <time>2016-05-03T08:47:20.900000Z</time>
      </trkpt>
      <trkpt lat="37.8473197671305" lon="112.02797467004814">
        <ele>1110.9930611514237</ele>
        <time>2016-05-03T08:47:47Z</time>
      </trkpt>
      <trkpt lat="37.84730691386383" lon="112.02812017569343">
        <ele>1108.7591953454871</ele>
        <time>2016-05-03T08:47:59.100000Z</time>
      </trkpt>
      <trkpt lat="37.84731887642482" lon="112.02821645617927">
        <ele>1107.871848318564</ele>
        <time>2016-05-03T08:48:04.100000Z</time>
      </trkpt>
      <trkpt lat="37.84731166737887" lon="112.02827703909588">
        <ele>1107.4600138062979</ele>
        <time>2016-05-03T08:48:07.100000Z</time>
      </trkpt>
    </trkseg>
  </trk>
</gpx>