<?xml version="1.0" encoding="UTF-8"?>
<gpx xmlns="http://www.topografix.com/GPX/1/1" xmlns:gpxtpx="http://www.garmin.com/xmlschemas/TrackPointExtension/v1" xmlns:xsi="http://www.w3.org/2001/XMLSchema-instance" xsi:schemaLocation="http://www.topografix.com/GPX/1/1 http://www.topografix.com/GPX/1/1/gpx.xsd" version="1.1" creator="gpx.py -- https://github.com/tkrajina/gpxpy">
  <trk>
    <name>gpx from keep</name>
    <type>Run</type>
    <trkseg>
      <trkpt lat="37.84743948458178" lon="112.02752570706127">
        <ele>1110.4</ele>
        <time>2017-10-01T09:34:19.900000Z</time>
      </trkpt>
      <trkpt lat="37.84755280292646" lon="112.02756058136127">
        <ele>1110.4</ele>
        <time>2017-10-01T09:34:26Z</time>
      </trkpt>
      <trkpt lat="37.8475426736077" lon="112.02749053631895">
        <ele>1110.3</ele>
        <time>2017-10-01T09:34:32Z</time>
      </trkpt>
      <trkpt lat="37.84755938612666" lon="112.02742751986233">
        <ele>1110.3</ele>
        <time>2017-10-01T09:34:34.900000Z</time>
      </trkpt>
      <trkpt lat="37.847671054738015" lon="112.02726064050282">
        <ele>1109.9</ele>
        <time>2017-10-01T09:34:44.200000Z</time>
      </trkpt>
      <trkpt lat="37.84773416281786" lon="112.02709241569964">
        <ele>1110.09</ele>
        <time>2017-10-01T09:34:56.900000Z</time>
      </trkpt>
      <trkpt lat="37.84778258163891" lon="112.02704400027746">
        <ele>1113.09</ele>
        <time>2017-10-01T09:35:02.900000Z</time>
      </trkpt>
      <trkpt lat="37.847794090261054" lon="112.02689552524639">
        <ele>1112.8</ele>
        <time>2017-10-01T09:35:08.900000Z</time>
      </trkpt>
      <trkpt lat="37.84782252774637" lon="112.02681033236327">
        <ele>1113.8</ele>
        <time>2017-10-01T09:35:14.900000Z</time>
      </trkpt>
      <trkpt lat="37.84788570526028" lon="112.02672053803973">
        <ele>1113.2</ele>
        <time>2017-10-01T09:35:21Z</time>
      </trkpt>
      <trkpt lat="37.847935949925834" lon="112.02670051933157">
        <ele>1112.3</ele>
        <time>2017-10-01T09:35:23.900000Z</time>
      </trkpt>
      <trkpt lat="37.84796570923502" lon="112.02662884887741">
        <ele>1112.7</ele>
        <time>2017-10-01T09:35:30Z</time>
      </trkpt>
      <trkpt lat="37.84801744985182" lon="112.02655528287129">
        <ele>1114.09</ele>
        <time>2017-10-01T09:35:36Z</time>
      </trkpt>
      <trkpt lat="37.848262539357236" lon="112.02651874402277">
        <ele>1116.9</ele>
        <time>2017-10-01T09:35:53.900000Z</time>
      </trkpt>
      <trkpt lat="37.84834907019118" lon="112.02652549461466">
        <ele>1117.5</ele>
        <time>2017-10-01T09:35:56.900000Z</time>
      </trkpt>
      <trkpt lat="37.84862073987687" lon="112.02649219788096">
        <ele>1119.0</ele>
        <time>2017-10-01T09:36:07.900000Z</time>
      </trkpt>
      <trkpt lat="37.848745806156415" lon="112.02649542812036">
        <ele>1119.09</ele>
        <time>2017-10-01T09:36:13.900000Z</time>
      </trkpt>
      <trkpt lat="37.84879570356339" lon="112.02640049800145">
        <ele>1119.0</ele>
        <time>2017-10-01T09:36:19.900000Z</time>
      </trkpt>
      <trkpt lat="37.84898066980838" lon="112.02621874152989">
        <ele>1115.9</ele>
        <time>2017-10-01T09:36:29Z</time>
      </trkpt>
      <trkpt lat="37.84901580274696" lon="112.02606377727606">
        <ele>1115.9</ele>
        <time>2017-10-01T09:36:35Z</time>
      </trkpt>
      <trkpt lat="37.84901252340282" lon="112.02586554896928">
        <ele>1116.8</ele>
        <time>2017-10-01T09:36:42.400000Z</time>
      </trkpt>
      <trkpt lat="37.84904905832288" lon="112.0256938195224">
        <ele>1118.09</ele>
        <time>2017-10-01T09:36:49Z</time>
      </trkpt>
      <trkpt lat="37.849052323331435" lon="112.02558699851522">
        <ele>1118.5</ele>
        <time>2017-10-01T09:36:52Z</time>
      </trkpt>
      <trkpt lat="37.84909417539119" lon="112.02545718665316">
        <ele>1118.59</ele>
        <time>2017-10-01T09:36:55Z</time>
      </trkpt>
      <trkpt lat="37.849093980241676" lon="112.02532521695375">
        <ele>1118.59</ele>
        <time>2017-10-01T09:36:57.900000Z</time>
      </trkpt>
      <trkpt lat="37.84912054341022" lon="112.02523191583234">
        <ele>1119.3</ele>
        <time>2017-10-01T09:37:00.900000Z</time>
      </trkpt>
      <trkpt lat="37.849110565496225" lon="112.0250034058878">
        <ele>1118.8</ele>
        <time>2017-10-01T09:37:07.100000Z</time>
      </trkpt>
      <trkpt lat="37.84912382583975" lon="112.02491362285701">
        <ele>1118.8</ele>
        <time>2017-10-01T09:37:10.200000Z</time>
      </trkpt>
      <trkpt lat="37.84917408718951" lon="112.02478516490555">
        <ele>1119.7</ele>
        <time>2017-10-01T09:37:13.900000Z</time>
      </trkpt>
      <trkpt lat="37.84915704138159" lon="112.02466509869035">
        <ele>1122.2</ele>
        <time>2017-10-01T09:37:17Z</time>
      </trkpt>
      <trkpt lat="37.849090441563945" lon="112.02440685329414">
        <ele>1124.0</ele>
        <time>2017-10-01T09:37:23Z</time>
      </trkpt>
      <trkpt lat="37.84908071732088" lon="112.0241867322732">
        <ele>1124.8</ele>
        <time>2017-10-01T09:37:29Z</time>
      </trkpt>
      <trkpt lat="37.84902707727474" lon="112.02385169075579">
        <ele>1127.4</ele>
        <time>2017-10-01T09:37:37.900000Z</time>
      </trkpt>
      <trkpt lat="37.84900536407097" lon="112.02375326185329">
        <ele>1128.0</ele>
        <time>2017-10-01T09:37:41Z</time>
      </trkpt>
      <trkpt lat="37.849002053066634" lon="112.02346986769415">
        <ele>1128.9</ele>
        <time>2017-10-01T09:37:49.900000Z</time>
      </trkpt>
      <trkpt lat="37.84902371108142" lon="112.0230831760839">
        <ele>1131.7</ele>
        <time>2017-10-01T09:38:00Z</time>
      </trkpt>
      <trkpt lat="37.84900197639421" lon="112.02299340259071">
        <ele>1129.4</ele>
        <time>2017-10-01T09:38:03Z</time>
      </trkpt>
      <trkpt lat="37.849016967247074" lon="112.02276652792237">
        <ele>1127.9</ele>
        <time>2017-10-01T09:38:09Z</time>
      </trkpt>
      <trkpt lat="37.84899359546976" lon="112.02257994990201">
        <ele>1124.09</ele>
        <time>2017-10-01T09:38:15Z</time>
      </trkpt>
      <trkpt lat="37.84900188147806" lon="112.02212485825702">
        <ele>1123.0</ele>
        <time>2017-10-01T09:38:28.700000Z</time>
      </trkpt>
      <trkpt lat="37.84903020790377" lon="112.02178469005162">
        <ele>1123.9</ele>
        <time>2017-10-01T09:38:35.900000Z</time>
      </trkpt>
      <trkpt lat="37.84903351463984" lon="112.02166625468396">
        <ele>1124.59</ele>
        <time>2017-10-01T09:38:38.900000Z</time>
      </trkpt>
      <trkpt lat="37.84908681858926" lon="112.02132122085658">
        <ele>1126.4</ele>
        <time>2017-10-01T09:38:48Z</time>
      </trkpt>
      <trkpt lat="37.84910005272135" lon="112.02114465090447">
        <ele>1127.0</ele>
        <time>2017-10-01T09:38:53.900000Z</time>
      </trkpt>
      <trkpt lat="37.84913180302315" lon="112.02104297872962">
        <ele>1126.9</ele>
        <time>2017-10-01T09:39:00Z</time>
      </trkpt>
      <trkpt lat="37.849136735157934" lon="112.0209261680363">
        <ele>1127.7</ele>
        <time>2017-10-01T09:39:06Z</time>
      </trkpt>
      <trkpt lat="37.84909672347954" lon="112.02067633029603">
        <ele>1127.09</ele>
        <time>2017-10-01T09:39:14.900000Z</time>
      </trkpt>
      <trkpt lat="37.84907341454375" lon="112.0202729113659">
        <ele>1131.09</ele>
        <time>2017-10-01T09:39:28Z</time>
      </trkpt>
      <trkpt lat="37.8490432020014" lon="112.02001280229092">
        <ele>1132.8</ele>
        <time>2017-10-01T09:39:35Z</time>
      </trkpt>
      <trkpt lat="37.84903999911377" lon="112.01960100640666">
        <ele>1129.3</ele>
        <time>2017-10-01T09:39:45.100000Z</time>
      </trkpt>
      <trkpt lat="37.84906484510253" lon="112.01925085852245">
        <ele>1130.7</ele>
        <time>2017-10-01T09:39:53.900000Z</time>
      </trkpt>
      <trkpt lat="37.84909484331126" lon="112.01890260593274">
        <ele>1133.5</ele>
        <time>2017-10-01T09:40:02.900000Z</time>
      </trkpt>
      <trkpt lat="37.84910477433133" lon="112.01864899063617">
        <ele>1134.09</ele>
        <time>2017-10-01T09:40:09Z</time>
      </trkpt>
      <trkpt lat="37.8491330660131" lon="112.01842754943347">
        <ele>1134.0</ele>
        <time>2017-10-01T09:40:14.900000Z</time>
      </trkpt>
      <trkpt lat="37.84912820944086" lon="112.01832075201301">
        <ele>1135.0</ele>
        <time>2017-10-01T09:40:17.900000Z</time>
      </trkpt>
      <trkpt lat="37.84920291030425" lon="112.01780406115334">
        <ele>1132.8</ele>
        <time>2017-10-01T09:40:32.300000Z</time>
      </trkpt>
      <trkpt lat="37.84920300395475" lon="112.01767401302165">
        <ele>1131.8</ele>
        <time>2017-10-01T09:40:35.900000Z</time>
      </trkpt>
      <trkpt lat="37.84918649093398" lon="112.01756424498396">
        <ele>1130.9</ele>
        <time>2017-10-01T09:40:39Z</time>
      </trkpt>
      <trkpt lat="37.84926478216805" lon="112.01712407707652">
        <ele>1128.4</ele>
        <time>2017-10-01T09:40:52.100000Z</time>
      </trkpt>
      <trkpt lat="37.84930791224266" lon="112.01655062927145">
        <ele>1128.7</ele>
        <time>2017-10-01T09:41:08.500000Z</time>
      </trkpt>
      <trkpt lat="37.849379714313834" lon="112.016105606527">
        <ele>1128.09</ele>
        <time>2017-10-01T09:41:22.200000Z</time>
      </trkpt>
      <trkpt lat="37.8494497075611" lon="112.01572547434053">
        <ele>1127.8</ele>
        <time>2017-10-01T09:41:31.900000Z</time>
      </trkpt>
      <trkpt lat="37.84950104460131" lon="112.01532371937512">
        <ele>1127.9</ele>
        <time>2017-10-01T09:41:43.900000Z</time>
      </trkpt>
      <trkpt lat="37.84954943334148" lon="112.0149103433136">
        <ele>1126.0</ele>
        <time>2017-10-01T09:41:56.900000Z</time>
      </trkpt>
      <trkpt lat="37.84958097429958" lon="112.0145072463943">
        <ele>1127.5</ele>
        <time>2017-10-01T09:42:09.100000Z</time>
      </trkpt>
      <trkpt lat="37.84959754153755" lon="112.01431205237768">
        <ele>1130.9</ele>
        <time>2017-10-01T09:42:14.900000Z</time>
      </trkpt>
      <trkpt lat="37.849609319758514" lon="112.01389544581912">
        <ele>1133.8</ele>
        <time>2017-10-01T09:42:28Z</time>
      </trkpt>
      <trkpt lat="37.849644292624305" lon="112.01343369284231">
        <ele>1136.5</ele>
        <time>2017-10-01T09:42:41Z</time>
      </trkpt>
      <trkpt lat="37.849677638074795" lon="112.01306683425925">
        <ele>1135.59</ele>
        <time>2017-10-01T09:42:51.200000Z</time>
      </trkpt>
      <trkpt lat="37.849709166901434" lon="112.01257859647427">
        <ele>1137.5</ele>
        <time>2017-10-01T09:43:04.300000Z</time>
      </trkpt>
      <trkpt lat="37.849751068244174" lon="112.01225688951618">
        <ele>1137.3</ele>
        <time>2017-10-01T09:43:11.800000Z</time>
      </trkpt>
      <trkpt lat="37.849762603928895" lon="112.01183516432141">
        <ele>1136.5</ele>
        <time>2017-10-01T09:43:21.900000Z</time>
      </trkpt>
      <trkpt lat="37.84976756672623" lon="112.0116215997855">
        <ele>1136.59</ele>
        <time>2017-10-01T09:43:28Z</time>
      </trkpt>
      <trkpt lat="37.84980930795573" lon="112.01126340407082">
        <ele>1138.2</ele>
        <time>2017-10-01T09:43:37.800000Z</time>
      </trkpt>
      <trkpt lat="37.84980749711193" lon="112.01086169288673">
        <ele>1138.8</ele>
        <time>2017-10-01T09:43:47Z</time>
      </trkpt>
      <trkpt lat="37.84983265822211" lon="112.01051512833546">
        <ele>1138.5</ele>
        <time>2017-10-01T09:43:56.100000Z</time>
      </trkpt>
      <trkpt lat="37.849850758192" lon="112.01017154039296">
        <ele>1138.2</ele>
        <time>2017-10-01T09:44:05.100000Z</time>
      </trkpt>
      <trkpt lat="37.84987082730728" lon="112.00980470639655">
        <ele>1139.59</ele>
        <time>2017-10-01T09:44:14Z</time>
      </trkpt>
      <trkpt lat="37.84988576186911" lon="112.0097081988276">
        <ele>1139.09</ele>
        <time>2017-10-01T09:44:17Z</time>
      </trkpt>
      <trkpt lat="37.84983737826888" lon="112.00937003013802">
        <ele>1140.4</ele>
        <time>2017-10-01T09:44:26Z</time>
      </trkpt>
      <trkpt lat="37.84968740831386" lon="112.00907161271793">
        <ele>1141.3</ele>
        <time>2017-10-01T09:44:34.900000Z</time>
      </trkpt>
      <trkpt lat="37.84951566593132" lon="112.00879644688817">
        <ele>1141.8</ele>
        <time>2017-10-01T09:44:43.900000Z</time>
      </trkpt>
      <trkpt lat="37.849302349489896" lon="112.00845127473988">
        <ele>1142.7</ele>
        <time>2017-10-01T09:44:55.900000Z</time>
      </trkpt>
      <trkpt lat="37.84908892971023" lon="112.00814151603899">
        <ele>1144.5</ele>
        <time>2017-10-01T09:45:07.900000Z</time>
      </trkpt>
      <trkpt lat="37.84888728733098" lon="112.00779472417591">
        <ele>1143.8</ele>
        <time>2017-10-01T09:45:20Z</time>
      </trkpt>
      <trkpt lat="37.84867038313198" lon="112.00747145331763">
        <ele>1142.7</ele>
        <time>2017-10-01T09:45:32Z</time>
      </trkpt>
      <trkpt lat="37.84851248795115" lon="112.00719467084163">
        <ele>1141.9</ele>
        <time>2017-10-01T09:45:41Z</time>
      </trkpt>
      <trkpt lat="37.84840066554628" lon="112.0070262792478">
        <ele>1140.5</ele>
        <time>2017-10-01T09:45:47Z</time>
      </trkpt>
      <trkpt lat="37.84818740185249" lon="112.00684816893961">
        <ele>1140.5</ele>
        <time>2017-10-01T09:45:55.900000Z</time>
      </trkpt>
      <trkpt lat="37.84785729519998" lon="112.00682144745196">
        <ele>1140.59</ele>
        <time>2017-10-01T09:46:08Z</time>
      </trkpt>
      <trkpt lat="37.847529077345904" lon="112.0067982397997">
        <ele>1141.59</ele>
        <time>2017-10-01T09:46:20Z</time>
      </trkpt>
      <trkpt lat="37.84722393713847" lon="112.00676962316898">
        <ele>1143.4</ele>
        <time>2017-10-01T09:46:32Z</time>
      </trkpt>
      <trkpt lat="37.84692042325857" lon="112.00674154697761">
        <ele>1147.8</ele>
        <time>2017-10-01T09:46:44Z</time>
      </trkpt>
      <trkpt lat="37.84660549585559" lon="112.00671968931957">
        <ele>1151.7</ele>
        <time>2017-10-01T09:46:56Z</time>
      </trkpt>
      <trkpt lat="37.84635050740751" lon="112.00670485261172">
        <ele>1153.3</ele>
        <time>2017-10-01T09:47:05Z</time>
      </trkpt>
      <trkpt lat="37.84608081100983" lon="112.0066181148947">
        <ele>1155.2</ele>
        <time>2017-10-01T09:47:14Z</time>
      </trkpt>
      <trkpt lat="37.84578553658569" lon="112.00655651923068">
        <ele>1156.3</ele>
        <time>2017-10-01T09:47:23Z</time>
      </trkpt>
      <trkpt lat="37.845492301600984" lon="112.00644788935422">
        <ele>1156.9</ele>
        <time>2017-10-01T09:47:32Z</time>
      </trkpt>
      <trkpt lat="37.84531211249916" lon="112.00636979118951">
        <ele>1155.2</ele>
        <time>2017-10-01T09:47:37.900000Z</time>
      </trkpt>
      <trkpt lat="37.84513884942026" lon="112.00633467155163">
        <ele>1153.09</ele>
        <time>2017-10-01T09:47:43.900000Z</time>
      </trkpt>
      <trkpt lat="37.84496216895762" lon="112.00626279021107">
        <ele>1150.4</ele>
        <time>2017-10-01T09:47:50Z</time>
      </trkpt>
      <trkpt lat="37.84464382789569" lon="112.00620308975913">
        <ele>1149.8</ele>
        <time>2017-10-01T09:48:02Z</time>
      </trkpt>
      <trkpt lat="37.84456893636403" lon="112.00620634240401">
        <ele>1149.2</ele>
        <time>2017-10-01T09:48:05Z</time>
      </trkpt>
      <trkpt lat="37.84436214539012" lon="112.00631476124857">
        <ele>1148.2</ele>
        <time>2017-10-01T09:48:13.900000Z</time>
      </trkpt>
      <trkpt lat="37.84420376717639" lon="112.00638316857103">
        <ele>1146.7</ele>
        <time>2017-10-01T09:48:20Z</time>
      </trkpt>
      <trkpt lat="37.84412884585861" lon="112.00639642270468">
        <ele>1146.5</ele>
        <time>2017-10-01T09:48:23Z</time>
      </trkpt>
      <trkpt lat="37.84404569578716" lon="112.006439682266">
        <ele>1146.2</ele>
        <time>2017-10-01T09:48:26Z</time>
      </trkpt>
      <trkpt lat="37.84392549764019" lon="112.00653322404787">
        <ele>1145.59</ele>
        <time>2017-10-01T09:48:32Z</time>
      </trkpt>
      <trkpt lat="37.84384540695394" lon="112.00655134442047">
        <ele>1144.09</ele>
        <time>2017-10-01T09:48:34.900000Z</time>
      </trkpt>
      <trkpt lat="37.843617215990754" lon="112.00673977850767">
        <ele>1144.9</ele>
        <time>2017-10-01T09:48:44Z</time>
      </trkpt>
      <trkpt lat="37.84332569181984" lon="112.00696795657181">
        <ele>1149.9</ele>
        <time>2017-10-01T09:48:56Z</time>
      </trkpt>
      <trkpt lat="37.843080429315144" lon="112.0071496360052">
        <ele>1152.7</ele>
        <time>2017-10-01T09:49:04.900000Z</time>
      </trkpt>
      <trkpt lat="37.84282540405272" lon="112.00732996552287">
        <ele>1153.5</ele>
        <time>2017-10-01T09:49:14Z</time>
      </trkpt>
      <trkpt lat="37.84266901024428" lon="112.00746135684003">
        <ele>1152.8</ele>
        <time>2017-10-01T09:49:20Z</time>
      </trkpt>
      <trkpt lat="37.84247063109581" lon="112.00766141345231">
        <ele>1151.4</ele>
        <time>2017-10-01T09:49:28.900000Z</time>
      </trkpt>
      <trkpt lat="37.842162352401296" lon="112.00786797137577">
        <ele>1154.8</ele>
        <time>2017-10-01T09:49:41Z</time>
      </trkpt>
      <trkpt lat="37.84209218121168" lon="112.00792636804404">
        <ele>1155.4</ele>
        <time>2017-10-01T09:49:43.900000Z</time>
      </trkpt>
      <trkpt lat="37.84175557813187" lon="112.00807805583673">
        <ele>1160.0</ele>
        <time>2017-10-01T09:49:56Z</time>
      </trkpt>
      <trkpt lat="37.84150902084156" lon="112.00814809738692">
        <ele>1162.9</ele>
        <time>2017-10-01T09:50:04.900000Z</time>
      </trkpt>
      <trkpt lat="37.84123552464824" lon="112.00815326605203">
        <ele>1165.4</ele>
        <time>2017-10-01T09:50:13.900000Z</time>
      </trkpt>
      <trkpt lat="37.8410692065318" lon="112.00815490780283">
        <ele>1167.09</ele>
        <time>2017-10-01T09:50:19.900000Z</time>
      </trkpt>
      <trkpt lat="37.840990714588365" lon="112.0081830301729">
        <ele>1166.2</ele>
        <time>2017-10-01T09:50:23Z</time>
      </trkpt>
      <trkpt lat="37.84064880905409" lon="112.00810981499849">
        <ele>1169.5</ele>
        <time>2017-10-01T09:50:34.900000Z</time>
      </trkpt>
      <trkpt lat="37.840382264680095" lon="112.00805794594272">
        <ele>1170.7</ele>
        <time>2017-10-01T09:50:43.900000Z</time>
      </trkpt>
      <trkpt lat="37.840055601477125" lon="112.0080598771393">
        <ele>1174.0</ele>
        <time>2017-10-01T09:50:56Z</time>
      </trkpt>
      <trkpt lat="37.83972224998892" lon="112.008121549197">
        <ele>1177.09</ele>
        <time>2017-10-01T09:51:08Z</time>
      </trkpt>
      <trkpt lat="37.83940063937915" lon="112.00815808039947">
        <ele>1178.09</ele>
        <time>2017-10-01T09:51:19.900000Z</time>
      </trkpt>
      <trkpt lat="37.83944225307666" lon="112.00812320450996">
        <ele>1178.3</ele>
        <time>2017-10-01T09:51:25.900000Z</time>
      </trkpt>
      <trkpt lat="37.83966543334315" lon="112.00806803320198">
        <ele>1177.5</ele>
        <time>2017-10-01T09:51:35Z</time>
      </trkpt>
      <trkpt lat="37.839990566278246" lon="112.00803312353277">
        <ele>1173.7</ele>
        <time>2017-10-01T09:51:47Z</time>
      </trkpt>
      <trkpt lat="37.84016377593942" lon="112.00799471789448">
        <ele>1174.8</ele>
        <time>2017-10-01T09:51:52.900000Z</time>
      </trkpt>
      <trkpt lat="37.84041873796377" lon="112.00801820502186">
        <ele>1174.0</ele>
        <time>2017-10-01T09:52:02Z</time>
      </trkpt>
      <trkpt lat="37.84078560872412" lon="112.00808979521275">
        <ele>1171.9</ele>
        <time>2017-10-01T09:52:14Z</time>
      </trkpt>
      <trkpt lat="37.84103885417512" lon="112.00814328778283">
        <ele>1169.0</ele>
        <time>2017-10-01T09:52:23Z</time>
      </trkpt>
      <trkpt lat="37.84133569744278" lon="112.0081332506233">
        <ele>1167.0</ele>
        <time>2017-10-01T09:52:32Z</time>
      </trkpt>
      <trkpt lat="37.84151726420579" lon="112.00811295517094">
        <ele>1166.8</ele>
        <time>2017-10-01T09:52:38Z</time>
      </trkpt>
      <trkpt lat="37.84184900840783" lon="112.00795288806427">
        <ele>1164.3</ele>
        <time>2017-10-01T09:52:50Z</time>
      </trkpt>
      <trkpt lat="37.84215552073708" lon="112.00770145771182">
        <ele>1159.9</ele>
        <time>2017-10-01T09:53:01.900000Z</time>
      </trkpt>
      <trkpt lat="37.84239561259233" lon="112.00752464305367">
        <ele>1157.7</ele>
        <time>2017-10-01T09:53:10.900000Z</time>
      </trkpt>
      <trkpt lat="37.84269386892656" lon="112.00731295144477">
        <ele>1154.3</ele>
        <time>2017-10-01T09:53:22.900000Z</time>
      </trkpt>
      <trkpt lat="37.84297722785148" lon="112.00709315289687">
        <ele>1152.5</ele>
        <time>2017-10-01T09:53:35Z</time>
      </trkpt>
      <trkpt lat="37.8431072616772" lon="112.00697636231237">
        <ele>1149.09</ele>
        <time>2017-10-01T09:53:40.900000Z</time>
      </trkpt>
      <trkpt lat="37.84336390430929" lon="112.00679981790358">
        <ele>1146.8</ele>
        <time>2017-10-01T09:53:49.300000Z</time>
      </trkpt>
      <trkpt lat="37.843655444212416" lon="112.00656650448268">
        <ele>1148.59</ele>
        <time>2017-10-01T09:53:58.900000Z</time>
      </trkpt>
      <trkpt lat="37.84384223271088" lon="112.00643294877288">
        <ele>1149.9</ele>
        <time>2017-10-01T09:54:04.900000Z</time>
      </trkpt>
      <trkpt lat="37.844110384089184" lon="112.00630965538551">
        <ele>1150.0</ele>
        <time>2017-10-01T09:54:13.900000Z</time>
      </trkpt>
      <trkpt lat="37.84438234935205" lon="112.00618122587771">
        <ele>1149.59</ele>
        <time>2017-10-01T09:54:22.900000Z</time>
      </trkpt>
      <trkpt lat="37.84471733304207" lon="112.00620983873024">
        <ele>1144.2</ele>
        <time>2017-10-01T09:54:34.900000Z</time>
      </trkpt>
      <trkpt lat="37.84507045676889" lon="112.00625115398117">
        <ele>1146.9</ele>
        <time>2017-10-01T09:54:43.900000Z</time>
      </trkpt>
      <trkpt lat="37.84537900978936" lon="112.00631788369408">
        <ele>1147.3</ele>
        <time>2017-10-01T09:54:53Z</time>
      </trkpt>
      <trkpt lat="37.84571062176367" lon="112.00647651621973">
        <ele>1146.4</ele>
        <time>2017-10-01T09:55:05Z</time>
      </trkpt>
      <trkpt lat="37.845988950805186" lon="112.00657974169846">
        <ele>1146.8</ele>
        <time>2017-10-01T09:55:14Z</time>
      </trkpt>
      <trkpt lat="37.84622565181679" lon="112.00663134285841">
        <ele>1146.8</ele>
        <time>2017-10-01T09:55:22.900000Z</time>
      </trkpt>
      <trkpt lat="37.846557184665244" lon="112.00663454704423">
        <ele>1148.59</ele>
        <time>2017-10-01T09:55:32Z</time>
      </trkpt>
      <trkpt lat="37.84685067279743" lon="112.00665829941275">
        <ele>1148.9</ele>
        <time>2017-10-01T09:55:40.900000Z</time>
      </trkpt>
      <trkpt lat="37.84716712025153" lon="112.00671637858568">
        <ele>1147.8</ele>
        <time>2017-10-01T09:55:49.900000Z</time>
      </trkpt>
      <trkpt lat="37.84746544867218" lon="112.00675472722224">
        <ele>1148.09</ele>
        <time>2017-10-01T09:55:58.900000Z</time>
      </trkpt>
      <trkpt lat="37.847778950501926" lon="112.00679983186001">
        <ele>1146.5</ele>
        <time>2017-10-01T09:56:07.900000Z</time>
      </trkpt>
      <trkpt lat="37.84805557494449" lon="112.00683791281668">
        <ele>1146.0</ele>
        <time>2017-10-01T09:56:16.900000Z</time>
      </trkpt>
      <trkpt lat="37.848240592884835" lon="112.00693466244674">
        <ele>1145.09</ele>
        <time>2017-10-01T09:56:23Z</time>
      </trkpt>
      <trkpt lat="37.848393698687" lon="112.00708818168494">
        <ele>1143.0</ele>
        <time>2017-10-01T09:56:28.900000Z</time>
      </trkpt>
      <trkpt lat="37.84858551310618" lon="112.00736306748134">
        <ele>1142.0</ele>
        <time>2017-10-01T09:56:38Z</time>
      </trkpt>
      <trkpt lat="37.8487423885504" lon="112.00761795526054">
        <ele>1140.3</ele>
        <time>2017-10-01T09:56:46.900000Z</time>
      </trkpt>
      <trkpt lat="37.848958883673525" lon="112.00789635440114">
        <ele>1138.4</ele>
        <time>2017-10-01T09:56:55.900000Z</time>
      </trkpt>
      <trkpt lat="37.84915075920048" lon="112.00815151039251">
        <ele>1134.8</ele>
        <time>2017-10-01T09:57:04.900000Z</time>
      </trkpt>
      <trkpt lat="37.84934580335454" lon="112.00843640203915">
        <ele>1133.59</ele>
        <time>2017-10-01T09:57:13.900000Z</time>
      </trkpt>
      <trkpt lat="37.84940055840354" lon="112.00854506358641">
        <ele>1133.59</ele>
        <time>2017-10-01T09:57:16.900000Z</time>
      </trkpt>
      <trkpt lat="37.84959724702277" lon="112.00882482074876">
        <ele>1131.0</ele>
        <time>2017-10-01T09:57:26Z</time>
      </trkpt>
      <trkpt lat="37.84974737416237" lon="112.00916162257793">
        <ele>1130.2</ele>
        <time>2017-10-01T09:57:34.900000Z</time>
      </trkpt>
      <trkpt lat="37.84982075500013" lon="112.00939490180205">
        <ele>1129.59</ele>
        <time>2017-10-01T09:57:41.900000Z</time>
      </trkpt>
      <trkpt lat="37.849863899540715" lon="112.00976172563605">
        <ele>1127.3</ele>
        <time>2017-10-01T09:57:50.900000Z</time>
      </trkpt>
      <trkpt lat="37.84984567624176" lon="112.01014667098622">
        <ele>1126.59</ele>
        <time>2017-10-01T09:57:59.900000Z</time>
      </trkpt>
      <trkpt lat="37.84985071972826" lon="112.01055486440224">
        <ele>1126.2</ele>
        <time>2017-10-01T09:58:08.900000Z</time>
      </trkpt>
      <trkpt lat="37.84986765868291" lon="112.01070002879088">
        <ele>1125.3</ele>
        <time>2017-10-01T09:58:11.900000Z</time>
      </trkpt>
      <trkpt lat="37.84982099613381" lon="112.01107011585694">
        <ele>1126.4</ele>
        <time>2017-10-01T09:58:20.900000Z</time>
      </trkpt>
      <trkpt lat="37.849784403289725" lon="112.01143020197203">
        <ele>1126.8</ele>
        <time>2017-10-01T09:58:29.900000Z</time>
      </trkpt>
      <trkpt lat="37.849748947193056" lon="112.01177325935335">
        <ele>1125.8</ele>
        <time>2017-10-01T09:58:39Z</time>
      </trkpt>
      <trkpt lat="37.849714189000665" lon="112.01215686937088">
        <ele>1124.3</ele>
        <time>2017-10-01T09:58:47.900000Z</time>
      </trkpt>
      <trkpt lat="37.84967751116827" lon="112.01254832234106">
        <ele>1125.4</ele>
        <time>2017-10-01T09:58:57Z</time>
      </trkpt>
      <trkpt lat="37.849639336922095" lon="112.01289517239393">
        <ele>1125.4</ele>
        <time>2017-10-01T09:59:05.900000Z</time>
      </trkpt>
      <trkpt lat="37.849636193509426" lon="112.01323174771477">
        <ele>1125.0</ele>
        <time>2017-10-01T09:59:14.900000Z</time>
      </trkpt>
      <trkpt lat="37.849615934353544" lon="112.01357697845584">
        <ele>1125.3</ele>
        <time>2017-10-01T09:59:24Z</time>
      </trkpt>
      <trkpt lat="37.84958775235979" lon="112.01394194794479">
        <ele>1126.2</ele>
        <time>2017-10-01T09:59:32.900000Z</time>
      </trkpt>
      <trkpt lat="37.849589587380244" lon="112.01434206202276">
        <ele>1125.59</ele>
        <time>2017-10-01T09:59:42Z</time>
      </trkpt>
      <trkpt lat="37.84954775321074" lon="112.01473894062195">
        <ele>1124.4</ele>
        <time>2017-10-01T09:59:51Z</time>
      </trkpt>
      <trkpt lat="37.84951442896621" lon="112.01510202754594">
        <ele>1122.3</ele>
        <time>2017-10-01T10:00:00.100000Z</time>
      </trkpt>
      <trkpt lat="37.84945615120724" lon="112.01555866354659">
        <ele>1120.7</ele>
        <time>2017-10-01T10:00:11.900000Z</time>
      </trkpt>
      <trkpt lat="37.849393047903796" lon="112.01590067289895">
        <ele>1120.3</ele>
        <time>2017-10-01T10:00:20.900000Z</time>
      </trkpt>
      <trkpt lat="37.84934444278221" lon="112.01629729609522">
        <ele>1120.9</ele>
        <time>2017-10-01T10:00:29.900000Z</time>
      </trkpt>
      <trkpt lat="37.84932119030964" lon="112.01665228406846">
        <ele>1122.2</ele>
        <time>2017-10-01T10:00:38.900000Z</time>
      </trkpt>
      <trkpt lat="37.849299672919514" lon="112.01687398495343">
        <ele>1121.4</ele>
        <time>2017-10-01T10:00:45Z</time>
      </trkpt>
      <trkpt lat="37.84932960528227" lon="112.01645897392001">
        <ele>1123.8</ele>
        <time>2017-10-01T10:01:03Z</time>
      </trkpt>
      <trkpt lat="37.8493629472227" lon="112.01618212035204">
        <ele>1125.59</ele>
        <time>2017-10-01T10:01:11.900000Z</time>
      </trkpt>
      <trkpt lat="37.84935809453048" lon="112.01607559921848">
        <ele>1126.2</ele>
        <time>2017-10-01T10:01:15Z</time>
      </trkpt>
      <trkpt lat="37.84941941062065" lon="112.01569384619629">
        <ele>1126.59</ele>
        <time>2017-10-01T10:01:26.900000Z</time>
      </trkpt>
      <trkpt lat="37.84948457014416" lon="112.0152972266028">
        <ele>1127.5</ele>
        <time>2017-10-01T10:01:39Z</time>
      </trkpt>
      <trkpt lat="37.84952777554531" lon="112.01489385443188">
        <ele>1127.3</ele>
        <time>2017-10-01T10:01:51Z</time>
      </trkpt>
      <trkpt lat="37.849541039528056" lon="112.01452536460444">
        <ele>1129.0</ele>
        <time>2017-10-01T10:02:02.900000Z</time>
      </trkpt>
      <trkpt lat="37.84958605867275" lon="112.01415362980559">
        <ele>1128.5</ele>
        <time>2017-10-01T10:02:15Z</time>
      </trkpt>
      <trkpt lat="37.84959584775225" lon="112.01376865530239">
        <ele>1127.3</ele>
        <time>2017-10-01T10:02:27Z</time>
      </trkpt>
      <trkpt lat="37.8496244323799" lon="112.0133585398108">
        <ele>1125.9</ele>
        <time>2017-10-01T10:02:40Z</time>
      </trkpt>
      <trkpt lat="37.84967579980006" lon="112.01295193954644">
        <ele>1125.3</ele>
        <time>2017-10-01T10:02:52Z</time>
      </trkpt>
      <trkpt lat="37.84970256374695" lon="112.01261022689535">
        <ele>1128.2</ele>
        <time>2017-10-01T10:03:01Z</time>
      </trkpt>
      <trkpt lat="37.84974737192475" lon="112.01222174617304">
        <ele>1133.09</ele>
        <time>2017-10-01T10:03:09.900000Z</time>
      </trkpt>
      <trkpt lat="37.84977929863275" lon="112.01187868622469">
        <ele>1135.0</ele>
        <time>2017-10-01T10:03:19Z</time>
      </trkpt>
      <trkpt lat="37.849795927704264" lon="112.01166512011446">
        <ele>1136.4</ele>
        <time>2017-10-01T10:03:25Z</time>
      </trkpt>
      <trkpt lat="37.8498608502049" lon="112.01145181944295">
        <ele>1135.7</ele>
        <time>2017-10-01T10:03:30.900000Z</time>
      </trkpt>
      <trkpt lat="37.8499223894253" lon="112.01109659615588">
        <ele>1135.09</ele>
        <time>2017-10-01T10:03:39.900000Z</time>
      </trkpt>
      <trkpt lat="37.849939024020316" lon="112.01069650598745">
        <ele>1137.9</ele>
        <time>2017-10-01T10:03:52Z</time>
      </trkpt>
      <trkpt lat="37.849937495143806" lon="112.01038481788372">
        <ele>1139.4</ele>
        <time>2017-10-01T10:04:00.900000Z</time>
      </trkpt>
      <trkpt lat="37.8499625339708" lon="112.01017314899633">
        <ele>1140.0</ele>
        <time>2017-10-01T10:04:06.900000Z</time>
      </trkpt>
      <trkpt lat="37.849935778143916" lon="112.00976820483457">
        <ele>1140.5</ele>
        <time>2017-10-01T10:04:19Z</time>
      </trkpt>
      <trkpt lat="37.84988905656396" lon="112.0096949525546">
        <ele>1140.2</ele>
        <time>2017-10-01T10:04:21.900000Z</time>
      </trkpt>
      <trkpt lat="37.84986573150749" lon="112.00960007168051">
        <ele>1139.59</ele>
        <time>2017-10-01T10:04:24.900000Z</time>
      </trkpt>
      <trkpt lat="37.84981396601903" lon="112.00930488523886">
        <ele>1137.8</ele>
        <time>2017-10-01T10:04:34Z</time>
      </trkpt>
      <trkpt lat="37.849618864271555" lon="112.00894646232558">
        <ele>1138.2</ele>
        <time>2017-10-01T10:04:45.900000Z</time>
      </trkpt>
      <trkpt lat="37.849437320771585" lon="112.00868292196617">
        <ele>1139.59</ele>
        <time>2017-10-01T10:04:55Z</time>
      </trkpt>
      <trkpt lat="37.84922719500414" lon="112.0083599161435">
        <ele>1142.09</ele>
        <time>2017-10-01T10:05:06.900000Z</time>
      </trkpt>
      <trkpt lat="37.84901872404985" lon="112.00802826164556">
        <ele>1145.09</ele>
        <time>2017-10-01T10:05:19Z</time>
      </trkpt>
      <trkpt lat="37.8488374741642" lon="112.00775823751617">
        <ele>1145.2</ele>
        <time>2017-10-01T10:05:27.900000Z</time>
      </trkpt>
      <trkpt lat="37.84865077485842" lon="112.007496324582">
        <ele>1145.4</ele>
        <time>2017-10-01T10:05:37Z</time>
      </trkpt>
      <trkpt lat="37.84846578698436" lon="112.00720657019747">
        <ele>1145.59</ele>
        <time>2017-10-01T10:05:46Z</time>
      </trkpt>
      <trkpt lat="37.848343922007224" lon="112.00703953133524">
        <ele>1146.2</ele>
        <time>2017-10-01T10:05:52Z</time>
      </trkpt>
      <trkpt lat="37.84827220287556" lon="112.00697953051672">
        <ele>1146.8</ele>
        <time>2017-10-01T10:05:55Z</time>
      </trkpt>
      <trkpt lat="37.84796071343317" lon="112.00689631151513">
        <ele>1147.59</ele>
        <time>2017-10-01T10:06:07Z</time>
      </trkpt>
      <trkpt lat="37.847813831439495" lon="112.00683956352849">
        <ele>1143.0</ele>
        <time>2017-10-01T10:06:12.900000Z</time>
      </trkpt>
      <trkpt lat="37.84749053662016" lon="112.00680311000814">
        <ele>1143.59</ele>
        <time>2017-10-01T10:06:25Z</time>
      </trkpt>
      <trkpt lat="37.84717728121261" lon="112.00676638499596">
        <ele>1145.9</ele>
        <time>2017-10-01T10:06:36.900000Z</time>
      </trkpt>
      <trkpt lat="37.84686047871419" lon="112.0067364182107">
        <ele>1148.3</ele>
        <time>2017-10-01T10:06:49Z</time>
      </trkpt>
      <trkpt lat="37.84655207728517" lon="112.00670969417092">
        <ele>1152.0</ele>
        <time>2017-10-01T10:07:00.900000Z</time>
      </trkpt>
      <trkpt lat="37.846199053643616" lon="112.00663458976396">
        <ele>1154.0</ele>
        <time>2017-10-01T10:07:13.100000Z</time>
      </trkpt>
      <trkpt lat="37.84592229277609" lon="112.00655136701396">
        <ele>1154.59</ele>
        <time>2017-10-01T10:07:22Z</time>
      </trkpt>
      <trkpt lat="37.84557885471828" lon="112.00644625716866">
        <ele>1156.8</ele>
        <time>2017-10-01T10:07:34Z</time>
      </trkpt>
      <trkpt lat="37.845307234538524" lon="112.00636789960075">
        <ele>1158.09</ele>
        <time>2017-10-01T10:07:43Z</time>
      </trkpt>
      <trkpt lat="37.844965478704694" lon="112.00624467906967">
        <ele>1157.3</ele>
        <time>2017-10-01T10:07:55Z</time>
      </trkpt>
      <trkpt lat="37.84464882116137" lon="112.00616632708528">
        <ele>1156.7</ele>
        <time>2017-10-01T10:08:07Z</time>
      </trkpt>
      <trkpt lat="37.84438230784629" lon="112.00628610600165">
        <ele>1154.9</ele>
        <time>2017-10-01T10:08:15.900000Z</time>
      </trkpt>
      <trkpt lat="37.84407229957" lon="112.00643454319648">
        <ele>1155.5</ele>
        <time>2017-10-01T10:08:27.900000Z</time>
      </trkpt>
      <trkpt lat="37.84378911675221" lon="112.00659460087326">
        <ele>1155.4</ele>
        <time>2017-10-01T10:08:40Z</time>
      </trkpt>
      <trkpt lat="37.84355229382617" lon="112.00676627678456">
        <ele>1154.5</ele>
        <time>2017-10-01T10:08:49Z</time>
      </trkpt>
      <trkpt lat="37.84328712628214" lon="112.00698120648116">
        <ele>1155.0</ele>
        <time>2017-10-01T10:08:57.900000Z</time>
      </trkpt>
      <trkpt lat="37.843207132589676" lon="112.00705798480377">
        <ele>1155.09</ele>
        <time>2017-10-01T10:09:01Z</time>
      </trkpt>
      <trkpt lat="37.84289394300193" lon="112.0072731914624">
        <ele>1155.8</ele>
        <time>2017-10-01T10:09:12.900000Z</time>
      </trkpt>
      <trkpt lat="37.842842447652906" lon="112.00734645263623">
        <ele>1154.5</ele>
        <time>2017-10-01T10:09:15.900000Z</time>
      </trkpt>
      <trkpt lat="37.842540634651506" lon="112.0075681464224">
        <ele>1154.0</ele>
        <time>2017-10-01T10:09:27.900000Z</time>
      </trkpt>
      <trkpt lat="37.842302260515986" lon="112.00771468565772">
        <ele>1155.0</ele>
        <time>2017-10-01T10:09:36.900000Z</time>
      </trkpt>
      <trkpt lat="37.842128995976644" lon="112.00777147259454">
        <ele>1156.59</ele>
        <time>2017-10-01T10:09:43Z</time>
      </trkpt>
      <trkpt lat="37.84182404783394" lon="112.00795289104272">
        <ele>1160.5</ele>
        <time>2017-10-01T10:09:55Z</time>
      </trkpt>
      <trkpt lat="37.841505657087325" lon="112.00809295309404">
        <ele>1162.7</ele>
        <time>2017-10-01T10:10:07Z</time>
      </trkpt>
      <trkpt lat="37.841429068275865" lon="112.00811972362337">
        <ele>1163.4</ele>
        <time>2017-10-01T10:10:10Z</time>
      </trkpt>
      <trkpt lat="37.84113053229821" lon="112.00815165667743">
        <ele>1166.7</ele>
        <time>2017-10-01T10:10:22Z</time>
      </trkpt>
      <trkpt lat="37.84080892620916" lon="112.00809492845369">
        <ele>1167.3</ele>
        <time>2017-10-01T10:10:33.900000Z</time>
      </trkpt>
      <trkpt lat="37.84062565408174" lon="112.00804980739468">
        <ele>1168.4</ele>
        <time>2017-10-01T10:10:39.900000Z</time>
      </trkpt>
      <trkpt lat="37.8403503773702" lon="112.00801496937831">
        <ele>1170.2</ele>
        <time>2017-10-01T10:10:48.900000Z</time>
      </trkpt>
      <trkpt lat="37.840072265098435" lon="112.00802149016403">
        <ele>1173.09</ele>
        <time>2017-10-01T10:10:58Z</time>
      </trkpt>
      <trkpt lat="37.839738943198" lon="112.00807316045261">
        <ele>1176.9</ele>
        <time>2017-10-01T10:11:09.900000Z</time>
      </trkpt>
      <trkpt lat="37.839560604342815" lon="112.00810291660387">
        <ele>1177.5</ele>
        <time>2017-10-01T10:11:15.900000Z</time>
      </trkpt>
      <trkpt lat="37.83940246493685" lon="112.00809131183985">
        <ele>1178.59</ele>
        <time>2017-10-01T10:11:21.900000Z</time>
      </trkpt>
      <trkpt lat="37.839713943548546" lon="112.00799477156774">
        <ele>1183.3</ele>
        <time>2017-10-01T10:11:40Z</time>
      </trkpt>
      <trkpt lat="37.83991046104779" lon="112.00796474298211">
        <ele>1182.7</ele>
        <time>2017-10-01T10:11:48.900000Z</time>
      </trkpt>
      <trkpt lat="37.84005715121769" lon="112.00790309334917">
        <ele>1184.2</ele>
        <time>2017-10-01T10:11:55Z</time>
      </trkpt>
      <trkpt lat="37.84013397128151" lon="112.00788983868945">
        <ele>1183.9</ele>
        <time>2017-10-01T10:11:57.900000Z</time>
      </trkpt>
      <trkpt lat="37.840409192631014" lon="112.00794332847565">
        <ele>1184.09</ele>
        <time>2017-10-01T10:12:06.900000Z</time>
      </trkpt>
      <trkpt lat="37.84071229096865" lon="112.00801979189457">
        <ele>1184.7</ele>
        <time>2017-10-01T10:12:18.900000Z</time>
      </trkpt>
      <trkpt lat="37.84098074976039" lon="112.00806652466878">
        <ele>1183.7</ele>
        <time>2017-10-01T10:12:28Z</time>
      </trkpt>
      <trkpt lat="37.84115241562482" lon="112.00809137334436">
        <ele>1182.3</ele>
        <time>2017-10-01T10:12:33.900000Z</time>
      </trkpt>
      <trkpt lat="37.841502247732954" lon="112.00805321691243">
        <ele>1176.7</ele>
        <time>2017-10-01T10:12:45.900000Z</time>
      </trkpt>
      <trkpt lat="37.841677135068224" lon="112.00799805143114">
        <ele>1173.0</ele>
        <time>2017-10-01T10:12:52Z</time>
      </trkpt>
      <trkpt lat="37.841912119884164" lon="112.007896384427">
        <ele>1166.5</ele>
        <time>2017-10-01T10:13:01Z</time>
      </trkpt>
      <trkpt lat="37.842047351515745" lon="112.00776472444512">
        <ele>1164.5</ele>
        <time>2017-10-01T10:13:06.900000Z</time>
      </trkpt>
      <trkpt lat="37.84235405712907" lon="112.0075397856332">
        <ele>1160.9</ele>
        <time>2017-10-01T10:13:18.900000Z</time>
      </trkpt>
      <trkpt lat="37.8425973946417" lon="112.0073664851041">
        <ele>1159.09</ele>
        <time>2017-10-01T10:13:27.900000Z</time>
      </trkpt>
      <trkpt lat="37.842837269772204" lon="112.0071715603791">
        <ele>1157.5</ele>
        <time>2017-10-01T10:13:37Z</time>
      </trkpt>
      <trkpt lat="37.84291236930513" lon="112.00709829657916">
        <ele>1157.3</ele>
        <time>2017-10-01T10:13:40Z</time>
      </trkpt>
      <trkpt lat="37.843167320269266" lon="112.00694310672645">
        <ele>1155.7</ele>
        <time>2017-10-01T10:13:48.900000Z</time>
      </trkpt>
      <trkpt lat="37.84342075230894" lon="112.00675142533707">
        <ele>1157.0</ele>
        <time>2017-10-01T10:13:57.900000Z</time>
      </trkpt>
      <trkpt lat="37.84371551908393" lon="112.0065278428772">
        <ele>1156.8</ele>
        <time>2017-10-01T10:14:09.900000Z</time>
      </trkpt>
      <trkpt lat="37.843858856801454" lon="112.00640807824348">
        <ele>1156.7</ele>
        <time>2017-10-01T10:14:16Z</time>
      </trkpt>
      <trkpt lat="37.84412566697633" lon="112.00627964917341">
        <ele>1155.8</ele>
        <time>2017-10-01T10:14:25Z</time>
      </trkpt>
      <trkpt lat="37.84439382828315" lon="112.00615311233766">
        <ele>1154.3</ele>
        <time>2017-10-01T10:14:33.900000Z</time>
      </trkpt>
      <trkpt lat="37.84458065966011" lon="112.00609632513007">
        <ele>1153.9</ele>
        <time>2017-10-01T10:14:40Z</time>
      </trkpt>
      <trkpt lat="37.844917147842175" lon="112.00616629508623">
        <ele>1154.8</ele>
        <time>2017-10-01T10:14:52Z</time>
      </trkpt>
      <trkpt lat="37.84526883441272" lon="112.00623464143654">
        <ele>1156.4</ele>
        <time>2017-10-01T10:15:03.900000Z</time>
      </trkpt>
      <trkpt lat="37.84554374486711" lon="112.00630137514591">
        <ele>1157.5</ele>
        <time>2017-10-01T10:15:13Z</time>
      </trkpt>
      <trkpt lat="37.84586232987835" lon="112.00646136073975">
        <ele>1156.59</ele>
        <time>2017-10-01T10:15:24.900000Z</time>
      </trkpt>
      <trkpt lat="37.8460257324496" lon="112.00652783764365">
        <ele>1156.4</ele>
        <time>2017-10-01T10:15:31Z</time>
      </trkpt>
      <trkpt lat="37.84626734603036" lon="112.00656970698988">
        <ele>1156.5</ele>
        <time>2017-10-01T10:15:40Z</time>
      </trkpt>
      <trkpt lat="37.84636705414895" lon="112.00661483701856">
        <ele>1154.3</ele>
        <time>2017-10-01T10:15:43Z</time>
      </trkpt>
      <trkpt lat="37.84663720623758" lon="112.00663967340924">
        <ele>1154.09</ele>
        <time>2017-10-01T10:15:51.900000Z</time>
      </trkpt>
      <trkpt lat="37.84692555476261" lon="112.00665829048016">
        <ele>1152.8</ele>
        <time>2017-10-01T10:16:00.900000Z</time>
      </trkpt>
      <trkpt lat="37.847200486739496" lon="112.00671799647355">
        <ele>1147.7</ele>
        <time>2017-10-01T10:16:09.900000Z</time>
      </trkpt>
      <trkpt lat="37.847475496856646" lon="112.00675148228535">
        <ele>1144.3</ele>
        <time>2017-10-01T10:16:19Z</time>
      </trkpt>
      <trkpt lat="37.84776866560219" lon="112.0067914534251">
        <ele>1141.4</ele>
        <time>2017-10-01T10:16:28Z</time>
      </trkpt>
      <trkpt lat="37.848110595709194" lon="112.00685655777154">
        <ele>1140.8</ele>
        <time>2017-10-01T10:16:40Z</time>
      </trkpt>
      <trkpt lat="37.848188905852055" lon="112.00688979680109">
        <ele>1140.59</ele>
        <time>2017-10-01T10:16:42.900000Z</time>
      </trkpt>
      <trkpt lat="37.8483937734335" lon="112.00706304258915">
        <ele>1137.59</ele>
        <time>2017-10-01T10:16:52Z</time>
      </trkpt>
      <trkpt lat="37.84856907228241" lon="112.00732630676195">
        <ele>1135.5</ele>
        <time>2017-10-01T10:17:00.900000Z</time>
      </trkpt>
      <trkpt lat="37.8487721195522" lon="112.00756469969039">
        <ele>1134.7</ele>
        <time>2017-10-01T10:17:10Z</time>
      </trkpt>
      <trkpt lat="37.848965735370065" lon="112.00787310640366">
        <ele>1133.2</ele>
        <time>2017-10-01T10:17:21.900000Z</time>
      </trkpt>
      <trkpt lat="37.84920564826233" lon="112.00821475808786">
        <ele>1132.59</ele>
        <time>2017-10-01T10:17:34Z</time>
      </trkpt>
      <trkpt lat="37.849427537340546" lon="112.00850478286915">
        <ele>1130.0</ele>
        <time>2017-10-01T10:17:43Z</time>
      </trkpt>
      <trkpt lat="37.84961411784217" lon="112.00880805889152">
        <ele>1128.5</ele>
        <time>2017-10-01T10:17:52Z</time>
      </trkpt>
      <trkpt lat="37.84973727446881" lon="112.00899834976714">
        <ele>1128.7</ele>
        <time>2017-10-01T10:17:57.900000Z</time>
      </trkpt>
      <trkpt lat="37.84985577275003" lon="112.00929650025697">
        <ele>1129.4</ele>
        <time>2017-10-01T10:18:06.900000Z</time>
      </trkpt>
      <trkpt lat="37.84988907166807" lon="112.00968981639626">
        <ele>1129.09</ele>
        <time>2017-10-01T10:18:18.900000Z</time>
      </trkpt>
      <trkpt lat="37.84988066596763" lon="112.01014991072009">
        <ele>1129.4</ele>
        <time>2017-10-01T10:18:30.900000Z</time>
      </trkpt>
      <trkpt lat="37.84989579846111" lon="112.0102631757012">
        <ele>1129.09</ele>
        <time>2017-10-01T10:18:33.900000Z</time>
      </trkpt>
      <trkpt lat="37.84988924346316" lon="112.01064839342109">
        <ele>1130.59</ele>
        <time>2017-10-01T10:18:43Z</time>
      </trkpt>
      <trkpt lat="37.84985909749248" lon="112.01102983204063">
        <ele>1131.5</ele>
        <time>2017-10-01T10:18:51.900000Z</time>
      </trkpt>
      <trkpt lat="37.8498390883698" lon="112.01137829160983">
        <ele>1132.5</ele>
        <time>2017-10-01T10:19:01Z</time>
      </trkpt>
      <trkpt lat="37.849817462618944" lon="112.01172350966797">
        <ele>1132.9</ele>
        <time>2017-10-01T10:19:09.900000Z</time>
      </trkpt>
      <trkpt lat="37.84979256937888" lon="112.01198006032281">
        <ele>1133.0</ele>
        <time>2017-10-01T10:19:15.900000Z</time>
      </trkpt>
      <trkpt lat="37.849744261710846" lon="112.0123585371083">
        <ele>1132.5</ele>
        <time>2017-10-01T10:19:25.200000Z</time>
      </trkpt>
      <trkpt lat="37.84969911573557" lon="112.01277026814641">
        <ele>1132.9</ele>
        <time>2017-10-01T10:19:35Z</time>
      </trkpt>
      <trkpt lat="37.8496827319718" lon="112.01290030367124">
        <ele>1132.2</ele>
        <time>2017-10-01T10:19:38Z</time>
      </trkpt>
      <trkpt lat="37.84970081916551" lon="112.01302546927946">
        <ele>1133.2</ele>
        <time>2017-10-01T10:19:41Z</time>
      </trkpt>
      <trkpt lat="37.849674262506426" lon="112.01339016398877">
        <ele>1133.9</ele>
        <time>2017-10-01T10:19:49.900000Z</time>
      </trkpt>
      <trkpt lat="37.8496425087356" lon="112.0137702717916">
        <ele>1132.0</ele>
        <time>2017-10-01T10:19:58.900000Z</time>
      </trkpt>
      <trkpt lat="37.84961602259315" lon="112.01411199271388">
        <ele>1132.8</ele>
        <time>2017-10-01T10:20:07.900000Z</time>
      </trkpt>
      <trkpt lat="37.849609417199005" lon="112.0143336788415">
        <ele>1132.09</ele>
        <time>2017-10-01T10:20:13.900000Z</time>
      </trkpt>
      <trkpt lat="37.84954783524614" lon="112.0147102834102">
        <ele>1132.09</ele>
        <time>2017-10-01T10:20:23Z</time>
      </trkpt>
      <trkpt lat="37.84949963993311" lon="112.01515042257539">
        <ele>1131.59</ele>
        <time>2017-10-01T10:20:34.900000Z</time>
      </trkpt>
      <trkpt lat="37.84946119114122" lon="112.015503780694">
        <ele>1131.2</ele>
        <time>2017-10-01T10:20:44Z</time>
      </trkpt>
      <trkpt lat="37.84943961134213" lon="112.01574575233846">
        <ele>1130.59</ele>
        <time>2017-10-01T10:20:49.900000Z</time>
      </trkpt>
      <trkpt lat="37.8494061578508" lon="112.01596555735354">
        <ele>1130.09</ele>
        <time>2017-10-01T10:20:56Z</time>
      </trkpt>
      <trkpt lat="37.84941482835625" lon="112.01635217093613">
        <ele>1135.8</ele>
        <time>2017-10-01T10:21:07.900000Z</time>
      </trkpt>
      <trkpt lat="37.84942136097196" lon="112.01663226520833">
        <ele>1136.0</ele>
        <time>2017-10-01T10:21:16.900000Z</time>
      </trkpt>
      <trkpt lat="37.84935286268292" lon="112.01696563225562">
        <ele>1136.4</ele>
        <time>2017-10-01T10:21:28.900000Z</time>
      </trkpt>
      <trkpt lat="37.84933813398882" lon="112.01718571182303">
        <ele>1135.9</ele>
        <time>2017-10-01T10:21:34.900000Z</time>
      </trkpt>
      <trkpt lat="37.84931154947252" lon="112.01728061378981">
        <ele>1135.5</ele>
        <time>2017-10-01T10:21:38Z</time>
      </trkpt>
      <trkpt lat="37.849303047854704" lon="112.01750583132967">
        <ele>1134.2</ele>
        <time>2017-10-01T10:21:46.900000Z</time>
      </trkpt>
      <trkpt lat="37.84926126590892" lon="112.01760235808932">
        <ele>1132.3</ele>
        <time>2017-10-01T10:21:53Z</time>
      </trkpt>
      <trkpt lat="37.849269643450924" lon="112.01771077535581">
        <ele>1131.5</ele>
        <time>2017-10-01T10:22:02.500000Z</time>
      </trkpt>
      <trkpt lat="37.84925794414584" lon="112.01781919532377">
        <ele>1131.9</ele>
        <time>2017-10-01T10:22:05.900000Z</time>
      </trkpt>
      <trkpt lat="37.849168001782324" lon="112.01815906373757">
        <ele>1125.09</ele>
        <time>2017-10-01T10:22:18Z</time>
      </trkpt>
      <trkpt lat="37.84912974196866" lon="112.01854921880157">
        <ele>1120.0</ele>
        <time>2017-10-01T10:22:30Z</time>
      </trkpt>
      <trkpt lat="37.849098043379655" lon="112.01892261355675">
        <ele>1116.9</ele>
        <time>2017-10-01T10:22:38.900000Z</time>
      </trkpt>
      <trkpt lat="37.84909318878838" lon="112.01930276829296">
        <ele>1116.0</ele>
        <time>2017-10-01T10:22:48Z</time>
      </trkpt>
      <trkpt lat="37.849123175668886" lon="112.01974105531687">
        <ele>1119.5</ele>
        <time>2017-10-01T10:23:00Z</time>
      </trkpt>
      <trkpt lat="37.84913476293265" lon="112.02006443515947">
        <ele>1121.2</ele>
        <time>2017-10-01T10:23:09Z</time>
      </trkpt>
      <trkpt lat="37.849095005590804" lon="112.02031427822294">
        <ele>1119.09</ele>
        <time>2017-10-01T10:23:15Z</time>
      </trkpt>
      <trkpt lat="37.84907017771075" lon="112.02075961413297">
        <ele>1114.2</ele>
        <time>2017-10-01T10:23:27Z</time>
      </trkpt>
      <trkpt lat="37.84907177714278" lon="112.02116628590198">
        <ele>1111.4</ele>
        <time>2017-10-01T10:23:35.900000Z</time>
      </trkpt>
      <trkpt lat="37.849070316978995" lon="112.02140288262568">
        <ele>1108.59</ele>
        <time>2017-10-01T10:23:42Z</time>
      </trkpt>
      <trkpt lat="37.84909008062699" lon="112.02151779915465">
        <ele>1109.2</ele>
        <time>2017-10-01T10:23:45Z</time>
      </trkpt>
      <trkpt lat="37.84908674522455" lon="112.02174628649654">
        <ele>1107.59</ele>
        <time>2017-10-01T10:23:51Z</time>
      </trkpt>
      <trkpt lat="37.84910017338084" lon="112.02209645419654">
        <ele>1107.8</ele>
        <time>2017-10-01T10:24:00Z</time>
      </trkpt>
      <trkpt lat="37.84911030839022" lon="112.02246149816457">
        <ele>1105.8</ele>
        <time>2017-10-01T10:24:08.900000Z</time>
      </trkpt>
      <trkpt lat="37.84911360538882" lon="112.02284817955903">
        <ele>1100.2</ele>
        <time>2017-10-01T10:24:21Z</time>
      </trkpt>
      <trkpt lat="37.84910871716094" lon="112.02325325440046">
        <ele>1094.5</ele>
        <time>2017-10-01T10:24:32.900000Z</time>
      </trkpt>
      <trkpt lat="37.84911563238343" lon="112.02370998210692">
        <ele>1090.4</ele>
        <time>2017-10-01T10:24:45Z</time>
      </trkpt>
      <trkpt lat="37.849095634577644" lon="112.02398499820254">
        <ele>1088.8</ele>
        <time>2017-10-01T10:24:51Z</time>
      </trkpt>
      <trkpt lat="37.84912735588134" lon="112.02409505460787">
        <ele>1088.0</ele>
        <time>2017-10-01T10:24:54.100000Z</time>
      </trkpt>
      <trkpt lat="37.8490871159605" lon="112.02453530407432">
        <ele>1078.7</ele>
        <time>2017-10-01T10:25:06Z</time>
      </trkpt>
      <trkpt lat="37.849102102046885" lon="112.02461345444337">
        <ele>1076.9</ele>
        <time>2017-10-01T10:25:08.900000Z</time>
      </trkpt>
      <trkpt lat="37.849070584914664" lon="112.02483520591825">
        <ele>1073.59</ele>
        <time>2017-10-01T10:25:14.900000Z</time>
      </trkpt>
      <trkpt lat="37.84909878833322" lon="112.02504532342331">
        <ele>1070.0</ele>
        <time>2017-10-01T10:25:21Z</time>
      </trkpt>
      <trkpt lat="37.84907387900816" lon="112.02512861797037">
        <ele>1067.09</ele>
        <time>2017-10-01T10:25:24Z</time>
      </trkpt>
      <trkpt lat="37.84903889894197" lon="112.02543015027405">
        <ele>1062.4</ele>
        <time>2017-10-01T10:25:35.900000Z</time>
      </trkpt>
      <trkpt lat="37.84896074646304" lon="112.02553887275646">
        <ele>1059.9</ele>
        <time>2017-10-01T10:25:41.900000Z</time>
      </trkpt>
      <trkpt lat="37.84891224333345" lon="112.02572196094796">
        <ele>1057.9</ele>
        <time>2017-10-01T10:25:48Z</time>
      </trkpt>
      <trkpt lat="37.84892732723508" lon="112.02586718181236">
        <ele>1057.0</ele>
        <time>2017-10-01T10:25:57Z</time>
      </trkpt>
      <trkpt lat="37.84892419981598" lon="112.02602538644577">
        <ele>1056.3</ele>
        <time>2017-10-01T10:26:03Z</time>
      </trkpt>
      <trkpt lat="37.84897582442679" lon="112.0261002909182">
        <ele>1056.4</ele>
        <time>2017-10-01T10:26:05.900000Z</time>
      </trkpt>
      <trkpt lat="37.84908418303936" lon="112.0261638304174">
        <ele>1056.59</ele>
        <time>2017-10-01T10:26:09Z</time>
      </trkpt>
      <trkpt lat="37.848997390865904" lon="112.02625714160425">
        <ele>1054.8</ele>
        <time>2017-10-01T10:26:21Z</time>
      </trkpt>
      <trkpt lat="37.84896914091646" lon="112.02637397417509">
        <ele>1055.9</ele>
        <time>2017-10-01T10:26:27Z</time>
      </trkpt>
      <trkpt lat="37.848920747994626" lon="112.02641211183462">
        <ele>1057.8</ele>
        <time>2017-10-01T10:26:35.900000Z</time>
      </trkpt>
      <trkpt lat="37.8486024907982" lon="112.02641539535779">
        <ele>1062.2</ele>
        <time>2017-10-01T10:26:50.900000Z</time>
      </trkpt>
      <trkpt lat="37.84825748238362" lon="112.0263770345449">
        <ele>1066.09</ele>
        <time>2017-10-01T10:27:03Z</time>
      </trkpt>
      <trkpt lat="37.84815602026967" lon="112.02637380147983">
        <ele>1069.0</ele>
        <time>2017-10-01T10:27:09Z</time>
      </trkpt>
      <trkpt lat="37.84808407472226" lon="112.02639219994718">
        <ele>1071.5</ele>
        <time>2017-10-01T10:27:14.900000Z</time>
      </trkpt>
      <trkpt lat="37.847959315073176" lon="112.02637544775543">
        <ele>1075.5</ele>
        <time>2017-10-01T10:27:24Z</time>
      </trkpt>
      <trkpt lat="37.847902541131305" lon="112.02640222799836">
        <ele>1077.59</ele>
        <time>2017-10-01T10:27:30Z</time>
      </trkpt>
      <trkpt lat="37.847762591793185" lon="112.02659236381959">
        <ele>1087.09</ele>
        <time>2017-10-01T10:27:41.900000Z</time>
      </trkpt>
      <trkpt lat="37.8476759012834" lon="112.02664700325052">
        <ele>1090.4</ele>
        <time>2017-10-01T10:27:48Z</time>
      </trkpt>
      <trkpt lat="37.84763744668981" lon="112.02672381318365">
        <ele>1094.3</ele>
        <time>2017-10-01T10:27:53.900000Z</time>
      </trkpt>
      <trkpt lat="37.84762065434938" lon="112.0268171176926">
        <ele>1097.0</ele>
        <time>2017-10-01T10:28:00Z</time>
      </trkpt>
      <trkpt lat="37.84752426835999" lon="112.02694883503028">
        <ele>1101.5</ele>
        <time>2017-10-01T10:28:12Z</time>
      </trkpt>
      <trkpt lat="37.84754579595957" lon="112.02701725475512">
        <ele>1103.2</ele>
        <time>2017-10-01T10:28:14.900000Z</time>
      </trkpt>
      <trkpt lat="37.84748443989143" lon="112.02724227258823">
        <ele>1110.0</ele>
        <time>2017-10-01T10:28:30Z</time>
      </trkpt>
      <trkpt lat="37.84745256714799" lon="112.02729230902577">
        <ele>1110.09</ele>
        <time>2017-10-01T10:28:35.900000Z</time>
      </trkpt>
      <trkpt lat="37.84740443721626" lon="112.02743916775992">
        <ele>1113.09</ele>
        <time>2017-10-01T10:28:48Z</time>
      </trkpt>
      <trkpt lat="37.84735419493135" lon="112.02766905557638">
        <ele>1115.09</ele>
        <time>2017-10-01T10:29:06.100000Z</time>
      </trkpt>
      <trkpt lat="37.84736107301863" lon="112.02773747873135">
        <ele>1115.9</ele>
        <time>2017-10-01T10:29:08.900000Z</time>
      </trkpt>
      <trkpt lat="37.84730608152003" lon="112.02791571299134">
        <ele>1118.2</ele>
        <time>2017-10-01T10:29:21.900000Z</time>
      </trkpt>
      <trkpt lat="37.84732597053167" lon="112.02798900331663">
        <ele>1119.4</ele>
        <time>2017-10-01T10:29:28Z</time>
      </trkpt>
      <trkpt lat="37.84739766702881" lon="112.02806742621931">
        <ele>1120.2</ele>
        <time>2017-10-01T10:29:33.900000Z</time>
      </trkpt>
      <trkpt lat="37.84742433913251" lon="112.02814071611132">
        <ele>1121.09</ele>
        <time>2017-10-01T10:29:39.900000Z</time>
      </trkpt>
      <trkpt lat="37.847432652702224" lon="112.02839088668573">
        <ele>1125.09</ele>
        <time>2017-10-01T10:30:00.900000Z</time>
      </trkpt>
      <trkpt lat="37.84740112886433" lon="112.0285174645992">
        <ele>1124.8</ele>
        <time>2017-10-01T10:30:12.900000Z</time>
      </trkpt>
      <trkpt lat="37.847397842533546" lon="112.02863592589617">
        <ele>1125.09</ele>
        <time>2017-10-01T10:30:21.900000Z</time>
      </trkpt>
    </trkseg>
  </trk>
</gpx>