<?xml version="1.0" encoding="UTF-8"?>
<gpx xmlns="http://www.topografix.com/GPX/1/1" xmlns:gpxtpx="http://www.garmin.com/xmlschemas/TrackPointExtension/v1" xmlns:xsi="http://www.w3.org/2001/XMLSchema-instance" xsi:schemaLocation="http://www.topografix.com/GPX/1/1 http://www.topografix.com/GPX/1/1/gpx.xsd" version="1.1" creator="gpx.py -- https://github.com/tkrajina/gpxpy">
  <trk>
    <name>gpx from keep</name>
    <type>Run</type>
    <trkseg>
      <trkpt lat="37.84729448605635" lon="112.02937944049766">
        <ele>1148.5</ele>
        <time>2017-10-13T07:38:16.900000Z</time>
      </trkpt>
      <trkpt lat="37.8472446844539" lon="112.02911763629824">
        <ele>1125.3</ele>
        <time>2017-10-13T07:38:19.900000Z</time>
      </trkpt>
      <trkpt lat="37.84724297838308" lon="112.02882770077089">
        <ele>1116.5</ele>
        <time>2017-10-13T07:38:31.900000Z</time>
      </trkpt>
      <trkpt lat="37.847354229901924" lon="112.02850259504794">
        <ele>1108.59</ele>
        <time>2017-10-13T07:38:43.900000Z</time>
      </trkpt>
      <trkpt lat="37.84737957964518" lon="112.0282440353311">
        <ele>1103.59</ele>
        <time>2017-10-13T07:38:52.800000Z</time>
      </trkpt>
      <trkpt lat="37.84735272558911" lon="112.02792409141006">
        <ele>1100.7</ele>
        <time>2017-10-13T07:39:05.300000Z</time>
      </trkpt>
      <trkpt lat="37.84738934662569" lon="112.02782077430804">
        <ele>1098.5</ele>
        <time>2017-10-13T07:39:08.900000Z</time>
      </trkpt>
      <trkpt lat="37.84738272162145" lon="112.02765390693827">
        <ele>1095.2</ele>
        <time>2017-10-13T07:39:14.800000Z</time>
      </trkpt>
      <trkpt lat="37.847452637399456" lon="112.0275806066544">
        <ele>1094.3</ele>
        <time>2017-10-13T07:39:17.800000Z</time>
      </trkpt>
      <trkpt lat="37.84751596790037" lon="112.02743077045918">
        <ele>1090.4</ele>
        <time>2017-10-13T07:39:24.900000Z</time>
      </trkpt>
      <trkpt lat="37.847665813784694" lon="112.02718897291003">
        <ele>1084.2</ele>
        <time>2017-10-13T07:39:36.800000Z</time>
      </trkpt>
      <trkpt lat="37.847679048056314" lon="112.02710729680047">
        <ele>1082.8</ele>
        <time>2017-10-13T07:39:39.900000Z</time>
      </trkpt>
      <trkpt lat="37.847761101656864" lon="112.02695719030966">
        <ele>1081.4</ele>
        <time>2017-10-13T07:39:45.900000Z</time>
      </trkpt>
      <trkpt lat="37.84796090089961" lon="112.0268086930736">
        <ele>1082.9</ele>
        <time>2017-10-13T07:39:54.900000Z</time>
      </trkpt>
      <trkpt lat="37.84829766752421" lon="112.02678214924886">
        <ele>1083.5</ele>
        <time>2017-10-13T07:40:06.900000Z</time>
      </trkpt>
      <trkpt lat="37.84846753044151" lon="112.02677374512345">
        <ele>1085.3</ele>
        <time>2017-10-13T07:40:12.900000Z</time>
      </trkpt>
      <trkpt lat="37.84860605893013" lon="112.02671233819333">
        <ele>1086.9</ele>
        <time>2017-10-13T07:40:18.900000Z</time>
      </trkpt>
      <trkpt lat="37.84867402607115" lon="112.02665878265978">
        <ele>1091.5</ele>
        <time>2017-10-13T07:40:21.900000Z</time>
      </trkpt>
      <trkpt lat="37.84883231796689" lon="112.02640536149639">
        <ele>1104.09</ele>
        <time>2017-10-13T07:40:30.900000Z</time>
      </trkpt>
      <trkpt lat="37.84886100953005" lon="112.02632720136162">
        <ele>1105.7</ele>
        <time>2017-10-13T07:40:33.900000Z</time>
      </trkpt>
      <trkpt lat="37.848855796454835" lon="112.02624552981916">
        <ele>1106.4</ele>
        <time>2017-10-13T07:40:36.900000Z</time>
      </trkpt>
      <trkpt lat="37.84887078220528" lon="112.02611734101626">
        <ele>1107.5</ele>
        <time>2017-10-13T07:40:39.900000Z</time>
      </trkpt>
      <trkpt lat="37.84891728090526" lon="112.02597373417348">
        <ele>1108.8</ele>
        <time>2017-10-13T07:40:44.500000Z</time>
      </trkpt>
      <trkpt lat="37.84898549677001" lon="112.02561891747604">
        <ele>1109.7</ele>
        <time>2017-10-13T07:40:53.800000Z</time>
      </trkpt>
      <trkpt lat="37.84900073953362" lon="112.02549695116623">
        <ele>1110.09</ele>
        <time>2017-10-13T07:40:56.900000Z</time>
      </trkpt>
      <trkpt lat="37.848980598254656" lon="112.02531522469998">
        <ele>1111.59</ele>
        <time>2017-10-13T07:41:02.900000Z</time>
      </trkpt>
      <trkpt lat="37.84899722050318" lon="112.0248768602038">
        <ele>1111.9</ele>
        <time>2017-10-13T07:41:14.900000Z</time>
      </trkpt>
      <trkpt lat="37.848987362227206" lon="112.02450178369784">
        <ele>1112.7</ele>
        <time>2017-10-13T07:41:29.900000Z</time>
      </trkpt>
      <trkpt lat="37.84901551897421" lon="112.02432005717148">
        <ele>1113.2</ele>
        <time>2017-10-13T07:41:35.900000Z</time>
      </trkpt>
      <trkpt lat="37.84901059378047" lon="112.02413184559416">
        <ele>1112.3</ele>
        <time>2017-10-13T07:41:41.900000Z</time>
      </trkpt>
      <trkpt lat="37.84897554579836" lon="112.02374353046602">
        <ele>1107.7</ele>
        <time>2017-10-13T07:41:53.900000Z</time>
      </trkpt>
      <trkpt lat="37.84897374676848" lon="112.02350340238227">
        <ele>1106.8</ele>
        <time>2017-10-13T07:41:59.900000Z</time>
      </trkpt>
      <trkpt lat="37.84900047719736" lon="112.02304640309126">
        <ele>1107.8</ele>
        <time>2017-10-13T07:42:11.900000Z</time>
      </trkpt>
      <trkpt lat="37.84902213397987" lon="112.02266160926085">
        <ele>1105.9</ele>
        <time>2017-10-13T07:42:23.900000Z</time>
      </trkpt>
      <trkpt lat="37.849046992110786" lon="112.0222981813606">
        <ele>1108.59</ele>
        <time>2017-10-13T07:42:32.800000Z</time>
      </trkpt>
      <trkpt lat="37.84906664015522" lon="112.02185634173772">
        <ele>1114.5</ele>
        <time>2017-10-13T07:42:44.800000Z</time>
      </trkpt>
      <trkpt lat="37.84906353261046" lon="112.02150293046131">
        <ele>1118.2</ele>
        <time>2017-10-13T07:42:53.800000Z</time>
      </trkpt>
      <trkpt lat="37.8490667501344" lon="112.0211195081761">
        <ele>1121.5</ele>
        <time>2017-10-13T07:43:02.900000Z</time>
      </trkpt>
      <trkpt lat="37.84910163653501" lon="112.02076447741612">
        <ele>1126.7</ele>
        <time>2017-10-13T07:43:11.900000Z</time>
      </trkpt>
      <trkpt lat="37.849083334456225" lon="112.0204145939678">
        <ele>1127.9</ele>
        <time>2017-10-13T07:43:20.800000Z</time>
      </trkpt>
      <trkpt lat="37.84904515639905" lon="112.01999279346417">
        <ele>1127.59</ele>
        <time>2017-10-13T07:43:32.800000Z</time>
      </trkpt>
      <trkpt lat="37.849034915668746" lon="112.0198694987425">
        <ele>1125.7</ele>
        <time>2017-10-13T07:43:35.900000Z</time>
      </trkpt>
      <trkpt lat="37.849074911197675" lon="112.0195344879546">
        <ele>1125.3</ele>
        <time>2017-10-13T07:43:44.800000Z</time>
      </trkpt>
      <trkpt lat="37.84906469204257" lon="112.01930601628513">
        <ele>1124.8</ele>
        <time>2017-10-13T07:43:50.900000Z</time>
      </trkpt>
      <trkpt lat="37.8491066210933" lon="112.01886258853715">
        <ele>1125.0</ele>
        <time>2017-10-13T07:44:02.900000Z</time>
      </trkpt>
      <trkpt lat="37.8491213671383" lon="112.01843917696513">
        <ele>1125.8</ele>
        <time>2017-10-13T07:44:14.900000Z</time>
      </trkpt>
      <trkpt lat="37.84914785391572" lon="112.0180874173209">
        <ele>1121.4</ele>
        <time>2017-10-13T07:44:26.900000Z</time>
      </trkpt>
      <trkpt lat="37.84913311262967" lon="112.01782921400564">
        <ele>1119.0</ele>
        <time>2017-10-13T07:44:38.900000Z</time>
      </trkpt>
      <trkpt lat="37.84914150457131" lon="112.01773917958315">
        <ele>1118.2</ele>
        <time>2017-10-13T07:44:44.800000Z</time>
      </trkpt>
      <trkpt lat="37.84917649890206" lon="112.01764427552291">
        <ele>1116.0</ele>
        <time>2017-10-13T07:44:50.900000Z</time>
      </trkpt>
      <trkpt lat="37.84916154467686" lon="112.01755911095994">
        <ele>1115.3</ele>
        <time>2017-10-13T07:44:56.800000Z</time>
      </trkpt>
      <trkpt lat="37.849189761868736" lon="112.0174623155611">
        <ele>1115.0</ele>
        <time>2017-10-13T07:45:02.900000Z</time>
      </trkpt>
      <trkpt lat="37.84922138299379" lon="112.01702404691433">
        <ele>1111.3</ele>
        <time>2017-10-13T07:45:22Z</time>
      </trkpt>
      <trkpt lat="37.84921300565358" lon="112.01672394330093">
        <ele>1109.9</ele>
        <time>2017-10-13T07:45:30.800000Z</time>
      </trkpt>
      <trkpt lat="37.84927275974596" lon="112.01631731138137">
        <ele>1107.3</ele>
        <time>2017-10-13T07:45:43.500000Z</time>
      </trkpt>
      <trkpt lat="37.84931783483942" lon="112.01601720646191">
        <ele>1108.4</ele>
        <time>2017-10-13T07:45:49.900000Z</time>
      </trkpt>
      <trkpt lat="37.849411236943666" lon="112.01561057732239">
        <ele>1117.59</ele>
        <time>2017-10-13T07:45:58.900000Z</time>
      </trkpt>
      <trkpt lat="37.84947286537715" lon="112.01521558103465">
        <ele>1123.9</ele>
        <time>2017-10-13T07:46:07.900000Z</time>
      </trkpt>
      <trkpt lat="37.849522740467464" lon="112.01485195049653">
        <ele>1128.5</ele>
        <time>2017-10-13T07:46:16.800000Z</time>
      </trkpt>
      <trkpt lat="37.849562555322976" lon="112.0144020827034">
        <ele>1132.2</ele>
        <time>2017-10-13T07:46:28.800000Z</time>
      </trkpt>
      <trkpt lat="37.84958280893464" lon="112.01405711621481">
        <ele>1132.9</ele>
        <time>2017-10-13T07:46:37.900000Z</time>
      </trkpt>
      <trkpt lat="37.84960769243504" lon="112.01370674484703">
        <ele>1132.2</ele>
        <time>2017-10-13T07:46:46.900000Z</time>
      </trkpt>
      <trkpt lat="37.84965101886571" lon="112.01326526839368">
        <ele>1132.7</ele>
        <time>2017-10-13T07:46:58.900000Z</time>
      </trkpt>
      <trkpt lat="37.84964782267516" lon="112.01305683519705">
        <ele>1130.59</ele>
        <time>2017-10-13T07:47:04.900000Z</time>
      </trkpt>
      <trkpt lat="37.84966424609261" lon="112.01263185858787">
        <ele>1111.3</ele>
        <time>2017-10-13T07:47:19.900000Z</time>
      </trkpt>
      <trkpt lat="37.84970431026499" lon="112.01219525833089">
        <ele>1105.2</ele>
        <time>2017-10-13T07:47:31.900000Z</time>
      </trkpt>
      <trkpt lat="37.84973734280564" lon="112.01193843528685">
        <ele>1106.5</ele>
        <time>2017-10-13T07:47:37.900000Z</time>
      </trkpt>
      <trkpt lat="37.849740995739666" lon="112.01180191575186">
        <ele>1110.5</ele>
        <time>2017-10-13T07:47:40.900000Z</time>
      </trkpt>
      <trkpt lat="37.84976907726808" lon="112.01166187931913">
        <ele>1114.59</ele>
        <time>2017-10-13T07:47:43.900000Z</time>
      </trkpt>
      <trkpt lat="37.84981750570153" lon="112.01124339854869">
        <ele>1121.7</ele>
        <time>2017-10-13T07:47:52.900000Z</time>
      </trkpt>
      <trkpt lat="37.84983429849919" lon="112.01088169408352">
        <ele>1125.0</ele>
        <time>2017-10-13T07:48:01.900000Z</time>
      </trkpt>
      <trkpt lat="37.84986747960477" lon="112.01048322548412">
        <ele>1122.0</ele>
        <time>2017-10-13T07:48:13.900000Z</time>
      </trkpt>
      <trkpt lat="37.84988563208841" lon="112.01012179620966">
        <ele>1120.5</ele>
        <time>2017-10-13T07:48:22.800000Z</time>
      </trkpt>
      <trkpt lat="37.849865793956376" lon="112.0097633473559">
        <ele>1119.2</ele>
        <time>2017-10-13T07:48:31.900000Z</time>
      </trkpt>
      <trkpt lat="37.84980060468415" lon="112.00941977389789">
        <ele>1124.09</ele>
        <time>2017-10-13T07:48:40.900000Z</time>
      </trkpt>
      <trkpt lat="37.849762460546245" lon="112.009290023669">
        <ele>1127.0</ele>
        <time>2017-10-13T07:48:43.900000Z</time>
      </trkpt>
      <trkpt lat="37.8496089638547" lon="112.00899160706865">
        <ele>1129.0</ele>
        <time>2017-10-13T07:48:52.900000Z</time>
      </trkpt>
      <trkpt lat="37.84942748407572" lon="112.00870644093793">
        <ele>1133.4</ele>
        <time>2017-10-13T07:49:01.900000Z</time>
      </trkpt>
      <trkpt lat="37.84925409514248" lon="112.00843803489835">
        <ele>1133.2</ele>
        <time>2017-10-13T07:49:10.900000Z</time>
      </trkpt>
      <trkpt lat="37.849080726331046" lon="112.00816314239171">
        <ele>1134.7</ele>
        <time>2017-10-13T07:49:19.900000Z</time>
      </trkpt>
      <trkpt lat="37.848870613895365" lon="112.00783635479232">
        <ele>1137.09</ele>
        <time>2017-10-13T07:49:31.900000Z</time>
      </trkpt>
      <trkpt lat="37.84869887018344" lon="112.00756308654385">
        <ele>1139.7</ele>
        <time>2017-10-13T07:49:40.900000Z</time>
      </trkpt>
      <trkpt lat="37.848500608685235" lon="112.00726630530376">
        <ele>1141.8</ele>
        <time>2017-10-13T07:49:49.900000Z</time>
      </trkpt>
      <trkpt lat="37.84829034056001" lon="112.00699304397324">
        <ele>1143.8</ele>
        <time>2017-10-13T07:49:58.900000Z</time>
      </trkpt>
      <trkpt lat="37.8481524913747" lon="112.00690953392701">
        <ele>1146.7</ele>
        <time>2017-10-13T07:50:04.900000Z</time>
      </trkpt>
      <trkpt lat="37.84779727177706" lon="112.00684280924632">
        <ele>1148.9</ele>
        <time>2017-10-13T07:50:16.900000Z</time>
      </trkpt>
      <trkpt lat="37.84747236839965" lon="112.00679986843517">
        <ele>1149.9</ele>
        <time>2017-10-13T07:50:28.900000Z</time>
      </trkpt>
      <trkpt lat="37.84732560413469" lon="112.00679475002188">
        <ele>1150.0</ele>
        <time>2017-10-13T07:50:34.900000Z</time>
      </trkpt>
      <trkpt lat="37.84727883476608" lon="112.00682962581648">
        <ele>1146.3</ele>
        <time>2017-10-13T07:50:37.900000Z</time>
      </trkpt>
      <trkpt lat="37.84694219108817" lon="112.00681155508819">
        <ele>1140.09</ele>
        <time>2017-10-13T07:50:49.900000Z</time>
      </trkpt>
      <trkpt lat="37.84669393145162" lon="112.00681482844567">
        <ele>1137.9</ele>
        <time>2017-10-13T07:50:58.800000Z</time>
      </trkpt>
      <trkpt lat="37.84662059852712" lon="112.00684132775184">
        <ele>1135.8</ele>
        <time>2017-10-13T07:51:01.800000Z</time>
      </trkpt>
      <trkpt lat="37.84636716874221" lon="112.00684973765344">
        <ele>1135.8</ele>
        <time>2017-10-13T07:51:10.900000Z</time>
      </trkpt>
      <trkpt lat="37.8460808127833" lon="112.00679976412957">
        <ele>1135.3</ele>
        <time>2017-10-13T07:51:19.900000Z</time>
      </trkpt>
      <trkpt lat="37.845788726286955" lon="112.00666977915827">
        <ele>1134.59</ele>
        <time>2017-10-13T07:51:28.900000Z</time>
      </trkpt>
      <trkpt lat="37.84551563745471" lon="112.0065378999819">
        <ele>1136.3</ele>
        <time>2017-10-13T07:51:37.900000Z</time>
      </trkpt>
      <trkpt lat="37.845210393955725" lon="112.00645305887491">
        <ele>1138.2</ele>
        <time>2017-10-13T07:51:46.800000Z</time>
      </trkpt>
      <trkpt lat="37.844894002663686" lon="112.00637632849805">
        <ele>1140.59</ele>
        <time>2017-10-13T07:51:55.900000Z</time>
      </trkpt>
      <trkpt lat="37.84464220098257" lon="112.00638473814304">
        <ele>1142.59</ele>
        <time>2017-10-13T07:52:04.900000Z</time>
      </trkpt>
      <trkpt lat="37.844300613732244" lon="112.00647803594445">
        <ele>1146.9</ele>
        <time>2017-10-13T07:52:16.900000Z</time>
      </trkpt>
      <trkpt lat="37.84421722217887" lon="112.00651129409">
        <ele>1147.59</ele>
        <time>2017-10-13T07:52:19.900000Z</time>
      </trkpt>
      <trkpt lat="37.844115490220716" lon="112.00650806249584">
        <ele>1148.59</ele>
        <time>2017-10-13T07:52:22.900000Z</time>
      </trkpt>
      <trkpt lat="37.84385069467235" lon="112.00659783726036">
        <ele>1151.7</ele>
        <time>2017-10-13T07:52:31.900000Z</time>
      </trkpt>
      <trkpt lat="37.8437688658443" lon="112.00665299047843">
        <ele>1152.2</ele>
        <time>2017-10-13T07:52:34.900000Z</time>
      </trkpt>
      <trkpt lat="37.84346888574705" lon="112.00689630674167">
        <ele>1149.3</ele>
        <time>2017-10-13T07:52:46.900000Z</time>
      </trkpt>
      <trkpt lat="37.84325058653187" lon="112.00704311242008">
        <ele>1149.59</ele>
        <time>2017-10-13T07:52:55.900000Z</time>
      </trkpt>
      <trkpt lat="37.843190665074424" lon="112.00712151029595">
        <ele>1148.8</ele>
        <time>2017-10-13T07:52:58.900000Z</time>
      </trkpt>
      <trkpt lat="37.84312216618502" lon="112.0071647685628">
        <ele>1148.5</ele>
        <time>2017-10-13T07:53:01.900000Z</time>
      </trkpt>
      <trkpt lat="37.842937391971105" lon="112.00735130695976">
        <ele>1150.7</ele>
        <time>2017-10-13T07:53:10.900000Z</time>
      </trkpt>
      <trkpt lat="37.842677123197596" lon="112.00756164258254">
        <ele>1150.2</ele>
        <time>2017-10-13T07:53:22.900000Z</time>
      </trkpt>
      <trkpt lat="37.842605591208326" lon="112.00762139071242">
        <ele>1150.4</ele>
        <time>2017-10-13T07:53:25.900000Z</time>
      </trkpt>
      <trkpt lat="37.84251731097078" lon="112.0076565422093">
        <ele>1151.09</ele>
        <time>2017-10-13T07:53:28.900000Z</time>
      </trkpt>
      <trkpt lat="37.84245232498714" lon="112.00770466608269">
        <ele>1151.2</ele>
        <time>2017-10-13T07:53:31.900000Z</time>
      </trkpt>
      <trkpt lat="37.842365692698415" lon="112.00773305954033">
        <ele>1151.5</ele>
        <time>2017-10-13T07:53:34.900000Z</time>
      </trkpt>
      <trkpt lat="37.842245654385906" lon="112.00786471764326">
        <ele>1152.5</ele>
        <time>2017-10-13T07:53:40.900000Z</time>
      </trkpt>
      <trkpt lat="37.8419406367701" lon="112.00806965392856">
        <ele>1151.8</ele>
        <time>2017-10-13T07:53:52.900000Z</time>
      </trkpt>
      <trkpt lat="37.84178394647084" lon="112.00811832968907">
        <ele>1152.8</ele>
        <time>2017-10-13T07:53:58.900000Z</time>
      </trkpt>
      <trkpt lat="37.84173568761662" lon="112.00819834936482">
        <ele>1148.9</ele>
        <time>2017-10-13T07:54:01.900000Z</time>
      </trkpt>
      <trkpt lat="37.8417022877353" lon="112.00829972247828">
        <ele>1145.09</ele>
        <time>2017-10-13T07:54:04.900000Z</time>
      </trkpt>
      <trkpt lat="37.841545765761" lon="112.00838326944218">
        <ele>1146.7</ele>
        <time>2017-10-13T07:54:10.900000Z</time>
      </trkpt>
      <trkpt lat="37.84147408141819" lon="112.00840301123291">
        <ele>1147.4</ele>
        <time>2017-10-13T07:54:13.900000Z</time>
      </trkpt>
      <trkpt lat="37.84114557318087" lon="112.00838656102212">
        <ele>1148.9</ele>
        <time>2017-10-13T07:54:25.900000Z</time>
      </trkpt>
      <trkpt lat="37.840820656821585" lon="112.00834821461518">
        <ele>1153.4</ele>
        <time>2017-10-13T07:54:37.900000Z</time>
      </trkpt>
      <trkpt lat="37.84056711516767" lon="112.00830310176399">
        <ele>1155.4</ele>
        <time>2017-10-13T07:54:46.900000Z</time>
      </trkpt>
      <trkpt lat="37.84028574235657" lon="112.00831124488006">
        <ele>1157.7</ele>
        <time>2017-10-13T07:54:55.900000Z</time>
      </trkpt>
      <trkpt lat="37.84004896226831" lon="112.00837804170799">
        <ele>1159.7</ele>
        <time>2017-10-13T07:55:04.900000Z</time>
      </trkpt>
      <trkpt lat="37.83988074991168" lon="112.00837806178197">
        <ele>1160.5</ele>
        <time>2017-10-13T07:55:10.900000Z</time>
      </trkpt>
      <trkpt lat="37.83968723696671" lon="112.00840133224914">
        <ele>1161.09</ele>
        <time>2017-10-13T07:55:16.900000Z</time>
      </trkpt>
      <trkpt lat="37.83949050725398" lon="112.00831971963581">
        <ele>1162.7</ele>
        <time>2017-10-13T07:55:22.800000Z</time>
      </trkpt>
      <trkpt lat="37.83950071841704" lon="112.0081696921032">
        <ele>1166.59</ele>
        <time>2017-10-13T07:55:28.900000Z</time>
      </trkpt>
      <trkpt lat="37.8395256789764" lon="112.00807805160476">
        <ele>1169.09</ele>
        <time>2017-10-13T07:55:31.900000Z</time>
      </trkpt>
      <trkpt lat="37.83976386943248" lon="112.00799314371102">
        <ele>1169.8</ele>
        <time>2017-10-13T07:55:43.900000Z</time>
      </trkpt>
      <trkpt lat="37.840099070535736" lon="112.007948231174">
        <ele>1172.7</ele>
        <time>2017-10-13T07:55:55.900000Z</time>
      </trkpt>
      <trkpt lat="37.84043557361804" lon="112.00801333731239">
        <ele>1171.3</ele>
        <time>2017-10-13T07:56:07.900000Z</time>
      </trkpt>
      <trkpt lat="37.84078238742193" lon="112.00807817196686">
        <ele>1167.7</ele>
        <time>2017-10-13T07:56:19.900000Z</time>
      </trkpt>
      <trkpt lat="37.841110588987206" lon="112.00810651608987">
        <ele>1164.59</ele>
        <time>2017-10-13T07:56:31.900000Z</time>
      </trkpt>
      <trkpt lat="37.84135217378954" lon="112.00806648034742">
        <ele>1164.09</ele>
        <time>2017-10-13T07:56:40.900000Z</time>
      </trkpt>
      <trkpt lat="37.841437188453305" lon="112.0080345728163">
        <ele>1164.8</ele>
        <time>2017-10-13T07:56:43.900000Z</time>
      </trkpt>
      <trkpt lat="37.84164072500112" lon="112.00801643730796">
        <ele>1161.8</ele>
        <time>2017-10-13T07:56:49.900000Z</time>
      </trkpt>
      <trkpt lat="37.84172716032397" lon="112.00796290431218">
        <ele>1161.8</ele>
        <time>2017-10-13T07:56:52.900000Z</time>
      </trkpt>
      <trkpt lat="37.841970565801994" lon="112.00776635550085">
        <ele>1156.8</ele>
        <time>2017-10-13T07:57:04.800000Z</time>
      </trkpt>
      <trkpt lat="37.84223211509873" lon="112.00758142865944">
        <ele>1157.59</ele>
        <time>2017-10-13T07:57:13.900000Z</time>
      </trkpt>
      <trkpt lat="37.84252069236656" lon="112.00743136964567">
        <ele>1158.2</ele>
        <time>2017-10-13T07:57:22.900000Z</time>
      </trkpt>
      <trkpt lat="37.842778809420956" lon="112.00721481748103">
        <ele>1160.59</ele>
        <time>2017-10-13T07:57:31.900000Z</time>
      </trkpt>
      <trkpt lat="37.84295380707228" lon="112.00703152437714">
        <ele>1157.0</ele>
        <time>2017-10-13T07:57:40.900000Z</time>
      </trkpt>
      <trkpt lat="37.84304051921945" lon="112.00697637027375">
        <ele>1155.3</ele>
        <time>2017-10-13T07:57:43.900000Z</time>
      </trkpt>
      <trkpt lat="37.84309062857267" lon="112.00691311121479">
        <ele>1154.09</ele>
        <time>2017-10-13T07:57:46.800000Z</time>
      </trkpt>
      <trkpt lat="37.84342711156463" lon="112.00671141847924">
        <ele>1154.0</ele>
        <time>2017-10-13T07:57:55.900000Z</time>
      </trkpt>
      <trkpt lat="37.843752032615484" lon="112.00647485764517">
        <ele>1154.8</ele>
        <time>2017-10-13T07:58:05.900000Z</time>
      </trkpt>
      <trkpt lat="37.843905647180726" lon="112.00636617458767">
        <ele>1156.0</ele>
        <time>2017-10-13T07:58:17.200000Z</time>
      </trkpt>
      <trkpt lat="37.84422053832435" lon="112.00621800726068">
        <ele>1156.3</ele>
        <time>2017-10-13T07:58:21.900000Z</time>
      </trkpt>
      <trkpt lat="37.84435370409005" lon="112.00614311567959">
        <ele>1152.9</ele>
        <time>2017-10-13T07:58:27.900000Z</time>
      </trkpt>
      <trkpt lat="37.84444547254833" lon="112.00612120969025">
        <ele>1152.3</ele>
        <time>2017-10-13T07:58:30.800000Z</time>
      </trkpt>
      <trkpt lat="37.84473532988439" lon="112.00617956192721">
        <ele>1149.2</ele>
        <time>2017-10-13T07:58:39.900000Z</time>
      </trkpt>
      <trkpt lat="37.845070560772385" lon="112.00621628403343">
        <ele>1149.2</ele>
        <time>2017-10-13T07:58:48.800000Z</time>
      </trkpt>
      <trkpt lat="37.84541542997283" lon="112.00629625456281">
        <ele>1148.7</ele>
        <time>2017-10-13T07:59:00.900000Z</time>
      </trkpt>
      <trkpt lat="37.84569542611049" lon="112.00638623438913">
        <ele>1145.8</ele>
        <time>2017-10-13T07:59:09.900000Z</time>
      </trkpt>
      <trkpt lat="37.845985532469975" lon="112.00654325014848">
        <ele>1143.09</ele>
        <time>2017-10-13T07:59:21.900000Z</time>
      </trkpt>
      <trkpt lat="37.846158707152526" lon="112.0066081040963">
        <ele>1141.7</ele>
        <time>2017-10-13T07:59:27.900000Z</time>
      </trkpt>
      <trkpt lat="37.846488838343234" lon="112.00662644586534">
        <ele>1136.7</ele>
        <time>2017-10-13T07:59:39.900000Z</time>
      </trkpt>
      <trkpt lat="37.846760362308494" lon="112.00664614618469">
        <ele>1134.2</ele>
        <time>2017-10-13T07:59:48.900000Z</time>
      </trkpt>
      <trkpt lat="37.8470557496621" lon="112.00666989832986">
        <ele>1133.2</ele>
        <time>2017-10-13T07:59:57.900000Z</time>
      </trkpt>
      <trkpt lat="37.847400794335286" lon="112.0066912117566">
        <ele>1128.2</ele>
        <time>2017-10-13T08:00:06.900000Z</time>
      </trkpt>
      <trkpt lat="37.84773898064864" lon="112.00673793527857">
        <ele>1119.7</ele>
        <time>2017-10-13T08:00:15.900000Z</time>
      </trkpt>
      <trkpt lat="37.847927201714846" lon="112.00676115961271">
        <ele>1117.8</ele>
        <time>2017-10-13T08:00:21.900000Z</time>
      </trkpt>
      <trkpt lat="37.84814558043712" lon="112.00686141921217">
        <ele>1117.2</ele>
        <time>2017-10-13T08:00:27.900000Z</time>
      </trkpt>
      <trkpt lat="37.84843566360458" lon="112.00711791109347">
        <ele>1121.4</ele>
        <time>2017-10-13T08:00:36.900000Z</time>
      </trkpt>
      <trkpt lat="37.8486605227713" lon="112.00741144473689">
        <ele>1124.7</ele>
        <time>2017-10-13T08:00:45.900000Z</time>
      </trkpt>
      <trkpt lat="37.84887894124306" lon="112.00768146300501">
        <ele>1127.0</ele>
        <time>2017-10-13T08:00:54.900000Z</time>
      </trkpt>
      <trkpt lat="37.849044080170614" lon="112.00798635955277">
        <ele>1129.3</ele>
        <time>2017-10-13T08:01:03.900000Z</time>
      </trkpt>
      <trkpt lat="37.84927392461783" lon="112.00833828512415">
        <ele>1133.4</ele>
        <time>2017-10-13T08:01:15.900000Z</time>
      </trkpt>
      <trkpt lat="37.84944076259352" lon="112.00861993715397">
        <ele>1136.3</ele>
        <time>2017-10-13T08:01:24.900000Z</time>
      </trkpt>
      <trkpt lat="37.84965065163816" lon="112.00893159089733">
        <ele>1137.0</ele>
        <time>2017-10-13T08:01:33.900000Z</time>
      </trkpt>
      <trkpt lat="37.84969567602893" lon="112.00902809003595">
        <ele>1136.8</ele>
        <time>2017-10-13T08:01:36.900000Z</time>
      </trkpt>
      <trkpt lat="37.84971574462344" lon="112.00912297038064">
        <ele>1136.0</ele>
        <time>2017-10-13T08:01:39.900000Z</time>
      </trkpt>
      <trkpt lat="37.84979596626317" lon="112.00933651509902">
        <ele>1134.09</ele>
        <time>2017-10-13T08:01:45.900000Z</time>
      </trkpt>
      <trkpt lat="37.84987558875046" lon="112.00966170431602">
        <ele>1135.8</ele>
        <time>2017-10-13T08:01:54.900000Z</time>
      </trkpt>
      <trkpt lat="37.84990089707759" lon="112.01000501364915">
        <ele>1137.59</ele>
        <time>2017-10-13T08:02:03.900000Z</time>
      </trkpt>
      <trkpt lat="37.84992239359559" lon="112.01035346172702">
        <ele>1135.59</ele>
        <time>2017-10-13T08:02:12.900000Z</time>
      </trkpt>
      <trkpt lat="37.84992757750998" lon="112.01080680163973">
        <ele>1130.3</ele>
        <time>2017-10-13T08:02:24.900000Z</time>
      </trkpt>
      <trkpt lat="37.8499143168992" lon="112.01116661285816">
        <ele>1131.2</ele>
        <time>2017-10-13T08:02:33.900000Z</time>
      </trkpt>
      <trkpt lat="37.849879191725435" lon="112.01158184742523">
        <ele>1132.59</ele>
        <time>2017-10-13T08:02:45.900000Z</time>
      </trkpt>
      <trkpt lat="37.84983423970414" lon="112.01192517727851">
        <ele>1129.9</ele>
        <time>2017-10-13T08:02:54.900000Z</time>
      </trkpt>
      <trkpt lat="37.849791019945414" lon="112.01232663170813">
        <ele>1125.09</ele>
        <time>2017-10-13T08:03:03.900000Z</time>
      </trkpt>
      <trkpt lat="37.849755876688505" lon="112.01265698915684">
        <ele>1120.9</ele>
        <time>2017-10-13T08:03:12.900000Z</time>
      </trkpt>
      <trkpt lat="37.84977098032199" lon="112.01287542180485">
        <ele>1119.8</ele>
        <time>2017-10-13T08:03:18.900000Z</time>
      </trkpt>
      <trkpt lat="37.849746035814434" lon="112.0132452516904">
        <ele>1118.59</ele>
        <time>2017-10-13T08:03:27.900000Z</time>
      </trkpt>
      <trkpt lat="37.84972433915097" lon="112.01361859851502">
        <ele>1117.8</ele>
        <time>2017-10-13T08:03:36.900000Z</time>
      </trkpt>
      <trkpt lat="37.84967596062684" lon="112.0140252041336">
        <ele>1116.8</ele>
        <time>2017-10-13T08:03:45.900000Z</time>
      </trkpt>
      <trkpt lat="37.84963602813104" lon="112.0144204576484">
        <ele>1113.5</ele>
        <time>2017-10-13T08:03:54.900000Z</time>
      </trkpt>
      <trkpt lat="37.84961950386407" lon="112.01479029876246">
        <ele>1115.2</ele>
        <time>2017-10-13T08:04:03.900000Z</time>
      </trkpt>
      <trkpt lat="37.84957449346513" lon="112.01516041669717">
        <ele>1114.8</ele>
        <time>2017-10-13T08:04:12.900000Z</time>
      </trkpt>
      <trkpt lat="37.84953606321835" lon="112.01550728635456">
        <ele>1116.4</ele>
        <time>2017-10-13T08:04:21.900000Z</time>
      </trkpt>
      <trkpt lat="37.849457763941835" lon="112.01594554463917">
        <ele>1123.0</ele>
        <time>2017-10-13T08:04:33.900000Z</time>
      </trkpt>
      <trkpt lat="37.849434549793756" lon="112.01619049293863">
        <ele>1129.3</ele>
        <time>2017-10-13T08:04:39.900000Z</time>
      </trkpt>
      <trkpt lat="37.84940808045065" lon="112.01662740026657">
        <ele>1129.9</ele>
        <time>2017-10-13T08:04:51.900000Z</time>
      </trkpt>
      <trkpt lat="37.84939635843085" lon="112.01683909636375">
        <ele>1132.4</ele>
        <time>2017-10-13T08:04:57.900000Z</time>
      </trkpt>
      <trkpt lat="37.84936124163644" lon="112.01688073669168">
        <ele>1137.09</ele>
        <time>2017-10-13T08:05:00.900000Z</time>
      </trkpt>
      <trkpt lat="37.849337932152444" lon="112.0166803998313">
        <ele>1137.5</ele>
        <time>2017-10-13T08:05:12.900000Z</time>
      </trkpt>
      <trkpt lat="37.849387809778" lon="112.01631243110687">
        <ele>1132.7</ele>
        <time>2017-10-13T08:05:24.900000Z</time>
      </trkpt>
      <trkpt lat="37.84945466489999" lon="112.01589039190922">
        <ele>1125.5</ele>
        <time>2017-10-13T08:05:36.900000Z</time>
      </trkpt>
      <trkpt lat="37.84950268876204" lon="112.01569897300686">
        <ele>1121.3</ele>
        <time>2017-10-13T08:05:42.900000Z</time>
      </trkpt>
      <trkpt lat="37.849576251547724" lon="112.01559055119594">
        <ele>1113.59</ele>
        <time>2017-10-13T08:05:48.900000Z</time>
      </trkpt>
      <trkpt lat="37.849609345821136" lon="112.0154021093188">
        <ele>1109.7</ele>
        <time>2017-10-13T08:05:54.900000Z</time>
      </trkpt>
      <trkpt lat="37.84961930209797" lon="112.0150506479036">
        <ele>1107.8</ele>
        <time>2017-10-13T08:06:03.900000Z</time>
      </trkpt>
      <trkpt lat="37.84963276516919" lon="112.01470702903461">
        <ele>1106.59</ele>
        <time>2017-10-13T08:06:12.900000Z</time>
      </trkpt>
      <trkpt lat="37.84968446610955" lon="112.01427554494276">
        <ele>1106.4</ele>
        <time>2017-10-13T08:06:24.900000Z</time>
      </trkpt>
      <trkpt lat="37.84972784661623" lon="112.01409683988547">
        <ele>1104.8</ele>
        <time>2017-10-13T08:06:30.900000Z</time>
      </trkpt>
      <trkpt lat="37.84972953039505" lon="112.01388867278483">
        <ele>1103.5</ele>
        <time>2017-10-13T08:06:36.900000Z</time>
      </trkpt>
      <trkpt lat="37.84975263963471" lon="112.01349531821677">
        <ele>1102.09</ele>
        <time>2017-10-13T08:06:45.900000Z</time>
      </trkpt>
      <trkpt lat="37.849755831930366" lon="112.01323524785313">
        <ele>1104.4</ele>
        <time>2017-10-13T08:06:51.900000Z</time>
      </trkpt>
      <trkpt lat="37.849799469574336" lon="112.01296868588074">
        <ele>1106.5</ele>
        <time>2017-10-13T08:06:57.900000Z</time>
      </trkpt>
      <trkpt lat="37.84977441832955" lon="112.01262508693928">
        <ele>1106.2</ele>
        <time>2017-10-13T08:07:06.900000Z</time>
      </trkpt>
      <trkpt lat="37.84976428545364" lon="112.01237691766383">
        <ele>1106.59</ele>
        <time>2017-10-13T08:07:12.900000Z</time>
      </trkpt>
      <trkpt lat="37.849810853544085" lon="112.01203682860795">
        <ele>1106.7</ele>
        <time>2017-10-13T08:07:21.900000Z</time>
      </trkpt>
      <trkpt lat="37.84982917344388" lon="112.01161510441607">
        <ele>1108.09</ele>
        <time>2017-10-13T08:07:33.900000Z</time>
      </trkpt>
      <trkpt lat="37.849840771618936" lon="112.01117337992922">
        <ele>1109.3</ele>
        <time>2017-10-13T08:07:45.900000Z</time>
      </trkpt>
      <trkpt lat="37.84984251948732" lon="112.01094657228639">
        <ele>1107.9</ele>
        <time>2017-10-13T08:07:51.800000Z</time>
      </trkpt>
      <trkpt lat="37.84989421492796" lon="112.01061838635863">
        <ele>1107.59</ele>
        <time>2017-10-13T08:08:00.900000Z</time>
      </trkpt>
      <trkpt lat="37.849874113323935" lon="112.01025642012407">
        <ele>1108.2</ele>
        <time>2017-10-13T08:08:09.900000Z</time>
      </trkpt>
      <trkpt lat="37.84987908544463" lon="112.00985660774789">
        <ele>1110.2</ele>
        <time>2017-10-13T08:08:18.900000Z</time>
      </trkpt>
      <trkpt lat="37.84987916692295" lon="112.00973658365301">
        <ele>1110.7</ele>
        <time>2017-10-13T08:08:21.900000Z</time>
      </trkpt>
      <trkpt lat="37.849827229014195" lon="112.00949978631085">
        <ele>1112.2</ele>
        <time>2017-10-13T08:08:27.900000Z</time>
      </trkpt>
      <trkpt lat="37.84967728803065" lon="112.00919136633024">
        <ele>1117.09</ele>
        <time>2017-10-13T08:08:36.900000Z</time>
      </trkpt>
      <trkpt lat="37.84952395769044" lon="112.00883672358489">
        <ele>1128.4</ele>
        <time>2017-10-13T08:08:48.900000Z</time>
      </trkpt>
      <trkpt lat="37.84937227325706" lon="112.00856831438932">
        <ele>1135.4</ele>
        <time>2017-10-13T08:08:57.800000Z</time>
      </trkpt>
      <trkpt lat="37.849315736862586" lon="112.00851155418457">
        <ele>1133.4</ele>
        <time>2017-10-13T08:09:00.900000Z</time>
      </trkpt>
      <trkpt lat="37.84914397086545" lon="112.00824504101045">
        <ele>1138.2</ele>
        <time>2017-10-13T08:09:09.900000Z</time>
      </trkpt>
      <trkpt lat="37.848938909691356" lon="112.00795312318937">
        <ele>1141.3</ele>
        <time>2017-10-13T08:09:18.800000Z</time>
      </trkpt>
      <trkpt lat="37.84875222420025" lon="112.00768634380236">
        <ele>1141.7</ele>
        <time>2017-10-13T08:09:27.800000Z</time>
      </trkpt>
      <trkpt lat="37.84855048418526" lon="112.00737307327672">
        <ele>1141.09</ele>
        <time>2017-10-13T08:09:39.900000Z</time>
      </trkpt>
      <trkpt lat="37.84832729643555" lon="112.00706494270996">
        <ele>1142.09</ele>
        <time>2017-10-13T08:09:51.900000Z</time>
      </trkpt>
      <trkpt lat="37.84819380826701" lon="112.00697467424732">
        <ele>1139.4</ele>
        <time>2017-10-13T08:09:57.900000Z</time>
      </trkpt>
      <trkpt lat="37.84789395548706" lon="112.00690145540919">
        <ele>1142.4</ele>
        <time>2017-10-13T08:10:09.900000Z</time>
      </trkpt>
      <trkpt lat="37.847597290185476" lon="112.00685121277273">
        <ele>1148.7</ele>
        <time>2017-10-13T08:10:21.800000Z</time>
      </trkpt>
      <trkpt lat="37.84729052046974" lon="112.00682313693919">
        <ele>1149.4</ele>
        <time>2017-10-13T08:10:33.800000Z</time>
      </trkpt>
      <trkpt lat="37.84723210965389" lon="112.0068496344678">
        <ele>1149.0</ele>
        <time>2017-10-13T08:10:36.900000Z</time>
      </trkpt>
      <trkpt lat="37.846910417878654" lon="112.00682156041398">
        <ele>1153.0</ele>
        <time>2017-10-13T08:10:48.900000Z</time>
      </trkpt>
      <trkpt lat="37.84655728543329" lon="112.00678294796599">
        <ele>1160.2</ele>
        <time>2017-10-13T08:11:01.900000Z</time>
      </trkpt>
      <trkpt lat="37.84639883474957" lon="112.00678458873791">
        <ele>1164.5</ele>
        <time>2017-10-13T08:11:07.900000Z</time>
      </trkpt>
      <trkpt lat="37.84625737773725" lon="112.00681947582436">
        <ele>1162.5</ele>
        <time>2017-10-13T08:11:14.600000Z</time>
      </trkpt>
      <trkpt lat="37.84597214166136" lon="112.00675787879008">
        <ele>1162.4</ele>
        <time>2017-10-13T08:11:23.900000Z</time>
      </trkpt>
      <trkpt lat="37.845633807554876" lon="112.00666979763751">
        <ele>1162.59</ele>
        <time>2017-10-13T08:11:35.900000Z</time>
      </trkpt>
      <trkpt lat="37.845383813166954" lon="112.00661792772235">
        <ele>1167.09</ele>
        <time>2017-10-13T08:11:44.900000Z</time>
      </trkpt>
      <trkpt lat="37.84528733990793" lon="112.0065798253857">
        <ele>1168.09</ele>
        <time>2017-10-13T08:11:47.900000Z</time>
      </trkpt>
      <trkpt lat="37.8450172918963" lon="112.00661121366505">
        <ele>1166.59</ele>
        <time>2017-10-13T08:11:59.900000Z</time>
      </trkpt>
      <trkpt lat="37.84479041621933" lon="112.00663124374304">
        <ele>1164.3</ele>
        <time>2017-10-13T08:12:08.900000Z</time>
      </trkpt>
      <trkpt lat="37.84447052360874" lon="112.00672805333302">
        <ele>1160.9</ele>
        <time>2017-10-13T08:12:20.900000Z</time>
      </trkpt>
      <trkpt lat="37.84416216400631" lon="112.00686973346225">
        <ele>1158.5</ele>
        <time>2017-10-13T08:12:32.900000Z</time>
      </trkpt>
      <trkpt lat="37.843855442201956" lon="112.00700816993816">
        <ele>1155.59</ele>
        <time>2017-10-13T08:12:44.900000Z</time>
      </trkpt>
      <trkpt lat="37.843702175266465" lon="112.00709144453916">
        <ele>1151.59</ele>
        <time>2017-10-13T08:12:50.900000Z</time>
      </trkpt>
      <trkpt lat="37.84365556333445" lon="112.00716470493082">
        <ele>1152.0</ele>
        <time>2017-10-13T08:12:53.900000Z</time>
      </trkpt>
      <trkpt lat="37.84334719415294" lon="112.00730990005098">
        <ele>1149.7</ele>
        <time>2017-10-13T08:13:05.900000Z</time>
      </trkpt>
      <trkpt lat="37.843035373678745" lon="112.00742968635582">
        <ele>1149.0</ele>
        <time>2017-10-13T08:13:17.900000Z</time>
      </trkpt>
      <trkpt lat="37.8427639835489" lon="112.0075478461664">
        <ele>1146.5</ele>
        <time>2017-10-13T08:13:32.800000Z</time>
      </trkpt>
      <trkpt lat="37.842448911579716" lon="112.00757491523672">
        <ele>1145.4</ele>
        <time>2017-10-13T08:13:50.900000Z</time>
      </trkpt>
      <trkpt lat="37.84231070134532" lon="112.00761304613104">
        <ele>1145.5</ele>
        <time>2017-10-13T08:13:59.900000Z</time>
      </trkpt>
      <trkpt lat="37.84202883346227" lon="112.0077879738031">
        <ele>1144.4</ele>
        <time>2017-10-13T08:14:11.900000Z</time>
      </trkpt>
      <trkpt lat="37.84189241275715" lon="112.00786313789682">
        <ele>1143.9</ele>
        <time>2017-10-13T08:14:17.900000Z</time>
      </trkpt>
      <trkpt lat="37.841810673757976" lon="112.00788828704695">
        <ele>1144.3</ele>
        <time>2017-10-13T08:14:20.900000Z</time>
      </trkpt>
      <trkpt lat="37.84169044850522" lon="112.00799156224419">
        <ele>1141.9</ele>
        <time>2017-10-13T08:14:26.900000Z</time>
      </trkpt>
      <trkpt lat="37.841397186515536" lon="112.00807485480057">
        <ele>1146.2</ele>
        <time>2017-10-13T08:14:38.900000Z</time>
      </trkpt>
      <trkpt lat="37.84120545400339" lon="112.00813813187504">
        <ele>1151.7</ele>
        <time>2017-10-13T08:14:47.900000Z</time>
      </trkpt>
      <trkpt lat="37.84086717950328" lon="112.00812141257674">
        <ele>1157.0</ele>
        <time>2017-10-13T08:14:59.900000Z</time>
      </trkpt>
      <trkpt lat="37.84063385256543" lon="112.00812144041934">
        <ele>1159.7</ele>
        <time>2017-10-13T08:15:08.900000Z</time>
      </trkpt>
      <trkpt lat="37.84044216982407" lon="112.00807632034491">
        <ele>1161.09</ele>
        <time>2017-10-13T08:15:14.900000Z</time>
      </trkpt>
      <trkpt lat="37.84017219604843" lon="112.00808311048365">
        <ele>1162.59</ele>
        <time>2017-10-13T08:15:23.900000Z</time>
      </trkpt>
      <trkpt lat="37.83984240599984" lon="112.00813315849823">
        <ele>1162.4</ele>
        <time>2017-10-13T08:15:35.900000Z</time>
      </trkpt>
      <trkpt lat="37.83975395886724" lon="112.00813316905213">
        <ele>1161.59</ele>
        <time>2017-10-13T08:15:38.900000Z</time>
      </trkpt>
      <trkpt lat="37.839690630746084" lon="112.00817129134607">
        <ele>1160.59</ele>
        <time>2017-10-13T08:15:41.900000Z</time>
      </trkpt>
      <trkpt lat="37.83946897032612" lon="112.00817131779573">
        <ele>1160.59</ele>
        <time>2017-10-13T08:15:50.900000Z</time>
      </trkpt>
      <trkpt lat="37.8394789199695" lon="112.00810968427793">
        <ele>1163.3</ele>
        <time>2017-10-13T08:15:59.900000Z</time>
      </trkpt>
      <trkpt lat="37.83961224613766" lon="112.0080715536685">
        <ele>1163.59</ele>
        <time>2017-10-13T08:16:14.900000Z</time>
      </trkpt>
      <trkpt lat="37.83989882898516" lon="112.00804475810146">
        <ele>1163.9</ele>
        <time>2017-10-13T08:16:32.800000Z</time>
      </trkpt>
      <trkpt lat="37.84009554813838" lon="112.00803824702523">
        <ele>1164.0</ele>
        <time>2017-10-13T08:16:41.900000Z</time>
      </trkpt>
      <trkpt lat="37.840273912594476" lon="112.00809147817353">
        <ele>1162.59</ele>
        <time>2017-10-13T08:16:47.900000Z</time>
      </trkpt>
      <trkpt lat="37.84062237429283" lon="112.0081495547782">
        <ele>1160.5</ele>
        <time>2017-10-13T08:16:59.800000Z</time>
      </trkpt>
      <trkpt lat="37.840880596964844" lon="112.00817141966627">
        <ele>1159.5</ele>
        <time>2017-10-13T08:17:08.900000Z</time>
      </trkpt>
      <trkpt lat="37.84122390791782" lon="112.00813650776968">
        <ele>1161.5</ele>
        <time>2017-10-13T08:17:20.900000Z</time>
      </trkpt>
      <trkpt lat="37.84130234145908" lon="112.00812811857742">
        <ele>1161.7</ele>
        <time>2017-10-13T08:17:23.900000Z</time>
      </trkpt>
      <trkpt lat="37.84156064915512" lon="112.00802969238237">
        <ele>1163.59</ele>
        <time>2017-10-13T08:17:32.800000Z</time>
      </trkpt>
      <trkpt lat="37.841783804396776" lon="112.00789153404695">
        <ele>1164.7</ele>
        <time>2017-10-13T08:17:41.900000Z</time>
      </trkpt>
      <trkpt lat="37.84189565922774" lon="112.00777474422388">
        <ele>1157.9</ele>
        <time>2017-10-13T08:17:50.900000Z</time>
      </trkpt>
      <trkpt lat="37.842149000194794" lon="112.00761306542385">
        <ele>1153.2</ele>
        <time>2017-10-13T08:17:59.900000Z</time>
      </trkpt>
      <trkpt lat="37.84234899609896" lon="112.00750815942435">
        <ele>1151.3</ele>
        <time>2017-10-13T08:18:05.900000Z</time>
      </trkpt>
      <trkpt lat="37.842505667536635" lon="112.00737460546769">
        <ele>1149.9</ele>
        <time>2017-10-13T08:18:11.900000Z</time>
      </trkpt>
      <trkpt lat="37.842797278634926" lon="112.00720805744342">
        <ele>1152.09</ele>
        <time>2017-10-13T08:18:20.800000Z</time>
      </trkpt>
      <trkpt lat="37.84289719972542" lon="112.00718155481947">
        <ele>1149.7</ele>
        <time>2017-10-13T08:18:23.900000Z</time>
      </trkpt>
      <trkpt lat="37.843202275139504" lon="112.0069579697354">
        <ele>1148.59</ele>
        <time>2017-10-13T08:18:35.900000Z</time>
      </trkpt>
      <trkpt lat="37.843492201224514" lon="112.00671979036977">
        <ele>1147.0</ele>
        <time>2017-10-13T08:18:47.900000Z</time>
      </trkpt>
      <trkpt lat="37.84375413383035" lon="112.00649810410115">
        <ele>1150.2</ele>
        <time>2017-10-13T08:18:59.900000Z</time>
      </trkpt>
      <trkpt lat="37.84403887536809" lon="112.00636129311756">
        <ele>1151.3</ele>
        <time>2017-10-13T08:19:08.900000Z</time>
      </trkpt>
      <trkpt lat="37.84409565061271" lon="112.00624640466019">
        <ele>1149.09</ele>
        <time>2017-10-13T08:19:14.900000Z</time>
      </trkpt>
      <trkpt lat="37.844207368260584" lon="112.0061763811757">
        <ele>1148.3</ele>
        <time>2017-10-13T08:19:20.800000Z</time>
      </trkpt>
      <trkpt lat="37.84457201029067" lon="112.00617633769122">
        <ele>1148.59</ele>
        <time>2017-10-13T08:19:29.900000Z</time>
      </trkpt>
      <trkpt lat="37.84488907297247" lon="112.00620981824918">
        <ele>1149.9</ele>
        <time>2017-10-13T08:19:38.900000Z</time>
      </trkpt>
      <trkpt lat="37.84525218446433" lon="112.00626816181753">
        <ele>1153.5</ele>
        <time>2017-10-13T08:19:47.900000Z</time>
      </trkpt>
      <trkpt lat="37.845582067161665" lon="112.0063697589927">
        <ele>1152.4</ele>
        <time>2017-10-13T08:19:56.800000Z</time>
      </trkpt>
      <trkpt lat="37.845867094266296" lon="112.00650136612477">
        <ele>1150.9</ele>
        <time>2017-10-13T08:20:05.900000Z</time>
      </trkpt>
      <trkpt lat="37.846123939850465" lon="112.0066213534824">
        <ele>1148.8</ele>
        <time>2017-10-13T08:20:17.900000Z</time>
      </trkpt>
      <trkpt lat="37.84642534664664" lon="112.00662807530522">
        <ele>1147.09</ele>
        <time>2017-10-13T08:20:26.800000Z</time>
      </trkpt>
      <trkpt lat="37.84675039785046" lon="112.00662127875545">
        <ele>1146.59</ele>
        <time>2017-10-13T08:20:38.900000Z</time>
      </trkpt>
      <trkpt lat="37.847117125630206" lon="112.00664988798248">
        <ele>1144.9</ele>
        <time>2017-10-13T08:20:50.800000Z</time>
      </trkpt>
      <trkpt lat="37.84744227522364" lon="112.00670120832612">
        <ele>1144.5</ele>
        <time>2017-10-13T08:20:59.900000Z</time>
      </trkpt>
      <trkpt lat="37.847782315669434" lon="112.00676306907829">
        <ele>1146.09</ele>
        <time>2017-10-13T08:21:08.900000Z</time>
      </trkpt>
      <trkpt lat="37.848122361862266" lon="112.00682303769945">
        <ele>1147.09</ele>
        <time>2017-10-13T08:21:17.900000Z</time>
      </trkpt>
      <trkpt lat="37.848222287646315" lon="112.00688627876204">
        <ele>1147.8</ele>
        <time>2017-10-13T08:21:20.800000Z</time>
      </trkpt>
      <trkpt lat="37.84836239049647" lon="112.00703304162909">
        <ele>1147.2</ele>
        <time>2017-10-13T08:21:26.800000Z</time>
      </trkpt>
      <trkpt lat="37.84855234410151" lon="112.00729495236936">
        <ele>1149.09</ele>
        <time>2017-10-13T08:21:35.900000Z</time>
      </trkpt>
      <trkpt lat="37.848703764224204" lon="112.00755957186857">
        <ele>1146.9</ele>
        <time>2017-10-13T08:21:44.800000Z</time>
      </trkpt>
      <trkpt lat="37.84872392892271" lon="112.00762147155794">
        <ele>1145.09</ele>
        <time>2017-10-13T08:21:47.900000Z</time>
      </trkpt>
      <trkpt lat="37.848902237988725" lon="112.00787662809067">
        <ele>1146.0</ele>
        <time>2017-10-13T08:21:56.900000Z</time>
      </trkpt>
      <trkpt lat="37.84907229565762" lon="112.00816990132881">
        <ele>1144.9</ele>
        <time>2017-10-13T08:22:05.900000Z</time>
      </trkpt>
      <trkpt lat="37.849257394850355" lon="112.00842316699465">
        <ele>1143.5</ele>
        <time>2017-10-13T08:22:14.900000Z</time>
      </trkpt>
      <trkpt lat="37.84945894108673" lon="112.00871157325376">
        <ele>1140.3</ele>
        <time>2017-10-13T08:22:23.900000Z</time>
      </trkpt>
      <trkpt lat="37.84963745639276" lon="112.00898998174125">
        <ele>1133.5</ele>
        <time>2017-10-13T08:22:32.800000Z</time>
      </trkpt>
      <trkpt lat="37.849789044340206" lon="112.00929164242709">
        <ele>1129.2</ele>
        <time>2017-10-13T08:22:41.900000Z</time>
      </trkpt>
      <trkpt lat="37.849879129190185" lon="112.00956492802311">
        <ele>1120.5</ele>
        <time>2017-10-13T08:22:50.900000Z</time>
      </trkpt>
      <trkpt lat="37.84991904084794" lon="112.0100166354793">
        <ele>1115.7</ele>
        <time>2017-10-13T08:23:02.900000Z</time>
      </trkpt>
      <trkpt lat="37.84990748444756" lon="112.01044159023732">
        <ele>1115.4</ele>
        <time>2017-10-13T08:23:11.900000Z</time>
      </trkpt>
      <trkpt lat="37.84989897826413" lon="112.01084492151666">
        <ele>1114.7</ele>
        <time>2017-10-13T08:23:20.800000Z</time>
      </trkpt>
      <trkpt lat="37.84986752518534" lon="112.01111687753128">
        <ele>1115.7</ele>
        <time>2017-10-13T08:23:26.900000Z</time>
      </trkpt>
      <trkpt lat="37.849857473088754" lon="112.01149345109408">
        <ele>1117.7</ele>
        <time>2017-10-13T08:23:35.900000Z</time>
      </trkpt>
      <trkpt lat="37.84984278563363" lon="112.0118786786344">
        <ele>1117.0</ele>
        <time>2017-10-13T08:23:44.800000Z</time>
      </trkpt>
      <trkpt lat="37.849819448278474" lon="112.01225363729696">
        <ele>1115.2</ele>
        <time>2017-10-13T08:23:53.900000Z</time>
      </trkpt>
      <trkpt lat="37.84977084270836" lon="112.01264184838134">
        <ele>1114.8</ele>
        <time>2017-10-13T08:24:02.900000Z</time>
      </trkpt>
      <trkpt lat="37.84970253626227" lon="112.01308845859299">
        <ele>1119.4</ele>
        <time>2017-10-13T08:24:11.900000Z</time>
      </trkpt>
      <trkpt lat="37.849664264442" lon="112.01347018682675">
        <ele>1119.3</ele>
        <time>2017-10-13T08:24:20.900000Z</time>
      </trkpt>
      <trkpt lat="37.84966111207959" lon="112.01371674122059">
        <ele>1121.59</ele>
        <time>2017-10-13T08:24:26.800000Z</time>
      </trkpt>
      <trkpt lat="37.8496310504017" lon="112.01407522369476">
        <ele>1124.0</ele>
        <time>2017-10-13T08:24:35.900000Z</time>
      </trkpt>
      <trkpt lat="37.84957934642799" lon="112.01450724658912">
        <ele>1125.09</ele>
        <time>2017-10-13T08:24:44.900000Z</time>
      </trkpt>
      <trkpt lat="37.849537785482006" lon="112.01490385625826">
        <ele>1127.2</ele>
        <time>2017-10-13T08:24:53.900000Z</time>
      </trkpt>
      <trkpt lat="37.849497926127015" lon="112.01527559665283">
        <ele>1127.7</ele>
        <time>2017-10-13T08:25:02.900000Z</time>
      </trkpt>
      <trkpt lat="37.84947777418029" lon="112.01539698832407">
        <ele>1126.3</ele>
        <time>2017-10-13T08:25:05.900000Z</time>
      </trkpt>
      <trkpt lat="37.849491020818576" lon="112.0155089138819">
        <ele>1123.59</ele>
        <time>2017-10-13T08:25:08.900000Z</time>
      </trkpt>
      <trkpt lat="37.849449552231086" lon="112.015875522825">
        <ele>1124.0</ele>
        <time>2017-10-13T08:25:17.900000Z</time>
      </trkpt>
      <trkpt lat="37.84940119447844" lon="112.01628052693462">
        <ele>1125.3</ele>
        <time>2017-10-13T08:25:26.800000Z</time>
      </trkpt>
      <trkpt lat="37.849348012730864" lon="112.01666552864793">
        <ele>1128.5</ele>
        <time>2017-10-13T08:25:35.900000Z</time>
      </trkpt>
      <trkpt lat="37.84932118840363" lon="112.01703728287016">
        <ele>1128.59</ele>
        <time>2017-10-13T08:25:44.900000Z</time>
      </trkpt>
      <trkpt lat="37.849309527756986" lon="112.01732414317743">
        <ele>1121.8</ele>
        <time>2017-10-13T08:25:53.900000Z</time>
      </trkpt>
      <trkpt lat="37.84924473936099" lon="112.01749745688626">
        <ele>1113.59</ele>
        <time>2017-10-13T08:26:08.900000Z</time>
      </trkpt>
      <trkpt lat="37.8492279039231" lon="112.01769563963349">
        <ele>1109.4</ele>
        <time>2017-10-13T08:26:20.800000Z</time>
      </trkpt>
      <trkpt lat="37.84923154803553" lon="112.0178473170662">
        <ele>1108.0</ele>
        <time>2017-10-13T08:26:26.900000Z</time>
      </trkpt>
      <trkpt lat="37.84917804165761" lon="112.01825558588449">
        <ele>1107.5</ele>
        <time>2017-10-13T08:26:35.900000Z</time>
      </trkpt>
      <trkpt lat="37.84917496886367" lon="112.01838428442527">
        <ele>1106.8</ele>
        <time>2017-10-13T08:26:38.900000Z</time>
      </trkpt>
      <trkpt lat="37.84910494927254" lon="112.0187809346309">
        <ele>1102.3</ele>
        <time>2017-10-13T08:26:47.900000Z</time>
      </trkpt>
      <trkpt lat="37.84910663283531" lon="112.01915108309223">
        <ele>1101.7</ele>
        <time>2017-10-13T08:26:56.900000Z</time>
      </trkpt>
      <trkpt lat="37.84912993218122" lon="112.01926085481337">
        <ele>1102.59</ele>
        <time>2017-10-13T08:26:59.900000Z</time>
      </trkpt>
      <trkpt lat="37.84911663167133" lon="112.01936089750123">
        <ele>1103.2</ele>
        <time>2017-10-13T08:27:02.800000Z</time>
      </trkpt>
      <trkpt lat="37.849124746276935" lon="112.01946769744983">
        <ele>1103.4</ele>
        <time>2017-10-13T08:27:05.900000Z</time>
      </trkpt>
      <trkpt lat="37.84911302391697" lon="112.0195858561808">
        <ele>1104.5</ele>
        <time>2017-10-13T08:27:08.900000Z</time>
      </trkpt>
      <trkpt lat="37.849119928906845" lon="112.01983596077301">
        <ele>1105.2</ele>
        <time>2017-10-13T08:27:14.900000Z</time>
      </trkpt>
      <trkpt lat="37.84909179948961" lon="112.02019774126707">
        <ele>1107.9</ele>
        <time>2017-10-13T08:27:23.900000Z</time>
      </trkpt>
      <trkpt lat="37.84907663198571" lon="112.02058277739916">
        <ele>1111.0</ele>
        <time>2017-10-13T08:27:32.900000Z</time>
      </trkpt>
      <trkpt lat="37.84914513904825" lon="112.02082963674813">
        <ele>1108.0</ele>
        <time>2017-10-13T08:27:38.900000Z</time>
      </trkpt>
      <trkpt lat="37.84916514069509" lon="112.02095617829829">
        <ele>1108.2</ele>
        <time>2017-10-13T08:27:41.900000Z</time>
      </trkpt>
      <trkpt lat="37.84914675119236" lon="112.02133121833113">
        <ele>1111.09</ele>
        <time>2017-10-13T08:27:50.800000Z</time>
      </trkpt>
      <trkpt lat="37.84910363425357" lon="112.02172140771191">
        <ele>1117.4</ele>
        <time>2017-10-13T08:27:59.800000Z</time>
      </trkpt>
      <trkpt lat="37.849108479898895" lon="112.02213485036077">
        <ele>1123.09</ele>
        <time>2017-10-13T08:28:08.900000Z</time>
      </trkpt>
      <trkpt lat="37.84910864030105" lon="112.02247637065928">
        <ele>1123.4</ele>
        <time>2017-10-13T08:28:17.900000Z</time>
      </trkpt>
      <trkpt lat="37.84912710393577" lon="112.0228730555209">
        <ele>1109.0</ele>
        <time>2017-10-13T08:28:29.800000Z</time>
      </trkpt>
      <trkpt lat="37.84913198936737" lon="112.02297310626842">
        <ele>1107.0</ele>
        <time>2017-10-13T08:28:32.900000Z</time>
      </trkpt>
      <trkpt lat="37.84898033292153" lon="112.02327328028832">
        <ele>1101.8</ele>
        <time>2017-10-13T08:28:41.900000Z</time>
      </trkpt>
      <trkpt lat="37.84889211306991" lon="112.02349178439567">
        <ele>1095.9</ele>
        <time>2017-10-13T08:28:53.900000Z</time>
      </trkpt>
      <trkpt lat="37.848873769089366" lon="112.02365511685929">
        <ele>1093.59</ele>
        <time>2017-10-13T08:29:05.900000Z</time>
      </trkpt>
      <trkpt lat="37.84880392131172" lon="112.02380169051541">
        <ele>1090.7</ele>
        <time>2017-10-13T08:29:17.800000Z</time>
      </trkpt>
      <trkpt lat="37.848827116386836" lon="112.02415836870439">
        <ele>1085.4</ele>
        <time>2017-10-13T08:29:41.900000Z</time>
      </trkpt>
      <trkpt lat="37.84884223488485" lon="112.02428843879451">
        <ele>1083.2</ele>
        <time>2017-10-13T08:29:47.900000Z</time>
      </trkpt>
      <trkpt lat="37.84882362600268" lon="112.02434847439521">
        <ele>1081.7</ele>
        <time>2017-10-13T08:29:50.900000Z</time>
      </trkpt>
      <trkpt lat="37.84882557941816" lon="112.02443014135206">
        <ele>1079.9</ele>
        <time>2017-10-13T08:29:53.900000Z</time>
      </trkpt>
      <trkpt lat="37.84878703287842" lon="112.02453993730461">
        <ele>1076.59</ele>
        <time>2017-10-13T08:29:59.900000Z</time>
      </trkpt>
      <trkpt lat="37.848790798774914" lon="112.02475681639113">
        <ele>1072.9</ele>
        <time>2017-10-13T08:30:08.900000Z</time>
      </trkpt>
      <trkpt lat="37.8488374595589" lon="112.02496368604515">
        <ele>1070.5</ele>
        <time>2017-10-13T08:30:14.800000Z</time>
      </trkpt>
      <trkpt lat="37.84882388373286" lon="112.02507023572629">
        <ele>1068.9</ele>
        <time>2017-10-13T08:30:17.800000Z</time>
      </trkpt>
      <trkpt lat="37.84889565483651" lon="112.02542692232655">
        <ele>1064.2</ele>
        <time>2017-10-13T08:30:26.800000Z</time>
      </trkpt>
      <trkpt lat="37.84889751372309" lon="112.02575198075729">
        <ele>1059.59</ele>
        <time>2017-10-13T08:30:35.900000Z</time>
      </trkpt>
      <trkpt lat="37.84885252456575" lon="112.02583690221739">
        <ele>1057.9</ele>
        <time>2017-10-13T08:30:38.900000Z</time>
      </trkpt>
      <trkpt lat="37.848580587217405" lon="112.02586857565566">
        <ele>1053.0</ele>
        <time>2017-10-13T08:30:50.800000Z</time>
      </trkpt>
      <trkpt lat="37.84846762515481" lon="112.02590536827097">
        <ele>1051.5</ele>
        <time>2017-10-13T08:30:56.900000Z</time>
      </trkpt>
      <trkpt lat="37.84846248377705" lon="112.026003807122">
        <ele>1050.5</ele>
        <time>2017-10-13T08:31:02.800000Z</time>
      </trkpt>
      <trkpt lat="37.84843246047053" lon="112.02607223089797">
        <ele>1050.4</ele>
        <time>2017-10-13T08:31:05.900000Z</time>
      </trkpt>
      <trkpt lat="37.848245786535124" lon="112.0261804278267">
        <ele>1046.4</ele>
        <time>2017-10-13T08:31:20.800000Z</time>
      </trkpt>
      <trkpt lat="37.84817750012216" lon="112.02625210184723">
        <ele>1046.9</ele>
        <time>2017-10-13T08:31:26.900000Z</time>
      </trkpt>
      <trkpt lat="37.84811563682013" lon="112.02625373190735">
        <ele>1050.3</ele>
        <time>2017-10-13T08:31:29.800000Z</time>
      </trkpt>
      <trkpt lat="37.84800925405003" lon="112.02636868079203">
        <ele>1050.8</ele>
        <time>2017-10-13T08:31:37.900000Z</time>
      </trkpt>
      <trkpt lat="37.847972645928095" lon="112.0264655022909">
        <ele>1050.2</ele>
        <time>2017-10-13T08:31:43.800000Z</time>
      </trkpt>
      <trkpt lat="37.847887478193044" lon="112.02656043685704">
        <ele>1050.09</ele>
        <time>2017-10-13T08:31:49.800000Z</time>
      </trkpt>
      <trkpt lat="37.84783105874594" lon="112.02655530527771">
        <ele>1049.4</ele>
        <time>2017-10-13T08:31:52.800000Z</time>
      </trkpt>
      <trkpt lat="37.84776583330958" lon="112.02670216243084">
        <ele>1050.0</ele>
        <time>2017-10-13T08:31:58.800000Z</time>
      </trkpt>
      <trkpt lat="37.847800791923774" lon="112.02682223444255">
        <ele>1050.59</ele>
        <time>2017-10-13T08:32:01.900000Z</time>
      </trkpt>
      <trkpt lat="37.84779091035857" lon="112.0270756412966">
        <ele>1049.9</ele>
        <time>2017-10-13T08:32:07.800000Z</time>
      </trkpt>
      <trkpt lat="37.84758434284562" lon="112.02732393546665">
        <ele>1048.7</ele>
        <time>2017-10-13T08:32:16.900000Z</time>
      </trkpt>
      <trkpt lat="37.847566738079976" lon="112.0273962651297">
        <ele>1050.5</ele>
        <time>2017-10-13T08:32:19.900000Z</time>
      </trkpt>
      <trkpt lat="37.847468832981114" lon="112.02742308696983">
        <ele>1051.8</ele>
        <time>2017-10-13T08:32:23.900000Z</time>
      </trkpt>
      <trkpt lat="37.84737295023779" lon="112.02749570728287">
        <ele>1051.4</ele>
        <time>2017-10-13T08:32:26.900000Z</time>
      </trkpt>
      <trkpt lat="37.84734486825177" lon="112.02758821822316">
        <ele>1051.8</ele>
        <time>2017-10-13T08:32:29.900000Z</time>
      </trkpt>
      <trkpt lat="37.84729395974185" lon="112.02766368518817">
        <ele>1051.9</ele>
        <time>2017-10-13T08:32:32.800000Z</time>
      </trkpt>
      <trkpt lat="37.84742259190289" lon="112.02776424597835">
        <ele>1054.09</ele>
        <time>2017-10-13T08:32:38.900000Z</time>
      </trkpt>
      <trkpt lat="37.84744273039201" lon="112.02784591989841">
        <ele>1056.5</ele>
        <time>2017-10-13T08:32:44.900000Z</time>
      </trkpt>
      <trkpt lat="37.84742781851328" lon="112.02794761176175">
        <ele>1060.09</ele>
        <time>2017-10-13T08:32:50.900000Z</time>
      </trkpt>
      <trkpt lat="37.847461149777736" lon="112.02806904130749">
        <ele>1063.7</ele>
        <time>2017-10-13T08:32:56.800000Z</time>
      </trkpt>
      <trkpt lat="37.84746768504946" lon="112.02848419026358">
        <ele>1074.8</ele>
        <time>2017-10-13T08:33:14.900000Z</time>
      </trkpt>
      <trkpt lat="37.847469426970704" lon="112.02854585450015">
        <ele>1076.8</ele>
        <time>2017-10-13T08:33:17.800000Z</time>
      </trkpt>
      <trkpt lat="37.84737768896534" lon="112.02887934267319">
        <ele>1085.9</ele>
        <time>2017-10-13T08:33:35.900000Z</time>
      </trkpt>
      <trkpt lat="37.8473728356502" lon="112.02897427541853">
        <ele>1086.0</ele>
        <time>2017-10-13T08:33:38.900000Z</time>
      </trkpt>
      <trkpt lat="37.847399625372994" lon="112.0292160666577">
        <ele>1087.59</ele>
        <time>2017-10-13T08:33:50.900000Z</time>
      </trkpt>
      <trkpt lat="37.84735795048648" lon="112.0292809832894">
        <ele>1089.3</ele>
        <time>2017-10-13T08:33:53.900000Z</time>
      </trkpt>
      <trkpt lat="37.84722303684016" lon="112.02930939840232">
        <ele>1091.3</ele>
        <time>2017-10-13T08:34:05.900000Z</time>
      </trkpt>
      <trkpt lat="37.84715784833717" lon="112.0294459917352">
        <ele>1093.3</ele>
        <time>2017-10-13T08:34:14.800000Z</time>
      </trkpt>
      <trkpt lat="37.84711810580622" lon="112.02949792622421">
        <ele>1094.3</ele>
        <time>2017-10-13T08:34:18.500000Z</time>
      </trkpt>
      <trkpt lat="37.84706796367611" lon="112.02947791767191">
        <ele>1096.2</ele>
        <time>2017-10-13T08:34:25.400000Z</time>
      </trkpt>
      <trkpt lat="37.84702309697241" lon="112.02951768178927">
        <ele>1097.09</ele>
        <time>2017-10-13T08:34:32Z</time>
      </trkpt>
      <trkpt lat="37.846809541411375" lon="112.02953096040534">
        <ele>1098.59</ele>
        <time>2017-10-13T08:34:40.800000Z</time>
      </trkpt>
      <trkpt lat="37.8467528974976" lon="112.02956237287137">
        <ele>1099.0</ele>
        <time>2017-10-13T08:34:46.800000Z</time>
      </trkpt>
    </trkseg>
  </trk>
</gpx>