<?xml version="1.0" encoding="UTF-8"?>
<gpx xmlns="http://www.topografix.com/GPX/1/1" xmlns:gpxtpx="http://www.garmin.com/xmlschemas/TrackPointExtension/v1" xmlns:xsi="http://www.w3.org/2001/XMLSchema-instance" xsi:schemaLocation="http://www.topografix.com/GPX/1/1 http://www.topografix.com/GPX/1/1/gpx.xsd" version="1.1" creator="gpx.py -- https://github.com/tkrajina/gpxpy">
  <trk>
    <name>gpx from keep</name>
    <type>Run</type>
    <trkseg>
      <trkpt lat="37.84737297089198" lon="112.02892099434952">
        <ele>1104.4</ele>
        <time>2017-07-08T00:44:38.800000Z</time>
      </trkpt>
      <trkpt lat="37.84742271383553" lon="112.02877764389666">
        <ele>1106.0</ele>
        <time>2017-07-08T00:44:51.800000Z</time>
      </trkpt>
      <trkpt lat="37.84744289072447" lon="112.02841901298859">
        <ele>1107.3</ele>
        <time>2017-07-08T00:45:18Z</time>
      </trkpt>
      <trkpt lat="37.847461265180144" lon="112.02823591184054">
        <ele>1106.9</ele>
        <time>2017-07-08T00:45:32.800000Z</time>
      </trkpt>
      <trkpt lat="37.847432744943674" lon="112.02814260828245">
        <ele>1107.3</ele>
        <time>2017-07-08T00:45:38.800000Z</time>
      </trkpt>
      <trkpt lat="37.847422746925396" lon="112.0280209051691">
        <ele>1107.8</ele>
        <time>2017-07-08T00:45:44.900000Z</time>
      </trkpt>
      <trkpt lat="37.84751782573588" lon="112.02765740654227">
        <ele>1108.3</ele>
        <time>2017-07-08T00:45:59.800000Z</time>
      </trkpt>
      <trkpt lat="37.847534254124554" lon="112.0275992578535">
        <ele>1108.4</ele>
        <time>2017-07-08T00:46:02.800000Z</time>
      </trkpt>
      <trkpt lat="37.84767769197675" lon="112.02752730110994">
        <ele>1106.9</ele>
        <time>2017-07-08T00:46:08.900000Z</time>
      </trkpt>
      <trkpt lat="37.84776274089379" lon="112.02737232407344">
        <ele>1106.09</ele>
        <time>2017-07-08T00:46:14.900000Z</time>
      </trkpt>
      <trkpt lat="37.847761086866626" lon="112.02727739736197">
        <ele>1105.8</ele>
        <time>2017-07-08T00:46:17.900000Z</time>
      </trkpt>
      <trkpt lat="37.84780932454019" lon="112.02708916132386">
        <ele>1105.9</ele>
        <time>2017-07-08T00:46:23.800000Z</time>
      </trkpt>
      <trkpt lat="37.847862437635705" lon="112.02700910335936">
        <ele>1106.2</ele>
        <time>2017-07-08T00:46:26.800000Z</time>
      </trkpt>
      <trkpt lat="37.84787080622122" lon="112.02692066724467">
        <ele>1106.7</ele>
        <time>2017-07-08T00:46:29.800000Z</time>
      </trkpt>
      <trkpt lat="37.847832537314545" lon="112.02671702869158">
        <ele>1105.9</ele>
        <time>2017-07-08T00:46:35.800000Z</time>
      </trkpt>
      <trkpt lat="37.847977345391264" lon="112.02664047643182">
        <ele>1107.59</ele>
        <time>2017-07-08T00:46:44.800000Z</time>
      </trkpt>
      <trkpt lat="37.84824238596278" lon="112.02665234396812">
        <ele>1109.59</ele>
        <time>2017-07-08T00:46:53.800000Z</time>
      </trkpt>
      <trkpt lat="37.84830414589399" lon="112.02669046873866">
        <ele>1109.8</ele>
        <time>2017-07-08T00:46:56.800000Z</time>
      </trkpt>
      <trkpt lat="37.848382507184276" lon="112.02670884933018">
        <ele>1110.59</ele>
        <time>2017-07-08T00:46:59.800000Z</time>
      </trkpt>
      <trkpt lat="37.84866240256368" lon="112.0266422871617">
        <ele>1117.0</ele>
        <time>2017-07-08T00:47:11.800000Z</time>
      </trkpt>
      <trkpt lat="37.84881243396227" lon="112.02643538259821">
        <ele>1119.5</ele>
        <time>2017-07-08T00:47:23.800000Z</time>
      </trkpt>
      <trkpt lat="37.84888233876365" lon="112.0263672236496">
        <ele>1119.9</ele>
        <time>2017-07-08T00:47:26.800000Z</time>
      </trkpt>
      <trkpt lat="37.8489288965757" lon="112.02620062847669">
        <ele>1120.5</ele>
        <time>2017-07-08T00:47:32.800000Z</time>
      </trkpt>
      <trkpt lat="37.84892236751116" lon="112.02610354257565">
        <ele>1120.4</ele>
        <time>2017-07-08T00:47:35.800000Z</time>
      </trkpt>
      <trkpt lat="37.848940500463755" lon="112.02601700099252">
        <ele>1120.09</ele>
        <time>2017-07-08T00:47:38.800000Z</time>
      </trkpt>
      <trkpt lat="37.84898916084012" lon="112.02598048640655">
        <ele>1119.9</ele>
        <time>2017-07-08T00:47:41.800000Z</time>
      </trkpt>
      <trkpt lat="37.84899071428731" lon="112.02590530540174">
        <ele>1120.09</ele>
        <time>2017-07-08T00:47:44.800000Z</time>
      </trkpt>
      <trkpt lat="37.84905410890457" lon="112.02573357250449">
        <ele>1119.0</ele>
        <time>2017-07-08T00:47:47.800000Z</time>
      </trkpt>
      <trkpt lat="37.84906910984424" lon="112.02560024764267">
        <ele>1118.8</ele>
        <time>2017-07-08T00:47:50.800000Z</time>
      </trkpt>
      <trkpt lat="37.84904569528264" lon="112.02532197760586">
        <ele>1118.5</ele>
        <time>2017-07-08T00:47:56.800000Z</time>
      </trkpt>
      <trkpt lat="37.848985507888635" lon="112.0249969306806">
        <ele>1118.9</ele>
        <time>2017-07-08T00:48:05.800000Z</time>
      </trkpt>
      <trkpt lat="37.84901723104229" lon="112.02490200736408">
        <ele>1117.5</ele>
        <time>2017-07-08T00:48:08.800000Z</time>
      </trkpt>
      <trkpt lat="37.84894551845929" lon="112.02452504503496">
        <ele>1115.9</ele>
        <time>2017-07-08T00:48:17.800000Z</time>
      </trkpt>
      <trkpt lat="37.848940253414305" lon="112.02415835511506">
        <ele>1115.59</ele>
        <time>2017-07-08T00:48:26.800000Z</time>
      </trkpt>
      <trkpt lat="37.84890876766104" lon="112.02375678886014">
        <ele>1115.9</ele>
        <time>2017-07-08T00:48:35.800000Z</time>
      </trkpt>
      <trkpt lat="37.84891048158677" lon="112.02362320349434">
        <ele>1116.59</ele>
        <time>2017-07-08T00:48:38.800000Z</time>
      </trkpt>
      <trkpt lat="37.84887875771691" lon="112.02341336613047">
        <ele>1114.8</ele>
        <time>2017-07-08T00:48:44.800000Z</time>
      </trkpt>
      <trkpt lat="37.84891214435384" lon="112.02330654915262">
        <ele>1115.09</ele>
        <time>2017-07-08T00:48:47.800000Z</time>
      </trkpt>
      <trkpt lat="37.84900050632321" lon="112.02313644974461">
        <ele>1114.2</ele>
        <time>2017-07-08T00:48:53.800000Z</time>
      </trkpt>
      <trkpt lat="37.849066974702296" lon="112.02273461382006">
        <ele>1116.5</ele>
        <time>2017-07-08T00:49:05.800000Z</time>
      </trkpt>
      <trkpt lat="37.84907035202607" lon="112.02228817361039">
        <ele>1117.2</ele>
        <time>2017-07-08T00:49:17.800000Z</time>
      </trkpt>
      <trkpt lat="37.84907691325489" lon="112.0218698605325">
        <ele>1116.9</ele>
        <time>2017-07-08T00:49:29.800000Z</time>
      </trkpt>
      <trkpt lat="37.849113286643515" lon="112.02146479843006">
        <ele>1119.3</ele>
        <time>2017-07-08T00:49:41.800000Z</time>
      </trkpt>
      <trkpt lat="37.84909836126851" lon="112.02116790508326">
        <ele>1121.7</ele>
        <time>2017-07-08T00:49:50.800000Z</time>
      </trkpt>
      <trkpt lat="37.84910846228536" lon="112.02084775745529">
        <ele>1122.59</ele>
        <time>2017-07-08T00:49:59.800000Z</time>
      </trkpt>
      <trkpt lat="37.84908021320468" lon="112.02046434603442">
        <ele>1123.8</ele>
        <time>2017-07-08T00:50:08.800000Z</time>
      </trkpt>
      <trkpt lat="37.8490467155354" lon="112.02021451072359">
        <ele>1123.3</ele>
        <time>2017-07-08T00:50:14.800000Z</time>
      </trkpt>
      <trkpt lat="37.84907642638092" lon="112.01986949376435">
        <ele>1123.59</ele>
        <time>2017-07-08T00:50:23.800000Z</time>
      </trkpt>
      <trkpt lat="37.84909814872475" lon="112.01947094522879">
        <ele>1126.2</ele>
        <time>2017-07-08T00:50:35.800000Z</time>
      </trkpt>
      <trkpt lat="37.84912652723073" lon="112.01911917585886">
        <ele>1126.3</ele>
        <time>2017-07-08T00:50:44.800000Z</time>
      </trkpt>
      <trkpt lat="37.849128122252715" lon="112.018740915997">
        <ele>1128.3</ele>
        <time>2017-07-08T00:50:53.800000Z</time>
      </trkpt>
      <trkpt lat="37.84914978369002" lon="112.01836752421238">
        <ele>1120.2</ele>
        <time>2017-07-08T00:51:05.800000Z</time>
      </trkpt>
      <trkpt lat="37.849166377303966" lon="112.01806091858525">
        <ele>1117.4</ele>
        <time>2017-07-08T00:51:14.800000Z</time>
      </trkpt>
      <trkpt lat="37.8491647865578" lon="112.01775729160849">
        <ele>1112.0</ele>
        <time>2017-07-08T00:51:23.800000Z</time>
      </trkpt>
      <trkpt lat="37.84920132490126" lon="112.01749908430016">
        <ele>1100.7</ele>
        <time>2017-07-08T00:51:35.800000Z</time>
      </trkpt>
      <trkpt lat="37.84920454178814" lon="112.01712732868752">
        <ele>1085.0</ele>
        <time>2017-07-08T00:51:50.800000Z</time>
      </trkpt>
      <trkpt lat="37.849236249087454" lon="112.0167555730623">
        <ele>1084.0</ele>
        <time>2017-07-08T00:51:59.800000Z</time>
      </trkpt>
      <trkpt lat="37.849288021543174" lon="112.01638895525113">
        <ele>1083.59</ele>
        <time>2017-07-08T00:52:08.800000Z</time>
      </trkpt>
      <trkpt lat="37.8493395681945" lon="112.01600720057866">
        <ele>1086.3</ele>
        <time>2017-07-08T00:52:17.800000Z</time>
      </trkpt>
      <trkpt lat="37.84939138422812" lon="112.01562707144313">
        <ele>1091.59</ele>
        <time>2017-07-08T00:52:26.800000Z</time>
      </trkpt>
      <trkpt lat="37.849417965477265" lon="112.01524884115561">
        <ele>1099.9</ele>
        <time>2017-07-08T00:52:35.800000Z</time>
      </trkpt>
      <trkpt lat="37.84946128020038" lon="112.01499713696973">
        <ele>1104.8</ele>
        <time>2017-07-08T00:52:41.800000Z</time>
      </trkpt>
      <trkpt lat="37.84949955145299" lon="112.01461215192832">
        <ele>1111.8</ele>
        <time>2017-07-08T00:52:50.800000Z</time>
      </trkpt>
      <trkpt lat="37.84952935328995" lon="112.01424852868459">
        <ele>1123.0</ele>
        <time>2017-07-08T00:52:59.800000Z</time>
      </trkpt>
      <trkpt lat="37.849592657106356" lon="112.01384029724973">
        <ele>1121.7</ele>
        <time>2017-07-08T00:53:14.800000Z</time>
      </trkpt>
      <trkpt lat="37.84962078202741" lon="112.01349533399124">
        <ele>1115.3</ele>
        <time>2017-07-08T00:53:26.800000Z</time>
      </trkpt>
      <trkpt lat="37.849662644029735" lon="112.01309170746227">
        <ele>1108.2</ele>
        <time>2017-07-08T00:53:38.800000Z</time>
      </trkpt>
      <trkpt lat="37.849671107540416" lon="112.01269836119006">
        <ele>1110.09</ele>
        <time>2017-07-08T00:53:47.800000Z</time>
      </trkpt>
      <trkpt lat="37.84969440778108" lon="112.01233529405442">
        <ele>1110.09</ele>
        <time>2017-07-08T00:53:56.800000Z</time>
      </trkpt>
      <trkpt lat="37.84971927663383" lon="112.01199331552347">
        <ele>1103.8</ele>
        <time>2017-07-08T00:54:08.800000Z</time>
      </trkpt>
      <trkpt lat="37.84974908837501" lon="112.01163160433671">
        <ele>1108.8</ele>
        <time>2017-07-08T00:54:17.800000Z</time>
      </trkpt>
      <trkpt lat="37.84975738956266" lon="112.01138992566531">
        <ele>1111.0</ele>
        <time>2017-07-08T00:54:23.800000Z</time>
      </trkpt>
      <trkpt lat="37.84979930982772" lon="112.01115662435024">
        <ele>1113.09</ele>
        <time>2017-07-08T00:54:29.800000Z</time>
      </trkpt>
      <trkpt lat="37.84980085583811" lon="112.01081330468975">
        <ele>1116.3</ele>
        <time>2017-07-08T00:54:38.800000Z</time>
      </trkpt>
      <trkpt lat="37.84983419060614" lon="112.01045511537693">
        <ele>1110.3</ele>
        <time>2017-07-08T00:54:50.800000Z</time>
      </trkpt>
      <trkpt lat="37.8498490002111" lon="112.01012342254253">
        <ele>1113.59</ele>
        <time>2017-07-08T00:54:59.800000Z</time>
      </trkpt>
      <trkpt lat="37.84984069658175" lon="112.00980984616265">
        <ele>1116.5</ele>
        <time>2017-07-08T00:55:08.800000Z</time>
      </trkpt>
      <trkpt lat="37.84978893590451" lon="112.0096049466785">
        <ele>1120.8</ele>
        <time>2017-07-08T00:55:14.800000Z</time>
      </trkpt>
      <trkpt lat="37.849647454543046" lon="112.00927976516266">
        <ele>1123.7</ele>
        <time>2017-07-08T00:55:23.800000Z</time>
      </trkpt>
      <trkpt lat="37.84949744986893" lon="112.00899324231021">
        <ele>1131.9</ele>
        <time>2017-07-08T00:55:32.800000Z</time>
      </trkpt>
      <trkpt lat="37.849349109271124" lon="112.00869482655597">
        <ele>1138.9</ele>
        <time>2017-07-08T00:55:41.800000Z</time>
      </trkpt>
      <trkpt lat="37.84920753742081" lon="112.00840154748452">
        <ele>1143.3</ele>
        <time>2017-07-08T00:55:50.800000Z</time>
      </trkpt>
      <trkpt lat="37.84899745844327" lon="112.00806313504054">
        <ele>1145.3</ele>
        <time>2017-07-08T00:56:02.800000Z</time>
      </trkpt>
      <trkpt lat="37.84877892051569" lon="112.00774148494469">
        <ele>1148.59</ele>
        <time>2017-07-08T00:56:14.800000Z</time>
      </trkpt>
      <trkpt lat="37.84861560784749" lon="112.00746145822438">
        <ele>1148.8</ele>
        <time>2017-07-08T00:56:23.800000Z</time>
      </trkpt>
      <trkpt lat="37.84840551826994" lon="112.00712791626951">
        <ele>1152.9</ele>
        <time>2017-07-08T00:56:35.800000Z</time>
      </trkpt>
      <trkpt lat="37.84819906209159" lon="112.00694142520734">
        <ele>1151.7</ele>
        <time>2017-07-08T00:56:44.800000Z</time>
      </trkpt>
      <trkpt lat="37.84785395499258" lon="112.00684983059247">
        <ele>1157.0</ele>
        <time>2017-07-08T00:56:59.800000Z</time>
      </trkpt>
      <trkpt lat="37.84751382033927" lon="112.00681959624647">
        <ele>1160.59</ele>
        <time>2017-07-08T00:57:14.800000Z</time>
      </trkpt>
      <trkpt lat="37.84720388503033" lon="112.0067612459026">
        <ele>1157.0</ele>
        <time>2017-07-08T00:57:26.800000Z</time>
      </trkpt>
      <trkpt lat="37.84689873845952" lon="112.00673479177787">
        <ele>1153.3</ele>
        <time>2017-07-08T00:57:38.800000Z</time>
      </trkpt>
      <trkpt lat="37.84661559876498" lon="112.00669806320604">
        <ele>1152.3</ele>
        <time>2017-07-08T00:57:50.800000Z</time>
      </trkpt>
      <trkpt lat="37.84632567152222" lon="112.00666295732876">
        <ele>1152.59</ele>
        <time>2017-07-08T00:58:02.800000Z</time>
      </trkpt>
      <trkpt lat="37.846014078085744" lon="112.00661487912271">
        <ele>1149.0</ele>
        <time>2017-07-08T00:58:14.800000Z</time>
      </trkpt>
      <trkpt lat="37.8458489493428" lon="112.00658138026309">
        <ele>1148.8</ele>
        <time>2017-07-08T00:58:20.800000Z</time>
      </trkpt>
      <trkpt lat="37.845785540585496" lon="112.00664626246652">
        <ele>1139.7</ele>
        <time>2017-07-08T00:58:23.800000Z</time>
      </trkpt>
      <trkpt lat="37.84545734500397" lon="112.00652466171097">
        <ele>1139.3</ele>
        <time>2017-07-08T00:58:35.800000Z</time>
      </trkpt>
      <trkpt lat="37.84512071000053" lon="112.0064127933336">
        <ele>1140.9</ele>
        <time>2017-07-08T00:58:47.800000Z</time>
      </trkpt>
      <trkpt lat="37.844838799449334" lon="112.00632794958801">
        <ele>1142.3</ele>
        <time>2017-07-08T00:58:59.800000Z</time>
      </trkpt>
      <trkpt lat="37.84454568626896" lon="112.00626959762283">
        <ele>1138.3</ele>
        <time>2017-07-08T00:59:11.800000Z</time>
      </trkpt>
      <trkpt lat="37.84423065194587" lon="112.00637478575068">
        <ele>1138.8</ele>
        <time>2017-07-08T00:59:23.800000Z</time>
      </trkpt>
      <trkpt lat="37.84394377534453" lon="112.00649970334698">
        <ele>1143.59</ele>
        <time>2017-07-08T00:59:35.800000Z</time>
      </trkpt>
      <trkpt lat="37.84368554360777" lon="112.00666300193073">
        <ele>1147.09</ele>
        <time>2017-07-08T00:59:47.800000Z</time>
      </trkpt>
      <trkpt lat="37.8433972264679" lon="112.00681630294748">
        <ele>1149.09</ele>
        <time>2017-07-08T00:59:59.800000Z</time>
      </trkpt>
      <trkpt lat="37.84313728230754" lon="112.00700825560646">
        <ele>1149.09</ele>
        <time>2017-07-08T01:00:10.800000Z</time>
      </trkpt>
      <trkpt lat="37.84287884919178" lon="112.00723967438272">
        <ele>1148.8</ele>
        <time>2017-07-08T01:00:22.800000Z</time>
      </trkpt>
      <trkpt lat="37.842747256920525" lon="112.00733321861213">
        <ele>1147.59</ele>
        <time>2017-07-08T01:00:29.800000Z</time>
      </trkpt>
      <trkpt lat="37.84268563485708" lon="112.00734484946072">
        <ele>1146.09</ele>
        <time>2017-07-08T01:00:32.800000Z</time>
      </trkpt>
      <trkpt lat="37.842482329211045" lon="112.00746786665768">
        <ele>1144.4</ele>
        <time>2017-07-08T01:00:41.800000Z</time>
      </trkpt>
      <trkpt lat="37.84242896856278" lon="112.00752977505239">
        <ele>1143.9</ele>
        <time>2017-07-08T01:00:44.800000Z</time>
      </trkpt>
      <trkpt lat="37.8421722722466" lon="112.00772497315435">
        <ele>1142.4</ele>
        <time>2017-07-08T01:00:56.800000Z</time>
      </trkpt>
      <trkpt lat="37.84194902773981" lon="112.00789313622893">
        <ele>1142.09</ele>
        <time>2017-07-08T01:01:05.800000Z</time>
      </trkpt>
      <trkpt lat="37.841852124993714" lon="112.00790828549887">
        <ele>1139.59</ele>
        <time>2017-07-08T01:01:08.800000Z</time>
      </trkpt>
      <trkpt lat="37.841635436388295" lon="112.00806158084174">
        <ele>1142.59</ele>
        <time>2017-07-08T01:01:17.800000Z</time>
      </trkpt>
      <trkpt lat="37.84131390376836" lon="112.00816325843861">
        <ele>1148.2</ele>
        <time>2017-07-08T01:01:29.800000Z</time>
      </trkpt>
      <trkpt lat="37.84108248153715" lon="112.00816139383376">
        <ele>1150.59</ele>
        <time>2017-07-08T01:01:38.800000Z</time>
      </trkpt>
      <trkpt lat="37.840943935540224" lon="112.00812978324937">
        <ele>1151.9</ele>
        <time>2017-07-08T01:01:44.800000Z</time>
      </trkpt>
      <trkpt lat="37.840783896813456" lon="112.00811817870917">
        <ele>1154.09</ele>
        <time>2017-07-08T01:01:50.800000Z</time>
      </trkpt>
      <trkpt lat="37.84047547625725" lon="112.00800657463425">
        <ele>1156.2</ele>
        <time>2017-07-08T01:02:02.800000Z</time>
      </trkpt>
      <trkpt lat="37.840158951617205" lon="112.00797471504373">
        <ele>1159.09</ele>
        <time>2017-07-08T01:02:14.800000Z</time>
      </trkpt>
      <trkpt lat="37.84001580774074" lon="112.00802987671969">
        <ele>1160.09</ele>
        <time>2017-07-08T01:02:20.800000Z</time>
      </trkpt>
      <trkpt lat="37.839784193565485" lon="112.00809288819367">
        <ele>1162.2</ele>
        <time>2017-07-08T01:02:29.800000Z</time>
      </trkpt>
      <trkpt lat="37.83965394465327" lon="112.00809966166148">
        <ele>1164.3</ele>
        <time>2017-07-08T01:02:35.800000Z</time>
      </trkpt>
      <trkpt lat="37.83959242608392" lon="112.00807642173865">
        <ele>1165.59</ele>
        <time>2017-07-08T01:02:38.800000Z</time>
      </trkpt>
      <trkpt lat="37.83939073456307" lon="112.00811293860573">
        <ele>1166.8</ele>
        <time>2017-07-08T01:02:47.800000Z</time>
      </trkpt>
      <trkpt lat="37.839688992499646" lon="112.00808316814076">
        <ele>1171.0</ele>
        <time>2017-07-08T01:03:05.800000Z</time>
      </trkpt>
      <trkpt lat="37.83975084642407" lon="112.00808478266224">
        <ele>1171.0</ele>
        <time>2017-07-08T01:03:08.800000Z</time>
      </trkpt>
      <trkpt lat="37.83997081507876" lon="112.00801474435117">
        <ele>1163.8</ele>
        <time>2017-07-08T01:03:20.800000Z</time>
      </trkpt>
      <trkpt lat="37.84012734108458" lon="112.00802148359234">
        <ele>1159.09</ele>
        <time>2017-07-08T01:03:26.800000Z</time>
      </trkpt>
      <trkpt lat="37.840285618963925" lon="112.00807796092703">
        <ele>1157.5</ele>
        <time>2017-07-08T01:03:32.800000Z</time>
      </trkpt>
      <trkpt lat="37.84061541306513" lon="112.00811819881405">
        <ele>1159.8</ele>
        <time>2017-07-08T01:03:44.800000Z</time>
      </trkpt>
      <trkpt lat="37.84069073810515" lon="112.0081517091585">
        <ele>1160.2</ele>
        <time>2017-07-08T01:03:47.800000Z</time>
      </trkpt>
      <trkpt lat="37.84088737492385" lon="112.00817304076159">
        <ele>1161.2</ele>
        <time>2017-07-08T01:03:54.100000Z</time>
      </trkpt>
      <trkpt lat="37.84108555402411" lon="112.00822329616074">
        <ele>1161.8</ele>
        <time>2017-07-08T01:04:00.800000Z</time>
      </trkpt>
      <trkpt lat="37.84143880027422" lon="112.00822325400564">
        <ele>1165.2</ele>
        <time>2017-07-08T01:04:12.800000Z</time>
      </trkpt>
      <trkpt lat="37.84159550968157" lon="112.00816809054511">
        <ele>1166.59</ele>
        <time>2017-07-08T01:04:18.800000Z</time>
      </trkpt>
      <trkpt lat="37.841850472895054" lon="112.00800803246234">
        <ele>1171.3</ele>
        <time>2017-07-08T01:04:27.800000Z</time>
      </trkpt>
      <trkpt lat="37.842132113050646" lon="112.00781823684822">
        <ele>1162.4</ele>
        <time>2017-07-08T01:04:39.800000Z</time>
      </trkpt>
      <trkpt lat="37.84237551010942" lon="112.00762466194466">
        <ele>1156.8</ele>
        <time>2017-07-08T01:04:51.800000Z</time>
      </trkpt>
      <trkpt lat="37.84264740410328" lon="112.00742811075736">
        <ele>1153.8</ele>
        <time>2017-07-08T01:05:03.800000Z</time>
      </trkpt>
      <trkpt lat="37.84295898467348" lon="112.00720641627255">
        <ele>1151.4</ele>
        <time>2017-07-08T01:05:15.800000Z</time>
      </trkpt>
      <trkpt lat="37.843189072929114" lon="112.00701825099408">
        <ele>1152.5</ele>
        <time>2017-07-08T01:05:24.800000Z</time>
      </trkpt>
      <trkpt lat="37.8434688967863" lon="112.00680142725079">
        <ele>1149.2</ele>
        <time>2017-07-08T01:05:36.800000Z</time>
      </trkpt>
      <trkpt lat="37.84367560412182" lon="112.00662975484458">
        <ele>1147.7</ele>
        <time>2017-07-08T01:05:45.800000Z</time>
      </trkpt>
      <trkpt lat="37.84374560399236" lon="112.00653811109639">
        <ele>1153.5</ele>
        <time>2017-07-08T01:05:48.800000Z</time>
      </trkpt>
      <trkpt lat="37.8440557514488" lon="112.0063429100228">
        <ele>1161.59</ele>
        <time>2017-07-08T01:06:00.800000Z</time>
      </trkpt>
      <trkpt lat="37.84436896560813" lon="112.00621123182228">
        <ele>1160.7</ele>
        <time>2017-07-08T01:06:12.800000Z</time>
      </trkpt>
      <trkpt lat="37.84465546443892" lon="112.00621308982241">
        <ele>1161.09</ele>
        <time>2017-07-08T01:06:21.800000Z</time>
      </trkpt>
      <trkpt lat="37.844967156557225" lon="112.00622791967517">
        <ele>1160.3</ele>
        <time>2017-07-08T01:06:30.800000Z</time>
      </trkpt>
      <trkpt lat="37.84524052292023" lon="112.00626654135012">
        <ele>1160.59</ele>
        <time>2017-07-08T01:06:39.800000Z</time>
      </trkpt>
      <trkpt lat="37.845403758754436" lon="112.00629787781361">
        <ele>1161.9</ele>
        <time>2017-07-08T01:06:45.800000Z</time>
      </trkpt>
      <trkpt lat="37.8457205533124" lon="112.00642137171876">
        <ele>1153.7</ele>
        <time>2017-07-08T01:07:00.800000Z</time>
      </trkpt>
      <trkpt lat="37.845992163944" lon="112.00650297307034">
        <ele>1147.5</ele>
        <time>2017-07-08T01:07:12.800000Z</time>
      </trkpt>
      <trkpt lat="37.84632570776878" lon="112.00655969852858">
        <ele>1148.0</ele>
        <time>2017-07-08T01:07:24.800000Z</time>
      </trkpt>
      <trkpt lat="37.846595607849" lon="112.00657804747001">
        <ele>1146.2</ele>
        <time>2017-07-08T01:07:33.800000Z</time>
      </trkpt>
      <trkpt lat="37.84694379783801" lon="112.00663639310375">
        <ele>1146.0</ele>
        <time>2017-07-08T01:07:45.800000Z</time>
      </trkpt>
      <trkpt lat="37.847219015603045" lon="112.0066912334415">
        <ele>1148.2</ele>
        <time>2017-07-08T01:07:54.800000Z</time>
      </trkpt>
      <trkpt lat="37.84756722028762" lon="112.00674471355572">
        <ele>1150.59</ele>
        <time>2017-07-08T01:08:06.900000Z</time>
      </trkpt>
      <trkpt lat="37.84790916560348" lon="112.00680468193582">
        <ele>1151.8</ele>
        <time>2017-07-08T01:08:18.800000Z</time>
      </trkpt>
      <trkpt lat="37.84809568402414" lon="112.00685304549587">
        <ele>1152.4</ele>
        <time>2017-07-08T01:08:25Z</time>
      </trkpt>
      <trkpt lat="37.84828230010431" lon="112.00695979651071">
        <ele>1151.5</ele>
        <time>2017-07-08T01:08:30.800000Z</time>
      </trkpt>
      <trkpt lat="37.84847066577575" lon="112.00720819149501">
        <ele>1148.8</ele>
        <time>2017-07-08T01:08:39.800000Z</time>
      </trkpt>
      <trkpt lat="37.848692220566896" lon="112.00751821510957">
        <ele>1147.8</ele>
        <time>2017-07-08T01:08:51.100000Z</time>
      </trkpt>
      <trkpt lat="37.84886231141689" lon="112.00779986315482">
        <ele>1149.09</ele>
        <time>2017-07-08T01:09:00.800000Z</time>
      </trkpt>
      <trkpt lat="37.84909223987713" lon="112.0081231340822">
        <ele>1147.8</ele>
        <time>2017-07-08T01:09:12.800000Z</time>
      </trkpt>
      <trkpt lat="37.84926401506155" lon="112.00838640292264">
        <ele>1147.7</ele>
        <time>2017-07-08T01:09:21.800000Z</time>
      </trkpt>
      <trkpt lat="37.84945235552624" lon="112.00864480513941">
        <ele>1144.0</ele>
        <time>2017-07-08T01:09:30.800000Z</time>
      </trkpt>
      <trkpt lat="37.84963748191181" lon="112.00898133147268">
        <ele>1145.4</ele>
        <time>2017-07-08T01:09:42.800000Z</time>
      </trkpt>
      <trkpt lat="37.84977741296802" lon="112.00927974964158">
        <ele>1144.9</ele>
        <time>2017-07-08T01:09:51.800000Z</time>
      </trkpt>
      <trkpt lat="37.84980079653303" lon="112.00935462612459">
        <ele>1143.09</ele>
        <time>2017-07-08T01:09:54.800000Z</time>
      </trkpt>
      <trkpt lat="37.849797577245" lon="112.00952655184891">
        <ele>1139.2</ele>
        <time>2017-07-08T01:10:00.800000Z</time>
      </trkpt>
      <trkpt lat="37.84982573674034" lon="112.0099150043073">
        <ele>1134.0</ele>
        <time>2017-07-08T01:10:12.800000Z</time>
      </trkpt>
      <trkpt lat="37.84979249935454" lon="112.01033158075025">
        <ele>1129.7</ele>
        <time>2017-07-08T01:10:24.800000Z</time>
      </trkpt>
      <trkpt lat="37.849795887611776" lon="112.01065678476475">
        <ele>1129.5</ele>
        <time>2017-07-08T01:10:33.900000Z</time>
      </trkpt>
      <trkpt lat="37.84981076462797" lon="112.01076491455808">
        <ele>1130.2</ele>
        <time>2017-07-08T01:10:36.800000Z</time>
      </trkpt>
      <trkpt lat="37.84979073814279" lon="112.01121177296011">
        <ele>1132.09</ele>
        <time>2017-07-08T01:10:49.200000Z</time>
      </trkpt>
      <trkpt lat="37.849792405765605" lon="112.01157023346747">
        <ele>1135.7</ele>
        <time>2017-07-08T01:10:58.800000Z</time>
      </trkpt>
      <trkpt lat="37.84977761813362" lon="112.0118035333805">
        <ele>1136.09</ele>
        <time>2017-07-08T01:11:04.800000Z</time>
      </trkpt>
      <trkpt lat="37.849810980004335" lon="112.01190003889786">
        <ele>1132.9</ele>
        <time>2017-07-08T01:11:07.800000Z</time>
      </trkpt>
      <trkpt lat="37.84977609307964" lon="112.01232825551673">
        <ele>1131.09</ele>
        <time>2017-07-08T01:11:19.800000Z</time>
      </trkpt>
      <trkpt lat="37.84974577549235" lon="112.01267861749533">
        <ele>1133.5</ele>
        <time>2017-07-08T01:11:28.800000Z</time>
      </trkpt>
      <trkpt lat="37.84970447842205" lon="112.01307358958275">
        <ele>1134.2</ele>
        <time>2017-07-08T01:11:40.800000Z</time>
      </trkpt>
      <trkpt lat="37.849676007300374" lon="112.01316172435719">
        <ele>1131.09</ele>
        <time>2017-07-08T01:11:43.800000Z</time>
      </trkpt>
      <trkpt lat="37.849657853542496" lon="112.01343531328048">
        <ele>1133.2</ele>
        <time>2017-07-08T01:11:53Z</time>
      </trkpt>
      <trkpt lat="37.8496243308356" lon="112.0137702739665">
        <ele>1137.09</ele>
        <time>2017-07-08T01:12:01.800000Z</time>
      </trkpt>
      <trkpt lat="37.849559347140506" lon="112.01410199664595">
        <ele>1140.7</ele>
        <time>2017-07-08T01:12:10.800000Z</time>
      </trkpt>
      <trkpt lat="37.84957257726919" lon="112.01421878522814">
        <ele>1137.2</ele>
        <time>2017-07-08T01:12:13.800000Z</time>
      </trkpt>
      <trkpt lat="37.84956937853172" lon="112.01457726839774">
        <ele>1141.7</ele>
        <time>2017-07-08T01:12:23Z</time>
      </trkpt>
      <trkpt lat="37.84952933236383" lon="112.01501362033619">
        <ele>1142.59</ele>
        <time>2017-07-08T01:12:34.800000Z</time>
      </trkpt>
      <trkpt lat="37.849507912847415" lon="112.01510365044552">
        <ele>1141.0</ele>
        <time>2017-07-08T01:12:37.800000Z</time>
      </trkpt>
      <trkpt lat="37.84946619755897" lon="112.01517529911251">
        <ele>1136.4</ele>
        <time>2017-07-08T01:12:40.800000Z</time>
      </trkpt>
      <trkpt lat="37.849431104016915" lon="112.0154937811351">
        <ele>1134.5</ele>
        <time>2017-07-08T01:12:49.800000Z</time>
      </trkpt>
      <trkpt lat="37.84942279773115" lon="112.01593392341174">
        <ele>1132.5</ele>
        <time>2017-07-08T01:13:01.800000Z</time>
      </trkpt>
      <trkpt lat="37.849406319553786" lon="112.01619536280106">
        <ele>1128.7</ele>
        <time>2017-07-08T01:13:10.800000Z</time>
      </trkpt>
      <trkpt lat="37.849347950681135" lon="112.01630405469471">
        <ele>1128.2</ele>
        <time>2017-07-08T01:13:13.800000Z</time>
      </trkpt>
      <trkpt lat="37.84931476083147" lon="112.01652737729113">
        <ele>1126.09</ele>
        <time>2017-07-08T01:13:19.800000Z</time>
      </trkpt>
      <trkpt lat="37.849303138914394" lon="112.01689561370536">
        <ele>1121.4</ele>
        <time>2017-07-08T01:13:31.800000Z</time>
      </trkpt>
      <trkpt lat="37.84925795491042" lon="112.01733253074998">
        <ele>1118.5</ele>
        <time>2017-07-08T01:13:43.800000Z</time>
      </trkpt>
      <trkpt lat="37.84921623751261" lon="112.01769564103144">
        <ele>1119.0</ele>
        <time>2017-07-08T01:13:53Z</time>
      </trkpt>
      <trkpt lat="37.84919291969073" lon="112.01807740813139">
        <ele>1120.2</ele>
        <time>2017-07-08T01:14:02.800000Z</time>
      </trkpt>
      <trkpt lat="37.849191268793085" lon="112.01818258342418">
        <ele>1120.4</ele>
        <time>2017-07-08T01:14:05.800000Z</time>
      </trkpt>
      <trkpt lat="37.84917325430794" lon="112.01812418498137">
        <ele>1125.2</ele>
        <time>2017-07-08T01:14:14.800000Z</time>
      </trkpt>
      <trkpt lat="37.84921967956918" lon="112.01772592207244">
        <ele>1125.59</ele>
        <time>2017-07-08T01:14:29.800000Z</time>
      </trkpt>
      <trkpt lat="37.849227824550454" lon="112.01753071427378">
        <ele>1125.8</ele>
        <time>2017-07-08T01:14:35.800000Z</time>
      </trkpt>
      <trkpt lat="37.84930631585984" lon="112.01721221156876">
        <ele>1130.09</ele>
        <time>2017-07-08T01:14:47.800000Z</time>
      </trkpt>
      <trkpt lat="37.849328058843" lon="112.0168139606741">
        <ele>1118.8</ele>
        <time>2017-07-08T01:15:02.900000Z</time>
      </trkpt>
      <trkpt lat="37.849379597861315" lon="112.01643382429204">
        <ele>1115.2</ele>
        <time>2017-07-08T01:15:14.800000Z</time>
      </trkpt>
      <trkpt lat="37.849407992132384" lon="112.01608397438355">
        <ele>1116.8</ele>
        <time>2017-07-08T01:15:23.800000Z</time>
      </trkpt>
      <trkpt lat="37.849412848247965" lon="112.01580712668296">
        <ele>1123.9</ele>
        <time>2017-07-08T01:15:29.900000Z</time>
      </trkpt>
      <trkpt lat="37.849452894473224" lon="112.0154637690568">
        <ele>1128.4</ele>
        <time>2017-07-08T01:15:38.800000Z</time>
      </trkpt>
      <trkpt lat="37.849470904471644" lon="112.01523720959088">
        <ele>1129.7</ele>
        <time>2017-07-08T01:15:44.800000Z</time>
      </trkpt>
      <trkpt lat="37.849531131772665" lon="112.01495360185893">
        <ele>1141.8</ele>
        <time>2017-07-08T01:15:53.800000Z</time>
      </trkpt>
      <trkpt lat="37.84955604164551" lon="112.01459213925061">
        <ele>1142.5</ele>
        <time>2017-07-08T01:16:02.900000Z</time>
      </trkpt>
      <trkpt lat="37.849586029940255" lon="112.01416363267">
        <ele>1140.0</ele>
        <time>2017-07-08T01:16:14.800000Z</time>
      </trkpt>
      <trkpt lat="37.84961755270711" lon="112.0137686527055">
        <ele>1132.09</ele>
        <time>2017-07-08T01:16:26.800000Z</time>
      </trkpt>
      <trkpt lat="37.84963926718032" lon="112.01357697566439">
        <ele>1131.09</ele>
        <time>2017-07-08T01:16:32.900000Z</time>
      </trkpt>
      <trkpt lat="37.84964247395414" lon="112.01331176834012">
        <ele>1126.7</ele>
        <time>2017-07-08T01:16:42.200000Z</time>
      </trkpt>
      <trkpt lat="37.849685995609605" lon="112.01308521647408">
        <ele>1129.2</ele>
        <time>2017-07-08T01:16:48.900000Z</time>
      </trkpt>
      <trkpt lat="37.84968925984547" lon="112.01298843394449">
        <ele>1130.9</ele>
        <time>2017-07-08T01:16:51.800000Z</time>
      </trkpt>
      <trkpt lat="37.84966412800375" lon="112.01286002519154">
        <ele>1106.8</ele>
        <time>2017-07-08T01:17:00.800000Z</time>
      </trkpt>
      <trkpt lat="37.84969924896664" lon="112.01244342852229">
        <ele>1104.2</ele>
        <time>2017-07-08T01:17:12.800000Z</time>
      </trkpt>
      <trkpt lat="37.84973088904833" lon="112.01210523315414">
        <ele>1104.0</ele>
        <time>2017-07-08T01:17:21.800000Z</time>
      </trkpt>
      <trkpt lat="37.849741025638714" lon="112.01179164303872">
        <ele>1109.5</ele>
        <time>2017-07-08T01:17:30.900000Z</time>
      </trkpt>
      <trkpt lat="37.8497606036114" lon="112.01168350703722">
        <ele>1113.09</ele>
        <time>2017-07-08T01:17:33.800000Z</time>
      </trkpt>
      <trkpt lat="37.8497844206336" lon="112.01123826620302">
        <ele>1127.0</ele>
        <time>2017-07-08T01:17:45.800000Z</time>
      </trkpt>
      <trkpt lat="37.84980239329019" lon="112.01102983881769">
        <ele>1130.59</ele>
        <time>2017-07-08T01:17:51.800000Z</time>
      </trkpt>
      <trkpt lat="37.849857500752904" lon="112.01064812688567">
        <ele>1143.0</ele>
        <time>2017-07-08T01:18:03.800000Z</time>
      </trkpt>
      <trkpt lat="37.849897208936575" lon="112.01024479331748">
        <ele>1140.4</ele>
        <time>2017-07-08T01:18:18.800000Z</time>
      </trkpt>
      <trkpt lat="37.84988727405584" lon="112.00983984663463">
        <ele>1142.2</ele>
        <time>2017-07-08T01:18:30.800000Z</time>
      </trkpt>
      <trkpt lat="37.84988407040872" lon="112.00972982496181">
        <ele>1142.8</ele>
        <time>2017-07-08T01:18:33.800000Z</time>
      </trkpt>
      <trkpt lat="37.84983724766622" lon="112.00950654319294">
        <ele>1145.3</ele>
        <time>2017-07-08T01:18:39.800000Z</time>
      </trkpt>
      <trkpt lat="37.849698997766986" lon="112.00918974180719">
        <ele>1145.9</ele>
        <time>2017-07-08T01:18:48.800000Z</time>
      </trkpt>
      <trkpt lat="37.84948568355879" lon="112.00884321583875">
        <ele>1143.7</ele>
        <time>2017-07-08T01:19:00.800000Z</time>
      </trkpt>
      <trkpt lat="37.84928911953122" lon="112.00852128883677">
        <ele>1144.09</ele>
        <time>2017-07-08T01:19:12.800000Z</time>
      </trkpt>
      <trkpt lat="37.849100630571854" lon="112.00822152856071">
        <ele>1143.0</ele>
        <time>2017-07-08T01:19:24.800000Z</time>
      </trkpt>
      <trkpt lat="37.848888825942986" lon="112.00791636615713">
        <ele>1143.9</ele>
        <time>2017-07-08T01:19:36.800000Z</time>
      </trkpt>
      <trkpt lat="37.848698958614676" lon="112.0076247183176">
        <ele>1143.0</ele>
        <time>2017-07-08T01:19:48.800000Z</time>
      </trkpt>
      <trkpt lat="37.84848898553491" lon="112.00734307577393">
        <ele>1142.59</ele>
        <time>2017-07-08T01:20:00.800000Z</time>
      </trkpt>
      <trkpt lat="37.84838039368112" lon="112.00718306313544">
        <ele>1143.59</ele>
        <time>2017-07-08T01:20:06.800000Z</time>
      </trkpt>
      <trkpt lat="37.848248908249786" lon="112.00705792393254">
        <ele>1145.3</ele>
        <time>2017-07-08T01:20:12.800000Z</time>
      </trkpt>
      <trkpt lat="37.84798876096622" lon="112.00695307372544">
        <ele>1145.9</ele>
        <time>2017-07-08T01:20:24.800000Z</time>
      </trkpt>
      <trkpt lat="37.847717277735285" lon="112.00691958740002">
        <ele>1147.59</ele>
        <time>2017-07-08T01:20:36.800000Z</time>
      </trkpt>
      <trkpt lat="37.84757733000818" lon="112.00690311505682">
        <ele>1145.9</ele>
        <time>2017-07-08T01:20:42.800000Z</time>
      </trkpt>
      <trkpt lat="37.84727723666295" lon="112.0068196244708">
        <ele>1147.5</ele>
        <time>2017-07-08T01:20:54.800000Z</time>
      </trkpt>
      <trkpt lat="37.846962215687725" lon="112.00673802794296">
        <ele>1146.8</ele>
        <time>2017-07-08T01:21:06.800000Z</time>
      </trkpt>
      <trkpt lat="37.846752354214885" lon="112.00669318128908">
        <ele>1145.8</ele>
        <time>2017-07-08T01:21:15.800000Z</time>
      </trkpt>
      <trkpt lat="37.846520636524595" lon="112.00660806092402">
        <ele>1139.0</ele>
        <time>2017-07-08T01:21:27.800000Z</time>
      </trkpt>
      <trkpt lat="37.846372159954605" lon="112.00663132538224">
        <ele>1135.5</ele>
        <time>2017-07-08T01:21:33.800000Z</time>
      </trkpt>
      <trkpt lat="37.846118814724186" lon="112.00661135258653">
        <ele>1126.7</ele>
        <time>2017-07-08T01:21:45.800000Z</time>
      </trkpt>
      <trkpt lat="37.84606227811296" lon="112.00664622945632">
        <ele>1124.3</ele>
        <time>2017-07-08T01:21:49.400000Z</time>
      </trkpt>
      <trkpt lat="37.84597733754511" lon="112.00665299736674">
        <ele>1123.0</ele>
        <time>2017-07-08T01:21:52.800000Z</time>
      </trkpt>
      <trkpt lat="37.84582369243193" lon="112.00658976291338">
        <ele>1121.2</ele>
        <time>2017-07-08T01:21:58.900000Z</time>
      </trkpt>
      <trkpt lat="37.84561532054853" lon="112.00659140963337">
        <ele>1117.0</ele>
        <time>2017-07-08T01:22:10.800000Z</time>
      </trkpt>
      <trkpt lat="37.84538214750293" lon="112.0065395377683">
        <ele>1111.0</ele>
        <time>2017-07-08T01:22:25.900000Z</time>
      </trkpt>
      <trkpt lat="37.845182222707905" lon="112.00643792485428">
        <ele>1113.7</ele>
        <time>2017-07-08T01:22:37.900000Z</time>
      </trkpt>
      <trkpt lat="37.84489399299395" lon="112.00637957222062">
        <ele>1118.0</ele>
        <time>2017-07-08T01:22:52.900000Z</time>
      </trkpt>
      <trkpt lat="37.84475545890881" lon="112.00625308371501">
        <ele>1126.2</ele>
        <time>2017-07-08T01:23:07.800000Z</time>
      </trkpt>
      <trkpt lat="37.84456727866479" lon="112.00621634405319">
        <ele>1130.59</ele>
        <time>2017-07-08T01:23:19.800000Z</time>
      </trkpt>
      <trkpt lat="37.84438051749666" lon="112.00624961440401">
        <ele>1135.3</ele>
        <time>2017-07-08T01:23:34.800000Z</time>
      </trkpt>
      <trkpt lat="37.84413730081715" lon="112.00638155463704">
        <ele>1139.4</ele>
        <time>2017-07-08T01:23:49.900000Z</time>
      </trkpt>
      <trkpt lat="37.843930724391385" lon="112.00641807115215">
        <ele>1146.9</ele>
        <time>2017-07-08T01:24:07.800000Z</time>
      </trkpt>
      <trkpt lat="37.84367728109814" lon="112.00661326567011">
        <ele>1153.7</ele>
        <time>2017-07-08T01:24:31.800000Z</time>
      </trkpt>
      <trkpt lat="37.84354736517026" lon="112.0067814148245">
        <ele>1154.8</ele>
        <time>2017-07-08T01:24:50Z</time>
      </trkpt>
      <trkpt lat="37.84349224963581" lon="112.00679466667184">
        <ele>1154.9</ele>
        <time>2017-07-08T01:24:52.900000Z</time>
      </trkpt>
      <trkpt lat="37.84319559483971" lon="112.00701473615236">
        <ele>1155.8</ele>
        <time>2017-07-08T01:25:15.900000Z</time>
      </trkpt>
      <trkpt lat="37.84309370457375" lon="112.00706475615382">
        <ele>1152.0</ele>
        <time>2017-07-08T01:25:21.800000Z</time>
      </trkpt>
      <trkpt lat="37.84280219579344" lon="112.00728806965839">
        <ele>1151.2</ele>
        <time>2017-07-08T01:25:33.800000Z</time>
      </trkpt>
      <trkpt lat="37.842547211793594" lon="112.00745461351215">
        <ele>1153.2</ele>
        <time>2017-07-08T01:25:45.800000Z</time>
      </trkpt>
      <trkpt lat="37.84227894356058" lon="112.00761791559036">
        <ele>1154.2</ele>
        <time>2017-07-08T01:25:57.800000Z</time>
      </trkpt>
      <trkpt lat="37.84197880331469" lon="112.00782474272206">
        <ele>1155.8</ele>
        <time>2017-07-08T01:26:09.800000Z</time>
      </trkpt>
      <trkpt lat="37.84169208117356" lon="112.0079899401499">
        <ele>1159.5</ele>
        <time>2017-07-08T01:26:21.800000Z</time>
      </trkpt>
      <trkpt lat="37.84160239654894" lon="112.00804131102174">
        <ele>1160.59</ele>
        <time>2017-07-08T01:26:24.800000Z</time>
      </trkpt>
      <trkpt lat="37.841402114136564" lon="112.00805998678277">
        <ele>1162.2</ele>
        <time>2017-07-08T01:26:33.800000Z</time>
      </trkpt>
      <trkpt lat="37.84126741204257" lon="112.00810460515667">
        <ele>1161.2</ele>
        <time>2017-07-08T01:26:39.800000Z</time>
      </trkpt>
      <trkpt lat="37.841130700381385" lon="112.00809489005684">
        <ele>1158.59</ele>
        <time>2017-07-08T01:26:45.800000Z</time>
      </trkpt>
      <trkpt lat="37.84102578729308" lon="112.00806651929456">
        <ele>1153.59</ele>
        <time>2017-07-08T01:26:51.800000Z</time>
      </trkpt>
      <trkpt lat="37.84078401528432" lon="112.00807817177261">
        <ele>1151.3</ele>
        <time>2017-07-08T01:27:00.800000Z</time>
      </trkpt>
      <trkpt lat="37.84060749630324" lon="112.00804305164068">
        <ele>1152.59</ele>
        <time>2017-07-08T01:27:06.800000Z</time>
      </trkpt>
      <trkpt lat="37.84027242803654" lon="112.00804309162213">
        <ele>1147.8</ele>
        <time>2017-07-08T01:27:21.800000Z</time>
      </trkpt>
      <trkpt lat="37.840030798565934" lon="112.00809826510888">
        <ele>1149.3</ele>
        <time>2017-07-08T01:27:30.800000Z</time>
      </trkpt>
      <trkpt lat="37.83967891960027" lon="112.00809479297446">
        <ele>1154.0</ele>
        <time>2017-07-08T01:27:42.800000Z</time>
      </trkpt>
      <trkpt lat="37.83943236268944" lon="112.0080731970339">
        <ele>1158.0</ele>
        <time>2017-07-08T01:27:51.800000Z</time>
      </trkpt>
      <trkpt lat="37.83942051384787" lon="112.00813483074315">
        <ele>1161.2</ele>
        <time>2017-07-08T01:27:57.800000Z</time>
      </trkpt>
      <trkpt lat="37.83960895117269" lon="112.00817643712273">
        <ele>1164.0</ele>
        <time>2017-07-08T01:28:09.800000Z</time>
      </trkpt>
      <trkpt lat="37.839893906124" lon="112.00814964170449">
        <ele>1165.7</ele>
        <time>2017-07-08T01:28:21.800000Z</time>
      </trkpt>
      <trkpt lat="37.84009729519792" lon="112.00808960702915">
        <ele>1166.7</ele>
        <time>2017-07-08T01:28:30.800000Z</time>
      </trkpt>
      <trkpt lat="37.840308921230665" lon="112.00808823019196">
        <ele>1166.8</ele>
        <time>2017-07-08T01:28:39.800000Z</time>
      </trkpt>
      <trkpt lat="37.84059369863089" lon="112.00812144521083">
        <ele>1166.4</ele>
        <time>2017-07-08T01:28:51.800000Z</time>
      </trkpt>
      <trkpt lat="37.840932358040085" lon="112.00819141697674">
        <ele>1160.3</ele>
        <time>2017-07-08T01:29:06.800000Z</time>
      </trkpt>
      <trkpt lat="37.841207151517594" lon="112.00820625164522">
        <ele>1159.3</ele>
        <time>2017-07-08T01:29:15.800000Z</time>
      </trkpt>
      <trkpt lat="37.841405745196774" lon="112.00820812016839">
        <ele>1160.7</ele>
        <time>2017-07-08T01:29:21.800000Z</time>
      </trkpt>
      <trkpt lat="37.841672364193805" lon="112.00814321218427">
        <ele>1160.7</ele>
        <time>2017-07-08T01:29:30.800000Z</time>
      </trkpt>
      <trkpt lat="37.84183574845588" lon="112.00803290335597">
        <ele>1161.3</ele>
        <time>2017-07-08T01:29:36.800000Z</time>
      </trkpt>
      <trkpt lat="37.84201233178384" lon="112.00795476079038">
        <ele>1165.2</ele>
        <time>2017-07-08T01:29:42.800000Z</time>
      </trkpt>
      <trkpt lat="37.84224541309273" lon="112.00776307891894">
        <ele>1167.8</ele>
        <time>2017-07-08T01:29:51.800000Z</time>
      </trkpt>
      <trkpt lat="37.84239552213984" lon="112.00764655507962">
        <ele>1170.2</ele>
        <time>2017-07-08T01:29:57.800000Z</time>
      </trkpt>
      <trkpt lat="37.842507431269716" lon="112.00760302100444">
        <ele>1175.59</ele>
        <time>2017-07-08T01:30:06.800000Z</time>
      </trkpt>
      <trkpt lat="37.84270714704583" lon="112.00740972226366">
        <ele>1175.7</ele>
        <time>2017-07-08T01:30:24.800000Z</time>
      </trkpt>
      <trkpt lat="37.84301727231151" lon="112.00722127655496">
        <ele>1175.59</ele>
        <time>2017-07-08T01:30:54.800000Z</time>
      </trkpt>
      <trkpt lat="37.84319050305902" lon="112.00708474775583">
        <ele>1176.2</ele>
        <time>2017-07-08T01:31:12.800000Z</time>
      </trkpt>
      <trkpt lat="37.84324388816737" lon="112.00701473039156">
        <ele>1172.09</ele>
        <time>2017-07-08T01:31:24.800000Z</time>
      </trkpt>
      <trkpt lat="37.84348218619181" lon="112.00680304753618">
        <ele>1170.5</ele>
        <time>2017-07-08T01:31:45.800000Z</time>
      </trkpt>
      <trkpt lat="37.8436371359683" lon="112.00670139190758">
        <ele>1170.8</ele>
        <time>2017-07-08T01:31:57.800000Z</time>
      </trkpt>
      <trkpt lat="37.84374712797534" lon="112.00657298100833">
        <ele>1170.5</ele>
        <time>2017-07-08T01:32:09.800000Z</time>
      </trkpt>
      <trkpt lat="37.84379539152689" lon="112.00658297675487">
        <ele>1169.2</ele>
        <time>2017-07-08T01:32:12.800000Z</time>
      </trkpt>
      <trkpt lat="37.843920507041425" lon="112.0064780812782">
        <ele>1166.59</ele>
        <time>2017-07-08T01:32:27.800000Z</time>
      </trkpt>
      <trkpt lat="37.84411388427313" lon="112.0064096696899">
        <ele>1167.09</ele>
        <time>2017-07-08T01:32:45.800000Z</time>
      </trkpt>
      <trkpt lat="37.84436208769516" lon="112.0062431291707">
        <ele>1165.4</ele>
        <time>2017-07-08T01:33:06.800000Z</time>
      </trkpt>
      <trkpt lat="37.84452866019594" lon="112.00615633997019">
        <ele>1163.8</ele>
        <time>2017-07-08T01:33:21.800000Z</time>
      </trkpt>
      <trkpt lat="37.84485894776277" lon="112.00621306555576">
        <ele>1160.2</ele>
        <time>2017-07-08T01:33:45.800000Z</time>
      </trkpt>
      <trkpt lat="37.84513036574717" lon="112.00626817634577">
        <ele>1159.5</ele>
        <time>2017-07-08T01:34:06.800000Z</time>
      </trkpt>
      <trkpt lat="37.845397092539486" lon="112.00634977811102">
        <ele>1159.59</ele>
        <time>2017-07-08T01:34:30.800000Z</time>
      </trkpt>
      <trkpt lat="37.8456371963037" lon="112.00644300648584">
        <ele>1156.7</ele>
        <time>2017-07-08T01:34:51.800000Z</time>
      </trkpt>
      <trkpt lat="37.84557224819183" lon="112.00647815458696">
        <ele>1152.4</ele>
        <time>2017-07-08T01:35:12.800000Z</time>
      </trkpt>
      <trkpt lat="37.845527205693486" lon="112.00647978182226">
        <ele>1152.59</ele>
        <time>2017-07-08T01:35:18.800000Z</time>
      </trkpt>
      <trkpt lat="37.84542885425097" lon="112.00643465171456">
        <ele>1151.9</ele>
        <time>2017-07-08T01:35:30.800000Z</time>
      </trkpt>
      <trkpt lat="37.84523736816454" lon="112.00641467159173">
        <ele>1151.09</ele>
        <time>2017-07-08T01:35:48.800000Z</time>
      </trkpt>
      <trkpt lat="37.84512056197215" lon="112.00637143589555">
        <ele>1151.4</ele>
        <time>2017-07-08T01:36:00.800000Z</time>
      </trkpt>
      <trkpt lat="37.84479893686543" lon="112.00632119659414">
        <ele>1151.9</ele>
        <time>2017-07-08T01:36:30.800000Z</time>
      </trkpt>
      <trkpt lat="37.844737141609095" lon="112.00629984948446">
        <ele>1152.09</ele>
        <time>2017-07-08T01:36:36.800000Z</time>
      </trkpt>
      <trkpt lat="37.844432059818104" lon="112.00634286514429">
        <ele>1152.5</ele>
        <time>2017-07-08T01:37:06.800000Z</time>
      </trkpt>
      <trkpt lat="37.84431397504887" lon="112.00636450402986">
        <ele>1152.59</ele>
        <time>2017-07-08T01:37:18.800000Z</time>
      </trkpt>
      <trkpt lat="37.844257320204825" lon="112.00634802187389">
        <ele>1152.2</ele>
        <time>2017-07-08T01:37:24.800000Z</time>
      </trkpt>
      <trkpt lat="37.84402550438353" lon="112.00647806875568">
        <ele>1150.59</ele>
        <time>2017-07-08T01:37:48.800000Z</time>
      </trkpt>
      <trkpt lat="37.84396396593253" lon="112.00646158715607">
        <ele>1151.5</ele>
        <time>2017-07-08T01:37:54.800000Z</time>
      </trkpt>
      <trkpt lat="37.84392067444704" lon="112.00651295132225">
        <ele>1151.8</ele>
        <time>2017-07-08T01:38:03.800000Z</time>
      </trkpt>
      <trkpt lat="37.843872406066566" lon="112.00650457744969">
        <ele>1152.3</ele>
        <time>2017-07-08T01:38:09.800000Z</time>
      </trkpt>
      <trkpt lat="37.843633820680154" lon="112.00672139534676">
        <ele>1151.8</ele>
        <time>2017-07-08T01:38:42.800000Z</time>
      </trkpt>
      <trkpt lat="37.84339226670911" lon="112.00693307833932">
        <ele>1152.7</ele>
        <time>2017-07-08T01:39:06.800000Z</time>
      </trkpt>
      <trkpt lat="37.84323571427487" lon="112.00702635480886">
        <ele>1153.7</ele>
        <time>2017-07-08T01:39:24.800000Z</time>
      </trkpt>
      <trkpt lat="37.84321568513814" lon="112.00710150415145">
        <ele>1152.7</ele>
        <time>2017-07-08T01:39:30.800000Z</time>
      </trkpt>
      <trkpt lat="37.84316565064036" lon="112.00713962425407">
        <ele>1151.3</ele>
        <time>2017-07-08T01:39:39.900000Z</time>
      </trkpt>
      <trkpt lat="37.843113835095785" lon="112.00713800855684">
        <ele>1150.2</ele>
        <time>2017-07-08T01:39:45.800000Z</time>
      </trkpt>
      <trkpt lat="37.842903897980875" lon="112.00730130289692">
        <ele>1149.7</ele>
        <time>2017-07-08T01:40:03.900000Z</time>
      </trkpt>
      <trkpt lat="37.84282713630669" lon="112.00729482452532">
        <ele>1149.2</ele>
        <time>2017-07-08T01:40:09.800000Z</time>
      </trkpt>
      <trkpt lat="37.84257564966207" lon="112.00747136961137">
        <ele>1150.09</ele>
        <time>2017-07-08T01:40:33.800000Z</time>
      </trkpt>
      <trkpt lat="37.84244209913269" lon="112.00758491769953">
        <ele>1150.4</ele>
        <time>2017-07-08T01:40:46.700000Z</time>
      </trkpt>
      <trkpt lat="37.84216232791093" lon="112.00778471408599">
        <ele>1150.59</ele>
        <time>2017-07-08T01:41:02.600000Z</time>
      </trkpt>
      <trkpt lat="37.84191576042544" lon="112.00794963630206">
        <ele>1151.3</ele>
        <time>2017-07-08T01:41:14.800000Z</time>
      </trkpt>
      <trkpt lat="37.841655483747594" lon="112.00807158017474">
        <ele>1151.4</ele>
        <time>2017-07-08T01:41:26.900000Z</time>
      </trkpt>
      <trkpt lat="37.84142378452203" lon="112.00816324532612">
        <ele>1151.4</ele>
        <time>2017-07-08T01:41:35.800000Z</time>
      </trkpt>
      <trkpt lat="37.84112741024433" lon="112.0081981516367">
        <ele>1155.4</ele>
        <time>2017-07-08T01:41:47.800000Z</time>
      </trkpt>
      <trkpt lat="37.84080886217284" lon="112.00811655382734">
        <ele>1153.59</ele>
        <time>2017-07-08T01:42:02.800000Z</time>
      </trkpt>
      <trkpt lat="37.84065890197" lon="112.00809143223437">
        <ele>1152.7</ele>
        <time>2017-07-08T01:42:08.800000Z</time>
      </trkpt>
      <trkpt lat="37.84044408901048" lon="112.00806956219239">
        <ele>1152.9</ele>
        <time>2017-07-08T01:42:17.800000Z</time>
      </trkpt>
      <trkpt lat="37.84036574917733" lon="112.00804632428867">
        <ele>1153.4</ele>
        <time>2017-07-08T01:42:20.800000Z</time>
      </trkpt>
      <trkpt lat="37.8400821314419" lon="112.00807960710974">
        <ele>1154.3</ele>
        <time>2017-07-08T01:42:32.800000Z</time>
      </trkpt>
      <trkpt lat="37.84000747148675" lon="112.008096375673">
        <ele>1155.59</ele>
        <time>2017-07-08T01:42:35.800000Z</time>
      </trkpt>
      <trkpt lat="37.8397222643963" lon="112.00811668348666">
        <ele>1156.09</ele>
        <time>2017-07-08T01:42:47.800000Z</time>
      </trkpt>
      <trkpt lat="37.839415644671675" lon="112.00812996561446">
        <ele>1156.3</ele>
        <time>2017-07-08T01:42:59.900000Z</time>
      </trkpt>
      <trkpt lat="37.839365571549095" lon="112.00818133187724">
        <ele>1161.59</ele>
        <time>2017-07-08T01:43:05.900000Z</time>
      </trkpt>
      <trkpt lat="37.83963403015276" lon="112.00813642716903">
        <ele>1164.09</ele>
        <time>2017-07-08T01:43:32.800000Z</time>
      </trkpt>
      <trkpt lat="37.83995565122795" lon="112.00809638185638">
        <ele>1166.5</ele>
        <time>2017-07-08T01:43:56.800000Z</time>
      </trkpt>
      <trkpt lat="37.84026395336708" lon="112.00806471798238">
        <ele>1170.0</ele>
        <time>2017-07-08T01:44:17.800000Z</time>
      </trkpt>
      <trkpt lat="37.8403688760082" lon="112.00808984493992">
        <ele>1171.0</ele>
        <time>2017-07-08T01:44:23.800000Z</time>
      </trkpt>
      <trkpt lat="37.84043252027292" lon="112.00812822237285">
        <ele>1171.2</ele>
        <time>2017-07-08T01:44:26.900000Z</time>
      </trkpt>
      <trkpt lat="37.84074904102815" lon="112.00816143362371">
        <ele>1168.9</ele>
        <time>2017-07-08T01:44:41.800000Z</time>
      </trkpt>
      <trkpt lat="37.84104574099719" lon="112.00819978328745">
        <ele>1164.5</ele>
        <time>2017-07-08T01:44:53.800000Z</time>
      </trkpt>
      <trkpt lat="37.841303963754456" lon="112.00822164819121">
        <ele>1164.2</ele>
        <time>2017-07-08T01:45:02.800000Z</time>
      </trkpt>
      <trkpt lat="37.84161401801942" lon="112.00814808485717">
        <ele>1165.5</ele>
        <time>2017-07-08T01:45:14.800000Z</time>
      </trkpt>
      <trkpt lat="37.841765596609704" lon="112.0080848125652">
        <ele>1165.2</ele>
        <time>2017-07-08T01:45:20.800000Z</time>
      </trkpt>
      <trkpt lat="37.84207899033234" lon="112.00789149882429">
        <ele>1165.59</ele>
        <time>2017-07-08T01:45:32.800000Z</time>
      </trkpt>
      <trkpt lat="37.84234565018067" lon="112.00772143836646">
        <ele>1163.7</ele>
        <time>2017-07-08T01:45:44.900000Z</time>
      </trkpt>
      <trkpt lat="37.842553835025875" lon="112.00759977168848">
        <ele>1163.0</ele>
        <time>2017-07-08T01:45:53.800000Z</time>
      </trkpt>
      <trkpt lat="37.842848850728906" lon="112.00738294426047">
        <ele>1166.0</ele>
        <time>2017-07-08T01:46:05.800000Z</time>
      </trkpt>
      <trkpt lat="37.84306228500274" lon="112.00722965090125">
        <ele>1165.09</ele>
        <time>2017-07-08T01:46:14.800000Z</time>
      </trkpt>
      <trkpt lat="37.84323889974235" lon="112.00714123739444">
        <ele>1164.0</ele>
        <time>2017-07-08T01:46:20.800000Z</time>
      </trkpt>
      <trkpt lat="37.84351391370146" lon="112.00689954511611">
        <ele>1161.8</ele>
        <time>2017-07-08T01:46:32.800000Z</time>
      </trkpt>
      <trkpt lat="37.84357223163717" lon="112.00681303833139">
        <ele>1161.9</ele>
        <time>2017-07-08T01:46:35.800000Z</time>
      </trkpt>
      <trkpt lat="37.84379867221996" lon="112.00657459672594">
        <ele>1163.09</ele>
        <time>2017-07-08T01:46:47.800000Z</time>
      </trkpt>
      <trkpt lat="37.844065546605" lon="112.00642454251992">
        <ele>1165.4</ele>
        <time>2017-07-08T01:46:56.800000Z</time>
      </trkpt>
      <trkpt lat="37.84423398745804" lon="112.00634802465656">
        <ele>1166.8</ele>
        <time>2017-07-08T01:47:02.800000Z</time>
      </trkpt>
      <trkpt lat="37.84432030385067" lon="112.00633476917304">
        <ele>1164.8</ele>
        <time>2017-07-08T01:47:05.800000Z</time>
      </trkpt>
      <trkpt lat="37.844458841742174" lon="112.00627798758143">
        <ele>1163.5</ele>
        <time>2017-07-08T01:47:11.900000Z</time>
      </trkpt>
      <trkpt lat="37.84468382794352" lon="112.00625471411551">
        <ele>1159.8</ele>
        <time>2017-07-08T01:47:23.800000Z</time>
      </trkpt>
      <trkpt lat="37.844985613425095" lon="112.00631630875259">
        <ele>1157.3</ele>
        <time>2017-07-08T01:47:35.800000Z</time>
      </trkpt>
      <trkpt lat="37.84531228550436" lon="112.0064027690064">
        <ele>1158.59</ele>
        <time>2017-07-08T01:47:47.800000Z</time>
      </trkpt>
      <trkpt lat="37.8453905945362" lon="112.00643627813979">
        <ele>1158.2</ele>
        <time>2017-07-08T01:47:50.800000Z</time>
      </trkpt>
      <trkpt lat="37.84570885052556" lon="112.00652463171245">
        <ele>1159.4</ele>
        <time>2017-07-08T01:48:02.800000Z</time>
      </trkpt>
      <trkpt lat="37.845960629757194" lon="112.00661488549814">
        <ele>1157.7</ele>
        <time>2017-07-08T01:48:11.800000Z</time>
      </trkpt>
      <trkpt lat="37.846147128526226" lon="112.00666973640632">
        <ele>1154.2</ele>
        <time>2017-07-08T01:48:17.800000Z</time>
      </trkpt>
      <trkpt lat="37.84642219317314" lon="112.00668484102401">
        <ele>1150.59</ele>
        <time>2017-07-08T01:48:26.800000Z</time>
      </trkpt>
      <trkpt lat="37.846672342292486" lon="112.00668481118409">
        <ele>1149.4</ele>
        <time>2017-07-08T01:48:35.800000Z</time>
      </trkpt>
      <trkpt lat="37.846970379174984" lon="112.0067299176257">
        <ele>1146.0</ele>
        <time>2017-07-08T01:48:47.800000Z</time>
      </trkpt>
      <trkpt lat="37.84726571428611" lon="112.00677124005462">
        <ele>1145.09</ele>
        <time>2017-07-08T01:48:56.800000Z</time>
      </trkpt>
      <trkpt lat="37.847542337017636" lon="112.00680986162136">
        <ele>1145.5</ele>
        <time>2017-07-08T01:49:05.800000Z</time>
      </trkpt>
      <trkpt lat="37.84782221716261" lon="112.00684794219573">
        <ele>1144.7</ele>
        <time>2017-07-08T01:49:14.800000Z</time>
      </trkpt>
      <trkpt lat="37.848025635742005" lon="112.00686981319242">
        <ele>1146.3</ele>
        <time>2017-07-08T01:49:20.800000Z</time>
      </trkpt>
      <trkpt lat="37.84811373321253" lon="112.00689629325888">
        <ele>1148.4</ele>
        <time>2017-07-08T01:49:23.800000Z</time>
      </trkpt>
      <trkpt lat="37.848350677945646" lon="112.00713981658475">
        <ele>1149.4</ele>
        <time>2017-07-08T01:49:35.800000Z</time>
      </trkpt>
      <trkpt lat="37.848452270220996" lon="112.00728144863065">
        <ele>1150.5</ele>
        <time>2017-07-08T01:49:41.800000Z</time>
      </trkpt>
      <trkpt lat="37.84847213450028" lon="112.00735307939715">
        <ele>1150.4</ele>
        <time>2017-07-08T01:49:44.800000Z</time>
      </trkpt>
      <trkpt lat="37.84865895148255" lon="112.00766662192598">
        <ele>1151.9</ele>
        <time>2017-07-08T01:49:56.800000Z</time>
      </trkpt>
      <trkpt lat="37.84871081163764" lon="112.00774473685905">
        <ele>1152.3</ele>
        <time>2017-07-08T01:49:59.800000Z</time>
      </trkpt>
      <trkpt lat="37.84896046647617" lon="112.00800312915653">
        <ele>1151.0</ele>
        <time>2017-07-08T01:50:08.800000Z</time>
      </trkpt>
      <trkpt lat="37.849150695264896" lon="112.00826477339284">
        <ele>1148.7</ele>
        <time>2017-07-08T01:50:17.800000Z</time>
      </trkpt>
      <trkpt lat="37.84933409737661" lon="112.00854155737643">
        <ele>1147.09</ele>
        <time>2017-07-08T01:50:26.800000Z</time>
      </trkpt>
      <trkpt lat="37.849527298025315" lon="112.00880806925845">
        <ele>1145.5</ele>
        <time>2017-07-08T01:50:35.800000Z</time>
      </trkpt>
      <trkpt lat="37.84973078508835" lon="112.00917487031842">
        <ele>1146.9</ele>
        <time>2017-07-08T01:50:47.800000Z</time>
      </trkpt>
      <trkpt lat="37.8496958117872" lon="112.00925813362119">
        <ele>1148.3</ele>
        <time>2017-07-08T01:50:50.800000Z</time>
      </trkpt>
      <trkpt lat="37.849755719626366" lon="112.00946005736479">
        <ele>1147.09</ele>
        <time>2017-07-08T01:50:56.800000Z</time>
      </trkpt>
      <trkpt lat="37.84979384593501" lon="112.00968820582705">
        <ele>1147.59</ele>
        <time>2017-07-08T01:51:02.800000Z</time>
      </trkpt>
      <trkpt lat="37.849807478445264" lon="112.01003476062264">
        <ele>1147.09</ele>
        <time>2017-07-08T01:51:11.800000Z</time>
      </trkpt>
      <trkpt lat="37.84979916284652" lon="112.01046485135934">
        <ele>1141.8</ele>
        <time>2017-07-08T01:51:23.800000Z</time>
      </trkpt>
      <trkpt lat="37.849834187674844" lon="112.01082681717989">
        <ele>1126.7</ele>
        <time>2017-07-08T01:51:35.800000Z</time>
      </trkpt>
      <trkpt lat="37.84988573782928" lon="112.01110498079366">
        <ele>1117.09</ele>
        <time>2017-07-08T01:51:44.800000Z</time>
      </trkpt>
      <trkpt lat="37.84986926560555" lon="112.011450196441">
        <ele>1115.5</ele>
        <time>2017-07-08T01:51:53.800000Z</time>
      </trkpt>
      <trkpt lat="37.84987573630086" lon="112.01183677280392">
        <ele>1117.9</ele>
        <time>2017-07-08T01:52:02.800000Z</time>
      </trkpt>
      <trkpt lat="37.849846018014006" lon="112.01226012220555">
        <ele>1124.7</ele>
        <time>2017-07-08T01:52:11.800000Z</time>
      </trkpt>
      <trkpt lat="37.84978452063623" lon="112.01269672559064">
        <ele>1132.59</ele>
        <time>2017-07-08T01:52:20.800000Z</time>
      </trkpt>
      <trkpt lat="37.849694397938926" lon="112.0131819978018">
        <ele>1136.59</ele>
        <time>2017-07-08T01:52:32.800000Z</time>
      </trkpt>
      <trkpt lat="37.84969080632058" lon="112.01358048397344">
        <ele>1123.7</ele>
        <time>2017-07-08T01:52:44.800000Z</time>
      </trkpt>
      <trkpt lat="37.849686023261654" lon="112.01401682217913">
        <ele>1116.09</ele>
        <time>2017-07-08T01:52:56.800000Z</time>
      </trkpt>
      <trkpt lat="37.84965960823503" lon="112.01442883565056">
        <ele>1118.4</ele>
        <time>2017-07-08T01:53:05.900000Z</time>
      </trkpt>
      <trkpt lat="37.84959959753439" lon="112.01482544683536">
        <ele>1122.09</ele>
        <time>2017-07-08T01:53:14.800000Z</time>
      </trkpt>
      <trkpt lat="37.84953448173201" lon="112.01520557056337">
        <ele>1126.4</ele>
        <time>2017-07-08T01:53:23.800000Z</time>
      </trkpt>
      <trkpt lat="37.84947292019477" lon="112.01557704575609">
        <ele>1126.4</ele>
        <time>2017-07-08T01:53:32.800000Z</time>
      </trkpt>
      <trkpt lat="37.84943612043383" lon="112.0159239185553">
        <ele>1125.9</ele>
        <time>2017-07-08T01:53:41.800000Z</time>
      </trkpt>
      <trkpt lat="37.84940956223514" lon="112.01629566613181">
        <ele>1125.7</ele>
        <time>2017-07-08T01:53:50.900000Z</time>
      </trkpt>
      <trkpt lat="37.84938305859475" lon="112.01664903230133">
        <ele>1123.5</ele>
        <time>2017-07-08T01:53:59.800000Z</time>
      </trkpt>
      <trkpt lat="37.84932311122363" lon="112.01702890130719">
        <ele>1126.2</ele>
        <time>2017-07-08T01:54:08.800000Z</time>
      </trkpt>
      <trkpt lat="37.84926118683816" lon="112.01743743311475">
        <ele>1128.0</ele>
        <time>2017-07-08T01:54:17.900000Z</time>
      </trkpt>
      <trkpt lat="37.84922979748316" lon="112.01779432458542">
        <ele>1125.8</ele>
        <time>2017-07-08T01:54:27.700000Z</time>
      </trkpt>
      <trkpt lat="37.84920304262252" lon="112.01814418901512">
        <ele>1124.59</ele>
        <time>2017-07-08T01:54:36.900000Z</time>
      </trkpt>
      <trkpt lat="37.8491716648244" lon="112.018595988838">
        <ele>1126.59</ele>
        <time>2017-07-08T01:54:48.800000Z</time>
      </trkpt>
      <trkpt lat="37.849156488792346" lon="112.01897938608852">
        <ele>1129.0</ele>
        <time>2017-07-08T01:54:58.900000Z</time>
      </trkpt>
      <trkpt lat="37.84912324439646" lon="112.01932439519749">
        <ele>1130.4</ele>
        <time>2017-07-08T01:55:07.900000Z</time>
      </trkpt>
      <trkpt lat="37.84910976188244" lon="112.01968616892121">
        <ele>1129.8</ele>
        <time>2017-07-08T01:55:16.800000Z</time>
      </trkpt>
      <trkpt lat="37.84909497693069" lon="112.02012771050613">
        <ele>1128.2</ele>
        <time>2017-07-08T01:55:28.800000Z</time>
      </trkpt>
      <trkpt lat="37.84900487423855" lon="112.02033456819159">
        <ele>1123.2</ele>
        <time>2017-07-08T01:55:34.900000Z</time>
      </trkpt>
      <trkpt lat="37.84898500059182" lon="112.0204578681002">
        <ele>1120.8</ele>
        <time>2017-07-08T01:55:37.900000Z</time>
      </trkpt>
      <trkpt lat="37.84899338900693" lon="112.0208612908987">
        <ele>1119.5</ele>
        <time>2017-07-08T01:55:46.800000Z</time>
      </trkpt>
      <trkpt lat="37.849000064627496" lon="112.02099946109561">
        <ele>1119.9</ele>
        <time>2017-07-08T01:55:49.800000Z</time>
      </trkpt>
      <trkpt lat="37.848981825091435" lon="112.02112114073421">
        <ele>1118.5</ele>
        <time>2017-07-08T01:55:52.800000Z</time>
      </trkpt>
      <trkpt lat="37.849028474410346" lon="112.02152456649442">
        <ele>1121.9</ele>
        <time>2017-07-08T01:56:01.900000Z</time>
      </trkpt>
      <trkpt lat="37.84902522879842" lon="112.02191962048313">
        <ele>1121.7</ele>
        <time>2017-07-08T01:56:10.900000Z</time>
      </trkpt>
      <trkpt lat="37.84900668378349" lon="112.02205482347436">
        <ele>1121.09</ele>
        <time>2017-07-08T01:56:13.800000Z</time>
      </trkpt>
      <trkpt lat="37.84902376941782" lon="112.02245799328409">
        <ele>1120.2</ele>
        <time>2017-07-08T01:56:22.900000Z</time>
      </trkpt>
      <trkpt lat="37.84905189726059" lon="112.0226916208671">
        <ele>1121.0</ele>
        <time>2017-07-08T01:56:28.900000Z</time>
      </trkpt>
      <trkpt lat="37.849050420403955" lon="112.02303828479535">
        <ele>1123.3</ele>
        <time>2017-07-08T01:56:37.900000Z</time>
      </trkpt>
      <trkpt lat="37.84905538606983" lon="112.02341172244257">
        <ele>1127.3</ele>
        <time>2017-07-08T01:56:46.900000Z</time>
      </trkpt>
      <trkpt lat="37.84905052135717" lon="112.02381004380331">
        <ele>1130.8</ele>
        <time>2017-07-08T01:56:55.900000Z</time>
      </trkpt>
      <trkpt lat="37.84905536066236" lon="112.0239282153601">
        <ele>1131.2</ele>
        <time>2017-07-08T01:56:58.900000Z</time>
      </trkpt>
      <trkpt lat="37.84903878787685" lon="112.02414022519747">
        <ele>1130.09</ele>
        <time>2017-07-08T01:57:04.900000Z</time>
      </trkpt>
      <trkpt lat="37.84911042842767" lon="112.02423675634186">
        <ele>1128.5</ele>
        <time>2017-07-08T01:57:10.900000Z</time>
      </trkpt>
      <trkpt lat="37.84908229693416" lon="112.02430679854453">
        <ele>1125.9</ele>
        <time>2017-07-08T01:57:16.900000Z</time>
      </trkpt>
      <trkpt lat="37.84908232448859" lon="112.02439847120972">
        <ele>1123.09</ele>
        <time>2017-07-08T01:57:22.800000Z</time>
      </trkpt>
      <trkpt lat="37.84912542477433" lon="112.02451501779878">
        <ele>1123.7</ele>
        <time>2017-07-08T01:57:28.800000Z</time>
      </trkpt>
      <trkpt lat="37.84912735495483" lon="112.02481032001133">
        <ele>1121.7</ele>
        <time>2017-07-08T01:57:40.800000Z</time>
      </trkpt>
      <trkpt lat="37.84905753035085" lon="112.02515512183936">
        <ele>1120.0</ele>
        <time>2017-07-08T01:57:58.800000Z</time>
      </trkpt>
      <trkpt lat="37.84904055267447" lon="112.02552344859994">
        <ele>1117.9</ele>
        <time>2017-07-08T01:58:31.900000Z</time>
      </trkpt>
      <trkpt lat="37.84917586660517" lon="112.02586039109339">
        <ele>1117.2</ele>
        <time>2017-07-08T01:58:50.600000Z</time>
      </trkpt>
      <trkpt lat="37.84915884829479" lon="112.02593557384618">
        <ele>1117.09</ele>
        <time>2017-07-08T01:58:53.900000Z</time>
      </trkpt>
      <trkpt lat="37.849105812190324" lon="112.02598534021493">
        <ele>1116.8</ele>
        <time>2017-07-08T01:58:56.900000Z</time>
      </trkpt>
      <trkpt lat="37.84908407785176" lon="112.02610027790631">
        <ele>1116.09</ele>
        <time>2017-07-08T01:59:03.600000Z</time>
      </trkpt>
      <trkpt lat="37.84901894172926" lon="112.02621224644116">
        <ele>1115.9</ele>
        <time>2017-07-08T01:59:10.200000Z</time>
      </trkpt>
      <trkpt lat="37.84889243866602" lon="112.0263436943067">
        <ele>1117.2</ele>
        <time>2017-07-08T01:59:16.900000Z</time>
      </trkpt>
      <trkpt lat="37.84882587342684" lon="112.02648378959827">
        <ele>1118.8</ele>
        <time>2017-07-08T01:59:22.900000Z</time>
      </trkpt>
      <trkpt lat="37.84883085018835" lon="112.02655221024838">
        <ele>1119.7</ele>
        <time>2017-07-08T01:59:29.300000Z</time>
      </trkpt>
      <trkpt lat="37.848882312860205" lon="112.02658546820295">
        <ele>1121.2</ele>
        <time>2017-07-08T01:59:35.900000Z</time>
      </trkpt>
      <trkpt lat="37.84883075939349" lon="112.02658709704258">
        <ele>1123.59</ele>
        <time>2017-07-08T01:59:53.900000Z</time>
      </trkpt>
      <trkpt lat="37.84876408988652" lon="112.02655897927544">
        <ele>1124.0</ele>
        <time>2017-07-08T01:59:59.900000Z</time>
      </trkpt>
      <trkpt lat="37.84871900919383" lon="112.02657548154463">
        <ele>1124.2</ele>
        <time>2017-07-08T02:00:02.900000Z</time>
      </trkpt>
      <trkpt lat="37.8486256906097" lon="112.02657062483922">
        <ele>1124.4</ele>
        <time>2017-07-08T02:00:09Z</time>
      </trkpt>
      <trkpt lat="37.84847091343423" lon="112.02662040448251">
        <ele>1125.09</ele>
        <time>2017-07-08T02:00:17.900000Z</time>
      </trkpt>
      <trkpt lat="37.84833934191257" lon="112.0267191312959">
        <ele>1125.4</ele>
        <time>2017-07-08T02:00:32.900000Z</time>
      </trkpt>
      <trkpt lat="37.84819099555515" lon="112.02669562072614">
        <ele>1126.2</ele>
        <time>2017-07-08T02:00:41.900000Z</time>
      </trkpt>
      <trkpt lat="37.84814072909301" lon="112.02672402312122">
        <ele>1126.3</ele>
        <time>2017-07-08T02:00:44.900000Z</time>
      </trkpt>
      <trkpt lat="37.847994251709466" lon="112.02671214130362">
        <ele>1125.7</ele>
        <time>2017-07-08T02:00:53.900000Z</time>
      </trkpt>
      <trkpt lat="37.8479191764056" lon="112.02668213134073">
        <ele>1125.5</ele>
        <time>2017-07-08T02:00:59.900000Z</time>
      </trkpt>
      <trkpt lat="37.84780579344958" lon="112.02667240908958">
        <ele>1127.8</ele>
        <time>2017-07-08T02:01:20.900000Z</time>
      </trkpt>
      <trkpt lat="37.8477123703111" lon="112.02681223870317">
        <ele>1127.9</ele>
        <time>2017-07-08T02:01:32.900000Z</time>
      </trkpt>
      <trkpt lat="37.84764078935282" lon="112.02700399156954">
        <ele>1128.59</ele>
        <time>2017-07-08T02:01:44.900000Z</time>
      </trkpt>
      <trkpt lat="37.84766942788301" lon="112.02705050455027">
        <ele>1129.09</ele>
        <time>2017-07-08T02:01:47.900000Z</time>
      </trkpt>
      <trkpt lat="37.84767430699005" lon="112.02715705930194">
        <ele>1129.8</ele>
        <time>2017-07-08T02:01:53.900000Z</time>
      </trkpt>
      <trkpt lat="37.847614221347875" lon="112.02731067997243">
        <ele>1130.8</ele>
        <time>2017-07-08T02:01:59.900000Z</time>
      </trkpt>
      <trkpt lat="37.847604286535066" lon="112.02737558849667">
        <ele>1130.5</ele>
        <time>2017-07-08T02:02:02.900000Z</time>
      </trkpt>
      <trkpt lat="37.84754910628933" lon="112.02741589183755">
        <ele>1130.09</ele>
        <time>2017-07-08T02:02:05.800000Z</time>
      </trkpt>
      <trkpt lat="37.847495968275226" lon="112.02750595750722">
        <ele>1128.8</ele>
        <time>2017-07-08T02:02:12.800000Z</time>
      </trkpt>
      <trkpt lat="37.847752766597374" lon="112.02734744411579">
        <ele>1124.09</ele>
        <time>2017-07-08T02:02:18.900000Z</time>
      </trkpt>
      <trkpt lat="37.84787939201714" lon="112.02727224465174">
        <ele>1122.5</ele>
        <time>2017-07-08T02:02:21.800000Z</time>
      </trkpt>
      <trkpt lat="37.847946181772954" lon="112.02735905009233">
        <ele>1122.7</ele>
        <time>2017-07-08T02:02:24.900000Z</time>
      </trkpt>
      <trkpt lat="37.847759262440356" lon="112.02766927731439">
        <ele>1120.9</ele>
        <time>2017-07-08T02:02:37.900000Z</time>
      </trkpt>
      <trkpt lat="37.84768927868212" lon="112.02776908202624">
        <ele>1120.09</ele>
        <time>2017-07-08T02:02:41Z</time>
      </trkpt>
      <trkpt lat="37.84762925178793" lon="112.02790079924169">
        <ele>1119.7</ele>
        <time>2017-07-08T02:02:46.900000Z</time>
      </trkpt>
      <trkpt lat="37.847494402998244" lon="112.02800926705417">
        <ele>1118.2</ele>
        <time>2017-07-08T02:02:50Z</time>
      </trkpt>
      <trkpt lat="37.847445874565956" lon="112.02810095672439">
        <ele>1117.59</ele>
        <time>2017-07-08T02:02:53.100000Z</time>
      </trkpt>
      <trkpt lat="37.84739128711459" lon="112.02833409576225">
        <ele>1118.3</ele>
        <time>2017-07-08T02:03:09.200000Z</time>
      </trkpt>
      <trkpt lat="37.84741115555645" lon="112.0284157713198">
        <ele>1118.8</ele>
        <time>2017-07-08T02:03:15.800000Z</time>
      </trkpt>
      <trkpt lat="37.84736603998308" lon="112.02876575045157">
        <ele>1121.3</ele>
        <time>2017-07-08T02:03:32.200000Z</time>
      </trkpt>
      <trkpt lat="37.84736603998308" lon="112.02876575045157">
        <ele>1121.3</ele>
        <time>2017-07-08T02:03:34.700000Z</time>
      </trkpt>
    </trkseg>
  </trk>
</gpx>