<?xml version="1.0" encoding="UTF-8"?>
<gpx xmlns="http://www.topografix.com/GPX/1/1" xmlns:gpxtpx="http://www.garmin.com/xmlschemas/TrackPointExtension/v1" xmlns:xsi="http://www.w3.org/2001/XMLSchema-instance" xsi:schemaLocation="http://www.topografix.com/GPX/1/1 http://www.topografix.com/GPX/1/1/gpx.xsd" version="1.1" creator="gpx.py -- https://github.com/tkrajina/gpxpy">
  <trk>
    <name>gpx from keep</name>
    <type>Run</type>
    <trkseg>
      <trkpt lat="37.847372446604936" lon="112.02875856258594">
        <ele>1104.66</ele>
        <time>2019-08-30T08:43:22.617000Z</time>
      </trkpt>
      <trkpt lat="37.84738296349812" lon="112.02834952722516">
        <ele>1107.18</ele>
        <time>2019-08-30T08:43:50.117000Z</time>
      </trkpt>
      <trkpt lat="37.84738332220273" lon="112.02827576195364">
        <ele>1108.27</ele>
        <time>2019-08-30T08:43:56.117000Z</time>
      </trkpt>
      <trkpt lat="37.84740536240264" lon="112.02821457160066">
        <ele>1108.45</ele>
        <time>2019-08-30T08:44:02.117000Z</time>
      </trkpt>
      <trkpt lat="37.84740304486326" lon="112.02813835115957">
        <ele>1107.38</ele>
        <time>2019-08-30T08:44:05.117000Z</time>
      </trkpt>
      <trkpt lat="37.84743317160405" lon="112.02791891531905">
        <ele>1102.61</ele>
        <time>2019-08-30T08:44:11.117000Z</time>
      </trkpt>
      <trkpt lat="37.847530258984804" lon="112.02762363565387">
        <ele>1101.48</ele>
        <time>2019-08-30T08:44:20.117000Z</time>
      </trkpt>
      <trkpt lat="37.84756172582098" lon="112.02738236261904">
        <ele>1103.16</ele>
        <time>2019-08-30T08:44:26.117000Z</time>
      </trkpt>
      <trkpt lat="37.84767384298287" lon="112.0270329768261">
        <ele>1106.91</ele>
        <time>2019-08-30T08:44:35.117000Z</time>
      </trkpt>
      <trkpt lat="37.84776029292769" lon="112.0266681839113">
        <ele>1111.95</ele>
        <time>2019-08-30T08:44:44.117000Z</time>
      </trkpt>
      <trkpt lat="37.84787617469705" lon="112.02647232436966">
        <ele>1108.97</ele>
        <time>2019-08-30T08:44:53.117000Z</time>
      </trkpt>
      <trkpt lat="37.847951912709796" lon="112.02641169790239">
        <ele>1109.18</ele>
        <time>2019-08-30T08:44:56.117000Z</time>
      </trkpt>
      <trkpt lat="37.84803486233519" lon="112.02642955807134">
        <ele>1107.51</ele>
        <time>2019-08-30T08:44:59.117000Z</time>
      </trkpt>
      <trkpt lat="37.84810957743158" lon="112.02643739597306">
        <ele>1107.45</ele>
        <time>2019-08-30T08:45:02.117000Z</time>
      </trkpt>
      <trkpt lat="37.848197079695346" lon="112.02645649429228">
        <ele>1107.41</ele>
        <time>2019-08-30T08:45:05.117000Z</time>
      </trkpt>
      <trkpt lat="37.8483034146888" lon="112.02649906678425">
        <ele>1109.14</ele>
        <time>2019-08-30T08:45:08.117000Z</time>
      </trkpt>
      <trkpt lat="37.848401524790035" lon="112.02651528565586">
        <ele>1112.15</ele>
        <time>2019-08-30T08:45:11.117000Z</time>
      </trkpt>
      <trkpt lat="37.84850224160082" lon="112.02654647793439">
        <ele>1112.69</ele>
        <time>2019-08-30T08:45:14.117000Z</time>
      </trkpt>
      <trkpt lat="37.84865819281969" lon="112.02656551397509">
        <ele>1109.84</ele>
        <time>2019-08-30T08:45:20.117000Z</time>
      </trkpt>
      <trkpt lat="37.84890118344388" lon="112.02655661969891">
        <ele>1111.19</ele>
        <time>2019-08-30T08:45:29.117000Z</time>
      </trkpt>
      <trkpt lat="37.84892260221809" lon="112.026500485155">
        <ele>1109.81</ele>
        <time>2019-08-30T08:45:32.117000Z</time>
      </trkpt>
      <trkpt lat="37.848943480260374" lon="112.02630203421703">
        <ele>1109.11</ele>
        <time>2019-08-30T08:45:38.117000Z</time>
      </trkpt>
      <trkpt lat="37.84895699589666" lon="112.02616808164494">
        <ele>1108.0</ele>
        <time>2019-08-30T08:45:41.117000Z</time>
      </trkpt>
      <trkpt lat="37.84896303553181" lon="112.02604979605397">
        <ele>1107.5</ele>
        <time>2019-08-30T08:45:44.117000Z</time>
      </trkpt>
      <trkpt lat="37.84897012577441" lon="112.02593748819181">
        <ele>1108.19</ele>
        <time>2019-08-30T08:45:47.117000Z</time>
      </trkpt>
      <trkpt lat="37.84895885778474" lon="112.02577700896805">
        <ele>1108.02</ele>
        <time>2019-08-30T08:45:50.117000Z</time>
      </trkpt>
      <trkpt lat="37.84896515678429" lon="112.02566594650726">
        <ele>1108.31</ele>
        <time>2019-08-30T08:45:53.117000Z</time>
      </trkpt>
      <trkpt lat="37.84894815132795" lon="112.02555714291033">
        <ele>1109.91</ele>
        <time>2019-08-30T08:45:56.117000Z</time>
      </trkpt>
      <trkpt lat="37.84895174721103" lon="112.02543403218121">
        <ele>1107.61</ele>
        <time>2019-08-30T08:45:59.117000Z</time>
      </trkpt>
      <trkpt lat="37.848973725078714" lon="112.02506655817301">
        <ele>1110.53</ele>
        <time>2019-08-30T08:46:08.117000Z</time>
      </trkpt>
      <trkpt lat="37.84897124568759" lon="112.02484049121902">
        <ele>1111.37</ele>
        <time>2019-08-30T08:46:14.117000Z</time>
      </trkpt>
      <trkpt lat="37.84904247069497" lon="112.02459779154782">
        <ele>1109.94</ele>
        <time>2019-08-30T08:46:23.117000Z</time>
      </trkpt>
      <trkpt lat="37.84905765338698" lon="112.02451171870823">
        <ele>1106.89</ele>
        <time>2019-08-30T08:46:26.117000Z</time>
      </trkpt>
      <trkpt lat="37.84910512714771" lon="112.02413080800555">
        <ele>1107.59</ele>
        <time>2019-08-30T08:46:38.117000Z</time>
      </trkpt>
      <trkpt lat="37.849105103762405" lon="112.02403140070453">
        <ele>1108.08</ele>
        <time>2019-08-30T08:46:41.117000Z</time>
      </trkpt>
      <trkpt lat="37.84908595464733" lon="112.02393962609945">
        <ele>1108.55</ele>
        <time>2019-08-30T08:46:44.117000Z</time>
      </trkpt>
      <trkpt lat="37.84907774729346" lon="112.02356511292373">
        <ele>1110.76</ele>
        <time>2019-08-30T08:46:53.117000Z</time>
      </trkpt>
      <trkpt lat="37.8490627616092" lon="112.02319769238818">
        <ele>1110.97</ele>
        <time>2019-08-30T08:47:02.117000Z</time>
      </trkpt>
      <trkpt lat="37.849064181422264" lon="112.02277649462043">
        <ele>1107.38</ele>
        <time>2019-08-30T08:47:14.117000Z</time>
      </trkpt>
      <trkpt lat="37.8490722659158" lon="112.0223189906899">
        <ele>1108.98</ele>
        <time>2019-08-30T08:47:26.117000Z</time>
      </trkpt>
      <trkpt lat="37.84907475431871" lon="112.02189945029549">
        <ele>1107.46</ele>
        <time>2019-08-30T08:47:38.117000Z</time>
      </trkpt>
      <trkpt lat="37.849078382901354" lon="112.02147907660094">
        <ele>1106.33</ele>
        <time>2019-08-30T08:47:50.117000Z</time>
      </trkpt>
      <trkpt lat="37.8490893478834" lon="112.02113519156467">
        <ele>1103.96</ele>
        <time>2019-08-30T08:47:59.117000Z</time>
      </trkpt>
      <trkpt lat="37.849077851039254" lon="112.0207242808553">
        <ele>1103.53</ele>
        <time>2019-08-30T08:48:11.117000Z</time>
      </trkpt>
      <trkpt lat="37.84908655348465" lon="112.02062745601867">
        <ele>1104.33</ele>
        <time>2019-08-30T08:48:14.117000Z</time>
      </trkpt>
      <trkpt lat="37.84906200846455" lon="112.0202074894726">
        <ele>1106.24</ele>
        <time>2019-08-30T08:48:26.117000Z</time>
      </trkpt>
      <trkpt lat="37.84909012326924" lon="112.01985394625773">
        <ele>1108.39</ele>
        <time>2019-08-30T08:48:35.117000Z</time>
      </trkpt>
      <trkpt lat="37.84909978724814" lon="112.0194429434575">
        <ele>1105.47</ele>
        <time>2019-08-30T08:48:47.117000Z</time>
      </trkpt>
      <trkpt lat="37.84913065537654" lon="112.01903626380597">
        <ele>1106.19</ele>
        <time>2019-08-30T08:48:59.117000Z</time>
      </trkpt>
      <trkpt lat="37.849151286470594" lon="112.01869858910105">
        <ele>1105.89</ele>
        <time>2019-08-30T08:49:08.117000Z</time>
      </trkpt>
      <trkpt lat="37.84916711742812" lon="112.01839713976608">
        <ele>1106.9</ele>
        <time>2019-08-30T08:49:17.117000Z</time>
      </trkpt>
      <trkpt lat="37.849181815502455" lon="112.01829192160591">
        <ele>1106.67</ele>
        <time>2019-08-30T08:49:20.117000Z</time>
      </trkpt>
      <trkpt lat="37.849199039926134" lon="112.01787321993659">
        <ele>1107.12</ele>
        <time>2019-08-30T08:49:32.117000Z</time>
      </trkpt>
      <trkpt lat="37.849246865082414" lon="112.01746728559165">
        <ele>1104.46</ele>
        <time>2019-08-30T08:49:44.117000Z</time>
      </trkpt>
      <trkpt lat="37.84929765144129" lon="112.01712835215561">
        <ele>1106.46</ele>
        <time>2019-08-30T08:49:53.117000Z</time>
      </trkpt>
      <trkpt lat="37.84934942284708" lon="112.01671290633264">
        <ele>1104.9</ele>
        <time>2019-08-30T08:50:05.117000Z</time>
      </trkpt>
      <trkpt lat="37.849391706324624" lon="112.0162833220094">
        <ele>1106.28</ele>
        <time>2019-08-30T08:50:17.117000Z</time>
      </trkpt>
      <trkpt lat="37.849442650107505" lon="112.01589493797597">
        <ele>1107.18</ele>
        <time>2019-08-30T08:50:29.117000Z</time>
      </trkpt>
      <trkpt lat="37.84949403524733" lon="112.01548543565826">
        <ele>1106.54</ele>
        <time>2019-08-30T08:50:41.117000Z</time>
      </trkpt>
      <trkpt lat="37.849536329221735" lon="112.01514699514792">
        <ele>1110.37</ele>
        <time>2019-08-30T08:50:50.117000Z</time>
      </trkpt>
      <trkpt lat="37.84958550412033" lon="112.01469978585">
        <ele>1107.72</ele>
        <time>2019-08-30T08:51:02.117000Z</time>
      </trkpt>
      <trkpt lat="37.84963054509039" lon="112.01427638117191">
        <ele>1112.41</ele>
        <time>2019-08-30T08:51:14.117000Z</time>
      </trkpt>
      <trkpt lat="37.849668866308015" lon="112.01383648341016">
        <ele>1113.13</ele>
        <time>2019-08-30T08:51:26.117000Z</time>
      </trkpt>
      <trkpt lat="37.84969127493426" lon="112.01344233599912">
        <ele>1110.25</ele>
        <time>2019-08-30T08:51:41.117000Z</time>
      </trkpt>
      <trkpt lat="37.849702011338714" lon="112.01302276475624">
        <ele>1110.28</ele>
        <time>2019-08-30T08:51:59.117000Z</time>
      </trkpt>
      <trkpt lat="37.84973384486079" lon="112.01263203278235">
        <ele>1107.62</ele>
        <time>2019-08-30T08:52:11.117000Z</time>
      </trkpt>
      <trkpt lat="37.84977241450488" lon="112.01219812016814">
        <ele>1108.59</ele>
        <time>2019-08-30T08:52:23.117000Z</time>
      </trkpt>
      <trkpt lat="37.84980430447436" lon="112.01179840788599">
        <ele>1106.69</ele>
        <time>2019-08-30T08:52:35.117000Z</time>
      </trkpt>
      <trkpt lat="37.84982720121122" lon="112.01139768988807">
        <ele>1109.96</ele>
        <time>2019-08-30T08:52:47.117000Z</time>
      </trkpt>
      <trkpt lat="37.84985327226533" lon="112.01098646975095">
        <ele>1109.68</ele>
        <time>2019-08-30T08:52:59.117000Z</time>
      </trkpt>
      <trkpt lat="37.849881015797806" lon="112.01064977737472">
        <ele>1112.26</ele>
        <time>2019-08-30T08:53:08.117000Z</time>
      </trkpt>
      <trkpt lat="37.84988575336685" lon="112.01022752157726">
        <ele>1114.27</ele>
        <time>2019-08-30T08:53:20.117000Z</time>
      </trkpt>
      <trkpt lat="37.849887157626284" lon="112.00975475200565">
        <ele>1117.9</ele>
        <time>2019-08-30T08:53:32.117000Z</time>
      </trkpt>
      <trkpt lat="37.84985026386878" lon="112.00934107064147">
        <ele>1120.38</ele>
        <time>2019-08-30T08:53:44.117000Z</time>
      </trkpt>
      <trkpt lat="37.84968058558208" lon="112.00897400230599">
        <ele>1118.43</ele>
        <time>2019-08-30T08:53:56.117000Z</time>
      </trkpt>
      <trkpt lat="37.84947301139111" lon="112.0086316280219">
        <ele>1119.45</ele>
        <time>2019-08-30T08:54:08.117000Z</time>
      </trkpt>
      <trkpt lat="37.849247066146496" lon="112.0083226961344">
        <ele>1118.1</ele>
        <time>2019-08-30T08:54:20.117000Z</time>
      </trkpt>
      <trkpt lat="37.849050991975005" lon="112.0080002454771">
        <ele>1117.61</ele>
        <time>2019-08-30T08:54:32.117000Z</time>
      </trkpt>
      <trkpt lat="37.84896456880381" lon="112.00782059194005">
        <ele>1118.59</ele>
        <time>2019-08-30T08:54:38.117000Z</time>
      </trkpt>
      <trkpt lat="37.84891518931856" lon="112.00773429314371">
        <ele>1119.8</ele>
        <time>2019-08-30T08:54:41.117000Z</time>
      </trkpt>
      <trkpt lat="37.84869490436424" lon="112.00746469362167">
        <ele>1118.78</ele>
        <time>2019-08-30T08:54:53.117000Z</time>
      </trkpt>
      <trkpt lat="37.848485155460445" lon="112.00717586796968">
        <ele>1116.98</ele>
        <time>2019-08-30T08:55:05.117000Z</time>
      </trkpt>
      <trkpt lat="37.84839017890334" lon="112.00703123402239">
        <ele>1117.68</ele>
        <time>2019-08-30T08:55:11.117000Z</time>
      </trkpt>
      <trkpt lat="37.848269134864914" lon="112.00691806505658">
        <ele>1117.39</ele>
        <time>2019-08-30T08:55:17.117000Z</time>
      </trkpt>
      <trkpt lat="37.84810416361883" lon="112.00683797751792">
        <ele>1118.15</ele>
        <time>2019-08-30T08:55:23.117000Z</time>
      </trkpt>
      <trkpt lat="37.8477625096077" lon="112.00675892375735">
        <ele>1120.87</ele>
        <time>2019-08-30T08:55:35.117000Z</time>
      </trkpt>
      <trkpt lat="37.84742519623207" lon="112.00672180711048">
        <ele>1122.65</ele>
        <time>2019-08-30T08:55:47.117000Z</time>
      </trkpt>
      <trkpt lat="37.847100553548835" lon="112.00669721011587">
        <ele>1125.71</ele>
        <time>2019-08-30T08:55:59.117000Z</time>
      </trkpt>
      <trkpt lat="37.8467978088139" lon="112.00666299442742">
        <ele>1128.31</ele>
        <time>2019-08-30T08:56:11.117000Z</time>
      </trkpt>
      <trkpt lat="37.84649157006879" lon="112.00660379304195">
        <ele>1125.09</ele>
        <time>2019-08-30T08:56:23.117000Z</time>
      </trkpt>
      <trkpt lat="37.8461752542931" lon="112.00654958761535">
        <ele>1125.54</ele>
        <time>2019-08-30T08:56:35.117000Z</time>
      </trkpt>
      <trkpt lat="37.84586561056986" lon="112.0064715932738">
        <ele>1124.09</ele>
        <time>2019-08-30T08:56:47.117000Z</time>
      </trkpt>
      <trkpt lat="37.84556109603539" lon="112.00637613756541">
        <ele>1123.75</ele>
        <time>2019-08-30T08:56:59.117000Z</time>
      </trkpt>
      <trkpt lat="37.84525785963699" lon="112.00626590978304">
        <ele>1126.72</ele>
        <time>2019-08-30T08:57:11.117000Z</time>
      </trkpt>
      <trkpt lat="37.84501332740254" lon="112.00619480902964">
        <ele>1129.73</ele>
        <time>2019-08-30T08:57:20.117000Z</time>
      </trkpt>
      <trkpt lat="37.84476991469128" lon="112.00615506403422">
        <ele>1131.35</ele>
        <time>2019-08-30T08:57:29.117000Z</time>
      </trkpt>
      <trkpt lat="37.84455880789123" lon="112.00611836721893">
        <ele>1127.27</ele>
        <time>2019-08-30T08:57:38.117000Z</time>
      </trkpt>
      <trkpt lat="37.84428570839837" lon="112.00623025780732">
        <ele>1130.33</ele>
        <time>2019-08-30T08:57:47.117000Z</time>
      </trkpt>
      <trkpt lat="37.84397226376747" lon="112.006378400009">
        <ele>1131.74</ele>
        <time>2019-08-30T08:57:59.117000Z</time>
      </trkpt>
      <trkpt lat="37.84374562814201" lon="112.00649629961185">
        <ele>1134.16</ele>
        <time>2019-08-30T08:58:08.117000Z</time>
      </trkpt>
      <trkpt lat="37.8434719468441" lon="112.00672210675651">
        <ele>1133.55</ele>
        <time>2019-08-30T08:58:20.117000Z</time>
      </trkpt>
      <trkpt lat="37.84319315491706" lon="112.00692596283393">
        <ele>1135.87</ele>
        <time>2019-08-30T08:58:32.117000Z</time>
      </trkpt>
      <trkpt lat="37.8429215036003" lon="112.00713877973892">
        <ele>1130.24</ele>
        <time>2019-08-30T08:58:44.117000Z</time>
      </trkpt>
      <trkpt lat="37.842618142783444" lon="112.00735792769385">
        <ele>1133.49</ele>
        <time>2019-08-30T08:58:56.117000Z</time>
      </trkpt>
      <trkpt lat="37.84243897941099" lon="112.00751179017745">
        <ele>1132.5</ele>
        <time>2019-08-30T08:59:05.117000Z</time>
      </trkpt>
      <trkpt lat="37.84215560458509" lon="112.0077331416499">
        <ele>1130.63</ele>
        <time>2019-08-30T08:59:17.117000Z</time>
      </trkpt>
      <trkpt lat="37.841853202861834" lon="112.0079427261853">
        <ele>1135.03</ele>
        <time>2019-08-30T08:59:29.117000Z</time>
      </trkpt>
      <trkpt lat="37.841543303323384" lon="112.00810443037868">
        <ele>1139.95</ele>
        <time>2019-08-30T08:59:41.117000Z</time>
      </trkpt>
      <trkpt lat="37.84129372419806" lon="112.00815352785965">
        <ele>1140.2</ele>
        <time>2019-08-30T08:59:50.117000Z</time>
      </trkpt>
      <trkpt lat="37.84099793071454" lon="112.00813185177904">
        <ele>1137.37</ele>
        <time>2019-08-30T09:00:02.117000Z</time>
      </trkpt>
      <trkpt lat="37.84066869307337" lon="112.00805813700461">
        <ele>1140.43</ele>
        <time>2019-08-30T09:00:14.117000Z</time>
      </trkpt>
      <trkpt lat="37.84036339089433" lon="112.00799470836374">
        <ele>1139.19</ele>
        <time>2019-08-30T09:00:26.117000Z</time>
      </trkpt>
      <trkpt lat="37.840100154932486" lon="112.00795802097873">
        <ele>1142.7</ele>
        <time>2019-08-30T09:00:35.117000Z</time>
      </trkpt>
      <trkpt lat="37.8397888554396" lon="112.00801748488622">
        <ele>1139.59</ele>
        <time>2019-08-30T09:00:47.117000Z</time>
      </trkpt>
      <trkpt lat="37.83962771364052" lon="112.0080587827026">
        <ele>1141.87</ele>
        <time>2019-08-30T09:00:53.117000Z</time>
      </trkpt>
      <trkpt lat="37.839301599448916" lon="112.00809083414345">
        <ele>1142.51</ele>
        <time>2019-08-30T09:01:05.117000Z</time>
      </trkpt>
      <trkpt lat="37.83913383746513" lon="112.00809389677869">
        <ele>1140.49</ele>
        <time>2019-08-30T09:01:11.117000Z</time>
      </trkpt>
      <trkpt lat="37.838804053419935" lon="112.00813696196516">
        <ele>1139.95</ele>
        <time>2019-08-30T09:01:23.117000Z</time>
      </trkpt>
      <trkpt lat="37.8384639151638" lon="112.00818897852452">
        <ele>1146.01</ele>
        <time>2019-08-30T09:01:35.117000Z</time>
      </trkpt>
      <trkpt lat="37.83830005611627" lon="112.00819468083154">
        <ele>1145.27</ele>
        <time>2019-08-30T09:01:41.117000Z</time>
      </trkpt>
      <trkpt lat="37.83799137112081" lon="112.0081016416046">
        <ele>1150.21</ele>
        <time>2019-08-30T09:01:53.117000Z</time>
      </trkpt>
      <trkpt lat="37.837921521864615" lon="112.00806077658632">
        <ele>1149.07</ele>
        <time>2019-08-30T09:01:56.117000Z</time>
      </trkpt>
      <trkpt lat="37.83777138891624" lon="112.00799845018452">
        <ele>1149.72</ele>
        <time>2019-08-30T09:02:02.117000Z</time>
      </trkpt>
      <trkpt lat="37.837469373322755" lon="112.00788953464347">
        <ele>1147.49</ele>
        <time>2019-08-30T09:02:14.117000Z</time>
      </trkpt>
      <trkpt lat="37.83716355329013" lon="112.00776165424527">
        <ele>1148.22</ele>
        <time>2019-08-30T09:02:26.117000Z</time>
      </trkpt>
      <trkpt lat="37.83685426108008" lon="112.00764269799056">
        <ele>1152.02</ele>
        <time>2019-08-30T09:02:38.117000Z</time>
      </trkpt>
      <trkpt lat="37.836549272857525" lon="112.0075445255484">
        <ele>1151.47</ele>
        <time>2019-08-30T09:02:50.117000Z</time>
      </trkpt>
      <trkpt lat="37.8362219732562" lon="112.00744501395629">
        <ele>1154.92</ele>
        <time>2019-08-30T09:03:02.117000Z</time>
      </trkpt>
      <trkpt lat="37.83589599223436" lon="112.00737026766932">
        <ele>1154.63</ele>
        <time>2019-08-30T09:03:14.117000Z</time>
      </trkpt>
      <trkpt lat="37.83554424095375" lon="112.00731185278855">
        <ele>1155.92</ele>
        <time>2019-08-30T09:03:26.117000Z</time>
      </trkpt>
      <trkpt lat="37.835467949689395" lon="112.00729190160155">
        <ele>1154.46</ele>
        <time>2019-08-30T09:03:29.117000Z</time>
      </trkpt>
      <trkpt lat="37.83540266028823" lon="112.00724598720514">
        <ele>1155.29</ele>
        <time>2019-08-30T09:03:32.117000Z</time>
      </trkpt>
      <trkpt lat="37.83531734618298" lon="112.00706385703756">
        <ele>1155.26</ele>
        <time>2019-08-30T09:03:38.117000Z</time>
      </trkpt>
      <trkpt lat="37.83525831149681" lon="112.00697539132827">
        <ele>1155.35</ele>
        <time>2019-08-30T09:03:41.117000Z</time>
      </trkpt>
      <trkpt lat="37.83518875427521" lon="112.006920958757">
        <ele>1154.24</ele>
        <time>2019-08-30T09:03:44.117000Z</time>
      </trkpt>
      <trkpt lat="37.83512266495197" lon="112.00686569290126">
        <ele>1153.29</ele>
        <time>2019-08-30T09:03:47.117000Z</time>
      </trkpt>
      <trkpt lat="37.83487728068188" lon="112.00685683516149">
        <ele>1152.47</ele>
        <time>2019-08-30T09:03:56.117000Z</time>
      </trkpt>
      <trkpt lat="37.834789939415785" lon="112.00688344832437">
        <ele>1153.89</ele>
        <time>2019-08-30T09:03:59.117000Z</time>
      </trkpt>
      <trkpt lat="37.83469253720922" lon="112.00692209206522">
        <ele>1153.91</ele>
        <time>2019-08-30T09:04:02.117000Z</time>
      </trkpt>
      <trkpt lat="37.834610985343275" lon="112.00691712605652">
        <ele>1155.37</ele>
        <time>2019-08-30T09:04:05.117000Z</time>
      </trkpt>
      <trkpt lat="37.834530257918374" lon="112.00690782140848">
        <ele>1153.69</ele>
        <time>2019-08-30T09:04:08.117000Z</time>
      </trkpt>
      <trkpt lat="37.834210372848915" lon="112.00681846239053">
        <ele>1155.73</ele>
        <time>2019-08-30T09:04:20.117000Z</time>
      </trkpt>
      <trkpt lat="37.83413591608851" lon="112.0067958462951">
        <ele>1156.73</ele>
        <time>2019-08-30T09:04:23.117000Z</time>
      </trkpt>
      <trkpt lat="37.833838308186955" lon="112.00669036737247">
        <ele>1156.94</ele>
        <time>2019-08-30T09:04:35.117000Z</time>
      </trkpt>
      <trkpt lat="37.833534789749585" lon="112.00660169295246">
        <ele>1161.8</ele>
        <time>2019-08-30T09:04:47.117000Z</time>
      </trkpt>
      <trkpt lat="37.833229637055375" lon="112.00649680209126">
        <ele>1162.85</ele>
        <time>2019-08-30T09:04:59.117000Z</time>
      </trkpt>
      <trkpt lat="37.833000837649124" lon="112.00642835454609">
        <ele>1161.28</ele>
        <time>2019-08-30T09:05:08.117000Z</time>
      </trkpt>
      <trkpt lat="37.83269767606975" lon="112.00628595009907">
        <ele>1162.81</ele>
        <time>2019-08-30T09:05:20.117000Z</time>
      </trkpt>
      <trkpt lat="37.83238642446212" lon="112.00614572876391">
        <ele>1158.45</ele>
        <time>2019-08-30T09:05:32.117000Z</time>
      </trkpt>
      <trkpt lat="37.832117413347994" lon="112.00608278000847">
        <ele>1157.6</ele>
        <time>2019-08-30T09:05:41.117000Z</time>
      </trkpt>
      <trkpt lat="37.83185506520843" lon="112.00608880136322">
        <ele>1159.32</ele>
        <time>2019-08-30T09:05:50.117000Z</time>
      </trkpt>
      <trkpt lat="37.83157302602573" lon="112.00608436014804">
        <ele>1159.43</ele>
        <time>2019-08-30T09:05:59.517000Z</time>
      </trkpt>
      <trkpt lat="37.83127773957078" lon="112.00611283705008">
        <ele>1163.88</ele>
        <time>2019-08-30T09:06:09.117000Z</time>
      </trkpt>
      <trkpt lat="37.83095898227575" lon="112.00615328421124">
        <ele>1160.83</ele>
        <time>2019-08-30T09:06:21.117000Z</time>
      </trkpt>
      <trkpt lat="37.830660069366054" lon="112.00616896587672">
        <ele>1164.09</ele>
        <time>2019-08-30T09:06:33.117000Z</time>
      </trkpt>
      <trkpt lat="37.830329308017205" lon="112.0061816608284">
        <ele>1166.23</ele>
        <time>2019-08-30T09:06:45.117000Z</time>
      </trkpt>
      <trkpt lat="37.82998604986833" lon="112.00617490279146">
        <ele>1170.16</ele>
        <time>2019-08-30T09:06:57.117000Z</time>
      </trkpt>
      <trkpt lat="37.829676521532505" lon="112.00617733843232">
        <ele>1175.26</ele>
        <time>2019-08-30T09:07:09.117000Z</time>
      </trkpt>
      <trkpt lat="37.82937827567517" lon="112.00617951103509">
        <ele>1175.76</ele>
        <time>2019-08-30T09:07:21.117000Z</time>
      </trkpt>
      <trkpt lat="37.8290780923599" lon="112.00618244663163">
        <ele>1173.67</ele>
        <time>2019-08-30T09:07:33.117000Z</time>
      </trkpt>
      <trkpt lat="37.82874297350846" lon="112.00618024961513">
        <ele>1173.7</ele>
        <time>2019-08-30T09:07:45.117000Z</time>
      </trkpt>
      <trkpt lat="37.82845511734121" lon="112.00620135403346">
        <ele>1174.17</ele>
        <time>2019-08-30T09:07:54.117000Z</time>
      </trkpt>
      <trkpt lat="37.828153020247335" lon="112.00623730165138">
        <ele>1179.17</ele>
        <time>2019-08-30T09:08:06.117000Z</time>
      </trkpt>
      <trkpt lat="37.82782248498441" lon="112.00629047090166">
        <ele>1179.89</ele>
        <time>2019-08-30T09:08:18.117000Z</time>
      </trkpt>
      <trkpt lat="37.82755313188796" lon="112.00632064096837">
        <ele>1179.3</ele>
        <time>2019-08-30T09:08:28.117000Z</time>
      </trkpt>
      <trkpt lat="37.82739752142843" lon="112.00630873003789">
        <ele>1176.25</ele>
        <time>2019-08-30T09:08:34.117000Z</time>
      </trkpt>
      <trkpt lat="37.827173125055566" lon="112.00631847427161">
        <ele>1176.47</ele>
        <time>2019-08-30T09:08:43.117000Z</time>
      </trkpt>
      <trkpt lat="37.82684949134232" lon="112.00639221266584">
        <ele>1181.31</ele>
        <time>2019-08-30T09:08:55.117000Z</time>
      </trkpt>
      <trkpt lat="37.82653054157883" lon="112.00644376858915">
        <ele>1185.85</ele>
        <time>2019-08-30T09:09:07.117000Z</time>
      </trkpt>
      <trkpt lat="37.82626591320462" lon="112.00651082515317">
        <ele>1187.93</ele>
        <time>2019-08-30T09:09:16.117000Z</time>
      </trkpt>
      <trkpt lat="37.8259471293495" lon="112.0065505478603">
        <ele>1189.65</ele>
        <time>2019-08-30T09:09:28.117000Z</time>
      </trkpt>
      <trkpt lat="37.825639870456406" lon="112.00652831246214">
        <ele>1195.51</ele>
        <time>2019-08-30T09:09:40.117000Z</time>
      </trkpt>
      <trkpt lat="37.82533004340202" lon="112.00648924997249">
        <ele>1191.95</ele>
        <time>2019-08-30T09:09:52.117000Z</time>
      </trkpt>
      <trkpt lat="37.82502701389449" lon="112.0064185129475">
        <ele>1188.58</ele>
        <time>2019-08-30T09:10:04.117000Z</time>
      </trkpt>
      <trkpt lat="37.824715098642635" lon="112.00635887592802">
        <ele>1192.25</ele>
        <time>2019-08-30T09:10:16.117000Z</time>
      </trkpt>
      <trkpt lat="37.82441469668817" lon="112.00629558870972">
        <ele>1192.84</ele>
        <time>2019-08-30T09:10:25.117000Z</time>
      </trkpt>
      <trkpt lat="37.82435061456443" lon="112.00630357351196">
        <ele>1194.93</ele>
        <time>2019-08-30T09:10:28.117000Z</time>
      </trkpt>
      <trkpt lat="37.824404936433936" lon="112.00627675741333">
        <ele>1192.8</ele>
        <time>2019-08-30T09:11:07.117000Z</time>
      </trkpt>
      <trkpt lat="37.82406686334636" lon="112.00620017582825">
        <ele>1192.54</ele>
        <time>2019-08-30T09:11:19.117000Z</time>
      </trkpt>
      <trkpt lat="37.82397216197994" lon="112.00616499454699">
        <ele>1190.19</ele>
        <time>2019-08-30T09:11:22.117000Z</time>
      </trkpt>
      <trkpt lat="37.82369325002307" lon="112.00611694420833">
        <ele>1192.64</ele>
        <time>2019-08-30T09:12:04.117000Z</time>
      </trkpt>
      <trkpt lat="37.823405480711585" lon="112.00614101837061">
        <ele>1190.15</ele>
        <time>2019-08-30T09:12:19.117000Z</time>
      </trkpt>
      <trkpt lat="37.823083050357674" lon="112.00616555507531">
        <ele>1191.91</ele>
        <time>2019-08-30T09:12:31.117000Z</time>
      </trkpt>
      <trkpt lat="37.822840584335026" lon="112.00618297247061">
        <ele>1194.99</ele>
        <time>2019-08-30T09:12:40.117000Z</time>
      </trkpt>
      <trkpt lat="37.82256497933114" lon="112.00609343608768">
        <ele>1193.11</ele>
        <time>2019-08-30T09:12:52.117000Z</time>
      </trkpt>
      <trkpt lat="37.82229542161578" lon="112.00595216764627">
        <ele>1199.22</ele>
        <time>2019-08-30T09:13:04.117000Z</time>
      </trkpt>
      <trkpt lat="37.82203111853062" lon="112.00580978433524">
        <ele>1199.29</ele>
        <time>2019-08-30T09:13:16.117000Z</time>
      </trkpt>
      <trkpt lat="37.821777049330215" lon="112.00561315001279">
        <ele>1201.88</ele>
        <time>2019-08-30T09:13:28.117000Z</time>
      </trkpt>
      <trkpt lat="37.82165375115045" lon="112.00550693596325">
        <ele>1206.73</ele>
        <time>2019-08-30T09:13:34.117000Z</time>
      </trkpt>
      <trkpt lat="37.821506147195514" lon="112.00541460073151">
        <ele>1209.57</ele>
        <time>2019-08-30T09:13:40.117000Z</time>
      </trkpt>
      <trkpt lat="37.82126169767787" lon="112.00518763268978">
        <ele>1210.65</ele>
        <time>2019-08-30T09:13:52.117000Z</time>
      </trkpt>
      <trkpt lat="37.82099981826434" lon="112.00496784540614">
        <ele>1212.22</ele>
        <time>2019-08-30T09:14:04.117000Z</time>
      </trkpt>
      <trkpt lat="37.82075900801922" lon="112.00478773422898">
        <ele>1208.5</ele>
        <time>2019-08-30T09:14:15.117000Z</time>
      </trkpt>
      <trkpt lat="37.82054184211544" lon="112.00456988417223">
        <ele>1212.0</ele>
        <time>2019-08-30T09:14:24.117000Z</time>
      </trkpt>
      <trkpt lat="37.82047069847204" lon="112.0044900707045">
        <ele>1212.47</ele>
        <time>2019-08-30T09:14:27.117000Z</time>
      </trkpt>
      <trkpt lat="37.820692761062425" lon="112.00468301163075">
        <ele>1205.77</ele>
        <time>2019-08-30T09:14:57.117000Z</time>
      </trkpt>
      <trkpt lat="37.82092683652638" lon="112.00486409884573">
        <ele>1202.43</ele>
        <time>2019-08-30T09:15:15.117000Z</time>
      </trkpt>
      <trkpt lat="37.82120203171761" lon="112.00502957506342">
        <ele>1204.82</ele>
        <time>2019-08-30T09:15:27.117000Z</time>
      </trkpt>
      <trkpt lat="37.82141202414525" lon="112.00521410167867">
        <ele>1205.11</ele>
        <time>2019-08-30T09:15:36.117000Z</time>
      </trkpt>
      <trkpt lat="37.82170360261268" lon="112.0054435265248">
        <ele>1205.23</ele>
        <time>2019-08-30T09:15:48.117000Z</time>
      </trkpt>
      <trkpt lat="37.821978438616526" lon="112.00567619864441">
        <ele>1200.3</ele>
        <time>2019-08-30T09:16:00.117000Z</time>
      </trkpt>
      <trkpt lat="37.82227488370972" lon="112.0058772699302">
        <ele>1202.13</ele>
        <time>2019-08-30T09:16:12.117000Z</time>
      </trkpt>
      <trkpt lat="37.822519305679265" lon="112.00601850093292">
        <ele>1197.21</ele>
        <time>2019-08-30T09:16:21.117000Z</time>
      </trkpt>
      <trkpt lat="37.82278384171605" lon="112.00613045389832">
        <ele>1198.58</ele>
        <time>2019-08-30T09:16:30.117000Z</time>
      </trkpt>
      <trkpt lat="37.82305363757775" lon="112.0061613178715">
        <ele>1192.43</ele>
        <time>2019-08-30T09:16:39.117000Z</time>
      </trkpt>
      <trkpt lat="37.82339236891484" lon="112.00612792318925">
        <ele>1190.4</ele>
        <time>2019-08-30T09:16:51.117000Z</time>
      </trkpt>
      <trkpt lat="37.823579437149775" lon="112.00610822913735">
        <ele>1188.77</ele>
        <time>2019-08-30T09:16:57.117000Z</time>
      </trkpt>
      <trkpt lat="37.823862977471634" lon="112.00613789304792">
        <ele>1191.25</ele>
        <time>2019-08-30T09:17:06.117000Z</time>
      </trkpt>
      <trkpt lat="37.824151836494224" lon="112.00621070471153">
        <ele>1191.73</ele>
        <time>2019-08-30T09:17:15.117000Z</time>
      </trkpt>
      <trkpt lat="37.824434696231236" lon="112.00627338964202">
        <ele>1188.98</ele>
        <time>2019-08-30T09:17:24.117000Z</time>
      </trkpt>
      <trkpt lat="37.824740732934465" lon="112.0063422682563">
        <ele>1187.05</ele>
        <time>2019-08-30T09:17:36.117000Z</time>
      </trkpt>
      <trkpt lat="37.82501227042726" lon="112.0063909470568">
        <ele>1187.35</ele>
        <time>2019-08-30T09:17:45.117000Z</time>
      </trkpt>
      <trkpt lat="37.82539986826684" lon="112.00647075726577">
        <ele>1190.39</ele>
        <time>2019-08-30T09:17:58.117000Z</time>
      </trkpt>
      <trkpt lat="37.82564224814283" lon="112.00651527901618">
        <ele>1187.97</ele>
        <time>2019-08-30T09:18:07.117000Z</time>
      </trkpt>
      <trkpt lat="37.82591744602946" lon="112.0065153733395">
        <ele>1188.58</ele>
        <time>2019-08-30T09:18:16.117000Z</time>
      </trkpt>
      <trkpt lat="37.82618889002769" lon="112.00652304625193">
        <ele>1185.52</ele>
        <time>2019-08-30T09:18:25.117000Z</time>
      </trkpt>
      <trkpt lat="37.826471178778284" lon="112.00646908670278">
        <ele>1183.65</ele>
        <time>2019-08-30T09:18:34.117000Z</time>
      </trkpt>
      <trkpt lat="37.82665697990637" lon="112.0064245441555">
        <ele>1184.55</ele>
        <time>2019-08-30T09:18:40.117000Z</time>
      </trkpt>
      <trkpt lat="37.82694599153106" lon="112.00639983311036">
        <ele>1182.84</ele>
        <time>2019-08-30T09:18:49.117000Z</time>
      </trkpt>
      <trkpt lat="37.82728345921069" lon="112.00636177031038">
        <ele>1185.25</ele>
        <time>2019-08-30T09:19:01.117000Z</time>
      </trkpt>
      <trkpt lat="37.82756864440371" lon="112.00635634426476">
        <ele>1184.11</ele>
        <time>2019-08-30T09:19:10.117000Z</time>
      </trkpt>
      <trkpt lat="37.8278452791999" lon="112.00630109906396">
        <ele>1179.5</ele>
        <time>2019-08-30T09:19:19.117000Z</time>
      </trkpt>
      <trkpt lat="37.82816410556564" lon="112.0062295294507">
        <ele>1174.41</ele>
        <time>2019-08-30T09:19:31.117000Z</time>
      </trkpt>
      <trkpt lat="37.828457938963155" lon="112.00620672121057">
        <ele>1172.31</ele>
        <time>2019-08-30T09:19:40.117000Z</time>
      </trkpt>
      <trkpt lat="37.82877192552567" lon="112.0062113250565">
        <ele>1169.9</ele>
        <time>2019-08-30T09:19:49.117000Z</time>
      </trkpt>
      <trkpt lat="37.829053817123445" lon="112.00617896464541">
        <ele>1173.16</ele>
        <time>2019-08-30T09:19:58.117000Z</time>
      </trkpt>
      <trkpt lat="37.82934178275705" lon="112.00618240687298">
        <ele>1174.08</ele>
        <time>2019-08-30T09:20:07.117000Z</time>
      </trkpt>
      <trkpt lat="37.82962061944023" lon="112.00618722604906">
        <ele>1170.32</ele>
        <time>2019-08-30T09:20:16.117000Z</time>
      </trkpt>
      <trkpt lat="37.82990886361316" lon="112.00617347125932">
        <ele>1170.27</ele>
        <time>2019-08-30T09:20:25.117000Z</time>
      </trkpt>
      <trkpt lat="37.83027184130799" lon="112.0062028185506">
        <ele>1163.3</ele>
        <time>2019-08-30T09:20:37.117000Z</time>
      </trkpt>
      <trkpt lat="37.8306162689015" lon="112.00621197210593">
        <ele>1161.69</ele>
        <time>2019-08-30T09:20:49.117000Z</time>
      </trkpt>
      <trkpt lat="37.83090412981726" lon="112.0061899839129">
        <ele>1163.05</ele>
        <time>2019-08-30T09:20:58.117000Z</time>
      </trkpt>
      <trkpt lat="37.83117586549989" lon="112.0061690257477">
        <ele>1158.33</ele>
        <time>2019-08-30T09:21:07.117000Z</time>
      </trkpt>
      <trkpt lat="37.83144777482046" lon="112.00615809991108">
        <ele>1159.29</ele>
        <time>2019-08-30T09:21:16.117000Z</time>
      </trkpt>
      <trkpt lat="37.831731966866606" lon="112.00612930731232">
        <ele>1166.53</ele>
        <time>2019-08-30T09:21:25.117000Z</time>
      </trkpt>
      <trkpt lat="37.83201352419976" lon="112.00612361408156">
        <ele>1161.03</ele>
        <time>2019-08-30T09:21:34.117000Z</time>
      </trkpt>
      <trkpt lat="37.832378984058984" lon="112.00613684800274">
        <ele>1162.12</ele>
        <time>2019-08-30T09:21:46.117000Z</time>
      </trkpt>
      <trkpt lat="37.83254638392505" lon="112.00617654434332">
        <ele>1163.42</ele>
        <time>2019-08-30T09:21:52.117000Z</time>
      </trkpt>
      <trkpt lat="37.83262036197806" lon="112.0062148900524">
        <ele>1160.93</ele>
        <time>2019-08-30T09:21:55.117000Z</time>
      </trkpt>
      <trkpt lat="37.83292051349109" lon="112.00636997493018">
        <ele>1158.73</ele>
        <time>2019-08-30T09:22:07.117000Z</time>
      </trkpt>
      <trkpt lat="37.83317804062345" lon="112.00647367435654">
        <ele>1159.09</ele>
        <time>2019-08-30T09:22:16.117000Z</time>
      </trkpt>
      <trkpt lat="37.83345850233745" lon="112.0065702763906">
        <ele>1159.06</ele>
        <time>2019-08-30T09:22:25.117000Z</time>
      </trkpt>
      <trkpt lat="37.83380170326658" lon="112.00667971330748">
        <ele>1157.09</ele>
        <time>2019-08-30T09:22:37.117000Z</time>
      </trkpt>
      <trkpt lat="37.83407643699533" lon="112.00676854229081">
        <ele>1153.46</ele>
        <time>2019-08-30T09:22:46.117000Z</time>
      </trkpt>
      <trkpt lat="37.834352766559505" lon="112.00685274162133">
        <ele>1152.19</ele>
        <time>2019-08-30T09:22:55.117000Z</time>
      </trkpt>
      <trkpt lat="37.834630991544245" lon="112.00692239636255">
        <ele>1153.84</ele>
        <time>2019-08-30T09:23:04.117000Z</time>
      </trkpt>
      <trkpt lat="37.83472399993277" lon="112.00693963756885">
        <ele>1152.71</ele>
        <time>2019-08-30T09:23:07.117000Z</time>
      </trkpt>
      <trkpt lat="37.83499988907522" lon="112.00688421316534">
        <ele>1150.39</ele>
        <time>2019-08-30T09:23:16.117000Z</time>
      </trkpt>
      <trkpt lat="37.835088519865806" lon="112.00687423110595">
        <ele>1150.17</ele>
        <time>2019-08-30T09:23:19.117000Z</time>
      </trkpt>
      <trkpt lat="37.83517675856477" lon="112.00687280142859">
        <ele>1150.6</ele>
        <time>2019-08-30T09:23:22.117000Z</time>
      </trkpt>
      <trkpt lat="37.83524953839852" lon="112.00687779950063">
        <ele>1150.48</ele>
        <time>2019-08-30T09:23:25.117000Z</time>
      </trkpt>
      <trkpt lat="37.835328508064435" lon="112.0069196148369">
        <ele>1150.55</ele>
        <time>2019-08-30T09:23:28.117000Z</time>
      </trkpt>
      <trkpt lat="37.83540032644975" lon="112.00699663188642">
        <ele>1150.35</ele>
        <time>2019-08-30T09:23:31.117000Z</time>
      </trkpt>
      <trkpt lat="37.83547579489209" lon="112.0072001140386">
        <ele>1151.57</ele>
        <time>2019-08-30T09:23:37.117000Z</time>
      </trkpt>
      <trkpt lat="37.835511740310615" lon="112.00726977010439">
        <ele>1150.51</ele>
        <time>2019-08-30T09:23:40.117000Z</time>
      </trkpt>
      <trkpt lat="37.83559337846959" lon="112.00733400602637">
        <ele>1149.21</ele>
        <time>2019-08-30T09:23:43.117000Z</time>
      </trkpt>
      <trkpt lat="37.83567464164022" lon="112.00737004994501">
        <ele>1149.82</ele>
        <time>2019-08-30T09:23:46.117000Z</time>
      </trkpt>
      <trkpt lat="37.83592880372028" lon="112.00742289275387">
        <ele>1151.97</ele>
        <time>2019-08-30T09:23:55.117000Z</time>
      </trkpt>
      <trkpt lat="37.836016402609765" lon="112.0074365740093">
        <ele>1151.77</ele>
        <time>2019-08-30T09:23:58.117000Z</time>
      </trkpt>
      <trkpt lat="37.83610105756975" lon="112.00744480411949">
        <ele>1152.2</ele>
        <time>2019-08-30T09:24:01.117000Z</time>
      </trkpt>
      <trkpt lat="37.83646736921648" lon="112.00753675141297">
        <ele>1150.46</ele>
        <time>2019-08-30T09:24:13.117000Z</time>
      </trkpt>
      <trkpt lat="37.83680702153957" lon="112.00766148968634">
        <ele>1146.64</ele>
        <time>2019-08-30T09:24:25.117000Z</time>
      </trkpt>
      <trkpt lat="37.83712955530863" lon="112.00779919445395">
        <ele>1145.37</ele>
        <time>2019-08-30T09:24:37.117000Z</time>
      </trkpt>
      <trkpt lat="37.837466118776575" lon="112.00791851011104">
        <ele>1142.43</ele>
        <time>2019-08-30T09:24:49.117000Z</time>
      </trkpt>
      <trkpt lat="37.83755108500733" lon="112.00793640089627">
        <ele>1142.78</ele>
        <time>2019-08-30T09:24:52.117000Z</time>
      </trkpt>
      <trkpt lat="37.83783715676395" lon="112.00803564169469">
        <ele>1142.65</ele>
        <time>2019-08-30T09:25:01.117000Z</time>
      </trkpt>
      <trkpt lat="37.83815796849994" lon="112.00813891850544">
        <ele>1143.83</ele>
        <time>2019-08-30T09:25:10.117000Z</time>
      </trkpt>
      <trkpt lat="37.83844814185769" lon="112.00822869591813">
        <ele>1142.83</ele>
        <time>2019-08-30T09:25:19.117000Z</time>
      </trkpt>
      <trkpt lat="37.83873179169783" lon="112.00821419009537">
        <ele>1143.76</ele>
        <time>2019-08-30T09:25:28.117000Z</time>
      </trkpt>
      <trkpt lat="37.83902489506456" lon="112.00818784973283">
        <ele>1140.3</ele>
        <time>2019-08-30T09:25:37.117000Z</time>
      </trkpt>
      <trkpt lat="37.839228121301105" lon="112.00813434337469">
        <ele>1141.77</ele>
        <time>2019-08-30T09:25:43.117000Z</time>
      </trkpt>
      <trkpt lat="37.839598661500474" lon="112.00811562981134">
        <ele>1136.89</ele>
        <time>2019-08-30T09:25:55.117000Z</time>
      </trkpt>
      <trkpt lat="37.839891453643595" lon="112.00807891775253">
        <ele>1136.7</ele>
        <time>2019-08-30T09:26:04.117000Z</time>
      </trkpt>
      <trkpt lat="37.840169131257056" lon="112.00803050683058">
        <ele>1136.87</ele>
        <time>2019-08-30T09:26:13.117000Z</time>
      </trkpt>
      <trkpt lat="37.84043266377007" lon="112.0080391362833">
        <ele>1137.94</ele>
        <time>2019-08-30T09:26:22.117000Z</time>
      </trkpt>
      <trkpt lat="37.84060520020444" lon="112.00808889719362">
        <ele>1136.29</ele>
        <time>2019-08-30T09:26:28.117000Z</time>
      </trkpt>
      <trkpt lat="37.840945949585944" lon="112.0081580436188">
        <ele>1133.03</ele>
        <time>2019-08-30T09:26:40.117000Z</time>
      </trkpt>
      <trkpt lat="37.841231772964875" lon="112.00816090553832">
        <ele>1135.29</ele>
        <time>2019-08-30T09:26:49.117000Z</time>
      </trkpt>
      <trkpt lat="37.84141162497927" lon="112.00815170527507">
        <ele>1137.25</ele>
        <time>2019-08-30T09:26:55.117000Z</time>
      </trkpt>
      <trkpt lat="37.84173004930095" lon="112.00803471925539">
        <ele>1131.07</ele>
        <time>2019-08-30T09:27:07.117000Z</time>
      </trkpt>
      <trkpt lat="37.84197565406139" lon="112.00789255336508">
        <ele>1131.39</ele>
        <time>2019-08-30T09:27:16.117000Z</time>
      </trkpt>
      <trkpt lat="37.842221393715434" lon="112.00773011902363">
        <ele>1132.31</ele>
        <time>2019-08-30T09:27:25.117000Z</time>
      </trkpt>
      <trkpt lat="37.84253604157419" lon="112.00752254301521">
        <ele>1128.95</ele>
        <time>2019-08-30T09:27:37.117000Z</time>
      </trkpt>
      <trkpt lat="37.842768928334806" lon="112.0073449670453">
        <ele>1129.12</ele>
        <time>2019-08-30T09:27:46.117000Z</time>
      </trkpt>
      <trkpt lat="37.843072113836996" lon="112.0071356214682">
        <ele>1127.94</ele>
        <time>2019-08-30T09:27:58.117000Z</time>
      </trkpt>
      <trkpt lat="37.84322358555439" lon="112.00699100278729">
        <ele>1128.81</ele>
        <time>2019-08-30T09:28:04.117000Z</time>
      </trkpt>
      <trkpt lat="37.843465647549564" lon="112.00680925084133">
        <ele>1127.82</ele>
        <time>2019-08-30T09:28:13.117000Z</time>
      </trkpt>
      <trkpt lat="37.84369891960649" lon="112.00661470065562">
        <ele>1126.85</ele>
        <time>2019-08-30T09:28:22.117000Z</time>
      </trkpt>
      <trkpt lat="37.84400428746033" lon="112.0064059069042">
        <ele>1123.55</ele>
        <time>2019-08-30T09:28:34.117000Z</time>
      </trkpt>
      <trkpt lat="37.84430390189062" lon="112.00622836724231">
        <ele>1122.19</ele>
        <time>2019-08-30T09:28:46.117000Z</time>
      </trkpt>
      <trkpt lat="37.84446965327323" lon="112.00615110857107">
        <ele>1120.51</ele>
        <time>2019-08-30T09:28:52.117000Z</time>
      </trkpt>
      <trkpt lat="37.844821120950165" lon="112.00619541072727">
        <ele>1120.62</ele>
        <time>2019-08-30T09:29:04.117000Z</time>
      </trkpt>
      <trkpt lat="37.84514867738179" lon="112.00625698488584">
        <ele>1123.32</ele>
        <time>2019-08-30T09:29:13.117000Z</time>
      </trkpt>
      <trkpt lat="37.84543563519423" lon="112.00633179711377">
        <ele>1123.41</ele>
        <time>2019-08-30T09:29:22.117000Z</time>
      </trkpt>
      <trkpt lat="37.84570275443435" lon="112.0064301544239">
        <ele>1121.0</ele>
        <time>2019-08-30T09:29:31.117000Z</time>
      </trkpt>
      <trkpt lat="37.84602783503105" lon="112.0065588292934">
        <ele>1117.22</ele>
        <time>2019-08-30T09:29:43.117000Z</time>
      </trkpt>
      <trkpt lat="37.84632066803078" lon="112.00662810372366">
        <ele>1112.84</ele>
        <time>2019-08-30T09:29:55.117000Z</time>
      </trkpt>
      <trkpt lat="37.84639461767645" lon="112.0066229362086">
        <ele>1114.55</ele>
        <time>2019-08-30T09:29:58.117000Z</time>
      </trkpt>
      <trkpt lat="37.846485670264656" lon="112.00654451018693">
        <ele>1116.09</ele>
        <time>2019-08-30T09:30:04.117000Z</time>
      </trkpt>
      <trkpt lat="37.846516896054176" lon="112.00649206651154">
        <ele>1116.61</ele>
        <time>2019-08-30T09:30:07.117000Z</time>
      </trkpt>
      <trkpt lat="37.84654864276543" lon="112.0064222118115">
        <ele>1117.04</ele>
        <time>2019-08-30T09:30:10.117000Z</time>
      </trkpt>
      <trkpt lat="37.84656552395428" lon="112.00633561284003">
        <ele>1118.93</ele>
        <time>2019-08-30T09:30:13.117000Z</time>
      </trkpt>
      <trkpt lat="37.846635211567346" lon="112.0062710381528">
        <ele>1122.16</ele>
        <time>2019-08-30T09:30:19.217000Z</time>
      </trkpt>
      <trkpt lat="37.84682847024357" lon="112.00623206390914">
        <ele>1124.03</ele>
        <time>2019-08-30T09:30:37.117000Z</time>
      </trkpt>
      <trkpt lat="37.84695821162602" lon="112.00626657482366">
        <ele>1126.12</ele>
        <time>2019-08-30T09:30:49.117000Z</time>
      </trkpt>
      <trkpt lat="37.84703533118294" lon="112.0062533132715">
        <ele>1125.55</ele>
        <time>2019-08-30T09:30:55.117000Z</time>
      </trkpt>
      <trkpt lat="37.84733615037406" lon="112.00629127061937">
        <ele>1126.51</ele>
        <time>2019-08-30T09:31:16.117000Z</time>
      </trkpt>
      <trkpt lat="37.84756595153019" lon="112.00625265821631">
        <ele>1124.87</ele>
        <time>2019-08-30T09:31:25.117000Z</time>
      </trkpt>
      <trkpt lat="37.84783314139045" lon="112.00619118660573">
        <ele>1122.92</ele>
        <time>2019-08-30T09:31:37.117000Z</time>
      </trkpt>
      <trkpt lat="37.84789613652743" lon="112.00620802146426">
        <ele>1122.64</ele>
        <time>2019-08-30T09:31:40.117000Z</time>
      </trkpt>
      <trkpt lat="37.84796634083215" lon="112.00648874364599">
        <ele>1123.63</ele>
        <time>2019-08-30T09:31:49.117000Z</time>
      </trkpt>
      <trkpt lat="37.84799963555105" lon="112.00660670944161">
        <ele>1124.43</ele>
        <time>2019-08-30T09:31:52.117000Z</time>
      </trkpt>
      <trkpt lat="37.84803410326844" lon="112.00673498020471">
        <ele>1126.02</ele>
        <time>2019-08-30T09:31:55.117000Z</time>
      </trkpt>
      <trkpt lat="37.84813161838989" lon="112.00692083843559">
        <ele>1128.55</ele>
        <time>2019-08-30T09:32:01.117000Z</time>
      </trkpt>
      <trkpt lat="37.84819538533743" lon="112.00698732821525">
        <ele>1129.4</ele>
        <time>2019-08-30T09:32:04.117000Z</time>
      </trkpt>
      <trkpt lat="37.84825161140066" lon="112.00701065281639">
        <ele>1125.02</ele>
        <time>2019-08-30T09:32:07.117000Z</time>
      </trkpt>
      <trkpt lat="37.8483310263801" lon="112.00701673751936">
        <ele>1125.63</ele>
        <time>2019-08-30T09:32:10.117000Z</time>
      </trkpt>
      <trkpt lat="37.84840818713987" lon="112.00706874430371">
        <ele>1127.25</ele>
        <time>2019-08-30T09:32:13.117000Z</time>
      </trkpt>
      <trkpt lat="37.848657097208665" lon="112.0073701346236">
        <ele>1128.63</ele>
        <time>2019-08-30T09:32:25.117000Z</time>
      </trkpt>
      <trkpt lat="37.84883018520396" lon="112.00769536618351">
        <ele>1120.19</ele>
        <time>2019-08-30T09:32:37.117000Z</time>
      </trkpt>
      <trkpt lat="37.849046799150514" lon="112.00802276109752">
        <ele>1122.31</ele>
        <time>2019-08-30T09:32:49.117000Z</time>
      </trkpt>
      <trkpt lat="37.8492378051141" lon="112.00827663829561">
        <ele>1125.74</ele>
        <time>2019-08-30T09:32:58.117000Z</time>
      </trkpt>
      <trkpt lat="37.84942415310239" lon="112.00859697595983">
        <ele>1125.36</ele>
        <time>2019-08-30T09:33:07.117000Z</time>
      </trkpt>
      <trkpt lat="37.84962951492463" lon="112.00887809256615">
        <ele>1121.61</ele>
        <time>2019-08-30T09:33:16.117000Z</time>
      </trkpt>
      <trkpt lat="37.84981246450135" lon="112.00914481545685">
        <ele>1118.72</ele>
        <time>2019-08-30T09:33:25.117000Z</time>
      </trkpt>
      <trkpt lat="37.84986334440306" lon="112.00923137563235">
        <ele>1119.15</ele>
        <time>2019-08-30T09:33:28.117000Z</time>
      </trkpt>
      <trkpt lat="37.84995388782575" lon="112.00958607637284">
        <ele>1120.8</ele>
        <time>2019-08-30T09:33:37.117000Z</time>
      </trkpt>
      <trkpt lat="37.84995077946861" lon="112.0099484022545">
        <ele>1119.24</ele>
        <time>2019-08-30T09:33:46.117000Z</time>
      </trkpt>
      <trkpt lat="37.84995221866859" lon="112.01029042274402">
        <ele>1118.04</ele>
        <time>2019-08-30T09:33:55.117000Z</time>
      </trkpt>
      <trkpt lat="37.84992451140548" lon="112.01048059520687">
        <ele>1112.75</ele>
        <time>2019-08-30T09:34:01.117000Z</time>
      </trkpt>
      <trkpt lat="37.84991716959613" lon="112.01057718751275">
        <ele>1114.51</ele>
        <time>2019-08-30T09:34:04.117000Z</time>
      </trkpt>
      <trkpt lat="37.849906544838156" lon="112.01091718082873">
        <ele>1113.48</ele>
        <time>2019-08-30T09:34:13.117000Z</time>
      </trkpt>
      <trkpt lat="37.84988391693995" lon="112.01126420714071">
        <ele>1116.66</ele>
        <time>2019-08-30T09:34:22.117000Z</time>
      </trkpt>
      <trkpt lat="37.84985181319046" lon="112.01150269155012">
        <ele>1118.84</ele>
        <time>2019-08-30T09:34:28.817000Z</time>
      </trkpt>
      <trkpt lat="37.849788950828035" lon="112.01196318588092">
        <ele>1121.1</ele>
        <time>2019-08-30T09:34:41.117000Z</time>
      </trkpt>
      <trkpt lat="37.84974424670917" lon="112.01230344271099">
        <ele>1122.27</ele>
        <time>2019-08-30T09:34:50.117000Z</time>
      </trkpt>
      <trkpt lat="37.8497022847749" lon="112.01260846547939">
        <ele>1115.58</ele>
        <time>2019-08-30T09:34:59.117000Z</time>
      </trkpt>
      <trkpt lat="37.84970695941477" lon="112.01299941254103">
        <ele>1114.61</ele>
        <time>2019-08-30T09:35:08.117000Z</time>
      </trkpt>
      <trkpt lat="37.849681285989845" lon="112.01319932631665">
        <ele>1113.09</ele>
        <time>2019-08-30T09:35:14.117000Z</time>
      </trkpt>
      <trkpt lat="37.84966124416501" lon="112.0132932333636">
        <ele>1114.02</ele>
        <time>2019-08-30T09:35:17.117000Z</time>
      </trkpt>
      <trkpt lat="37.84965264495747" lon="112.01339552790938">
        <ele>1115.56</ele>
        <time>2019-08-30T09:35:20.117000Z</time>
      </trkpt>
      <trkpt lat="37.84961089002659" lon="112.013798007561">
        <ele>1108.9</ele>
        <time>2019-08-30T09:35:32.117000Z</time>
      </trkpt>
      <trkpt lat="37.8495636587077" lon="112.01423169441809">
        <ele>1110.65</ele>
        <time>2019-08-30T09:35:44.117000Z</time>
      </trkpt>
      <trkpt lat="37.84954968819476" lon="112.01448610397422">
        <ele>1113.86</ele>
        <time>2019-08-30T09:35:50.117000Z</time>
      </trkpt>
      <trkpt lat="37.849504790434004" lon="112.01483749727029">
        <ele>1112.12</ele>
        <time>2019-08-30T09:35:59.117000Z</time>
      </trkpt>
      <trkpt lat="37.84945179864675" lon="112.01529412409397">
        <ele>1106.19</ele>
        <time>2019-08-30T09:36:11.117000Z</time>
      </trkpt>
      <trkpt lat="37.8494066749794" lon="112.0157362555612">
        <ele>1105.41</ele>
        <time>2019-08-30T09:36:23.117000Z</time>
      </trkpt>
      <trkpt lat="37.84938973365323" lon="112.01598205359537">
        <ele>1108.13</ele>
        <time>2019-08-30T09:36:29.117000Z</time>
      </trkpt>
      <trkpt lat="37.849331710918165" lon="112.0163202835753">
        <ele>1106.44</ele>
        <time>2019-08-30T09:36:38.117000Z</time>
      </trkpt>
      <trkpt lat="37.84929454142514" lon="112.01678124579718">
        <ele>1107.32</ele>
        <time>2019-08-30T09:36:50.117000Z</time>
      </trkpt>
      <trkpt lat="37.84926247069852" lon="112.0171567102223">
        <ele>1107.93</ele>
        <time>2019-08-30T09:36:59.117000Z</time>
      </trkpt>
      <trkpt lat="37.84925767431032" lon="112.01736871926794">
        <ele>1107.85</ele>
        <time>2019-08-30T09:37:05.117000Z</time>
      </trkpt>
      <trkpt lat="37.84920309167387" lon="112.01770785872473">
        <ele>1108.7</ele>
        <time>2019-08-30T09:37:14.117000Z</time>
      </trkpt>
      <trkpt lat="37.84919756298338" lon="112.01783849735247">
        <ele>1108.11</ele>
        <time>2019-08-30T09:37:17.117000Z</time>
      </trkpt>
      <trkpt lat="37.84920388270892" lon="112.01807999656478">
        <ele>1112.43</ele>
        <time>2019-08-30T09:37:23.117000Z</time>
      </trkpt>
      <trkpt lat="37.84922018235251" lon="112.01806128143768">
        <ele>1104.49</ele>
        <time>2019-08-30T09:37:29.117000Z</time>
      </trkpt>
      <trkpt lat="37.849240107779345" lon="112.017759947766">
        <ele>1100.52</ele>
        <time>2019-08-30T09:37:38.117000Z</time>
      </trkpt>
      <trkpt lat="37.849282232364956" lon="112.01738478504656">
        <ele>1101.62</ele>
        <time>2019-08-30T09:37:47.117000Z</time>
      </trkpt>
      <trkpt lat="37.84932410167579" lon="112.01699315670413">
        <ele>1104.62</ele>
        <time>2019-08-30T09:37:56.117000Z</time>
      </trkpt>
      <trkpt lat="37.84936566577564" lon="112.01664700434034">
        <ele>1106.27</ele>
        <time>2019-08-30T09:38:05.117000Z</time>
      </trkpt>
      <trkpt lat="37.84939717637021" lon="112.01620288133513">
        <ele>1106.19</ele>
        <time>2019-08-30T09:38:17.117000Z</time>
      </trkpt>
      <trkpt lat="37.84944901955468" lon="112.01577372554401">
        <ele>1106.5</ele>
        <time>2019-08-30T09:38:29.117000Z</time>
      </trkpt>
      <trkpt lat="37.8495197635236" lon="112.01536247416341">
        <ele>1106.14</ele>
        <time>2019-08-30T09:38:41.117000Z</time>
      </trkpt>
      <trkpt lat="37.849566346424155" lon="112.0149791485544">
        <ele>1104.66</ele>
        <time>2019-08-30T09:38:50.117000Z</time>
      </trkpt>
      <trkpt lat="37.84962178145634" lon="112.01453174124873">
        <ele>1106.15</ele>
        <time>2019-08-30T09:39:02.117000Z</time>
      </trkpt>
      <trkpt lat="37.84964830319033" lon="112.01409046510983">
        <ele>1106.48</ele>
        <time>2019-08-30T09:39:14.117000Z</time>
      </trkpt>
      <trkpt lat="37.849676376122304" lon="112.01363605140457">
        <ele>1108.34</ele>
        <time>2019-08-30T09:39:26.117000Z</time>
      </trkpt>
      <trkpt lat="37.84969551512085" lon="112.01327558200892">
        <ele>1107.64</ele>
        <time>2019-08-30T09:39:35.117000Z</time>
      </trkpt>
      <trkpt lat="37.849755283004086" lon="112.01283877793725">
        <ele>1107.69</ele>
        <time>2019-08-30T09:39:47.117000Z</time>
      </trkpt>
      <trkpt lat="37.84978624644373" lon="112.01261915590753">
        <ele>1106.82</ele>
        <time>2019-08-30T09:39:53.117000Z</time>
      </trkpt>
      <trkpt lat="37.84981851268765" lon="112.01218900212741">
        <ele>1104.05</ele>
        <time>2019-08-30T09:40:05.117000Z</time>
      </trkpt>
      <trkpt lat="37.849851369839854" lon="112.01177277395459">
        <ele>1103.9</ele>
        <time>2019-08-30T09:40:17.117000Z</time>
      </trkpt>
      <trkpt lat="37.84985951993363" lon="112.01131086674508">
        <ele>1106.21</ele>
        <time>2019-08-30T09:40:29.117000Z</time>
      </trkpt>
      <trkpt lat="37.84985911472205" lon="112.01094352044258">
        <ele>1110.26</ele>
        <time>2019-08-30T09:40:38.117000Z</time>
      </trkpt>
      <trkpt lat="37.849893200085354" lon="112.01049868319186">
        <ele>1109.79</ele>
        <time>2019-08-30T09:40:50.117000Z</time>
      </trkpt>
      <trkpt lat="37.84992283667816" lon="112.01014299528677">
        <ele>1108.89</ele>
        <time>2019-08-30T09:41:02.117000Z</time>
      </trkpt>
      <trkpt lat="37.84992619506132" lon="112.0097692825107">
        <ele>1110.56</ele>
        <time>2019-08-30T09:41:14.117000Z</time>
      </trkpt>
      <trkpt lat="37.849902145882844" lon="112.00942907255093">
        <ele>1111.32</ele>
        <time>2019-08-30T09:41:23.117000Z</time>
      </trkpt>
      <trkpt lat="37.849790477710734" lon="112.00911415308728">
        <ele>1112.56</ele>
        <time>2019-08-30T09:41:32.117000Z</time>
      </trkpt>
      <trkpt lat="37.849585427522115" lon="112.0087881392471">
        <ele>1111.7</ele>
        <time>2019-08-30T09:41:44.117000Z</time>
      </trkpt>
      <trkpt lat="37.84947541554316" lon="112.00862317295937">
        <ele>1110.09</ele>
        <time>2019-08-30T09:41:50.117000Z</time>
      </trkpt>
      <trkpt lat="37.84930521651841" lon="112.00833788988686">
        <ele>1113.18</ele>
        <time>2019-08-30T09:41:59.117000Z</time>
      </trkpt>
      <trkpt lat="37.849074389218075" lon="112.00799507399381">
        <ele>1113.52</ele>
        <time>2019-08-30T09:42:11.117000Z</time>
      </trkpt>
      <trkpt lat="37.84888428514933" lon="112.00772901140164">
        <ele>1115.49</ele>
        <time>2019-08-30T09:42:23.117000Z</time>
      </trkpt>
      <trkpt lat="37.84866535162763" lon="112.00738641465915">
        <ele>1119.89</ele>
        <time>2019-08-30T09:42:35.117000Z</time>
      </trkpt>
      <trkpt lat="37.84851147016939" lon="112.00713908773238">
        <ele>1121.09</ele>
        <time>2019-08-30T09:42:44.117000Z</time>
      </trkpt>
      <trkpt lat="37.84836882078739" lon="112.00698036790001">
        <ele>1118.12</ele>
        <time>2019-08-30T09:42:53.117000Z</time>
      </trkpt>
      <trkpt lat="37.848221320134414" lon="112.00689570810886">
        <ele>1117.34</ele>
        <time>2019-08-30T09:42:59.117000Z</time>
      </trkpt>
      <trkpt lat="37.84813020371896" lon="112.0068735973058">
        <ele>1118.23</ele>
        <time>2019-08-30T09:43:02.117000Z</time>
      </trkpt>
      <trkpt lat="37.847851087226815" lon="112.00680846409934">
        <ele>1121.8</ele>
        <time>2019-08-30T09:43:11.117000Z</time>
      </trkpt>
      <trkpt lat="37.847744914960074" lon="112.00680197497512">
        <ele>1122.16</ele>
        <time>2019-08-30T09:43:14.117000Z</time>
      </trkpt>
      <trkpt lat="37.847482352349445" lon="112.00674619780104">
        <ele>1125.31</ele>
        <time>2019-08-30T09:43:23.117000Z</time>
      </trkpt>
      <trkpt lat="37.847389007137004" lon="112.00674453122569">
        <ele>1126.39</ele>
        <time>2019-08-30T09:43:26.117000Z</time>
      </trkpt>
      <trkpt lat="37.84722749824715" lon="112.00670115813006">
        <ele>1126.89</ele>
        <time>2019-08-30T09:43:32.117000Z</time>
      </trkpt>
      <trkpt lat="37.846949921518146" lon="112.00667213117713">
        <ele>1128.45</ele>
        <time>2019-08-30T09:43:41.117000Z</time>
      </trkpt>
      <trkpt lat="37.84678554319872" lon="112.00663907494517">
        <ele>1127.39</ele>
        <time>2019-08-30T09:43:47.117000Z</time>
      </trkpt>
      <trkpt lat="37.846503352807815" lon="112.00660857753576">
        <ele>1129.97</ele>
        <time>2019-08-30T09:43:56.117000Z</time>
      </trkpt>
      <trkpt lat="37.84616682629776" lon="112.00655909942255">
        <ele>1131.31</ele>
        <time>2019-08-30T09:44:08.117000Z</time>
      </trkpt>
      <trkpt lat="37.84584942567788" lon="112.00648182780193">
        <ele>1130.44</ele>
        <time>2019-08-30T09:44:20.117000Z</time>
      </trkpt>
      <trkpt lat="37.8456365148773" lon="112.00637700421206">
        <ele>1131.09</ele>
        <time>2019-08-30T09:44:41.117000Z</time>
      </trkpt>
      <trkpt lat="37.84535972170278" lon="112.00629836190043">
        <ele>1129.68</ele>
        <time>2019-08-30T09:44:53.117000Z</time>
      </trkpt>
      <trkpt lat="37.845101738111325" lon="112.00620266950341">
        <ele>1131.8</ele>
        <time>2019-08-30T09:45:02.117000Z</time>
      </trkpt>
      <trkpt lat="37.84476889858188" lon="112.00610611680897">
        <ele>1128.17</ele>
        <time>2019-08-30T09:45:14.117000Z</time>
      </trkpt>
      <trkpt lat="37.84453977068371" lon="112.0060599428082">
        <ele>1128.44</ele>
        <time>2019-08-30T09:45:23.117000Z</time>
      </trkpt>
      <trkpt lat="37.84420965671939" lon="112.00613634194153">
        <ele>1123.76</ele>
        <time>2019-08-30T09:45:35.117000Z</time>
      </trkpt>
      <trkpt lat="37.8439587990905" lon="112.00628206593383">
        <ele>1127.29</ele>
        <time>2019-08-30T09:45:44.117000Z</time>
      </trkpt>
      <trkpt lat="37.843873659790624" lon="112.00634887735923">
        <ele>1128.66</ele>
        <time>2019-08-30T09:45:47.117000Z</time>
      </trkpt>
      <trkpt lat="37.84358787981464" lon="112.00657060761188">
        <ele>1129.4</ele>
        <time>2019-08-30T09:45:59.117000Z</time>
      </trkpt>
      <trkpt lat="37.84331039547112" lon="112.00680821056027">
        <ele>1125.91</ele>
        <time>2019-08-30T09:46:11.117000Z</time>
      </trkpt>
      <trkpt lat="37.84316199048319" lon="112.00691678424683">
        <ele>1128.82</ele>
        <time>2019-08-30T09:46:17.117000Z</time>
      </trkpt>
      <trkpt lat="37.84293621325913" lon="112.00714298630221">
        <ele>1130.69</ele>
        <time>2019-08-30T09:46:26.117000Z</time>
      </trkpt>
      <trkpt lat="37.842769707485516" lon="112.007281725767">
        <ele>1130.71</ele>
        <time>2019-08-30T09:46:32.117000Z</time>
      </trkpt>
      <trkpt lat="37.842615459461385" lon="112.00739349674997">
        <ele>1132.54</ele>
        <time>2019-08-30T09:46:38.117000Z</time>
      </trkpt>
      <trkpt lat="37.84240615635554" lon="112.00757091522924">
        <ele>1137.46</ele>
        <time>2019-08-30T09:46:47.117000Z</time>
      </trkpt>
      <trkpt lat="37.8422346173686" lon="112.00767537298712">
        <ele>1136.55</ele>
        <time>2019-08-30T09:46:53.117000Z</time>
      </trkpt>
      <trkpt lat="37.8419251515288" lon="112.00790307999894">
        <ele>1138.02</ele>
        <time>2019-08-30T09:47:05.117000Z</time>
      </trkpt>
      <trkpt lat="37.84160100987137" lon="112.00808934391492">
        <ele>1143.28</ele>
        <time>2019-08-30T09:47:17.117000Z</time>
      </trkpt>
      <trkpt lat="37.84133411575616" lon="112.00818895553002">
        <ele>1140.93</ele>
        <time>2019-08-30T09:47:26.117000Z</time>
      </trkpt>
      <trkpt lat="37.841050298011645" lon="112.00815386006205">
        <ele>1143.59</ele>
        <time>2019-08-30T09:47:53.117000Z</time>
      </trkpt>
      <trkpt lat="37.84085192619585" lon="112.00811870929633">
        <ele>1144.03</ele>
        <time>2019-08-30T09:48:23.117000Z</time>
      </trkpt>
      <trkpt lat="37.84079757534726" lon="112.00810166853408">
        <ele>1143.75</ele>
        <time>2019-08-30T09:48:32.117000Z</time>
      </trkpt>
      <trkpt lat="37.84053691174246" lon="112.00802934560359">
        <ele>1142.2</ele>
        <time>2019-08-30T09:49:05.117000Z</time>
      </trkpt>
      <trkpt lat="37.84025312027191" lon="112.00800230627232">
        <ele>1140.79</ele>
        <time>2019-08-30T09:49:44.117000Z</time>
      </trkpt>
      <trkpt lat="37.84018735943232" lon="112.0079853956406">
        <ele>1141.05</ele>
        <time>2019-08-30T09:49:56.117000Z</time>
      </trkpt>
      <trkpt lat="37.83990570202393" lon="112.0080446626868">
        <ele>1141.42</ele>
        <time>2019-08-30T09:50:23.117000Z</time>
      </trkpt>
      <trkpt lat="37.83981262379345" lon="112.00808343645066">
        <ele>1140.62</ele>
        <time>2019-08-30T09:50:32.117000Z</time>
      </trkpt>
      <trkpt lat="37.83966055378929" lon="112.00808558804322">
        <ele>1137.84</ele>
        <time>2019-08-30T09:50:38.117000Z</time>
      </trkpt>
      <trkpt lat="37.839589736073066" lon="112.00813464237838">
        <ele>1140.24</ele>
        <time>2019-08-30T09:50:41.117000Z</time>
      </trkpt>
      <trkpt lat="37.83970441329798" lon="112.00807457680905">
        <ele>1137.1</ele>
        <time>2019-08-30T09:50:47.117000Z</time>
      </trkpt>
      <trkpt lat="37.8399812809706" lon="112.00802120023286">
        <ele>1132.9</ele>
        <time>2019-08-30T09:50:56.117000Z</time>
      </trkpt>
      <trkpt lat="37.84025886594649" lon="112.00799920436346">
        <ele>1132.73</ele>
        <time>2019-08-30T09:51:05.117000Z</time>
      </trkpt>
      <trkpt lat="37.84058472430296" lon="112.00807090207282">
        <ele>1133.67</ele>
        <time>2019-08-30T09:51:17.117000Z</time>
      </trkpt>
      <trkpt lat="37.84085509983022" lon="112.00811599617961">
        <ele>1134.98</ele>
        <time>2019-08-30T09:51:26.117000Z</time>
      </trkpt>
      <trkpt lat="37.841213419029366" lon="112.00815409807245">
        <ele>1135.97</ele>
        <time>2019-08-30T09:51:38.117000Z</time>
      </trkpt>
      <trkpt lat="37.84150732606285" lon="112.00812570688998">
        <ele>1135.66</ele>
        <time>2019-08-30T09:51:47.117000Z</time>
      </trkpt>
      <trkpt lat="37.841823671965805" lon="112.00800053743407">
        <ele>1131.22</ele>
        <time>2019-08-30T09:51:59.117000Z</time>
      </trkpt>
      <trkpt lat="37.841888241359605" lon="112.00795020509761">
        <ele>1130.02</ele>
        <time>2019-08-30T09:52:02.117000Z</time>
      </trkpt>
      <trkpt lat="37.842130585037715" lon="112.00779863110648">
        <ele>1129.23</ele>
        <time>2019-08-30T09:52:11.117000Z</time>
      </trkpt>
      <trkpt lat="37.842265782160446" lon="112.00769861175739">
        <ele>1125.72</ele>
        <time>2019-08-30T09:52:17.117000Z</time>
      </trkpt>
      <trkpt lat="37.84255744906043" lon="112.00754913442981">
        <ele>1119.13</ele>
        <time>2019-08-30T09:52:29.117000Z</time>
      </trkpt>
      <trkpt lat="37.84263616332172" lon="112.00749066488437">
        <ele>1119.7</ele>
        <time>2019-08-30T09:52:32.117000Z</time>
      </trkpt>
      <trkpt lat="37.84279158515486" lon="112.00731722024226">
        <ele>1124.18</ele>
        <time>2019-08-30T09:52:38.117000Z</time>
      </trkpt>
      <trkpt lat="37.842879887677384" lon="112.00723768629399">
        <ele>1126.83</ele>
        <time>2019-08-30T09:52:41.117000Z</time>
      </trkpt>
      <trkpt lat="37.843106475415034" lon="112.00699911161392">
        <ele>1125.75</ele>
        <time>2019-08-30T09:52:50.117000Z</time>
      </trkpt>
      <trkpt lat="37.843346143095296" lon="112.00679015028037">
        <ele>1126.76</ele>
        <time>2019-08-30T09:52:59.117000Z</time>
      </trkpt>
      <trkpt lat="37.843552758910114" lon="112.00664026445568">
        <ele>1122.03</ele>
        <time>2019-08-30T09:53:08.117000Z</time>
      </trkpt>
      <trkpt lat="37.84360762724341" lon="112.00661881603664">
        <ele>1121.13</ele>
        <time>2019-08-30T09:53:11.117000Z</time>
      </trkpt>
      <trkpt lat="37.84369859887283" lon="112.00656305959474">
        <ele>1124.22</ele>
        <time>2019-08-30T09:53:17.117000Z</time>
      </trkpt>
      <trkpt lat="37.8439727990787" lon="112.00640589551173">
        <ele>1126.28</ele>
        <time>2019-08-30T09:53:32.117000Z</time>
      </trkpt>
      <trkpt lat="37.84422408869281" lon="112.00629654223526">
        <ele>1124.5</ele>
        <time>2019-08-30T09:53:41.217000Z</time>
      </trkpt>
      <trkpt lat="37.84450647383091" lon="112.006158497994">
        <ele>1121.25</ele>
        <time>2019-08-30T09:53:53.117000Z</time>
      </trkpt>
      <trkpt lat="37.844861159210794" lon="112.00617524194683">
        <ele>1121.83</ele>
        <time>2019-08-30T09:54:05.117000Z</time>
      </trkpt>
      <trkpt lat="37.845128290098025" lon="112.00622380350829">
        <ele>1125.19</ele>
        <time>2019-08-30T09:54:14.117000Z</time>
      </trkpt>
      <trkpt lat="37.84542486034958" lon="112.0062834279935">
        <ele>1126.7</ele>
        <time>2019-08-30T09:54:23.117000Z</time>
      </trkpt>
      <trkpt lat="37.845768629591184" lon="112.00641235609692">
        <ele>1124.79</ele>
        <time>2019-08-30T09:54:35.117000Z</time>
      </trkpt>
      <trkpt lat="37.84604586106171" lon="112.00651296673621">
        <ele>1122.77</ele>
        <time>2019-08-30T09:54:44.117000Z</time>
      </trkpt>
      <trkpt lat="37.846255613854204" lon="112.00660835805556">
        <ele>1118.13</ele>
        <time>2019-08-30T09:54:53.117000Z</time>
      </trkpt>
      <trkpt lat="37.84659217230368" lon="112.00663446469245">
        <ele>1121.49</ele>
        <time>2019-08-30T09:55:02.117000Z</time>
      </trkpt>
      <trkpt lat="37.84690150344961" lon="112.00666705620084">
        <ele>1122.58</ele>
        <time>2019-08-30T09:55:11.117000Z</time>
      </trkpt>
      <trkpt lat="37.84723161509275" lon="112.00669486162661">
        <ele>1121.17</ele>
        <time>2019-08-30T09:55:20.117000Z</time>
      </trkpt>
      <trkpt lat="37.84758774327589" lon="112.00672822815352">
        <ele>1120.56</ele>
        <time>2019-08-30T09:55:32.117000Z</time>
      </trkpt>
      <trkpt lat="37.8478838844212" lon="112.0067708961693">
        <ele>1120.31</ele>
        <time>2019-08-30T09:55:41.117000Z</time>
      </trkpt>
      <trkpt lat="37.84816110219085" lon="112.00682584668506">
        <ele>1118.64</ele>
        <time>2019-08-30T09:55:50.117000Z</time>
      </trkpt>
      <trkpt lat="37.84826536277336" lon="112.00685508187723">
        <ele>1118.01</ele>
        <time>2019-08-30T09:55:53.117000Z</time>
      </trkpt>
      <trkpt lat="37.848502975840894" lon="112.00702404994446">
        <ele>1115.83</ele>
        <time>2019-08-30T09:56:02.117000Z</time>
      </trkpt>
      <trkpt lat="37.84866870363272" lon="112.00730131157938">
        <ele>1117.03</ele>
        <time>2019-08-30T09:56:11.117000Z</time>
      </trkpt>
      <trkpt lat="37.84873244803138" lon="112.00739787313456">
        <ele>1117.81</ele>
        <time>2019-08-30T09:56:14.117000Z</time>
      </trkpt>
      <trkpt lat="37.848854524068045" lon="112.00758605365145">
        <ele>1117.2</ele>
        <time>2019-08-30T09:56:20.117000Z</time>
      </trkpt>
      <trkpt lat="37.84907248042809" lon="112.00792616017652">
        <ele>1115.94</ele>
        <time>2019-08-30T09:56:32.117000Z</time>
      </trkpt>
      <trkpt lat="37.849303427813325" lon="112.00827972407025">
        <ele>1115.57</ele>
        <time>2019-08-30T09:56:44.117000Z</time>
      </trkpt>
      <trkpt lat="37.84942100581704" lon="112.00844270226449">
        <ele>1114.11</ele>
        <time>2019-08-30T09:56:50.117000Z</time>
      </trkpt>
      <trkpt lat="37.8496156467821" lon="112.00882023082933">
        <ele>1117.03</ele>
        <time>2019-08-30T09:56:59.117000Z</time>
      </trkpt>
      <trkpt lat="37.849723335381476" lon="112.00902402858213">
        <ele>1119.46</ele>
        <time>2019-08-30T09:57:05.117000Z</time>
      </trkpt>
      <trkpt lat="37.849838965408196" lon="112.00919114388682">
        <ele>1116.8</ele>
        <time>2019-08-30T09:57:11.117000Z</time>
      </trkpt>
      <trkpt lat="37.84993103565873" lon="112.0094134217383">
        <ele>1119.18</ele>
        <time>2019-08-30T09:57:17.117000Z</time>
      </trkpt>
      <trkpt lat="37.849963610936015" lon="112.00975264141474">
        <ele>1118.25</ele>
        <time>2019-08-30T09:57:26.117000Z</time>
      </trkpt>
      <trkpt lat="37.8499577561853" lon="112.0101081270408">
        <ele>1118.82</ele>
        <time>2019-08-30T09:57:35.117000Z</time>
      </trkpt>
      <trkpt lat="37.8499199164551" lon="112.01044404822834">
        <ele>1118.03</ele>
        <time>2019-08-30T09:57:44.117000Z</time>
      </trkpt>
      <trkpt lat="37.849889640309065" lon="112.01084862734967">
        <ele>1121.52</ele>
        <time>2019-08-30T09:57:53.117000Z</time>
      </trkpt>
      <trkpt lat="37.84984883314662" lon="112.01126739460027">
        <ele>1117.92</ele>
        <time>2019-08-30T09:58:05.117000Z</time>
      </trkpt>
      <trkpt lat="37.84980501085829" lon="112.01166194471676">
        <ele>1119.82</ele>
        <time>2019-08-30T09:58:17.117000Z</time>
      </trkpt>
      <trkpt lat="37.84978473881674" lon="112.01202301419634">
        <ele>1118.11</ele>
        <time>2019-08-30T09:58:26.117000Z</time>
      </trkpt>
      <trkpt lat="37.84975277287204" lon="112.01245260207199">
        <ele>1116.36</ele>
        <time>2019-08-30T09:58:38.117000Z</time>
      </trkpt>
      <trkpt lat="37.84971930147338" lon="112.01282767502914">
        <ele>1118.78</ele>
        <time>2019-08-30T09:58:47.117000Z</time>
      </trkpt>
      <trkpt lat="37.8496786375594" lon="112.01323585123994">
        <ele>1113.35</ele>
        <time>2019-08-30T09:58:59.117000Z</time>
      </trkpt>
      <trkpt lat="37.84963880092076" lon="112.01361249697852">
        <ele>1112.15</ele>
        <time>2019-08-30T09:59:11.117000Z</time>
      </trkpt>
      <trkpt lat="37.84961691932599" lon="112.01382901180847">
        <ele>1114.57</ele>
        <time>2019-08-30T09:59:17.117000Z</time>
      </trkpt>
      <trkpt lat="37.849609021645165" lon="112.01405488753768">
        <ele>1113.47</ele>
        <time>2019-08-30T09:59:23.117000Z</time>
      </trkpt>
      <trkpt lat="37.84958532762713" lon="112.01430535832237">
        <ele>1117.14</ele>
        <time>2019-08-30T09:59:29.117000Z</time>
      </trkpt>
      <trkpt lat="37.849591659143634" lon="112.01447378840797">
        <ele>1117.75</ele>
        <time>2019-08-30T09:59:32.117000Z</time>
      </trkpt>
      <trkpt lat="37.84956013311538" lon="112.01486268328793">
        <ele>1120.93</ele>
        <time>2019-08-30T09:59:41.117000Z</time>
      </trkpt>
      <trkpt lat="37.84952197920263" lon="112.01528242030754">
        <ele>1116.55</ele>
        <time>2019-08-30T09:59:53.117000Z</time>
      </trkpt>
      <trkpt lat="37.8494677216872" lon="112.01565562193497">
        <ele>1117.22</ele>
        <time>2019-08-30T10:00:05.117000Z</time>
      </trkpt>
      <trkpt lat="37.84941714183796" lon="112.01603571640702">
        <ele>1120.63</ele>
        <time>2019-08-30T10:00:14.117000Z</time>
      </trkpt>
      <trkpt lat="37.84937846454023" lon="112.01638671434169">
        <ele>1118.24</ele>
        <time>2019-08-30T10:00:23.117000Z</time>
      </trkpt>
      <trkpt lat="37.84932636916522" lon="112.01683068304072">
        <ele>1114.66</ele>
        <time>2019-08-30T10:00:35.117000Z</time>
      </trkpt>
      <trkpt lat="37.849287195774465" lon="112.0172147270054">
        <ele>1112.73</ele>
        <time>2019-08-30T10:00:44.117000Z</time>
      </trkpt>
      <trkpt lat="37.84923305324837" lon="112.0175776208068">
        <ele>1108.69</ele>
        <time>2019-08-30T10:00:53.117000Z</time>
      </trkpt>
      <trkpt lat="37.84920953855333" lon="112.01793572876781">
        <ele>1105.65</ele>
        <time>2019-08-30T10:01:02.117000Z</time>
      </trkpt>
      <trkpt lat="37.84917948271375" lon="112.01833816442762">
        <ele>1109.31</ele>
        <time>2019-08-30T10:01:14.117000Z</time>
      </trkpt>
      <trkpt lat="37.84913797512883" lon="112.01867372801821">
        <ele>1109.21</ele>
        <time>2019-08-30T10:01:23.117000Z</time>
      </trkpt>
      <trkpt lat="37.84913831148073" lon="112.01910821116928">
        <ele>1112.08</ele>
        <time>2019-08-30T10:01:32.117000Z</time>
      </trkpt>
      <trkpt lat="37.849111759350016" lon="112.01937769121221">
        <ele>1111.14</ele>
        <time>2019-08-30T10:01:38.117000Z</time>
      </trkpt>
      <trkpt lat="37.849107472155765" lon="112.01979917885188">
        <ele>1109.97</ele>
        <time>2019-08-30T10:01:47.117000Z</time>
      </trkpt>
      <trkpt lat="37.849123810667216" lon="112.01993662973405">
        <ele>1106.55</ele>
        <time>2019-08-30T10:01:50.117000Z</time>
      </trkpt>
      <trkpt lat="37.84912166761063" lon="112.02040490057513">
        <ele>1107.99</ele>
        <time>2019-08-30T10:01:59.117000Z</time>
      </trkpt>
      <trkpt lat="37.84912585925256" lon="112.02081019243633">
        <ele>1108.19</ele>
        <time>2019-08-30T10:02:08.117000Z</time>
      </trkpt>
      <trkpt lat="37.84910165927815" lon="112.02121213889735">
        <ele>1109.48</ele>
        <time>2019-08-30T10:02:17.117000Z</time>
      </trkpt>
      <trkpt lat="37.849080430069975" lon="112.0216356883019">
        <ele>1107.91</ele>
        <time>2019-08-30T10:02:32.117000Z</time>
      </trkpt>
      <trkpt lat="37.849082381041434" lon="112.02199815008272">
        <ele>1106.9</ele>
        <time>2019-08-30T10:02:56.117000Z</time>
      </trkpt>
      <trkpt lat="37.849075594243004" lon="112.02235102965057">
        <ele>1108.03</ele>
        <time>2019-08-30T10:03:14.117000Z</time>
      </trkpt>
      <trkpt lat="37.84907414272914" lon="112.02271265273855">
        <ele>1108.08</ele>
        <time>2019-08-30T10:03:26.117000Z</time>
      </trkpt>
      <trkpt lat="37.849057811907045" lon="112.02304743444466">
        <ele>1107.66</ele>
        <time>2019-08-30T10:03:35.117000Z</time>
      </trkpt>
      <trkpt lat="37.84901788083665" lon="112.02329519414509">
        <ele>1107.04</ele>
        <time>2019-08-30T10:03:41.117000Z</time>
      </trkpt>
      <trkpt lat="37.849000285755274" lon="112.02371871116021">
        <ele>1101.81</ele>
        <time>2019-08-30T10:03:53.117000Z</time>
      </trkpt>
      <trkpt lat="37.84901011147283" lon="112.02409043576556">
        <ele>1105.77</ele>
        <time>2019-08-30T10:04:08.117000Z</time>
      </trkpt>
      <trkpt lat="37.848942899205724" lon="112.02433742067514">
        <ele>1108.67</ele>
        <time>2019-08-30T10:04:23.117000Z</time>
      </trkpt>
      <trkpt lat="37.8490159290048" lon="112.02470761793431">
        <ele>1109.04</ele>
        <time>2019-08-30T10:04:41.117000Z</time>
      </trkpt>
      <trkpt lat="37.848997271654255" lon="112.0249006093817">
        <ele>1112.75</ele>
        <time>2019-08-30T10:04:50.117000Z</time>
      </trkpt>
      <trkpt lat="37.848977165629805" lon="112.02495898117965">
        <ele>1115.13</ele>
        <time>2019-08-30T10:04:53.117000Z</time>
      </trkpt>
      <trkpt lat="37.84895677896503" lon="112.02502581836113">
        <ele>1115.91</ele>
        <time>2019-08-30T10:04:56.117000Z</time>
      </trkpt>
      <trkpt lat="37.84895571766253" lon="112.02519275558917">
        <ele>1115.07</ele>
        <time>2019-08-30T10:05:05.117000Z</time>
      </trkpt>
      <trkpt lat="37.848997946227" lon="112.02540369373239">
        <ele>1111.99</ele>
        <time>2019-08-30T10:05:17.117000Z</time>
      </trkpt>
      <trkpt lat="37.849010588514915" lon="112.02548797094528">
        <ele>1110.92</ele>
        <time>2019-08-30T10:05:23.117000Z</time>
      </trkpt>
      <trkpt lat="37.8490066557358" lon="112.02554224046655">
        <ele>1112.56</ele>
        <time>2019-08-30T10:05:26.117000Z</time>
      </trkpt>
      <trkpt lat="37.84901649860195" lon="112.02559968993903">
        <ele>1115.51</ele>
        <time>2019-08-30T10:05:29.117000Z</time>
      </trkpt>
      <trkpt lat="37.84908806647585" lon="112.02586230174283">
        <ele>1117.47</ele>
        <time>2019-08-30T10:05:41.117000Z</time>
      </trkpt>
      <trkpt lat="37.849095910759054" lon="112.02594650276428">
        <ele>1118.91</ele>
        <time>2019-08-30T10:05:44.117000Z</time>
      </trkpt>
      <trkpt lat="37.84908210679694" lon="112.02605243882024">
        <ele>1119.0</ele>
        <time>2019-08-30T10:05:47.117000Z</time>
      </trkpt>
      <trkpt lat="37.84895874051036" lon="112.02644956955757">
        <ele>1122.69</ele>
        <time>2019-08-30T10:05:56.117000Z</time>
      </trkpt>
      <trkpt lat="37.848902240552306" lon="112.02663484489516">
        <ele>1113.64</ele>
        <time>2019-08-30T10:06:02.117000Z</time>
      </trkpt>
      <trkpt lat="37.84884978058545" lon="112.02667105388291">
        <ele>1111.24</ele>
        <time>2019-08-30T10:06:05.117000Z</time>
      </trkpt>
      <trkpt lat="37.84877866851479" lon="112.02664772803634">
        <ele>1109.08</ele>
        <time>2019-08-30T10:06:08.117000Z</time>
      </trkpt>
      <trkpt lat="37.84871689433621" lon="112.02663498385033">
        <ele>1109.13</ele>
        <time>2019-08-30T10:06:11.117000Z</time>
      </trkpt>
      <trkpt lat="37.8486353226586" lon="112.02661659808238">
        <ele>1107.9</ele>
        <time>2019-08-30T10:06:14.117000Z</time>
      </trkpt>
      <trkpt lat="37.848554333898264" lon="112.02659123884169">
        <ele>1106.24</ele>
        <time>2019-08-30T10:06:17.117000Z</time>
      </trkpt>
      <trkpt lat="37.84845005294408" lon="112.02658045029389">
        <ele>1106.2</ele>
        <time>2019-08-30T10:06:20.117000Z</time>
      </trkpt>
      <trkpt lat="37.84829461441906" lon="112.02657546398704">
        <ele>1105.95</ele>
        <time>2019-08-30T10:06:26.117000Z</time>
      </trkpt>
      <trkpt lat="37.8481801744914" lon="112.0265195339676">
        <ele>1108.96</ele>
        <time>2019-08-30T10:06:32.117000Z</time>
      </trkpt>
      <trkpt lat="37.84803698364942" lon="112.02650246626392">
        <ele>1108.31</ele>
        <time>2019-08-30T10:06:41.117000Z</time>
      </trkpt>
      <trkpt lat="37.84796420437993" lon="112.02647370293236">
        <ele>1111.36</ele>
        <time>2019-08-30T10:06:47.117000Z</time>
      </trkpt>
      <trkpt lat="37.84785448692412" lon="112.02653680280878">
        <ele>1114.26</ele>
        <time>2019-08-30T10:06:56.117000Z</time>
      </trkpt>
      <trkpt lat="37.847767855235766" lon="112.02668263514012">
        <ele>1116.14</ele>
        <time>2019-08-30T10:07:05.117000Z</time>
      </trkpt>
      <trkpt lat="37.84767719461195" lon="112.02681689367827">
        <ele>1114.28</ele>
        <time>2019-08-30T10:07:14.117000Z</time>
      </trkpt>
      <trkpt lat="37.847595280562885" lon="112.02705613368605">
        <ele>1116.86</ele>
        <time>2019-08-30T10:07:26.117000Z</time>
      </trkpt>
      <trkpt lat="37.84755192373617" lon="112.02736406368389">
        <ele>1111.98</ele>
        <time>2019-08-30T10:07:44.117000Z</time>
      </trkpt>
      <trkpt lat="37.84741710282992" lon="112.02775228423538">
        <ele>1110.32</ele>
        <time>2019-08-30T10:07:59.117000Z</time>
      </trkpt>
      <trkpt lat="37.847343741481666" lon="112.02798828942566">
        <ele>1109.6</ele>
        <time>2019-08-30T10:08:08.117000Z</time>
      </trkpt>
      <trkpt lat="37.847332639585034" lon="112.02806043404763">
        <ele>1110.7</ele>
        <time>2019-08-30T10:08:11.117000Z</time>
      </trkpt>
      <trkpt lat="37.847345842249844" lon="112.02815297595308">
        <ele>1108.22</ele>
        <time>2019-08-30T10:08:17.117000Z</time>
      </trkpt>
      <trkpt lat="37.84738508040765" lon="112.02849302929381">
        <ele>1106.01</ele>
        <time>2019-08-30T10:08:38.117000Z</time>
      </trkpt>
      <trkpt lat="37.84738109480376" lon="112.02887549706506">
        <ele>1108.69</ele>
        <time>2019-08-30T10:08:56.117000Z</time>
      </trkpt>
      <trkpt lat="37.84735500230823" lon="112.0289339643853">
        <ele>1109.32</ele>
        <time>2019-08-30T10:08:59.117000Z</time>
      </trkpt>
      <trkpt lat="37.84734700700463" lon="112.02903350708537">
        <ele>1107.22</ele>
        <time>2019-08-30T10:09:05.117000Z</time>
      </trkpt>
      <trkpt lat="37.84737869249482" lon="112.02911643795409">
        <ele>1107.12</ele>
        <time>2019-08-30T10:09:11.117000Z</time>
      </trkpt>
      <trkpt lat="37.84737459119678" lon="112.02917182973617">
        <ele>1106.81</ele>
        <time>2019-08-30T10:09:14.117000Z</time>
      </trkpt>
    </trkseg>
  </trk>
</gpx>