<?xml version="1.0" encoding="UTF-8"?>
<gpx xmlns="http://www.topografix.com/GPX/1/1" xmlns:gpxtpx="http://www.garmin.com/xmlschemas/TrackPointExtension/v1" xmlns:xsi="http://www.w3.org/2001/XMLSchema-instance" xsi:schemaLocation="http://www.topografix.com/GPX/1/1 http://www.topografix.com/GPX/1/1/gpx.xsd" version="1.1" creator="gpx.py -- https://github.com/tkrajina/gpxpy">
  <trk>
    <name>gpx from keep</name>
    <type>Run</type>
    <trkseg>
      <trkpt lat="37.84726950421454" lon="112.02938782796113">
        <ele>1145.9</ele>
        <time>2017-05-11T09:16:25.900000Z</time>
      </trkpt>
      <trkpt lat="37.84745937023614" lon="112.02887284177004">
        <ele>1116.8</ele>
        <time>2017-05-11T09:16:32.400000Z</time>
      </trkpt>
      <trkpt lat="37.847469413870435" lon="112.02855099321157">
        <ele>1105.9</ele>
        <time>2017-05-11T09:16:56.300000Z</time>
      </trkpt>
      <trkpt lat="37.84749269338075" lon="112.02835923602039">
        <ele>1102.8</ele>
        <time>2017-05-11T09:17:08.400000Z</time>
      </trkpt>
      <trkpt lat="37.84748088472031" lon="112.02820264347642">
        <ele>1098.7</ele>
        <time>2017-05-11T09:17:20.300000Z</time>
      </trkpt>
      <trkpt lat="37.84743443722317" lon="112.02811745581177">
        <ele>1096.7</ele>
        <time>2017-05-11T09:17:26.400000Z</time>
      </trkpt>
      <trkpt lat="37.84744961366531" lon="112.02791245029957">
        <ele>1094.09</ele>
        <time>2017-05-11T09:17:35.300000Z</time>
      </trkpt>
      <trkpt lat="37.84748766699976" lon="112.02767417807988">
        <ele>1089.8</ele>
        <time>2017-05-11T09:17:47.300000Z</time>
      </trkpt>
      <trkpt lat="37.84754601595631" lon="112.0275622048727">
        <ele>1087.59</ele>
        <time>2017-05-11T09:17:53.300000Z</time>
      </trkpt>
      <trkpt lat="37.847602550486634" lon="112.02741750809837">
        <ele>1085.59</ele>
        <time>2017-05-11T09:17:59.300000Z</time>
      </trkpt>
      <trkpt lat="37.84764763636387" lon="112.02739884177856">
        <ele>1083.8</ele>
        <time>2017-05-11T09:18:02.300000Z</time>
      </trkpt>
      <trkpt lat="37.84773428292512" lon="112.0272557648645">
        <ele>1081.2</ele>
        <time>2017-05-11T09:18:08.300000Z</time>
      </trkpt>
      <trkpt lat="37.84783926955532" lon="112.02694555183538">
        <ele>1076.8</ele>
        <time>2017-05-11T09:18:20.300000Z</time>
      </trkpt>
      <trkpt lat="37.84787255232207" lon="112.02677057134899">
        <ele>1076.09</ele>
        <time>2017-05-11T09:18:23.300000Z</time>
      </trkpt>
      <trkpt lat="37.8479175872058" lon="112.02666725726942">
        <ele>1075.2</ele>
        <time>2017-05-11T09:18:26.300000Z</time>
      </trkpt>
      <trkpt lat="37.84803587652039" lon="112.02656393473931">
        <ele>1074.2</ele>
        <time>2017-05-11T09:18:32.300000Z</time>
      </trkpt>
      <trkpt lat="37.84825098798093" lon="112.02657878309114">
        <ele>1073.09</ele>
        <time>2017-05-11T09:18:41.300000Z</time>
      </trkpt>
      <trkpt lat="37.848375862889775" lon="112.02665557321312">
        <ele>1073.7</ele>
        <time>2017-05-11T09:18:47.300000Z</time>
      </trkpt>
      <trkpt lat="37.84842590370815" lon="112.02671398250074">
        <ele>1074.3</ele>
        <time>2017-05-11T09:18:50.300000Z</time>
      </trkpt>
      <trkpt lat="37.848589083687344" lon="112.02666717654323">
        <ele>1074.09</ele>
        <time>2017-05-11T09:18:59.300000Z</time>
      </trkpt>
      <trkpt lat="37.848650667240825" lon="112.02666879178604">
        <ele>1073.9</ele>
        <time>2017-05-11T09:19:02.300000Z</time>
      </trkpt>
      <trkpt lat="37.84886744895069" lon="112.02645890418488">
        <ele>1078.0</ele>
        <time>2017-05-11T09:19:14.300000Z</time>
      </trkpt>
      <trkpt lat="37.84909414895647" lon="112.02629553210613">
        <ele>1077.2</ele>
        <time>2017-05-11T09:19:26.300000Z</time>
      </trkpt>
      <trkpt lat="37.84913719908706" lon="112.0262254836413">
        <ele>1076.59</ele>
        <time>2017-05-11T09:19:29.300000Z</time>
      </trkpt>
      <trkpt lat="37.8491992043605" lon="112.02596207159117">
        <ele>1074.7</ele>
        <time>2017-05-11T09:19:38.300000Z</time>
      </trkpt>
      <trkpt lat="37.84918913422348" lon="112.0257670899562">
        <ele>1072.9</ele>
        <time>2017-05-11T09:19:44.300000Z</time>
      </trkpt>
      <trkpt lat="37.84921400401311" lon="112.02538875345432">
        <ele>1069.5</ele>
        <time>2017-05-11T09:19:53.300000Z</time>
      </trkpt>
      <trkpt lat="37.84929068788676" lon="112.02511696353966">
        <ele>1069.9</ele>
        <time>2017-05-11T09:19:59.300000Z</time>
      </trkpt>
      <trkpt lat="37.84921727018182" lon="112.0247683934011">
        <ele>1068.4</ele>
        <time>2017-05-11T09:20:08.300000Z</time>
      </trkpt>
      <trkpt lat="37.849213745562004" lon="112.02466509187805">
        <ele>1066.0</ele>
        <time>2017-05-11T09:20:11.300000Z</time>
      </trkpt>
      <trkpt lat="37.84926716679889" lon="112.02426675413433">
        <ele>1062.59</ele>
        <time>2017-05-11T09:20:20.300000Z</time>
      </trkpt>
      <trkpt lat="37.84931372927929" lon="112.02379676179618">
        <ele>1063.09</ele>
        <time>2017-05-11T09:20:29.300000Z</time>
      </trkpt>
      <trkpt lat="37.849250266103006" lon="112.02358503423217">
        <ele>1063.9</ele>
        <time>2017-05-11T09:20:35.300000Z</time>
      </trkpt>
      <trkpt lat="37.84924222205322" lon="112.02344820578222">
        <ele>1064.8</ele>
        <time>2017-05-11T09:20:38.300000Z</time>
      </trkpt>
      <trkpt lat="37.8492819917742" lon="112.02328811672204">
        <ele>1067.5</ele>
        <time>2017-05-11T09:20:41.300000Z</time>
      </trkpt>
      <trkpt lat="37.84930059032832" lon="112.02313154632031">
        <ele>1070.3</ele>
        <time>2017-05-11T09:20:44.300000Z</time>
      </trkpt>
      <trkpt lat="37.84924546070243" lon="112.02274838317689">
        <ele>1077.4</ele>
        <time>2017-05-11T09:20:53.300000Z</time>
      </trkpt>
      <trkpt lat="37.84923378829249" lon="112.02254963558242">
        <ele>1078.3</ele>
        <time>2017-05-11T09:20:59.300000Z</time>
      </trkpt>
      <trkpt lat="37.849208635922466" lon="112.02241984397175">
        <ele>1081.8</ele>
        <time>2017-05-11T09:21:02.300000Z</time>
      </trkpt>
      <trkpt lat="37.849198555571206" lon="112.0220347906987">
        <ele>1088.7</ele>
        <time>2017-05-11T09:21:11.300000Z</time>
      </trkpt>
      <trkpt lat="37.84917370999008" lon="112.02169300737236">
        <ele>1095.5</ele>
        <time>2017-05-11T09:21:20.300000Z</time>
      </trkpt>
      <trkpt lat="37.849176854728974" lon="112.02123630570637">
        <ele>1104.09</ele>
        <time>2017-05-11T09:21:32.300000Z</time>
      </trkpt>
      <trkpt lat="37.84916336008136" lon="112.0211111143474">
        <ele>1106.3</ele>
        <time>2017-05-11T09:21:35.300000Z</time>
      </trkpt>
      <trkpt lat="37.84917669870672" lon="112.02079772665256">
        <ele>1105.8</ele>
        <time>2017-05-11T09:21:44.300000Z</time>
      </trkpt>
      <trkpt lat="37.84916655877876" lon="112.02043945982254">
        <ele>1108.7</ele>
        <time>2017-05-11T09:21:53.300000Z</time>
      </trkpt>
      <trkpt lat="37.84915493276209" lon="112.0203261681395">
        <ele>1110.09</ele>
        <time>2017-05-11T09:21:56.300000Z</time>
      </trkpt>
      <trkpt lat="37.84915830729351" lon="112.01988949246982">
        <ele>1116.3</ele>
        <time>2017-05-11T09:22:08.300000Z</time>
      </trkpt>
      <trkpt lat="37.84918652444001" lon="112.01969291931812">
        <ele>1119.2</ele>
        <time>2017-05-11T09:22:14.300000Z</time>
      </trkpt>
      <trkpt lat="37.84916500392244" lon="112.01933250163428">
        <ele>1126.59</ele>
        <time>2017-05-11T09:22:23.300000Z</time>
      </trkpt>
      <trkpt lat="37.849158173065945" lon="112.01895910747032">
        <ele>1132.2</ele>
        <time>2017-05-11T09:22:32.300000Z</time>
      </trkpt>
      <trkpt lat="37.8491499274503" lon="112.01860761762379">
        <ele>1135.59</ele>
        <time>2017-05-11T09:22:41.300000Z</time>
      </trkpt>
      <trkpt lat="37.84915483243215" lon="112.01850271116493">
        <ele>1134.8</ele>
        <time>2017-05-11T09:22:44.300000Z</time>
      </trkpt>
      <trkpt lat="37.84921313005408" lon="112.01832074183488">
        <ele>1120.3</ele>
        <time>2017-05-11T09:22:50.300000Z</time>
      </trkpt>
      <trkpt lat="37.84923791928239" lon="112.01789733497883">
        <ele>1115.4</ele>
        <time>2017-05-11T09:23:02.300000Z</time>
      </trkpt>
      <trkpt lat="37.849259680515715" lon="112.01749069587977">
        <ele>1113.0</ele>
        <time>2017-05-11T09:23:14.300000Z</time>
      </trkpt>
      <trkpt lat="37.84927304145388" lon="112.01727412959065">
        <ele>1113.0</ele>
        <time>2017-05-11T09:23:20.300000Z</time>
      </trkpt>
      <trkpt lat="37.849349669117295" lon="112.01684748325033">
        <ele>1115.9</ele>
        <time>2017-05-11T09:23:32.300000Z</time>
      </trkpt>
      <trkpt lat="37.84939129719305" lon="112.0164221973418">
        <ele>1117.2</ele>
        <time>2017-05-11T09:23:44.300000Z</time>
      </trkpt>
      <trkpt lat="37.84943810585288" lon="112.01598907473608">
        <ele>1119.09</ele>
        <time>2017-05-11T09:23:56.300000Z</time>
      </trkpt>
      <trkpt lat="37.84944963142728" lon="112.01575223971321">
        <ele>1119.5</ele>
        <time>2017-05-11T09:24:02.300000Z</time>
      </trkpt>
      <trkpt lat="37.84948120122204" lon="112.01552729925368">
        <ele>1120.3</ele>
        <time>2017-05-11T09:24:08.300000Z</time>
      </trkpt>
      <trkpt lat="37.84950442826083" lon="112.01508878143561">
        <ele>1120.59</ele>
        <time>2017-05-11T09:24:20.300000Z</time>
      </trkpt>
      <trkpt lat="37.849557892363485" lon="112.01470379378593">
        <ele>1122.2</ele>
        <time>2017-05-11T09:24:29.300000Z</time>
      </trkpt>
      <trkpt lat="37.84956618419242" lon="112.01427204456992">
        <ele>1124.5</ele>
        <time>2017-05-11T09:24:41.300000Z</time>
      </trkpt>
      <trkpt lat="37.84959755769057" lon="112.01392869980339">
        <ele>1123.5</ele>
        <time>2017-05-11T09:24:50.300000Z</time>
      </trkpt>
      <trkpt lat="37.84963245779554" lon="112.01349208846948">
        <ele>1122.7</ele>
        <time>2017-05-11T09:25:02.300000Z</time>
      </trkpt>
      <trkpt lat="37.8496477890722" lon="112.01306845987762">
        <ele>1123.3</ele>
        <time>2017-05-11T09:25:14.300000Z</time>
      </trkpt>
      <trkpt lat="37.84961753265164" lon="112.01302331651256">
        <ele>1122.9</ele>
        <time>2017-05-11T09:25:17.300000Z</time>
      </trkpt>
      <trkpt lat="37.84961096171966" lon="112.01295005491664">
        <ele>1124.7</ele>
        <time>2017-05-11T09:25:23.300000Z</time>
      </trkpt>
      <trkpt lat="37.84965590572353" lon="112.01288868224344">
        <ele>1127.09</ele>
        <time>2017-05-11T09:25:26.300000Z</time>
      </trkpt>
      <trkpt lat="37.849617491297394" lon="112.0128500281834">
        <ele>1131.09</ele>
        <time>2017-05-11T09:25:47.300000Z</time>
      </trkpt>
      <trkpt lat="37.84953916649544" lon="112.01300845712784">
        <ele>1133.5</ele>
        <time>2017-05-11T09:25:53.300000Z</time>
      </trkpt>
      <trkpt lat="37.849589469433596" lon="112.01297033304316">
        <ele>1132.3</ele>
        <time>2017-05-11T09:26:05.400000Z</time>
      </trkpt>
      <trkpt lat="37.84961443958512" lon="112.0128732778055">
        <ele>1133.8</ele>
        <time>2017-05-11T09:26:11.300000Z</time>
      </trkpt>
      <trkpt lat="37.84961276183544" lon="112.01279677177145">
        <ele>1133.7</ele>
        <time>2017-05-11T09:26:14.300000Z</time>
      </trkpt>
      <trkpt lat="37.84970923815013" lon="112.01236692175804">
        <ele>1131.7</ele>
        <time>2017-05-11T09:26:26.400000Z</time>
      </trkpt>
      <trkpt lat="37.84977749631725" lon="112.01203196655341">
        <ele>1130.7</ele>
        <time>2017-05-11T09:26:35.400000Z</time>
      </trkpt>
      <trkpt lat="37.849805814908734" lon="112.01181028837237">
        <ele>1130.0</ele>
        <time>2017-05-11T09:26:41.400000Z</time>
      </trkpt>
      <trkpt lat="37.84978924145156" lon="112.01172513504628">
        <ele>1129.09</ele>
        <time>2017-05-11T09:26:44.300000Z</time>
      </trkpt>
      <trkpt lat="37.849803995473046" lon="112.01150345980436">
        <ele>1128.3</ele>
        <time>2017-05-11T09:26:50.400000Z</time>
      </trkpt>
      <trkpt lat="37.84981423307825" lon="112.0110633583976">
        <ele>1127.4</ele>
        <time>2017-05-11T09:27:02.300000Z</time>
      </trkpt>
      <trkpt lat="37.849882577798596" lon="112.01060838559674">
        <ele>1125.8</ele>
        <time>2017-05-11T09:27:14.300000Z</time>
      </trkpt>
      <trkpt lat="37.8498791975673" lon="112.0101880269017">
        <ele>1124.5</ele>
        <time>2017-05-11T09:27:26.300000Z</time>
      </trkpt>
      <trkpt lat="37.84990735114262" lon="112.00983984423624">
        <ele>1124.7</ele>
        <time>2017-05-11T09:27:35.300000Z</time>
      </trkpt>
      <trkpt lat="37.849859134052124" lon="112.0094449069297">
        <ele>1124.3</ele>
        <time>2017-05-11T09:27:47.300000Z</time>
      </trkpt>
      <trkpt lat="37.849732452004766" lon="112.00916162436003">
        <ele>1123.7</ele>
        <time>2017-05-11T09:27:56.300000Z</time>
      </trkpt>
      <trkpt lat="37.849534036132006" lon="112.00882320637619">
        <ele>1123.2</ele>
        <time>2017-05-11T09:28:08.300000Z</time>
      </trkpt>
      <trkpt lat="37.84930070163636" lon="112.00845803289819">
        <ele>1126.59</ele>
        <time>2017-05-11T09:28:20.300000Z</time>
      </trkpt>
      <trkpt lat="37.84913903357091" lon="112.00817151526552">
        <ele>1131.09</ele>
        <time>2017-05-11T09:28:29.300000Z</time>
      </trkpt>
      <trkpt lat="37.84893544700163" lon="112.00783986116006">
        <ele>1136.09</ele>
        <time>2017-05-11T09:28:41.300000Z</time>
      </trkpt>
      <trkpt lat="37.84875420334773" lon="112.00756794560533">
        <ele>1139.4</ele>
        <time>2017-05-11T09:28:50.300000Z</time>
      </trkpt>
      <trkpt lat="37.848560676071216" lon="112.00732144211639">
        <ele>1142.5</ele>
        <time>2017-05-11T09:28:59.300000Z</time>
      </trkpt>
      <trkpt lat="37.84832890702308" lon="112.00697952375123">
        <ele>1146.5</ele>
        <time>2017-05-11T09:29:11.300000Z</time>
      </trkpt>
      <trkpt lat="37.84826072383106" lon="112.00691654912926">
        <ele>1146.09</ele>
        <time>2017-05-11T09:29:14.300000Z</time>
      </trkpt>
      <trkpt lat="37.84793724766644" lon="112.00684982065536">
        <ele>1143.09</ele>
        <time>2017-05-11T09:29:26.300000Z</time>
      </trkpt>
      <trkpt lat="37.84762885082008" lon="112.00682147470569">
        <ele>1143.59</ele>
        <time>2017-05-11T09:29:38.300000Z</time>
      </trkpt>
      <trkpt lat="37.84733391100872" lon="112.00682961924592">
        <ele>1147.3</ele>
        <time>2017-05-11T09:29:50.300000Z</time>
      </trkpt>
      <trkpt lat="37.847007296189815" lon="112.00681479106237">
        <ele>1146.2</ele>
        <time>2017-05-11T09:30:02.300000Z</time>
      </trkpt>
      <trkpt lat="37.846672360902836" lon="112.00676968896913">
        <ele>1145.4</ele>
        <time>2017-05-11T09:30:14.300000Z</time>
      </trkpt>
      <trkpt lat="37.84635226253237" lon="112.00675323814927">
        <ele>1145.5</ele>
        <time>2017-05-11T09:30:26.300000Z</time>
      </trkpt>
      <trkpt lat="37.8460087999975" lon="112.00665623734761">
        <ele>1143.7</ele>
        <time>2017-05-11T09:30:38.300000Z</time>
      </trkpt>
      <trkpt lat="37.84566713785721" lon="112.00650138997467">
        <ele>1144.8</ele>
        <time>2017-05-11T09:30:50.300000Z</time>
      </trkpt>
      <trkpt lat="37.84540712921298" lon="112.00644141206415">
        <ele>1143.59</ele>
        <time>2017-05-11T09:30:59.300000Z</time>
      </trkpt>
      <trkpt lat="37.84515054858867" lon="112.00641468194655">
        <ele>1143.5</ele>
        <time>2017-05-11T09:31:08.300000Z</time>
      </trkpt>
      <trkpt lat="37.8448222639789" lon="112.00632308598148">
        <ele>1144.09</ele>
        <time>2017-05-11T09:31:20.300000Z</time>
      </trkpt>
      <trkpt lat="37.84459054980099" lon="112.00632797919467">
        <ele>1140.5</ele>
        <time>2017-05-11T09:31:29.300000Z</time>
      </trkpt>
      <trkpt lat="37.84432390880278" lon="112.00639964316339">
        <ele>1142.8</ele>
        <time>2017-05-11T09:31:38.300000Z</time>
      </trkpt>
      <trkpt lat="37.844067439181856" lon="112.0065177994097">
        <ele>1145.3</ele>
        <time>2017-05-11T09:31:47.300000Z</time>
      </trkpt>
      <trkpt lat="37.84375219594146" lon="112.00669326884345">
        <ele>1148.9</ele>
        <time>2017-05-11T09:31:59.300000Z</time>
      </trkpt>
      <trkpt lat="37.84345039719938" lon="112.00690955424224">
        <ele>1151.59</ele>
        <time>2017-05-11T09:32:11.300000Z</time>
      </trkpt>
      <trkpt lat="37.84314726578981" lon="112.00711800140411">
        <ele>1155.59</ele>
        <time>2017-05-11T09:32:23.300000Z</time>
      </trkpt>
      <trkpt lat="37.84307552081257" lon="112.00715801629808">
        <ele>1155.59</ele>
        <time>2017-05-11T09:32:26.300000Z</time>
      </trkpt>
      <trkpt lat="37.84292730458994" lon="112.0072764312459">
        <ele>1156.7</ele>
        <time>2017-05-11T09:32:32.300000Z</time>
      </trkpt>
      <trkpt lat="37.84260901125063" lon="112.00747460940426">
        <ele>1156.9</ele>
        <time>2017-05-11T09:32:44.300000Z</time>
      </trkpt>
      <trkpt lat="37.84254066513539" lon="112.00755787445654">
        <ele>1158.09</ele>
        <time>2017-05-11T09:32:47.300000Z</time>
      </trkpt>
      <trkpt lat="37.84224541309273" lon="112.00776307891894">
        <ele>1154.4</ele>
        <time>2017-05-11T09:32:59.300000Z</time>
      </trkpt>
      <trkpt lat="37.841950645989726" lon="112.00789637982992">
        <ele>1151.3</ele>
        <time>2017-05-11T09:33:11.300000Z</time>
      </trkpt>
      <trkpt lat="37.84165079792447" lon="112.00800481248947">
        <ele>1147.5</ele>
        <time>2017-05-11T09:33:23.300000Z</time>
      </trkpt>
      <trkpt lat="37.8413455494642" lon="112.00810459583248">
        <ele>1150.7</ele>
        <time>2017-05-11T09:33:35.300000Z</time>
      </trkpt>
      <trkpt lat="37.84104887345392" lon="112.00814977420109">
        <ele>1151.2</ele>
        <time>2017-05-11T09:33:47.300000Z</time>
      </trkpt>
      <trkpt lat="37.84084554830859" lon="112.00818818352683">
        <ele>1147.4</ele>
        <time>2017-05-11T09:33:56.300000Z</time>
      </trkpt>
      <trkpt lat="37.84053741893663" lon="112.0081614588766">
        <ele>1149.9</ele>
        <time>2017-05-11T09:34:08.300000Z</time>
      </trkpt>
      <trkpt lat="37.8403370734655" lon="112.00810985219691">
        <ele>1153.3</ele>
        <time>2017-05-11T09:34:14.300000Z</time>
      </trkpt>
      <trkpt lat="37.84014580930795" lon="112.00810663121446">
        <ele>1156.59</ele>
        <time>2017-05-11T09:34:20.300000Z</time>
      </trkpt>
      <trkpt lat="37.83996556084072" lon="112.0081399017332">
        <ele>1160.2</ele>
        <time>2017-05-11T09:34:26.300000Z</time>
      </trkpt>
      <trkpt lat="37.83985212920438" lon="112.00823966240536">
        <ele>1160.9</ele>
        <time>2017-05-11T09:34:32.300000Z</time>
      </trkpt>
      <trkpt lat="37.83955397368869" lon="112.00823483226627">
        <ele>1165.3</ele>
        <time>2017-05-11T09:34:41.300000Z</time>
      </trkpt>
      <trkpt lat="37.839458966329026" lon="112.00825133298154">
        <ele>1165.7</ele>
        <time>2017-05-11T09:34:44.300000Z</time>
      </trkpt>
      <trkpt lat="37.8394572591772" lon="112.00818645696769">
        <ele>1168.8</ele>
        <time>2017-05-11T09:34:53.300000Z</time>
      </trkpt>
      <trkpt lat="37.83967896442911" lon="112.0080796552165">
        <ele>1169.7</ele>
        <time>2017-05-11T09:35:05.300000Z</time>
      </trkpt>
      <trkpt lat="37.8398021977073" lon="112.00805990737581">
        <ele>1170.7</ele>
        <time>2017-05-11T09:35:11.300000Z</time>
      </trkpt>
      <trkpt lat="37.840090517244086" lon="112.00808798593583">
        <ele>1169.5</ele>
        <time>2017-05-11T09:35:23.300000Z</time>
      </trkpt>
      <trkpt lat="37.84040241523092" lon="112.00812471184202">
        <ele>1168.5</ele>
        <time>2017-05-11T09:35:32.300000Z</time>
      </trkpt>
      <trkpt lat="37.84077075066134" lon="112.00815980912922">
        <ele>1167.0</ele>
        <time>2017-05-11T09:35:44.300000Z</time>
      </trkpt>
      <trkpt lat="37.84110416156551" lon="112.0081697710837">
        <ele>1164.8</ele>
        <time>2017-05-11T09:35:53.300000Z</time>
      </trkpt>
      <trkpt lat="37.84136545836479" lon="112.00816136006526">
        <ele>1162.7</ele>
        <time>2017-05-11T09:36:02.300000Z</time>
      </trkpt>
      <trkpt lat="37.841579176638504" lon="112.00809483653994">
        <ele>1160.9</ele>
        <time>2017-05-11T09:36:11.300000Z</time>
      </trkpt>
      <trkpt lat="37.841847385350036" lon="112.00795126635946">
        <ele>1158.3</ele>
        <time>2017-05-11T09:36:20.300000Z</time>
      </trkpt>
      <trkpt lat="37.842089123733565" lon="112.00776796324858">
        <ele>1157.2</ele>
        <time>2017-05-11T09:36:29.300000Z</time>
      </trkpt>
      <trkpt lat="37.84233385659797" lon="112.00758141652062">
        <ele>1156.09</ele>
        <time>2017-05-11T09:36:38.300000Z</time>
      </trkpt>
      <trkpt lat="37.842625635844875" lon="112.00735810200152">
        <ele>1154.09</ele>
        <time>2017-05-11T09:36:53.300000Z</time>
      </trkpt>
      <trkpt lat="37.84286896412391" lon="112.00718804570617">
        <ele>1153.0</ele>
        <time>2017-05-11T09:37:02.300000Z</time>
      </trkpt>
      <trkpt lat="37.8431022783892" lon="112.00700988165737">
        <ele>1151.8</ele>
        <time>2017-05-11T09:37:11.300000Z</time>
      </trkpt>
      <trkpt lat="37.84340225408449" lon="112.00676791655052">
        <ele>1150.3</ele>
        <time>2017-05-11T09:37:23.300000Z</time>
      </trkpt>
      <trkpt lat="37.84365403370734" lon="112.00658461547995">
        <ele>1150.5</ele>
        <time>2017-05-11T09:37:32.300000Z</time>
      </trkpt>
      <trkpt lat="37.84390734250362" lon="112.00643456286977">
        <ele>1150.09</ele>
        <time>2017-05-11T09:37:41.300000Z</time>
      </trkpt>
      <trkpt lat="37.844095432163236" lon="112.00631965863458">
        <ele>1153.8</ele>
        <time>2017-05-11T09:37:47.300000Z</time>
      </trkpt>
      <trkpt lat="37.84434896761248" lon="112.00618474388074">
        <ele>1154.2</ele>
        <time>2017-05-11T09:37:56.300000Z</time>
      </trkpt>
      <trkpt lat="37.84442038692631" lon="112.00616311061476">
        <ele>1154.2</ele>
        <time>2017-05-11T09:37:59.300000Z</time>
      </trkpt>
      <trkpt lat="37.844747172424654" lon="112.00621145702868">
        <ele>1154.8</ele>
        <time>2017-05-11T09:38:11.300000Z</time>
      </trkpt>
      <trkpt lat="37.84509725127537" lon="112.00627304586988">
        <ele>1156.2</ele>
        <time>2017-05-11T09:38:23.300000Z</time>
      </trkpt>
      <trkpt lat="37.84538738497418" lon="112.00632977633119">
        <ele>1154.4</ele>
        <time>2017-05-11T09:38:32.300000Z</time>
      </trkpt>
      <trkpt lat="37.845680615772075" lon="112.00643975758295">
        <ele>1148.5</ele>
        <time>2017-05-11T09:38:41.300000Z</time>
      </trkpt>
      <trkpt lat="37.84594732348036" lon="112.00652784699611">
        <ele>1146.2</ele>
        <time>2017-05-11T09:38:50.300000Z</time>
      </trkpt>
      <trkpt lat="37.84626374007214" lon="112.00659619788587">
        <ele>1144.2</ele>
        <time>2017-05-11T09:39:02.300000Z</time>
      </trkpt>
      <trkpt lat="37.8465705723164" lon="112.00660318937018">
        <ele>1145.3</ele>
        <time>2017-05-11T09:39:11.300000Z</time>
      </trkpt>
      <trkpt lat="37.846875408026136" lon="112.00664288872787">
        <ele>1147.3</ele>
        <time>2017-05-11T09:39:20.300000Z</time>
      </trkpt>
      <trkpt lat="37.84718706443207" lon="112.00666988266522">
        <ele>1147.4</ele>
        <time>2017-05-11T09:39:29.300000Z</time>
      </trkpt>
      <trkpt lat="37.84749405549121" lon="112.00671471771602">
        <ele>1148.09</ele>
        <time>2017-05-11T09:39:38.300000Z</time>
      </trkpt>
      <trkpt lat="37.84776224907037" lon="112.00675955742217">
        <ele>1148.7</ele>
        <time>2017-05-11T09:39:47.300000Z</time>
      </trkpt>
      <trkpt lat="37.84803889199825" lon="112.00679142118689">
        <ele>1147.5</ele>
        <time>2017-05-11T09:39:56.300000Z</time>
      </trkpt>
      <trkpt lat="37.84822723560366" lon="112.00686465321341">
        <ele>1146.2</ele>
        <time>2017-05-11T09:40:02.300000Z</time>
      </trkpt>
      <trkpt lat="37.848422344418616" lon="112.00712629238403">
        <ele>1144.9</ele>
        <time>2017-05-11T09:40:11.300000Z</time>
      </trkpt>
      <trkpt lat="37.84859732238077" lon="112.00740631631115">
        <ele>1144.7</ele>
        <time>2017-05-11T09:40:20.300000Z</time>
      </trkpt>
      <trkpt lat="37.848852269300465" lon="112.00770957897521">
        <ele>1144.2</ele>
        <time>2017-05-11T09:40:32.300000Z</time>
      </trkpt>
      <trkpt lat="37.84898058301161" lon="112.00789824402376">
        <ele>1146.09</ele>
        <time>2017-05-11T09:40:38.300000Z</time>
      </trkpt>
      <trkpt lat="37.849138949551204" lon="112.00819989859303">
        <ele>1147.59</ele>
        <time>2017-05-11T09:40:47.300000Z</time>
      </trkpt>
      <trkpt lat="37.84924719372536" lon="112.00838640493086">
        <ele>1148.09</ele>
        <time>2017-05-11T09:40:53.300000Z</time>
      </trkpt>
      <trkpt lat="37.849369071842034" lon="112.00854993308529">
        <ele>1147.4</ele>
        <time>2017-05-11T09:40:59.300000Z</time>
      </trkpt>
      <trkpt lat="37.8495406665227" lon="112.00887483674065">
        <ele>1146.5</ele>
        <time>2017-05-11T09:41:08.300000Z</time>
      </trkpt>
      <trkpt lat="37.84971746610205" lon="112.00918325188076">
        <ele>1142.5</ele>
        <time>2017-05-11T09:41:17.300000Z</time>
      </trkpt>
      <trkpt lat="37.84977740261443" lon="112.00928326383053">
        <ele>1141.09</ele>
        <time>2017-05-11T09:41:20.300000Z</time>
      </trkpt>
      <trkpt lat="37.84981233000076" lon="112.00939976861622">
        <ele>1141.3</ele>
        <time>2017-05-11T09:41:23.300000Z</time>
      </trkpt>
      <trkpt lat="37.849872315338544" lon="112.00948329121684">
        <ele>1138.09</ele>
        <time>2017-05-11T09:41:26.300000Z</time>
      </trkpt>
      <trkpt lat="37.84991063354946" lon="112.00973847216386">
        <ele>1135.8</ele>
        <time>2017-05-11T09:41:32.300000Z</time>
      </trkpt>
      <trkpt lat="37.849924094923814" lon="112.0101434177032">
        <ele>1131.59</ele>
        <time>2017-05-11T09:41:41.300000Z</time>
      </trkpt>
      <trkpt lat="37.84992579477069" lon="112.01058161792534">
        <ele>1128.9</ele>
        <time>2017-05-11T09:41:53.300000Z</time>
      </trkpt>
      <trkpt lat="37.849894068763334" lon="112.01094656612561">
        <ele>1130.09</ele>
        <time>2017-05-11T09:42:02.300000Z</time>
      </trkpt>
      <trkpt lat="37.84987913684169" lon="112.01132151707232">
        <ele>1129.2</ele>
        <time>2017-05-11T09:42:11.300000Z</time>
      </trkpt>
      <trkpt lat="37.84987581177592" lon="112.01143830102282">
        <ele>1130.7</ele>
        <time>2017-05-11T09:42:14.300000Z</time>
      </trkpt>
      <trkpt lat="37.84989421156666" lon="112.01154832430636">
        <ele>1131.3</ele>
        <time>2017-05-11T09:42:17.300000Z</time>
      </trkpt>
      <trkpt lat="37.84988255761168" lon="112.01191679111317">
        <ele>1130.4</ele>
        <time>2017-05-11T09:42:26.300000Z</time>
      </trkpt>
      <trkpt lat="37.84988585692246" lon="112.01227525631151">
        <ele>1127.8</ele>
        <time>2017-05-11T09:42:35.300000Z</time>
      </trkpt>
      <trkpt lat="37.84986769089956" lon="112.01264535120593">
        <ele>1123.9</ele>
        <time>2017-05-11T09:42:44.300000Z</time>
      </trkpt>
      <trkpt lat="37.84983109659683" lon="112.01291515465095">
        <ele>1125.4</ele>
        <time>2017-05-11T09:42:50.300000Z</time>
      </trkpt>
      <trkpt lat="37.84980260497791" lon="112.01329201417066">
        <ele>1131.7</ele>
        <time>2017-05-11T09:42:59.300000Z</time>
      </trkpt>
      <trkpt lat="37.849744205169955" lon="112.01369185954358">
        <ele>1134.5</ele>
        <time>2017-05-11T09:43:08.300000Z</time>
      </trkpt>
      <trkpt lat="37.849672731449715" lon="112.01411036384413">
        <ele>1132.9</ele>
        <time>2017-05-11T09:43:17.300000Z</time>
      </trkpt>
      <trkpt lat="37.84961132791501" lon="112.01451886779836">
        <ele>1131.5</ele>
        <time>2017-05-11T09:43:26.300000Z</time>
      </trkpt>
      <trkpt lat="37.84957119936986" lon="112.01488898289867">
        <ele>1130.5</ele>
        <time>2017-05-11T09:43:35.300000Z</time>
      </trkpt>
      <trkpt lat="37.84952441983653" lon="112.01530884707522">
        <ele>1129.4</ele>
        <time>2017-05-11T09:43:47.300000Z</time>
      </trkpt>
      <trkpt lat="37.84948626721416" lon="112.015653825385">
        <ele>1128.4</ele>
        <time>2017-05-11T09:43:56.300000Z</time>
      </trkpt>
      <trkpt lat="37.84944454865239" lon="112.01610884307736">
        <ele>1128.59</ele>
        <time>2017-05-11T09:44:08.300000Z</time>
      </trkpt>
      <trkpt lat="37.84939632428098" lon="112.0164673471459">
        <ele>1128.9</ele>
        <time>2017-05-11T09:44:17.300000Z</time>
      </trkpt>
      <trkpt lat="37.84937311112614" lon="112.01680881835946">
        <ele>1127.0</ele>
        <time>2017-05-11T09:44:26.300000Z</time>
      </trkpt>
      <trkpt lat="37.84932301460678" lon="112.0172557386399">
        <ele>1125.09</ele>
        <time>2017-05-11T09:44:38.300000Z</time>
      </trkpt>
      <trkpt lat="37.8493080540272" lon="112.0173657799718">
        <ele>1124.09</ele>
        <time>2017-05-11T09:44:41.300000Z</time>
      </trkpt>
      <trkpt lat="37.84931811139278" lon="112.01745554097248">
        <ele>1121.59</ele>
        <time>2017-05-11T09:44:44.300000Z</time>
      </trkpt>
      <trkpt lat="37.849268231248026" lon="112.01782730521762">
        <ele>1120.0</ele>
        <time>2017-05-11T09:44:53.300000Z</time>
      </trkpt>
      <trkpt lat="37.849244893946846" lon="112.01802251629692">
        <ele>1116.3</ele>
        <time>2017-05-11T09:45:14.300000Z</time>
      </trkpt>
      <trkpt lat="37.84923469082558" lon="112.01788760199673">
        <ele>1111.7</ele>
        <time>2017-05-11T09:45:20.300000Z</time>
      </trkpt>
      <trkpt lat="37.849289702655746" lon="112.01752394763773">
        <ele>1107.09</ele>
        <time>2017-05-11T09:45:32.300000Z</time>
      </trkpt>
      <trkpt lat="37.84938795776582" lon="112.01712406232004">
        <ele>1107.4</ele>
        <time>2017-05-11T09:45:44.300000Z</time>
      </trkpt>
      <trkpt lat="37.84944127609173" lon="112.01678555888928">
        <ele>1109.2</ele>
        <time>2017-05-11T09:45:53.300000Z</time>
      </trkpt>
      <trkpt lat="37.84947454784194" lon="112.0164370572598">
        <ele>1111.5</ele>
        <time>2017-05-11T09:46:02.300000Z</time>
      </trkpt>
      <trkpt lat="37.84949449650437" lon="112.0160039377194">
        <ele>1114.5</ele>
        <time>2017-05-11T09:46:14.300000Z</time>
      </trkpt>
      <trkpt lat="37.8495028416291" lon="112.01574060797999">
        <ele>1117.2</ele>
        <time>2017-05-11T09:46:20.300000Z</time>
      </trkpt>
      <trkpt lat="37.8495461964241" lon="112.01537886634645">
        <ele>1120.4</ele>
        <time>2017-05-11T09:46:29.300000Z</time>
      </trkpt>
      <trkpt lat="37.84956424971953" lon="112.01504227355335">
        <ele>1122.4</ele>
        <time>2017-05-11T09:46:38.300000Z</time>
      </trkpt>
      <trkpt lat="37.84960780911489" lon="112.01470540991649">
        <ele>1123.3</ele>
        <time>2017-05-11T09:46:47.300000Z</time>
      </trkpt>
      <trkpt lat="37.84960936159284" lon="112.01425852199183">
        <ele>1124.3</ele>
        <time>2017-05-11T09:46:59.300000Z</time>
      </trkpt>
      <trkpt lat="37.84961781614773" lon="112.01414875974947">
        <ele>1123.8</ele>
        <time>2017-05-11T09:47:02.300000Z</time>
      </trkpt>
      <trkpt lat="37.84959962095035" lon="112.01406035836722">
        <ele>1124.7</ele>
        <time>2017-05-11T09:47:05.400000Z</time>
      </trkpt>
      <trkpt lat="37.849629283382" lon="112.01365213261235">
        <ele>1123.8</ele>
        <time>2017-05-11T09:47:17.200000Z</time>
      </trkpt>
      <trkpt lat="37.84965256010082" lon="112.01329527623086">
        <ele>1131.09</ele>
        <time>2017-05-11T09:47:26.300000Z</time>
      </trkpt>
      <trkpt lat="37.84966425705621" lon="112.01309684375767">
        <ele>1131.4</ele>
        <time>2017-05-11T09:47:32.300000Z</time>
      </trkpt>
      <trkpt lat="37.84974915299223" lon="112.01273025190373">
        <ele>1132.7</ele>
        <time>2017-05-11T09:47:41.300000Z</time>
      </trkpt>
      <trkpt lat="37.84976605074486" lon="112.01261021930289">
        <ele>1132.59</ele>
        <time>2017-05-11T09:47:44.300000Z</time>
      </trkpt>
      <trkpt lat="37.84975277038674" lon="112.01251181765981">
        <ele>1132.5</ele>
        <time>2017-05-11T09:47:47.300000Z</time>
      </trkpt>
      <trkpt lat="37.849786058398784" lon="112.01216659288764">
        <ele>1132.5</ele>
        <time>2017-05-11T09:47:56.300000Z</time>
      </trkpt>
      <trkpt lat="37.849844312886056" lon="112.01182001581388">
        <ele>1132.3</ele>
        <time>2017-05-11T09:48:05.300000Z</time>
      </trkpt>
      <trkpt lat="37.84983411723619" lon="112.01140829909687">
        <ele>1134.8</ele>
        <time>2017-05-11T09:48:17.300000Z</time>
      </trkpt>
      <trkpt lat="37.84987561954857" lon="112.01094656833052">
        <ele>1137.4</ele>
        <time>2017-05-11T09:48:29.300000Z</time>
      </trkpt>
      <trkpt lat="37.84989563955994" lon="112.01059513794486">
        <ele>1138.4</ele>
        <time>2017-05-11T09:48:38.300000Z</time>
      </trkpt>
      <trkpt lat="37.84991568193933" lon="112.01023668131147">
        <ele>1138.3</ele>
        <time>2017-05-11T09:48:47.300000Z</time>
      </trkpt>
      <trkpt lat="37.849944105380025" lon="112.00979658790692">
        <ele>1132.7</ele>
        <time>2017-05-11T09:48:59.300000Z</time>
      </trkpt>
      <trkpt lat="37.8499124209755" lon="112.00949977613531">
        <ele>1129.4</ele>
        <time>2017-05-11T09:49:08.300000Z</time>
      </trkpt>
      <trkpt lat="37.84979909674136" lon="112.00919486596548">
        <ele>1128.7</ele>
        <time>2017-05-11T09:49:17.300000Z</time>
      </trkpt>
      <trkpt lat="37.84974228776812" lon="112.00913837553331">
        <ele>1128.09</ele>
        <time>2017-05-11T09:49:20.300000Z</time>
      </trkpt>
      <trkpt lat="37.84957066324182" lon="112.00882320200262">
        <ele>1126.8</ele>
        <time>2017-05-11T09:49:32.300000Z</time>
      </trkpt>
      <trkpt lat="37.84939398859458" lon="112.00856479765031">
        <ele>1127.4</ele>
        <time>2017-05-11T09:49:41.300000Z</time>
      </trkpt>
      <trkpt lat="37.849188812525256" lon="112.00821962581162">
        <ele>1127.9</ele>
        <time>2017-05-11T09:49:53.300000Z</time>
      </trkpt>
      <trkpt lat="37.84899752853064" lon="112.00785634301944">
        <ele>1128.8</ele>
        <time>2017-05-11T09:50:05.300000Z</time>
      </trkpt>
      <trkpt lat="37.84876220456497" lon="112.00752307241942">
        <ele>1136.09</ele>
        <time>2017-05-11T09:50:17.300000Z</time>
      </trkpt>
      <trkpt lat="37.84853225354187" lon="112.0072081841461">
        <ele>1137.2</ele>
        <time>2017-05-11T09:50:29.300000Z</time>
      </trkpt>
      <trkpt lat="37.84831888296212" lon="112.00697465932446">
        <ele>1141.09</ele>
        <time>2017-05-11T09:50:38.300000Z</time>
      </trkpt>
      <trkpt lat="37.84813705073604" lon="112.0069014264063">
        <ele>1141.9</ele>
        <time>2017-05-11T09:50:44.300000Z</time>
      </trkpt>
      <trkpt lat="37.84785553862094" lon="112.00686469755873">
        <ele>1145.59</ele>
        <time>2017-05-11T09:50:53.300000Z</time>
      </trkpt>
      <trkpt lat="37.847609000827575" lon="112.00683634422313">
        <ele>1143.09</ele>
        <time>2017-05-11T09:51:02.300000Z</time>
      </trkpt>
      <trkpt lat="37.84746707028055" lon="112.00684798456552">
        <ele>1141.2</ele>
        <time>2017-05-11T09:51:08.300000Z</time>
      </trkpt>
      <trkpt lat="37.84724218759765" lon="112.00683638798412">
        <ele>1137.2</ele>
        <time>2017-05-11T09:51:17.300000Z</time>
      </trkpt>
      <trkpt lat="37.84693891949739" lon="112.00690805683907">
        <ele>1122.59</ele>
        <time>2017-05-11T09:51:32.300000Z</time>
      </trkpt>
      <trkpt lat="37.84661572322526" lon="112.0069297203701">
        <ele>1122.4</ele>
        <time>2017-05-11T09:51:44.300000Z</time>
      </trkpt>
      <trkpt lat="37.84635715863713" lon="112.00693137309021">
        <ele>1120.2</ele>
        <time>2017-05-11T09:51:53.300000Z</time>
      </trkpt>
      <trkpt lat="37.84606228959666" lon="112.0068246350212">
        <ele>1121.9</ele>
        <time>2017-05-11T09:52:02.300000Z</time>
      </trkpt>
      <trkpt lat="37.8457822993407" lon="112.00664139725309">
        <ele>1123.4</ele>
        <time>2017-05-11T09:52:11.300000Z</time>
      </trkpt>
      <trkpt lat="37.84569538232982" lon="112.00658302044577">
        <ele>1125.8</ele>
        <time>2017-05-11T09:52:14.300000Z</time>
      </trkpt>
      <trkpt lat="37.84544219104035" lon="112.00651141829711">
        <ele>1132.7</ele>
        <time>2017-05-11T09:52:23.300000Z</time>
      </trkpt>
      <trkpt lat="37.8451455062793" lon="112.00646793368747">
        <ele>1128.9</ele>
        <time>2017-05-11T09:52:35.300000Z</time>
      </trkpt>
      <trkpt lat="37.84482387547522" lon="112.00641958649274">
        <ele>1130.9</ele>
        <time>2017-05-11T09:52:47.300000Z</time>
      </trkpt>
      <trkpt lat="37.8445540778551" lon="112.00645800274029">
        <ele>1138.2</ele>
        <time>2017-05-11T09:52:56.300000Z</time>
      </trkpt>
      <trkpt lat="37.84437712827457" lon="112.0064764049558">
        <ele>1140.5</ele>
        <time>2017-05-11T09:53:02.300000Z</time>
      </trkpt>
      <trkpt lat="37.84405227388301" lon="112.0065994350836">
        <ele>1145.2</ele>
        <time>2017-05-11T09:53:14.300000Z</time>
      </trkpt>
      <trkpt lat="37.8439672142691" lon="112.00664620904179">
        <ele>1143.3</ele>
        <time>2017-05-11T09:53:17.300000Z</time>
      </trkpt>
      <trkpt lat="37.84364722206318" lon="112.00677653730384">
        <ele>1143.0</ele>
        <time>2017-05-11T09:53:29.300000Z</time>
      </trkpt>
      <trkpt lat="37.84333058988826" lon="112.00696309036447">
        <ele>1143.8</ele>
        <time>2017-05-11T09:53:41.300000Z</time>
      </trkpt>
      <trkpt lat="37.84310212935872" lon="112.00715125529528">
        <ele>1148.0</ele>
        <time>2017-05-11T09:53:50.300000Z</time>
      </trkpt>
      <trkpt lat="37.84278403716083" lon="112.00737295037345">
        <ele>1152.0</ele>
        <time>2017-05-11T09:54:02.300000Z</time>
      </trkpt>
      <trkpt lat="37.842533906434745" lon="112.0075497658202">
        <ele>1156.59</ele>
        <time>2017-05-11T09:54:11.300000Z</time>
      </trkpt>
      <trkpt lat="37.84228567529031" lon="112.00772658151624">
        <ele>1157.2</ele>
        <time>2017-05-11T09:54:20.300000Z</time>
      </trkpt>
      <trkpt lat="37.84202077232094" lon="112.00785312088796">
        <ele>1163.0</ele>
        <time>2017-05-11T09:54:29.300000Z</time>
      </trkpt>
      <trkpt lat="37.84176210412595" lon="112.00798155198098">
        <ele>1166.59</ele>
        <time>2017-05-11T09:54:38.300000Z</time>
      </trkpt>
      <trkpt lat="37.84149539611923" lon="112.00807646498286">
        <ele>1169.59</ele>
        <time>2017-05-11T09:54:47.300000Z</time>
      </trkpt>
      <trkpt lat="37.84123563909985" lon="112.00811461068034">
        <ele>1169.9</ele>
        <time>2017-05-11T09:54:56.300000Z</time>
      </trkpt>
      <trkpt lat="37.841028875715985" lon="112.00812301518442">
        <ele>1158.7</ele>
        <time>2017-05-11T09:55:11.300000Z</time>
      </trkpt>
      <trkpt lat="37.840987172351596" lon="112.00809652908609">
        <ele>1159.4</ele>
        <time>2017-05-11T09:55:20.300000Z</time>
      </trkpt>
      <trkpt lat="37.841280591800064" lon="112.00814325893583">
        <ele>1159.0</ele>
        <time>2017-05-11T09:55:33.300000Z</time>
      </trkpt>
      <trkpt lat="37.8414407498359" lon="112.00811458620419">
        <ele>1160.7</ele>
        <time>2017-05-11T09:55:39.400000Z</time>
      </trkpt>
      <trkpt lat="37.84170730419644" lon="112.00797993662087">
        <ele>1162.8</ele>
        <time>2017-05-11T09:55:51.400000Z</time>
      </trkpt>
      <trkpt lat="37.84178393792191" lon="112.00793802842755">
        <ele>1162.7</ele>
        <time>2017-05-11T09:55:54.300000Z</time>
      </trkpt>
      <trkpt lat="37.84184896860971" lon="112.00787476667155">
        <ele>1163.4</ele>
        <time>2017-05-11T09:55:57.400000Z</time>
      </trkpt>
      <trkpt lat="37.842055718060415" lon="112.00777959080824">
        <ele>1166.8</ele>
        <time>2017-05-11T09:56:03.400000Z</time>
      </trkpt>
      <trkpt lat="37.842142231326285" lon="112.00769983740527">
        <ele>1169.7</ele>
        <time>2017-05-11T09:56:09.300000Z</time>
      </trkpt>
      <trkpt lat="37.842410569180984" lon="112.00751301774072">
        <ele>1173.7</ele>
        <time>2017-05-11T09:56:21.300000Z</time>
      </trkpt>
      <trkpt lat="37.842655594038526" lon="112.0073197138558">
        <ele>1176.0</ele>
        <time>2017-05-11T09:56:31.300000Z</time>
      </trkpt>
      <trkpt lat="37.84271736467519" lon="112.0072580749668">
        <ele>1175.59</ele>
        <time>2017-05-11T09:56:34.300000Z</time>
      </trkpt>
      <trkpt lat="37.843033715147904" lon="112.00707476488378">
        <ele>1172.2</ele>
        <time>2017-05-11T09:56:46.300000Z</time>
      </trkpt>
      <trkpt lat="37.84329553741155" lon="112.00688983992845">
        <ele>1168.59</ele>
        <time>2017-05-11T09:56:55.300000Z</time>
      </trkpt>
      <trkpt lat="37.84356537300335" lon="112.00665625848369">
        <ele>1164.7</ele>
        <time>2017-05-11T09:57:07.300000Z</time>
      </trkpt>
      <trkpt lat="37.84383381723791" lon="112.00643457163858">
        <ele>1161.09</ele>
        <time>2017-05-11T09:57:19.300000Z</time>
      </trkpt>
      <trkpt lat="37.844050508997874" lon="112.00628127999502">
        <ele>1150.0</ele>
        <time>2017-05-11T09:57:31.300000Z</time>
      </trkpt>
      <trkpt lat="37.84435905611692" lon="112.00616798349657">
        <ele>1149.09</ele>
        <time>2017-05-11T09:57:43.300000Z</time>
      </trkpt>
      <trkpt lat="37.84468059236494" lon="112.0062479567602">
        <ele>1145.4</ele>
        <time>2017-05-11T09:57:55.300000Z</time>
      </trkpt>
      <trkpt lat="37.84491225254662" lon="112.00626117430598">
        <ele>1145.8</ele>
        <time>2017-05-11T09:58:01.300000Z</time>
      </trkpt>
      <trkpt lat="37.845190710151456" lon="112.00632114987019">
        <ele>1142.2</ele>
        <time>2017-05-11T09:58:10.300000Z</time>
      </trkpt>
      <trkpt lat="37.84547555442422" lon="112.00642302280163">
        <ele>1143.4</ele>
        <time>2017-05-11T09:58:19.300000Z</time>
      </trkpt>
      <trkpt lat="37.84580570381757" lon="112.00652624202411">
        <ele>1144.3</ele>
        <time>2017-05-11T09:58:31.300000Z</time>
      </trkpt>
      <trkpt lat="37.84605045956674" lon="112.00660622483154">
        <ele>1145.9</ele>
        <time>2017-05-11T09:58:40.300000Z</time>
      </trkpt>
      <trkpt lat="37.84616032377892" lon="112.00670298311896">
        <ele>1145.8</ele>
        <time>2017-05-11T09:58:46.300000Z</time>
      </trkpt>
      <trkpt lat="37.84624386272454" lon="112.00671135280572">
        <ele>1145.4</ele>
        <time>2017-05-11T09:58:49.300000Z</time>
      </trkpt>
      <trkpt lat="37.84655379449506" lon="112.00667968941173">
        <ele>1157.59</ele>
        <time>2017-05-11T09:58:58.300000Z</time>
      </trkpt>
      <trkpt lat="37.84689064418316" lon="112.00671965530387">
        <ele>1153.5</ele>
        <time>2017-05-11T09:59:10.300000Z</time>
      </trkpt>
      <trkpt lat="37.84716890515685" lon="112.00675476259867">
        <ele>1152.5</ele>
        <time>2017-05-11T09:59:19.300000Z</time>
      </trkpt>
      <trkpt lat="37.84752230501591" lon="112.00679472655578">
        <ele>1154.5</ele>
        <time>2017-05-11T09:59:31.300000Z</time>
      </trkpt>
      <trkpt lat="37.84779897365814" lon="112.00681794035684">
        <ele>1155.3</ele>
        <time>2017-05-11T09:59:40.300000Z</time>
      </trkpt>
      <trkpt lat="37.84811394903139" lon="112.00691494476789">
        <ele>1158.2</ele>
        <time>2017-05-11T09:59:52.300000Z</time>
      </trkpt>
      <trkpt lat="37.84826064860428" lon="112.0070330537684">
        <ele>1157.5</ele>
        <time>2017-05-11T09:59:58.300000Z</time>
      </trkpt>
      <trkpt lat="37.848490692896426" lon="112.0073163145066">
        <ele>1157.7</ele>
        <time>2017-05-11T10:00:10.300000Z</time>
      </trkpt>
      <trkpt lat="37.848562332796384" lon="112.00740307671771">
        <ele>1158.3</ele>
        <time>2017-05-11T10:00:13.300000Z</time>
      </trkpt>
      <trkpt lat="37.84873389427208" lon="112.0075547026083">
        <ele>1157.0</ele>
        <time>2017-05-11T10:00:19.300000Z</time>
      </trkpt>
      <trkpt lat="37.848917382905945" lon="112.00780147847591">
        <ele>1156.59</ele>
        <time>2017-05-11T10:00:28.300000Z</time>
      </trkpt>
      <trkpt lat="37.849083987705434" lon="112.00806961231497">
        <ele>1154.9</ele>
        <time>2017-05-11T10:00:37.300000Z</time>
      </trkpt>
      <trkpt lat="37.849133948269476" lon="112.00814799827624">
        <ele>1154.5</ele>
        <time>2017-05-11T10:00:40.300000Z</time>
      </trkpt>
      <trkpt lat="37.84919402105771" lon="112.00820151392305">
        <ele>1152.3</ele>
        <time>2017-05-11T10:00:43.300000Z</time>
      </trkpt>
      <trkpt lat="37.84940734679393" lon="112.00854317054397">
        <ele>1149.5</ele>
        <time>2017-05-11T10:00:55.300000Z</time>
      </trkpt>
      <trkpt lat="37.84959915658074" lon="112.00882130635978">
        <ele>1147.59</ele>
        <time>2017-05-11T10:01:04.300000Z</time>
      </trkpt>
      <trkpt lat="37.8497907354699" lon="112.00917810701861">
        <ele>1148.59</ele>
        <time>2017-05-11T10:01:16.300000Z</time>
      </trkpt>
      <trkpt lat="37.849820827661304" lon="112.00927812252377">
        <ele>1148.09</ele>
        <time>2017-05-11T10:01:19.300000Z</time>
      </trkpt>
      <trkpt lat="37.849874085915275" lon="112.00971144411163">
        <ele>1145.3</ele>
        <time>2017-05-11T10:01:31.300000Z</time>
      </trkpt>
      <trkpt lat="37.849897309897386" lon="112.00993310753982">
        <ele>1143.4</ele>
        <time>2017-05-11T10:01:37.300000Z</time>
      </trkpt>
      <trkpt lat="37.84995415740662" lon="112.01016152596725">
        <ele>1135.8</ele>
        <time>2017-05-11T10:01:46.300000Z</time>
      </trkpt>
      <trkpt lat="37.84995916614564" lon="112.01058161393763">
        <ele>1130.2</ele>
        <time>2017-05-11T10:01:58.300000Z</time>
      </trkpt>
      <trkpt lat="37.849955700048405" lon="112.01093169060647">
        <ele>1126.5</ele>
        <time>2017-05-11T10:02:07.300000Z</time>
      </trkpt>
      <trkpt lat="37.84993415402245" lon="112.01134178539989">
        <ele>1128.8</ele>
        <time>2017-05-11T10:02:19.300000Z</time>
      </trkpt>
      <trkpt lat="37.849884248459766" lon="112.01180189862558">
        <ele>1129.7</ele>
        <time>2017-05-11T10:02:31.300000Z</time>
      </trkpt>
      <trkpt lat="37.849857654919134" lon="112.01217685711175">
        <ele>1135.3</ele>
        <time>2017-05-11T10:02:40.300000Z</time>
      </trkpt>
      <trkpt lat="37.84984921567841" lon="112.01228012675915">
        <ele>1136.4</ele>
        <time>2017-05-11T10:02:43.300000Z</time>
      </trkpt>
      <trkpt lat="37.849796137387344" lon="112.01262021824196">
        <ele>1138.09</ele>
        <time>2017-05-11T10:02:52.300000Z</time>
      </trkpt>
      <trkpt lat="37.8497761149375" lon="112.01307006657635">
        <ele>1141.2</ele>
        <time>2017-05-11T10:03:04.300000Z</time>
      </trkpt>
      <trkpt lat="37.84973740565434" lon="112.01341529835531">
        <ele>1142.5</ele>
        <time>2017-05-11T10:03:13.300000Z</time>
      </trkpt>
      <trkpt lat="37.84970247801582" lon="112.01376702047266">
        <ele>1140.7</ele>
        <time>2017-05-11T10:03:22.300000Z</time>
      </trkpt>
      <trkpt lat="37.84967272678908" lon="112.01411198592857">
        <ele>1138.9</ele>
        <time>2017-05-11T10:03:31.300000Z</time>
      </trkpt>
      <trkpt lat="37.84964270161868" lon="112.01445857609455">
        <ele>1137.7</ele>
        <time>2017-05-11T10:03:40.300000Z</time>
      </trkpt>
      <trkpt lat="37.84960619397041" lon="112.01489060082164">
        <ele>1141.7</ele>
        <time>2017-05-11T10:03:52.300000Z</time>
      </trkpt>
      <trkpt lat="37.8495643026896" lon="112.01530884230056">
        <ele>1140.2</ele>
        <time>2017-05-11T10:04:04.300000Z</time>
      </trkpt>
      <trkpt lat="37.84950797733048" lon="112.01574736629604">
        <ele>1149.59</ele>
        <time>2017-05-11T10:04:16.300000Z</time>
      </trkpt>
      <trkpt lat="37.84947476070212" lon="112.01617048148226">
        <ele>1151.8</ele>
        <time>2017-05-11T10:04:28.300000Z</time>
      </trkpt>
      <trkpt lat="37.84943303369212" lon="112.016534122182">
        <ele>1151.8</ele>
        <time>2017-05-11T10:04:37.300000Z</time>
      </trkpt>
      <trkpt lat="37.849371495773774" lon="112.01690047208106">
        <ele>1152.2</ele>
        <time>2017-05-11T10:04:46.300000Z</time>
      </trkpt>
      <trkpt lat="37.84936303441109" lon="112.01711081736559">
        <ele>1149.2</ele>
        <time>2017-05-11T10:04:52.300000Z</time>
      </trkpt>
      <trkpt lat="37.84934457083622" lon="112.01721220698565">
        <ele>1149.2</ele>
        <time>2017-05-11T10:04:55.300000Z</time>
      </trkpt>
      <trkpt lat="37.84933482402685" lon="112.0174942016686">
        <ele>1146.8</ele>
        <time>2017-05-11T10:05:04.300000Z</time>
      </trkpt>
      <trkpt lat="37.84928294730749" lon="112.01780405156241">
        <ele>1145.09</ele>
        <time>2017-05-11T10:05:13.300000Z</time>
      </trkpt>
      <trkpt lat="37.84925980860049" lon="112.0182190756301">
        <ele>1142.5</ele>
        <time>2017-05-11T10:05:25.300000Z</time>
      </trkpt>
      <trkpt lat="37.84924969312108" lon="112.01844078383486">
        <ele>1142.4</ele>
        <time>2017-05-11T10:05:31.300000Z</time>
      </trkpt>
      <trkpt lat="37.849274650419034" lon="112.01853919752462">
        <ele>1138.7</ele>
        <time>2017-05-11T10:05:34.300000Z</time>
      </trkpt>
      <trkpt lat="37.849264988205476" lon="112.01889095926579">
        <ele>1134.7</ele>
        <time>2017-05-11T10:05:43.300000Z</time>
      </trkpt>
      <trkpt lat="37.8492281793447" lon="112.01924921665383">
        <ele>1131.2</ele>
        <time>2017-05-11T10:05:52.300000Z</time>
      </trkpt>
      <trkpt lat="37.84922160536879" lon="112.01936953712983">
        <ele>1130.59</ele>
        <time>2017-05-11T10:05:55.300000Z</time>
      </trkpt>
      <trkpt lat="37.84924341009208" lon="112.01952933047424">
        <ele>1129.09</ele>
        <time>2017-05-11T10:06:01.300000Z</time>
      </trkpt>
      <trkpt lat="37.84921640090815" lon="112.01968128922073">
        <ele>1128.9</ele>
        <time>2017-05-11T10:06:13.300000Z</time>
      </trkpt>
      <trkpt lat="37.84918826285336" lon="112.01975105173794">
        <ele>1128.8</ele>
        <time>2017-05-11T10:06:16.300000Z</time>
      </trkpt>
      <trkpt lat="37.84912841630546" lon="112.0200046804783">
        <ele>1128.7</ele>
        <time>2017-05-11T10:06:25.300000Z</time>
      </trkpt>
      <trkpt lat="37.849113237596036" lon="112.02019611636888">
        <ele>1127.7</ele>
        <time>2017-05-11T10:06:31.300000Z</time>
      </trkpt>
      <trkpt lat="37.84906494103556" lon="112.02039431697138">
        <ele>1127.5</ele>
        <time>2017-05-11T10:06:37.300000Z</time>
      </trkpt>
      <trkpt lat="37.849070006137175" lon="112.02062441838721">
        <ele>1124.7</ele>
        <time>2017-05-11T10:06:43.300000Z</time>
      </trkpt>
      <trkpt lat="37.84911846895502" lon="112.0208593831433">
        <ele>1121.9</ele>
        <time>2017-05-11T10:06:49.300000Z</time>
      </trkpt>
      <trkpt lat="37.84912861390484" lon="112.02131634870784">
        <ele>1120.4</ele>
        <time>2017-05-11T10:06:58.300000Z</time>
      </trkpt>
      <trkpt lat="37.84909184497462" lon="112.02176656586336">
        <ele>1120.5</ele>
        <time>2017-05-11T10:07:07.300000Z</time>
      </trkpt>
      <trkpt lat="37.84909374400422" lon="112.02216621885657">
        <ele>1120.4</ele>
        <time>2017-05-11T10:07:16.300000Z</time>
      </trkpt>
      <trkpt lat="37.84909686496286" lon="112.02251666250343">
        <ele>1128.0</ele>
        <time>2017-05-11T10:07:25.300000Z</time>
      </trkpt>
      <trkpt lat="37.84915868060082" lon="112.02293497535788">
        <ele>1130.09</ele>
        <time>2017-05-11T10:07:37.300000Z</time>
      </trkpt>
      <trkpt lat="37.84916875312229" lon="112.02302312763408">
        <ele>1130.5</ele>
        <time>2017-05-11T10:07:40.300000Z</time>
      </trkpt>
      <trkpt lat="37.849132056385386" lon="112.0234530864512">
        <ele>1130.5</ele>
        <time>2017-05-11T10:07:52.300000Z</time>
      </trkpt>
      <trkpt lat="37.84910868113668" lon="112.02357017844477">
        <ele>1128.9</ele>
        <time>2017-05-11T10:07:55.300000Z</time>
      </trkpt>
      <trkpt lat="37.84906531524201" lon="112.02365509385606">
        <ele>1124.4</ele>
        <time>2017-05-11T10:07:58.300000Z</time>
      </trkpt>
      <trkpt lat="37.84904555320844" lon="112.02384168312244">
        <ele>1121.59</ele>
        <time>2017-05-11T10:08:04.400000Z</time>
      </trkpt>
      <trkpt lat="37.84892872508588" lon="112.02420838409341">
        <ele>1112.3</ele>
        <time>2017-05-11T10:08:16.300000Z</time>
      </trkpt>
      <trkpt lat="37.84884381318298" lon="112.02461348547266">
        <ele>1101.09</ele>
        <time>2017-05-11T10:08:31.300000Z</time>
      </trkpt>
      <trkpt lat="37.848818894363106" lon="112.02470002396575">
        <ele>1099.4</ele>
        <time>2017-05-11T10:08:34.300000Z</time>
      </trkpt>
      <trkpt lat="37.848798814626306" lon="112.02500858144707">
        <ele>1095.0</ele>
        <time>2017-05-11T10:08:43.300000Z</time>
      </trkpt>
      <trkpt lat="37.84882056952663" lon="112.0251951736394">
        <ele>1095.5</ele>
        <time>2017-05-11T10:08:46.300000Z</time>
      </trkpt>
      <trkpt lat="37.84881234502654" lon="112.02533038895137">
        <ele>1094.8</ele>
        <time>2017-05-11T10:08:49.300000Z</time>
      </trkpt>
      <trkpt lat="37.84887889822201" lon="112.02560865388196">
        <ele>1093.8</ele>
        <time>2017-05-11T10:08:55.300000Z</time>
      </trkpt>
      <trkpt lat="37.8488938249397" lon="112.02581363996741">
        <ele>1092.09</ele>
        <time>2017-05-11T10:09:01.300000Z</time>
      </trkpt>
      <trkpt lat="37.848947251386846" lon="112.02582201698466">
        <ele>1093.8</ele>
        <time>2017-05-11T10:09:04.300000Z</time>
      </trkpt>
      <trkpt lat="37.848973888702695" lon="112.02590693002963">
        <ele>1093.2</ele>
        <time>2017-05-11T10:09:07.300000Z</time>
      </trkpt>
      <trkpt lat="37.84892395893512" lon="112.02601375775787">
        <ele>1092.2</ele>
        <time>2017-05-11T10:09:13.300000Z</time>
      </trkpt>
      <trkpt lat="37.84864401008983" lon="112.02610033080131">
        <ele>1091.59</ele>
        <time>2017-05-11T10:09:25.400000Z</time>
      </trkpt>
      <trkpt lat="37.84849250854286" lon="112.02614226661937">
        <ele>1086.8</ele>
        <time>2017-05-11T10:09:31.300000Z</time>
      </trkpt>
      <trkpt lat="37.848407440278834" lon="112.02619879809791">
        <ele>1086.9</ele>
        <time>2017-05-11T10:09:34.400000Z</time>
      </trkpt>
      <trkpt lat="37.848330909178635" lon="112.02620692040414">
        <ele>1085.3</ele>
        <time>2017-05-11T10:09:37.300000Z</time>
      </trkpt>
      <trkpt lat="37.84826095808798" lon="112.02618880954226">
        <ele>1084.09</ele>
        <time>2017-05-11T10:09:40.300000Z</time>
      </trkpt>
      <trkpt lat="37.848155769063204" lon="112.02626211064283">
        <ele>1081.7</ele>
        <time>2017-05-11T10:09:46.300000Z</time>
      </trkpt>
      <trkpt lat="37.847942361291594" lon="112.02653041142254">
        <ele>1078.4</ele>
        <time>2017-05-11T10:09:55.300000Z</time>
      </trkpt>
      <trkpt lat="37.84778422015181" lon="112.02683062015248">
        <ele>1072.0</ele>
        <time>2017-05-11T10:10:13.300000Z</time>
      </trkpt>
      <trkpt lat="37.84778422015181" lon="112.02683062015248">
        <ele>1072.0</ele>
        <time>2017-05-11T10:10:15.500000Z</time>
      </trkpt>
    </trkseg>
  </trk>
</gpx>