<?xml version="1.0" encoding="UTF-8"?>
<gpx xmlns="http://www.topografix.com/GPX/1/1" xmlns:gpxtpx="http://www.garmin.com/xmlschemas/TrackPointExtension/v1" xmlns:xsi="http://www.w3.org/2001/XMLSchema-instance" xsi:schemaLocation="http://www.topografix.com/GPX/1/1 http://www.topografix.com/GPX/1/1/gpx.xsd" version="1.1" creator="gpx.py -- https://github.com/tkrajina/gpxpy">
  <trk>
    <name>gpx from keep</name>
    <type>Run</type>
    <trkseg>
      <trkpt lat="37.84727994880171" lon="112.0289061301378">
        <ele>1109.0</ele>
        <time>2018-08-01T23:24:58.818000Z</time>
      </trkpt>
      <trkpt lat="37.84728770753025" lon="112.02852261694758">
        <ele>1117.0</ele>
        <time>2018-08-01T23:25:22.918000Z</time>
      </trkpt>
      <trkpt lat="37.847273026906194" lon="112.02842795850988">
        <ele>1115.0</ele>
        <time>2018-08-01T23:25:28.818000Z</time>
      </trkpt>
      <trkpt lat="37.84729516990253" lon="112.028150468014">
        <ele>1111.0</ele>
        <time>2018-08-01T23:25:40.918000Z</time>
      </trkpt>
      <trkpt lat="37.84734606215299" lon="112.02798332138418">
        <ele>1113.0</ele>
        <time>2018-08-01T23:25:46.918000Z</time>
      </trkpt>
      <trkpt lat="37.84732997134053" lon="112.0277732661547">
        <ele>1114.0</ele>
        <time>2018-08-01T23:25:52.918000Z</time>
      </trkpt>
      <trkpt lat="37.84736337289983" lon="112.0276871746421">
        <ele>1115.0</ele>
        <time>2018-08-01T23:25:55.918000Z</time>
      </trkpt>
      <trkpt lat="37.847454168881434" lon="112.02753983057701">
        <ele>1112.0</ele>
        <time>2018-08-01T23:26:01.918000Z</time>
      </trkpt>
      <trkpt lat="37.847616971964946" lon="112.02717163989409">
        <ele>1108.0</ele>
        <time>2018-08-01T23:26:13.918000Z</time>
      </trkpt>
      <trkpt lat="37.84770027457716" lon="112.02697775135022">
        <ele>1110.0</ele>
        <time>2018-08-01T23:26:19.918000Z</time>
      </trkpt>
      <trkpt lat="37.84785114698075" lon="112.02663013209718">
        <ele>1110.0</ele>
        <time>2018-08-01T23:26:31.918000Z</time>
      </trkpt>
      <trkpt lat="37.8478770624639" lon="112.02653274591857">
        <ele>1111.0</ele>
        <time>2018-08-01T23:26:34.918000Z</time>
      </trkpt>
      <trkpt lat="37.84793040507043" lon="112.0264553560652">
        <ele>1113.0</ele>
        <time>2018-08-01T23:26:37.918000Z</time>
      </trkpt>
      <trkpt lat="37.84800303450502" lon="112.02644481263235">
        <ele>1112.0</ele>
        <time>2018-08-01T23:26:40.918000Z</time>
      </trkpt>
      <trkpt lat="37.84808520894619" lon="112.02646546394215">
        <ele>1110.0</ele>
        <time>2018-08-01T23:26:43.918000Z</time>
      </trkpt>
      <trkpt lat="37.84815974444615" lon="112.02644649588568">
        <ele>1110.0</ele>
        <time>2018-08-01T23:26:46.918000Z</time>
      </trkpt>
      <trkpt lat="37.84825827036045" lon="112.02645048841407">
        <ele>1111.0</ele>
        <time>2018-08-01T23:26:49.918000Z</time>
      </trkpt>
      <trkpt lat="37.84854351018544" lon="112.02643900734711">
        <ele>1108.0</ele>
        <time>2018-08-01T23:26:58.918000Z</time>
      </trkpt>
      <trkpt lat="37.84883048277955" lon="112.02649824063596">
        <ele>1110.0</ele>
        <time>2018-08-01T23:27:07.918000Z</time>
      </trkpt>
      <trkpt lat="37.848916017080676" lon="112.02650931674889">
        <ele>1115.0</ele>
        <time>2018-08-01T23:27:10.918000Z</time>
      </trkpt>
      <trkpt lat="37.84897876428442" lon="112.02647844133452">
        <ele>1114.0</ele>
        <time>2018-08-01T23:27:13.918000Z</time>
      </trkpt>
      <trkpt lat="37.84897780670004" lon="112.02638656955403">
        <ele>1116.0</ele>
        <time>2018-08-01T23:27:16.918000Z</time>
      </trkpt>
      <trkpt lat="37.84899080631232" lon="112.02631591510853">
        <ele>1118.0</ele>
        <time>2018-08-01T23:27:19.918000Z</time>
      </trkpt>
      <trkpt lat="37.848985620736855" lon="112.02620241917656">
        <ele>1116.0</ele>
        <time>2018-08-01T23:27:22.918000Z</time>
      </trkpt>
      <trkpt lat="37.84894347568981" lon="112.02609466359951">
        <ele>1110.0</ele>
        <time>2018-08-01T23:27:25.918000Z</time>
      </trkpt>
      <trkpt lat="37.84893152739281" lon="112.02599871658408">
        <ele>1114.0</ele>
        <time>2018-08-01T23:27:28.918000Z</time>
      </trkpt>
      <trkpt lat="37.84886515660941" lon="112.02575081176722">
        <ele>1119.0</ele>
        <time>2018-08-01T23:27:34.918000Z</time>
      </trkpt>
      <trkpt lat="37.84885844523269" lon="112.02563700798557">
        <ele>1118.0</ele>
        <time>2018-08-01T23:27:37.918000Z</time>
      </trkpt>
      <trkpt lat="37.848878047173" lon="112.02552588125315">
        <ele>1116.0</ele>
        <time>2018-08-01T23:27:40.918000Z</time>
      </trkpt>
      <trkpt lat="37.84897893210178" lon="112.02533228468648">
        <ele>1114.0</ele>
        <time>2018-08-01T23:27:46.918000Z</time>
      </trkpt>
      <trkpt lat="37.84902238238476" lon="112.02526888550312">
        <ele>1115.0</ele>
        <time>2018-08-01T23:27:49.918000Z</time>
      </trkpt>
      <trkpt lat="37.84902680767198" lon="112.02516322008269">
        <ele>1116.0</ele>
        <time>2018-08-01T23:27:52.918000Z</time>
      </trkpt>
      <trkpt lat="37.849010945765556" lon="112.02494671831413">
        <ele>1112.0</ele>
        <time>2018-08-01T23:27:58.918000Z</time>
      </trkpt>
      <trkpt lat="37.84906202240503" lon="112.02485573508602">
        <ele>1110.0</ele>
        <time>2018-08-01T23:28:01.918000Z</time>
      </trkpt>
      <trkpt lat="37.84907269603905" lon="112.02476284331262">
        <ele>1109.0</ele>
        <time>2018-08-01T23:28:04.918000Z</time>
      </trkpt>
      <trkpt lat="37.84904559932213" lon="112.02465992926028">
        <ele>1109.0</ele>
        <time>2018-08-01T23:28:07.918000Z</time>
      </trkpt>
      <trkpt lat="37.84904361796727" lon="112.0245538357261">
        <ele>1104.0</ele>
        <time>2018-08-01T23:28:10.918000Z</time>
      </trkpt>
      <trkpt lat="37.84905492656825" lon="112.0244667864242">
        <ele>1102.0</ele>
        <time>2018-08-01T23:28:13.918000Z</time>
      </trkpt>
      <trkpt lat="37.84903571279852" lon="112.02436235779001">
        <ele>1102.0</ele>
        <time>2018-08-01T23:28:16.918000Z</time>
      </trkpt>
      <trkpt lat="37.849025026470066" lon="112.024159354075">
        <ele>1104.0</ele>
        <time>2018-08-01T23:28:22.818000Z</time>
      </trkpt>
      <trkpt lat="37.84907215790866" lon="112.02394120045521">
        <ele>1100.0</ele>
        <time>2018-08-01T23:28:28.918000Z</time>
      </trkpt>
      <trkpt lat="37.84910230811543" lon="112.02384719036145">
        <ele>1100.0</ele>
        <time>2018-08-01T23:28:31.818000Z</time>
      </trkpt>
      <trkpt lat="37.84911703525986" lon="112.0237457566919">
        <ele>1097.0</ele>
        <time>2018-08-01T23:28:34.918000Z</time>
      </trkpt>
      <trkpt lat="37.84912205142111" lon="112.02364411418282">
        <ele>1098.0</ele>
        <time>2018-08-01T23:28:37.918000Z</time>
      </trkpt>
      <trkpt lat="37.84910716779842" lon="112.02351763528593">
        <ele>1097.0</ele>
        <time>2018-08-01T23:28:40.918000Z</time>
      </trkpt>
      <trkpt lat="37.84910581755936" lon="112.02306913590472">
        <ele>1101.0</ele>
        <time>2018-08-01T23:28:52.918000Z</time>
      </trkpt>
      <trkpt lat="37.84906958728038" lon="112.02287252160906">
        <ele>1105.0</ele>
        <time>2018-08-01T23:28:58.918000Z</time>
      </trkpt>
      <trkpt lat="37.84907035523016" lon="112.02245965474256">
        <ele>1104.0</ele>
        <time>2018-08-01T23:29:10.918000Z</time>
      </trkpt>
      <trkpt lat="37.849079731562206" lon="112.02225406605815">
        <ele>1102.0</ele>
        <time>2018-08-01T23:29:16.918000Z</time>
      </trkpt>
      <trkpt lat="37.84907181566245" lon="112.02184876990339">
        <ele>1106.0</ele>
        <time>2018-08-01T23:29:28.918000Z</time>
      </trkpt>
      <trkpt lat="37.84908962928296" lon="112.02142714193151">
        <ele>1105.0</ele>
        <time>2018-08-01T23:29:40.918000Z</time>
      </trkpt>
      <trkpt lat="37.849119667634376" lon="112.02098160138696">
        <ele>1107.0</ele>
        <time>2018-08-01T23:29:52.918000Z</time>
      </trkpt>
      <trkpt lat="37.84908081006145" lon="112.02069624591404">
        <ele>1111.0</ele>
        <time>2018-08-01T23:30:01.918000Z</time>
      </trkpt>
      <trkpt lat="37.84908152474149" lon="112.02060274800006">
        <ele>1111.0</ele>
        <time>2018-08-01T23:30:04.818000Z</time>
      </trkpt>
      <trkpt lat="37.84911292539563" lon="112.02042925371138">
        <ele>1108.0</ele>
        <time>2018-08-01T23:30:10.918000Z</time>
      </trkpt>
      <trkpt lat="37.849112852613736" lon="112.02007488314293">
        <ele>1104.0</ele>
        <time>2018-08-01T23:30:19.918000Z</time>
      </trkpt>
      <trkpt lat="37.84912241617202" lon="112.01966982057151">
        <ele>1101.0</ele>
        <time>2018-08-01T23:30:31.918000Z</time>
      </trkpt>
      <trkpt lat="37.849138191861485" lon="112.01923982348187">
        <ele>1103.0</ele>
        <time>2018-08-01T23:30:43.918000Z</time>
      </trkpt>
      <trkpt lat="37.84914747080252" lon="112.01883451510422">
        <ele>1102.0</ele>
        <time>2018-08-01T23:30:55.918000Z</time>
      </trkpt>
      <trkpt lat="37.84913563181576" lon="112.01872243337107">
        <ele>1101.0</ele>
        <time>2018-08-01T23:30:58.918000Z</time>
      </trkpt>
      <trkpt lat="37.849181513690546" lon="112.01831534352952">
        <ele>1107.0</ele>
        <time>2018-08-01T23:31:10.918000Z</time>
      </trkpt>
      <trkpt lat="37.84920760660917" lon="112.01789579323396">
        <ele>1103.0</ele>
        <time>2018-08-01T23:31:22.918000Z</time>
      </trkpt>
      <trkpt lat="37.84923046158185" lon="112.01778412830795">
        <ele>1104.0</ele>
        <time>2018-08-01T23:31:25.918000Z</time>
      </trkpt>
      <trkpt lat="37.84922454531065" lon="112.01757112988224">
        <ele>1106.0</ele>
        <time>2018-08-01T23:31:31.918000Z</time>
      </trkpt>
      <trkpt lat="37.84926938165282" lon="112.01722492323337">
        <ele>1105.0</ele>
        <time>2018-08-01T23:31:40.918000Z</time>
      </trkpt>
      <trkpt lat="37.849335999952" lon="112.0168621699733">
        <ele>1106.0</ele>
        <time>2018-08-01T23:31:52.918000Z</time>
      </trkpt>
      <trkpt lat="37.84939084140834" lon="112.01648735458502">
        <ele>1104.0</ele>
        <time>2018-08-01T23:32:04.918000Z</time>
      </trkpt>
      <trkpt lat="37.84941270006687" lon="112.01614588616638">
        <ele>1107.0</ele>
        <time>2018-08-01T23:32:13.918000Z</time>
      </trkpt>
      <trkpt lat="37.8494537956984" lon="112.01571898528056">
        <ele>1110.0</ele>
        <time>2018-08-01T23:32:25.918000Z</time>
      </trkpt>
      <trkpt lat="37.849492406391384" lon="112.01538099143494">
        <ele>1107.0</ele>
        <time>2018-08-01T23:32:34.918000Z</time>
      </trkpt>
      <trkpt lat="37.84953021831583" lon="112.01502572759284">
        <ele>1105.0</ele>
        <time>2018-08-01T23:32:43.918000Z</time>
      </trkpt>
      <trkpt lat="37.84957896571058" lon="112.01465914897359">
        <ele>1106.0</ele>
        <time>2018-08-01T23:32:55.918000Z</time>
      </trkpt>
      <trkpt lat="37.849591731034295" lon="112.01443029398715">
        <ele>1108.0</ele>
        <time>2018-08-01T23:33:01.918000Z</time>
      </trkpt>
      <trkpt lat="37.84963663440646" lon="112.01402702947394">
        <ele>1111.0</ele>
        <time>2018-08-01T23:33:13.918000Z</time>
      </trkpt>
      <trkpt lat="37.84964900893811" lon="112.0136799757598">
        <ele>1114.0</ele>
        <time>2018-08-01T23:33:22.918000Z</time>
      </trkpt>
      <trkpt lat="37.84968492450681" lon="112.01334093905032">
        <ele>1110.0</ele>
        <time>2018-08-01T23:33:31.918000Z</time>
      </trkpt>
      <trkpt lat="37.849709244678" lon="112.0129265235272">
        <ele>1110.0</ele>
        <time>2018-08-01T23:33:43.918000Z</time>
      </trkpt>
      <trkpt lat="37.84974525452576" lon="112.01257751080401">
        <ele>1110.0</ele>
        <time>2018-08-01T23:33:52.918000Z</time>
      </trkpt>
      <trkpt lat="37.84978650289843" lon="112.01222447756015">
        <ele>1114.0</ele>
        <time>2018-08-01T23:34:01.918000Z</time>
      </trkpt>
      <trkpt lat="37.84978766401578" lon="112.0119993752892">
        <ele>1112.0</ele>
        <time>2018-08-01T23:34:07.818000Z</time>
      </trkpt>
      <trkpt lat="37.849817073886186" lon="112.0115775295177">
        <ele>1117.0</ele>
        <time>2018-08-01T23:34:19.918000Z</time>
      </trkpt>
      <trkpt lat="37.849833286978885" lon="112.01113499380077">
        <ele>1119.0</ele>
        <time>2018-08-01T23:34:31.918000Z</time>
      </trkpt>
      <trkpt lat="37.849864595217156" lon="112.0108727234854">
        <ele>1116.0</ele>
        <time>2018-08-01T23:34:40.918000Z</time>
      </trkpt>
      <trkpt lat="37.849891625191994" lon="112.0107902566147">
        <ele>1113.0</ele>
        <time>2018-08-01T23:34:43.918000Z</time>
      </trkpt>
      <trkpt lat="37.84991311742413" lon="112.01042764170799">
        <ele>1107.0</ele>
        <time>2018-08-01T23:34:52.918000Z</time>
      </trkpt>
      <trkpt lat="37.84994072847602" lon="112.01014329971797">
        <ele>1106.0</ele>
        <time>2018-08-01T23:35:01.918000Z</time>
      </trkpt>
      <trkpt lat="37.849923578166276" lon="112.00972493037249">
        <ele>1114.0</ele>
        <time>2018-08-01T23:35:13.918000Z</time>
      </trkpt>
      <trkpt lat="37.84988725190757" lon="112.00938624353566">
        <ele>1116.0</ele>
        <time>2018-08-01T23:35:22.918000Z</time>
      </trkpt>
      <trkpt lat="37.849826752181556" lon="112.00920998274529">
        <ele>1117.0</ele>
        <time>2018-08-01T23:35:28.918000Z</time>
      </trkpt>
      <trkpt lat="37.84964224256332" lon="112.00893105126038">
        <ele>1120.0</ele>
        <time>2018-08-01T23:35:40.918000Z</time>
      </trkpt>
      <trkpt lat="37.849587341748396" lon="112.00887158732357">
        <ele>1121.0</ele>
        <time>2018-08-01T23:35:43.918000Z</time>
      </trkpt>
      <trkpt lat="37.84940680177316" lon="112.0085439815656">
        <ele>1123.0</ele>
        <time>2018-08-01T23:35:52.918000Z</time>
      </trkpt>
      <trkpt lat="37.84920476552219" lon="112.00823800549668">
        <ele>1122.0</ele>
        <time>2018-08-01T23:36:04.918000Z</time>
      </trkpt>
      <trkpt lat="37.84898077501588" lon="112.00792500530017">
        <ele>1122.0</ele>
        <time>2018-08-01T23:36:16.918000Z</time>
      </trkpt>
      <trkpt lat="37.84876360701416" lon="112.00759903068506">
        <ele>1123.0</ele>
        <time>2018-08-01T23:36:28.918000Z</time>
      </trkpt>
      <trkpt lat="37.848649075504234" lon="112.00742901652184">
        <ele>1125.0</ele>
        <time>2018-08-01T23:36:34.918000Z</time>
      </trkpt>
      <trkpt lat="37.848581465909525" lon="112.00735549917533">
        <ele>1124.0</ele>
        <time>2018-08-01T23:36:37.918000Z</time>
      </trkpt>
      <trkpt lat="37.84834016062052" lon="112.00702709740463">
        <ele>1127.0</ele>
        <time>2018-08-01T23:36:49.918000Z</time>
      </trkpt>
      <trkpt lat="37.8481046437447" lon="112.00685088193183">
        <ele>1129.0</ele>
        <time>2018-08-01T23:36:58.918000Z</time>
      </trkpt>
      <trkpt lat="37.84801413022722" lon="112.0068157521942">
        <ele>1131.0</ele>
        <time>2018-08-01T23:37:01.918000Z</time>
      </trkpt>
      <trkpt lat="37.84770135501509" lon="112.00679261525084">
        <ele>1132.0</ele>
        <time>2018-08-01T23:37:13.918000Z</time>
      </trkpt>
      <trkpt lat="37.84755671402819" lon="112.00679821880237">
        <ele>1132.0</ele>
        <time>2018-08-01T23:37:19.918000Z</time>
      </trkpt>
      <trkpt lat="37.847387135395955" lon="112.00672256950111">
        <ele>1129.0</ele>
        <time>2018-08-01T23:37:25.918000Z</time>
      </trkpt>
      <trkpt lat="37.84707394604659" lon="112.0066636790019">
        <ele>1124.0</ele>
        <time>2018-08-01T23:37:37.918000Z</time>
      </trkpt>
      <trkpt lat="37.84674307083129" lon="112.0066218202515">
        <ele>1128.0</ele>
        <time>2018-08-01T23:37:49.918000Z</time>
      </trkpt>
      <trkpt lat="37.8464196364116" lon="112.00661482874973">
        <ele>1126.0</ele>
        <time>2018-08-01T23:38:01.918000Z</time>
      </trkpt>
      <trkpt lat="37.846087807979416" lon="112.00654621136721">
        <ele>1125.0</ele>
        <time>2018-08-01T23:38:13.918000Z</time>
      </trkpt>
      <trkpt lat="37.84592068262514" lon="112.00654542036953">
        <ele>1128.0</ele>
        <time>2018-08-01T23:38:19.918000Z</time>
      </trkpt>
      <trkpt lat="37.8457648042746" lon="112.00650327049951">
        <ele>1128.0</ele>
        <time>2018-08-01T23:38:25.918000Z</time>
      </trkpt>
      <trkpt lat="37.845608887489895" lon="112.00638300098893">
        <ele>1125.0</ele>
        <time>2018-08-01T23:38:31.918000Z</time>
      </trkpt>
      <trkpt lat="37.84526050241138" lon="112.00629924644792">
        <ele>1128.0</ele>
        <time>2018-08-01T23:38:43.918000Z</time>
      </trkpt>
      <trkpt lat="37.84510223161566" lon="112.00624060811649">
        <ele>1128.0</ele>
        <time>2018-08-01T23:38:49.918000Z</time>
      </trkpt>
      <trkpt lat="37.844841071868714" lon="112.00620279592721">
        <ele>1129.0</ele>
        <time>2018-08-01T23:38:58.918000Z</time>
      </trkpt>
      <trkpt lat="37.844608544205826" lon="112.0061165949882">
        <ele>1130.0</ele>
        <time>2018-08-01T23:39:07.918000Z</time>
      </trkpt>
      <trkpt lat="37.84453580299775" lon="112.00612660510185">
        <ele>1130.0</ele>
        <time>2018-08-01T23:39:10.918000Z</time>
      </trkpt>
      <trkpt lat="37.84438418160244" lon="112.00620366134207">
        <ele>1130.0</ele>
        <time>2018-08-01T23:39:16.918000Z</time>
      </trkpt>
      <trkpt lat="37.84422398390605" lon="112.00624946280847">
        <ele>1128.0</ele>
        <time>2018-08-01T23:39:22.918000Z</time>
      </trkpt>
      <trkpt lat="37.84408695704684" lon="112.00634128444129">
        <ele>1129.0</ele>
        <time>2018-08-01T23:39:28.918000Z</time>
      </trkpt>
      <trkpt lat="37.84376846901024" lon="112.00651296947521">
        <ele>1133.0</ele>
        <time>2018-08-01T23:39:40.818000Z</time>
      </trkpt>
      <trkpt lat="37.843472593607686" lon="112.00674439105349">
        <ele>1132.0</ele>
        <time>2018-08-01T23:39:52.918000Z</time>
      </trkpt>
      <trkpt lat="37.84340315266872" lon="112.00683062876804">
        <ele>1134.0</ele>
        <time>2018-08-01T23:39:55.918000Z</time>
      </trkpt>
      <trkpt lat="37.84311417265392" lon="112.00702447711888">
        <ele>1134.0</ele>
        <time>2018-08-01T23:40:07.918000Z</time>
      </trkpt>
      <trkpt lat="37.84283725591722" lon="112.00726752163932">
        <ele>1137.0</ele>
        <time>2018-08-01T23:40:19.918000Z</time>
      </trkpt>
      <trkpt lat="37.84258975378737" lon="112.00738135328713">
        <ele>1137.0</ele>
        <time>2018-08-01T23:40:28.918000Z</time>
      </trkpt>
      <trkpt lat="37.84238246131783" lon="112.00756789497933">
        <ele>1138.0</ele>
        <time>2018-08-01T23:40:37.918000Z</time>
      </trkpt>
      <trkpt lat="37.84217601256539" lon="112.0076530688338">
        <ele>1144.0</ele>
        <time>2018-08-01T23:40:43.918000Z</time>
      </trkpt>
      <trkpt lat="37.842100954427295" lon="112.00771254715349">
        <ele>1144.0</ele>
        <time>2018-08-01T23:40:46.918000Z</time>
      </trkpt>
      <trkpt lat="37.84192290261249" lon="112.00791990065231">
        <ele>1138.0</ele>
        <time>2018-08-01T23:40:55.918000Z</time>
      </trkpt>
      <trkpt lat="37.84161154424769" lon="112.00806726034749">
        <ele>1139.0</ele>
        <time>2018-08-01T23:41:07.918000Z</time>
      </trkpt>
      <trkpt lat="37.84126350244079" lon="112.00814217970623">
        <ele>1142.0</ele>
        <time>2018-08-01T23:41:19.918000Z</time>
      </trkpt>
      <trkpt lat="37.84095639981261" lon="112.00813518810573">
        <ele>1143.0</ele>
        <time>2018-08-01T23:41:31.918000Z</time>
      </trkpt>
      <trkpt lat="37.840638621737696" lon="112.00806845771207">
        <ele>1144.0</ele>
        <time>2018-08-01T23:41:43.918000Z</time>
      </trkpt>
      <trkpt lat="37.840297842468786" lon="112.007981456385">
        <ele>1144.0</ele>
        <time>2018-08-01T23:41:55.918000Z</time>
      </trkpt>
      <trkpt lat="37.83999313779437" lon="112.00798933192274">
        <ele>1145.0</ele>
        <time>2018-08-01T23:42:07.818000Z</time>
      </trkpt>
      <trkpt lat="37.83974915461781" lon="112.00801477079946">
        <ele>1146.0</ele>
        <time>2018-08-01T23:42:16.918000Z</time>
      </trkpt>
      <trkpt lat="37.83953563153009" lon="112.00808508909509">
        <ele>1145.0</ele>
        <time>2018-08-01T23:42:25.918000Z</time>
      </trkpt>
      <trkpt lat="37.839196772632334" lon="112.00810458191906">
        <ele>1146.0</ele>
        <time>2018-08-01T23:42:37.818000Z</time>
      </trkpt>
      <trkpt lat="37.83887564792522" lon="112.00816030558119">
        <ele>1149.0</ele>
        <time>2018-08-01T23:42:49.918000Z</time>
      </trkpt>
      <trkpt lat="37.838556862710156" lon="112.00825062967282">
        <ele>1147.0</ele>
        <time>2018-08-01T23:43:01.918000Z</time>
      </trkpt>
      <trkpt lat="37.83833955061597" lon="112.00824822274373">
        <ele>1147.0</ele>
        <time>2018-08-01T23:43:10.918000Z</time>
      </trkpt>
      <trkpt lat="37.83803084031001" lon="112.00809570590224">
        <ele>1155.0</ele>
        <time>2018-08-01T23:43:22.918000Z</time>
      </trkpt>
      <trkpt lat="37.837733636428155" lon="112.00800014385882">
        <ele>1154.0</ele>
        <time>2018-08-01T23:43:34.918000Z</time>
      </trkpt>
      <trkpt lat="37.83743383688221" lon="112.00790935328905">
        <ele>1155.0</ele>
        <time>2018-08-01T23:43:46.918000Z</time>
      </trkpt>
      <trkpt lat="37.83711659552303" lon="112.0077534188211">
        <ele>1156.0</ele>
        <time>2018-08-01T23:43:58.918000Z</time>
      </trkpt>
      <trkpt lat="37.83679356865469" lon="112.00764545094002">
        <ele>1160.0</ele>
        <time>2018-08-01T23:44:10.918000Z</time>
      </trkpt>
      <trkpt lat="37.8364688326195" lon="112.00752859385301">
        <ele>1163.0</ele>
        <time>2018-08-01T23:44:22.918000Z</time>
      </trkpt>
      <trkpt lat="37.83614625185903" lon="112.00743510349665">
        <ele>1159.0</ele>
        <time>2018-08-01T23:44:34.918000Z</time>
      </trkpt>
      <trkpt lat="37.8359914079513" lon="112.00741025304876">
        <ele>1160.0</ele>
        <time>2018-08-01T23:44:40.918000Z</time>
      </trkpt>
      <trkpt lat="37.835691412707355" lon="112.0073234772208">
        <ele>1162.0</ele>
        <time>2018-08-01T23:44:52.918000Z</time>
      </trkpt>
      <trkpt lat="37.83544645003507" lon="112.00728435171595">
        <ele>1160.0</ele>
        <time>2018-08-01T23:45:01.918000Z</time>
      </trkpt>
      <trkpt lat="37.835391314151934" lon="112.0072132658105">
        <ele>1156.0</ele>
        <time>2018-08-01T23:45:04.918000Z</time>
      </trkpt>
      <trkpt lat="37.8353477589788" lon="112.007040990931">
        <ele>1152.0</ele>
        <time>2018-08-01T23:45:10.918000Z</time>
      </trkpt>
      <trkpt lat="37.83530818207768" lon="112.00696574794783">
        <ele>1153.0</ele>
        <time>2018-08-01T23:45:13.918000Z</time>
      </trkpt>
      <trkpt lat="37.83524516065333" lon="112.00691188438019">
        <ele>1145.0</ele>
        <time>2018-08-01T23:45:16.918000Z</time>
      </trkpt>
      <trkpt lat="37.83492072210144" lon="112.00689597464313">
        <ele>1152.0</ele>
        <time>2018-08-01T23:45:28.918000Z</time>
      </trkpt>
      <trkpt lat="37.834828873183625" lon="112.00694518243833">
        <ele>1152.0</ele>
        <time>2018-08-01T23:45:31.918000Z</time>
      </trkpt>
      <trkpt lat="37.83463128523147" lon="112.00697034505885">
        <ele>1152.0</ele>
        <time>2018-08-01T23:45:37.918000Z</time>
      </trkpt>
      <trkpt lat="37.83448818832942" lon="112.00691846213657">
        <ele>1156.0</ele>
        <time>2018-08-01T23:45:43.918000Z</time>
      </trkpt>
      <trkpt lat="37.83441115580355" lon="112.0069119838263">
        <ele>1159.0</ele>
        <time>2018-08-01T23:45:46.818000Z</time>
      </trkpt>
      <trkpt lat="37.834116333361635" lon="112.00679037855087">
        <ele>1151.0</ele>
        <time>2018-08-01T23:45:58.918000Z</time>
      </trkpt>
      <trkpt lat="37.833960044674875" lon="112.00670416776431">
        <ele>1157.0</ele>
        <time>2018-08-01T23:46:04.918000Z</time>
      </trkpt>
      <trkpt lat="37.83365501991971" lon="112.00663770753256">
        <ele>1164.0</ele>
        <time>2018-08-01T23:46:16.918000Z</time>
      </trkpt>
      <trkpt lat="37.83331244921738" lon="112.00651556779344">
        <ele>1171.0</ele>
        <time>2018-08-01T23:46:28.918000Z</time>
      </trkpt>
      <trkpt lat="37.83315898496382" lon="112.0064831488011">
        <ele>1171.0</ele>
        <time>2018-08-01T23:46:34.918000Z</time>
      </trkpt>
      <trkpt lat="37.8328902041719" lon="112.00636316300623">
        <ele>1170.0</ele>
        <time>2018-08-01T23:46:46.918000Z</time>
      </trkpt>
      <trkpt lat="37.83272835039425" lon="112.00632371701856">
        <ele>1169.0</ele>
        <time>2018-08-01T23:46:52.918000Z</time>
      </trkpt>
      <trkpt lat="37.832464537308404" lon="112.00617561869598">
        <ele>1168.0</ele>
        <time>2018-08-01T23:47:01.918000Z</time>
      </trkpt>
      <trkpt lat="37.83229682536154" lon="112.00609914113026">
        <ele>1169.0</ele>
        <time>2018-08-01T23:47:07.918000Z</time>
      </trkpt>
      <trkpt lat="37.83201711644889" lon="112.00609566044747">
        <ele>1165.0</ele>
        <time>2018-08-01T23:47:16.918000Z</time>
      </trkpt>
      <trkpt lat="37.83178722757683" lon="112.00612596248726">
        <ele>1168.0</ele>
        <time>2018-08-01T23:47:25.918000Z</time>
      </trkpt>
      <trkpt lat="37.831704989177574" lon="112.00611641634468">
        <ele>1170.0</ele>
        <time>2018-08-01T23:47:28.918000Z</time>
      </trkpt>
      <trkpt lat="37.83146563712103" lon="112.0061743240029">
        <ele>1167.0</ele>
        <time>2018-08-01T23:47:37.918000Z</time>
      </trkpt>
      <trkpt lat="37.83112069316172" lon="112.00617320013043">
        <ele>1169.0</ele>
        <time>2018-08-01T23:47:49.918000Z</time>
      </trkpt>
      <trkpt lat="37.83089030868106" lon="112.00615667091006">
        <ele>1169.0</ele>
        <time>2018-08-01T23:47:58.918000Z</time>
      </trkpt>
      <trkpt lat="37.83066647043738" lon="112.00621070294095">
        <ele>1169.0</ele>
        <time>2018-08-01T23:48:07.918000Z</time>
      </trkpt>
      <trkpt lat="37.830352316945245" lon="112.00620344202164">
        <ele>1169.0</ele>
        <time>2018-08-01T23:48:19.918000Z</time>
      </trkpt>
      <trkpt lat="37.830028753117965" lon="112.00618862972665">
        <ele>1173.0</ele>
        <time>2018-08-01T23:48:31.918000Z</time>
      </trkpt>
      <trkpt lat="37.82975777901442" lon="112.00614647756271">
        <ele>1170.0</ele>
        <time>2018-08-01T23:48:40.918000Z</time>
      </trkpt>
      <trkpt lat="37.829457284231346" lon="112.00619895342686">
        <ele>1172.0</ele>
        <time>2018-08-01T23:48:52.918000Z</time>
      </trkpt>
      <trkpt lat="37.8291353299946" lon="112.00616925774047">
        <ele>1171.0</ele>
        <time>2018-08-01T23:49:04.918000Z</time>
      </trkpt>
      <trkpt lat="37.828791966991844" lon="112.00618511971426">
        <ele>1172.0</ele>
        <time>2018-08-01T23:49:16.918000Z</time>
      </trkpt>
      <trkpt lat="37.82863494653462" lon="112.00619986235763">
        <ele>1176.0</ele>
        <time>2018-08-01T23:49:22.918000Z</time>
      </trkpt>
      <trkpt lat="37.82848197018837" lon="112.00625037951885">
        <ele>1171.0</ele>
        <time>2018-08-01T23:49:28.918000Z</time>
      </trkpt>
      <trkpt lat="37.828210569833665" lon="112.00621694244221">
        <ele>1173.0</ele>
        <time>2018-08-01T23:49:37.918000Z</time>
      </trkpt>
      <trkpt lat="37.82803697288397" lon="112.00620547960021">
        <ele>1168.0</ele>
        <time>2018-08-01T23:49:43.918000Z</time>
      </trkpt>
      <trkpt lat="37.8278817463934" lon="112.00623714661087">
        <ele>1169.0</ele>
        <time>2018-08-01T23:49:49.918000Z</time>
      </trkpt>
      <trkpt lat="37.82771975955228" lon="112.00630749918356">
        <ele>1167.0</ele>
        <time>2018-08-01T23:49:55.918000Z</time>
      </trkpt>
      <trkpt lat="37.82741073549876" lon="112.00630857643293">
        <ele>1172.0</ele>
        <time>2018-08-01T23:50:07.918000Z</time>
      </trkpt>
      <trkpt lat="37.82725297591694" lon="112.00637877111258">
        <ele>1177.0</ele>
        <time>2018-08-01T23:50:13.918000Z</time>
      </trkpt>
      <trkpt lat="37.82695302375208" lon="112.00641036402773">
        <ele>1178.0</ele>
        <time>2018-08-01T23:50:25.918000Z</time>
      </trkpt>
      <trkpt lat="37.82664723567524" lon="112.00641850978418">
        <ele>1180.0</ele>
        <time>2018-08-01T23:50:37.918000Z</time>
      </trkpt>
      <trkpt lat="37.82633588294645" lon="112.00647314963209">
        <ele>1182.0</ele>
        <time>2018-08-01T23:50:49.918000Z</time>
      </trkpt>
      <trkpt lat="37.82601882319308" lon="112.0065310339342">
        <ele>1182.0</ele>
        <time>2018-08-01T23:51:01.918000Z</time>
      </trkpt>
      <trkpt lat="37.82572042023175" lon="112.00651917581584">
        <ele>1183.0</ele>
        <time>2018-08-01T23:51:13.918000Z</time>
      </trkpt>
      <trkpt lat="37.82544581991345" lon="112.00653164284311">
        <ele>1185.0</ele>
        <time>2018-08-01T23:51:25.918000Z</time>
      </trkpt>
      <trkpt lat="37.825283815623486" lon="112.00645192046417">
        <ele>1193.0</ele>
        <time>2018-08-01T23:51:34.918000Z</time>
      </trkpt>
      <trkpt lat="37.82507034092911" lon="112.00643707881915">
        <ele>1194.0</ele>
        <time>2018-08-01T23:51:49.918000Z</time>
      </trkpt>
      <trkpt lat="37.824960273887434" lon="112.00640897963898">
        <ele>1197.0</ele>
        <time>2018-08-01T23:51:58.918000Z</time>
      </trkpt>
      <trkpt lat="37.82488834437842" lon="112.00642007094132">
        <ele>1197.0</ele>
        <time>2018-08-01T23:52:04.918000Z</time>
      </trkpt>
      <trkpt lat="37.82479082035062" lon="112.0063708860625">
        <ele>1198.0</ele>
        <time>2018-08-01T23:52:10.918000Z</time>
      </trkpt>
      <trkpt lat="37.82450128326536" lon="112.00629739618563">
        <ele>1200.0</ele>
        <time>2018-08-01T23:52:28.918000Z</time>
      </trkpt>
      <trkpt lat="37.82424783904006" lon="112.00622092867262">
        <ele>1193.0</ele>
        <time>2018-08-01T23:52:49.918000Z</time>
      </trkpt>
      <trkpt lat="37.82419506088667" lon="112.00624508387497">
        <ele>1192.0</ele>
        <time>2018-08-01T23:52:52.918000Z</time>
      </trkpt>
      <trkpt lat="37.82410319677" lon="112.00623283953888">
        <ele>1198.0</ele>
        <time>2018-08-01T23:52:58.918000Z</time>
      </trkpt>
      <trkpt lat="37.82397382077508" lon="112.00614331167134">
        <ele>1197.0</ele>
        <time>2018-08-01T23:53:07.918000Z</time>
      </trkpt>
      <trkpt lat="37.82392247276052" lon="112.00612091851548">
        <ele>1199.0</ele>
        <time>2018-08-01T23:53:10.918000Z</time>
      </trkpt>
      <trkpt lat="37.82374246604936" lon="112.00614820904967">
        <ele>1190.0</ele>
        <time>2018-08-01T23:53:28.918000Z</time>
      </trkpt>
      <trkpt lat="37.823626478084634" lon="112.00611509950262">
        <ele>1192.0</ele>
        <time>2018-08-01T23:53:34.918000Z</time>
      </trkpt>
      <trkpt lat="37.82340989894711" lon="112.00609092404054">
        <ele>1190.0</ele>
        <time>2018-08-01T23:53:43.918000Z</time>
      </trkpt>
      <trkpt lat="37.823335942696666" lon="112.00611075332215">
        <ele>1193.0</ele>
        <time>2018-08-01T23:53:46.918000Z</time>
      </trkpt>
      <trkpt lat="37.823115867045935" lon="112.00609272949968">
        <ele>1191.0</ele>
        <time>2018-08-01T23:53:55.918000Z</time>
      </trkpt>
      <trkpt lat="37.82295966082337" lon="112.00613404244852">
        <ele>1188.0</ele>
        <time>2018-08-01T23:54:01.918000Z</time>
      </trkpt>
      <trkpt lat="37.822656813613634" lon="112.00615705484016">
        <ele>1188.0</ele>
        <time>2018-08-01T23:54:13.918000Z</time>
      </trkpt>
      <trkpt lat="37.82253588246902" lon="112.00613301169912">
        <ele>1192.0</ele>
        <time>2018-08-01T23:54:19.918000Z</time>
      </trkpt>
      <trkpt lat="37.822249896431195" lon="112.00591681712214">
        <ele>1199.0</ele>
        <time>2018-08-01T23:54:34.918000Z</time>
      </trkpt>
      <trkpt lat="37.82199871791144" lon="112.00575881024497">
        <ele>1206.0</ele>
        <time>2018-08-01T23:54:46.918000Z</time>
      </trkpt>
      <trkpt lat="37.821770849960664" lon="112.00557032058884">
        <ele>1208.0</ele>
        <time>2018-08-01T23:54:58.918000Z</time>
      </trkpt>
      <trkpt lat="37.82168984882447" lon="112.00553032474122">
        <ele>1208.0</ele>
        <time>2018-08-01T23:55:01.918000Z</time>
      </trkpt>
      <trkpt lat="37.821558284715955" lon="112.00543302983277">
        <ele>1207.0</ele>
        <time>2018-08-01T23:55:07.918000Z</time>
      </trkpt>
      <trkpt lat="37.82143847182636" lon="112.00530735145229">
        <ele>1209.0</ele>
        <time>2018-08-01T23:55:13.918000Z</time>
      </trkpt>
      <trkpt lat="37.82116296606516" lon="112.00507870524535">
        <ele>1209.0</ele>
        <time>2018-08-01T23:55:25.818000Z</time>
      </trkpt>
      <trkpt lat="37.820906711487574" lon="112.00494466420534">
        <ele>1212.0</ele>
        <time>2018-08-01T23:55:37.918000Z</time>
      </trkpt>
      <trkpt lat="37.820795530841416" lon="112.0048357444696">
        <ele>1213.0</ele>
        <time>2018-08-01T23:55:43.918000Z</time>
      </trkpt>
      <trkpt lat="37.820733431727405" lon="112.00480081636303">
        <ele>1214.0</ele>
        <time>2018-08-01T23:55:46.918000Z</time>
      </trkpt>
      <trkpt lat="37.82047918736227" lon="112.00447384457875">
        <ele>1216.0</ele>
        <time>2018-08-01T23:55:58.918000Z</time>
      </trkpt>
      <trkpt lat="37.820426743667994" lon="112.00441059976018">
        <ele>1218.0</ele>
        <time>2018-08-01T23:56:01.918000Z</time>
      </trkpt>
      <trkpt lat="37.82037957444807" lon="112.00439790110792">
        <ele>1219.0</ele>
        <time>2018-08-01T23:56:04.918000Z</time>
      </trkpt>
      <trkpt lat="37.82043088911454" lon="112.00447574245497">
        <ele>1216.0</ele>
        <time>2018-08-01T23:56:07.918000Z</time>
      </trkpt>
      <trkpt lat="37.82054346237684" lon="112.00457249786612">
        <ele>1215.0</ele>
        <time>2018-08-01T23:56:13.918000Z</time>
      </trkpt>
      <trkpt lat="37.820583700615174" lon="112.00463466304245">
        <ele>1215.0</ele>
        <time>2018-08-01T23:56:16.918000Z</time>
      </trkpt>
      <trkpt lat="37.82063863596124" lon="112.00465637182891">
        <ele>1216.0</ele>
        <time>2018-08-01T23:56:19.918000Z</time>
      </trkpt>
      <trkpt lat="37.820724346713796" lon="112.00473782915964">
        <ele>1209.0</ele>
        <time>2018-08-01T23:56:28.818000Z</time>
      </trkpt>
      <trkpt lat="37.820771222571665" lon="112.00482209875123">
        <ele>1205.0</ele>
        <time>2018-08-01T23:56:34.918000Z</time>
      </trkpt>
      <trkpt lat="37.82086392683351" lon="112.0048617900575">
        <ele>1204.0</ele>
        <time>2018-08-01T23:56:40.918000Z</time>
      </trkpt>
      <trkpt lat="37.82092640732384" lon="112.00485525225764">
        <ele>1207.0</ele>
        <time>2018-08-01T23:56:46.918000Z</time>
      </trkpt>
      <trkpt lat="37.82103677073058" lon="112.00489132424461">
        <ele>1209.0</ele>
        <time>2018-08-01T23:56:52.918000Z</time>
      </trkpt>
      <trkpt lat="37.82106126380531" lon="112.00497911475233">
        <ele>1210.0</ele>
        <time>2018-08-01T23:56:58.918000Z</time>
      </trkpt>
      <trkpt lat="37.821107456940005" lon="112.00504394731566">
        <ele>1211.0</ele>
        <time>2018-08-01T23:57:04.918000Z</time>
      </trkpt>
      <trkpt lat="37.82111947791494" lon="112.00509891470097">
        <ele>1209.0</ele>
        <time>2018-08-01T23:57:07.918000Z</time>
      </trkpt>
      <trkpt lat="37.82138571432397" lon="112.00522466115785">
        <ele>1208.0</ele>
        <time>2018-08-01T23:57:25.918000Z</time>
      </trkpt>
      <trkpt lat="37.82148198579044" lon="112.00527848807741">
        <ele>1206.0</ele>
        <time>2018-08-01T23:57:31.818000Z</time>
      </trkpt>
      <trkpt lat="37.82168025900396" lon="112.00546400029151">
        <ele>1206.0</ele>
        <time>2018-08-01T23:57:46.918000Z</time>
      </trkpt>
      <trkpt lat="37.82171885014763" lon="112.00552805647204">
        <ele>1203.0</ele>
        <time>2018-08-01T23:57:49.918000Z</time>
      </trkpt>
      <trkpt lat="37.821834084346435" lon="112.00563609559443">
        <ele>1201.0</ele>
        <time>2018-08-01T23:57:55.918000Z</time>
      </trkpt>
      <trkpt lat="37.821882119186114" lon="112.00570399103191">
        <ele>1198.0</ele>
        <time>2018-08-01T23:57:58.918000Z</time>
      </trkpt>
      <trkpt lat="37.82194810719019" lon="112.00577081223285">
        <ele>1196.0</ele>
        <time>2018-08-01T23:58:01.918000Z</time>
      </trkpt>
      <trkpt lat="37.82221094204796" lon="112.00589217174665">
        <ele>1202.0</ele>
        <time>2018-08-01T23:58:13.818000Z</time>
      </trkpt>
      <trkpt lat="37.82251061645314" lon="112.00604364572962">
        <ele>1199.0</ele>
        <time>2018-08-01T23:58:25.918000Z</time>
      </trkpt>
      <trkpt lat="37.82262058065293" lon="112.00610921174358">
        <ele>1191.0</ele>
        <time>2018-08-01T23:58:31.918000Z</time>
      </trkpt>
      <trkpt lat="37.82279833787703" lon="112.00616280826729">
        <ele>1190.0</ele>
        <time>2018-08-01T23:58:37.918000Z</time>
      </trkpt>
      <trkpt lat="37.82310025697457" lon="112.0061427074132">
        <ele>1184.0</ele>
        <time>2018-08-01T23:58:49.918000Z</time>
      </trkpt>
      <trkpt lat="37.82326680815289" lon="112.00610529918337">
        <ele>1185.0</ele>
        <time>2018-08-01T23:58:55.918000Z</time>
      </trkpt>
      <trkpt lat="37.82360568113633" lon="112.00610463242617">
        <ele>1185.0</ele>
        <time>2018-08-01T23:59:07.918000Z</time>
      </trkpt>
      <trkpt lat="37.823762426095016" lon="112.00612279623192">
        <ele>1187.0</ele>
        <time>2018-08-01T23:59:13.918000Z</time>
      </trkpt>
      <trkpt lat="37.82389034444915" lon="112.00611223470723">
        <ele>1186.0</ele>
        <time>2018-08-01T23:59:19.918000Z</time>
      </trkpt>
      <trkpt lat="37.82415005669245" lon="112.0062151343502">
        <ele>1190.0</ele>
        <time>2018-08-01T23:59:28.918000Z</time>
      </trkpt>
      <trkpt lat="37.82446012515451" lon="112.00627037008721">
        <ele>1191.0</ele>
        <time>2018-08-01T23:59:40.918000Z</time>
      </trkpt>
      <trkpt lat="37.82474552812797" lon="112.0063654852528">
        <ele>1191.0</ele>
        <time>2018-08-01T23:59:52.918000Z</time>
      </trkpt>
      <trkpt lat="37.8250499013059" lon="112.00641697674405">
        <ele>1186.0</ele>
        <time>2018-08-02T00:00:04.918000Z</time>
      </trkpt>
      <trkpt lat="37.82529807260322" lon="112.00641687743138">
        <ele>1183.0</ele>
        <time>2018-08-02T00:00:13.918000Z</time>
      </trkpt>
      <trkpt lat="37.825454554455064" lon="112.00648010353969">
        <ele>1182.0</ele>
        <time>2018-08-02T00:00:19.918000Z</time>
      </trkpt>
      <trkpt lat="37.8255408940394" lon="112.00648712310642">
        <ele>1182.0</ele>
        <time>2018-08-02T00:00:22.918000Z</time>
      </trkpt>
      <trkpt lat="37.82569174219806" lon="112.00645174664965">
        <ele>1183.0</ele>
        <time>2018-08-02T00:00:28.918000Z</time>
      </trkpt>
      <trkpt lat="37.825961156823865" lon="112.00647314895734">
        <ele>1180.0</ele>
        <time>2018-08-02T00:00:37.918000Z</time>
      </trkpt>
      <trkpt lat="37.82615604357931" lon="112.00649999825613">
        <ele>1177.0</ele>
        <time>2018-08-02T00:00:43.918000Z</time>
      </trkpt>
      <trkpt lat="37.826498138808" lon="112.00644198957393">
        <ele>1178.0</ele>
        <time>2018-08-02T00:00:55.918000Z</time>
      </trkpt>
      <trkpt lat="37.82656294918746" lon="112.00640906398513">
        <ele>1177.0</ele>
        <time>2018-08-02T00:00:58.918000Z</time>
      </trkpt>
      <trkpt lat="37.82686705667858" lon="112.00638868784976">
        <ele>1173.0</ele>
        <time>2018-08-02T00:01:10.918000Z</time>
      </trkpt>
      <trkpt lat="37.82715587721403" lon="112.00634117120389">
        <ele>1175.0</ele>
        <time>2018-08-02T00:01:19.918000Z</time>
      </trkpt>
      <trkpt lat="37.82743949096479" lon="112.00632851263948">
        <ele>1173.0</ele>
        <time>2018-08-02T00:01:28.918000Z</time>
      </trkpt>
      <trkpt lat="37.82773002489929" lon="112.00628406484878">
        <ele>1169.0</ele>
        <time>2018-08-02T00:01:37.918000Z</time>
      </trkpt>
      <trkpt lat="37.82804541564805" lon="112.00626748333997">
        <ele>1174.0</ele>
        <time>2018-08-02T00:01:46.918000Z</time>
      </trkpt>
      <trkpt lat="37.82834783642802" lon="112.00619621681383">
        <ele>1167.0</ele>
        <time>2018-08-02T00:01:55.918000Z</time>
      </trkpt>
      <trkpt lat="37.82851756801056" lon="112.00617752397244">
        <ele>1167.0</ele>
        <time>2018-08-02T00:02:01.918000Z</time>
      </trkpt>
      <trkpt lat="37.82877055098455" lon="112.00618296639891">
        <ele>1170.0</ele>
        <time>2018-08-02T00:02:10.918000Z</time>
      </trkpt>
      <trkpt lat="37.82914779691044" lon="112.00615508510381">
        <ele>1167.0</ele>
        <time>2018-08-02T00:02:22.918000Z</time>
      </trkpt>
      <trkpt lat="37.82941774916553" lon="112.00616095013022">
        <ele>1166.0</ele>
        <time>2018-08-02T00:02:31.918000Z</time>
      </trkpt>
      <trkpt lat="37.82969290878487" lon="112.0061548019613">
        <ele>1169.0</ele>
        <time>2018-08-02T00:02:40.918000Z</time>
      </trkpt>
      <trkpt lat="37.829998236065954" lon="112.0061637545738">
        <ele>1168.0</ele>
        <time>2018-08-02T00:02:49.918000Z</time>
      </trkpt>
      <trkpt lat="37.830273512531306" lon="112.00617357027869">
        <ele>1165.0</ele>
        <time>2018-08-02T00:02:58.918000Z</time>
      </trkpt>
      <trkpt lat="37.830446091845694" lon="112.00620642020483">
        <ele>1164.0</ele>
        <time>2018-08-02T00:03:04.918000Z</time>
      </trkpt>
      <trkpt lat="37.830731397847" lon="112.00618231269239">
        <ele>1164.0</ele>
        <time>2018-08-02T00:03:13.918000Z</time>
      </trkpt>
      <trkpt lat="37.83092162225332" lon="112.00616985578188">
        <ele>1163.0</ele>
        <time>2018-08-02T00:03:19.918000Z</time>
      </trkpt>
      <trkpt lat="37.83120309337185" lon="112.00620734767475">
        <ele>1161.0</ele>
        <time>2018-08-02T00:03:28.918000Z</time>
      </trkpt>
      <trkpt lat="37.83147489694466" lon="112.00618127484104">
        <ele>1163.0</ele>
        <time>2018-08-02T00:03:37.918000Z</time>
      </trkpt>
      <trkpt lat="37.83163952190641" lon="112.0061640937197">
        <ele>1166.0</ele>
        <time>2018-08-02T00:03:43.918000Z</time>
      </trkpt>
      <trkpt lat="37.83192277439611" lon="112.0060710735554">
        <ele>1163.0</ele>
        <time>2018-08-02T00:03:52.918000Z</time>
      </trkpt>
      <trkpt lat="37.83209313814065" lon="112.00602251654507">
        <ele>1163.0</ele>
        <time>2018-08-02T00:03:58.918000Z</time>
      </trkpt>
      <trkpt lat="37.832283758948535" lon="112.00606044075012">
        <ele>1166.0</ele>
        <time>2018-08-02T00:04:04.918000Z</time>
      </trkpt>
      <trkpt lat="37.832439641570765" lon="112.00602629025562">
        <ele>1164.0</ele>
        <time>2018-08-02T00:04:10.918000Z</time>
      </trkpt>
      <trkpt lat="37.83254917953604" lon="112.00605588089411">
        <ele>1164.0</ele>
        <time>2018-08-02T00:04:13.918000Z</time>
      </trkpt>
      <trkpt lat="37.83275551630162" lon="112.0062363820896">
        <ele>1161.0</ele>
        <time>2018-08-02T00:04:22.918000Z</time>
      </trkpt>
      <trkpt lat="37.833053774474614" lon="112.00637287467652">
        <ele>1164.0</ele>
        <time>2018-08-02T00:04:34.918000Z</time>
      </trkpt>
      <trkpt lat="37.8332478778269" lon="112.00642448081435">
        <ele>1164.0</ele>
        <time>2018-08-02T00:04:43.918000Z</time>
      </trkpt>
      <trkpt lat="37.83333668834971" lon="112.00648447917038">
        <ele>1163.0</ele>
        <time>2018-08-02T00:04:46.918000Z</time>
      </trkpt>
      <trkpt lat="37.833679848173624" lon="112.00658118169228">
        <ele>1159.0</ele>
        <time>2018-08-02T00:04:58.918000Z</time>
      </trkpt>
      <trkpt lat="37.83391283124785" lon="112.00670606557382">
        <ele>1156.0</ele>
        <time>2018-08-02T00:05:07.918000Z</time>
      </trkpt>
      <trkpt lat="37.834191301772286" lon="112.00679884145418">
        <ele>1153.0</ele>
        <time>2018-08-02T00:05:16.918000Z</time>
      </trkpt>
      <trkpt lat="37.83429748416273" lon="112.00682624698693">
        <ele>1151.0</ele>
        <time>2018-08-02T00:05:19.918000Z</time>
      </trkpt>
      <trkpt lat="37.83443305217565" lon="112.00691776827776">
        <ele>1155.0</ele>
        <time>2018-08-02T00:05:25.918000Z</time>
      </trkpt>
      <trkpt lat="37.83467439566535" lon="112.00696017490795">
        <ele>1154.0</ele>
        <time>2018-08-02T00:05:34.918000Z</time>
      </trkpt>
      <trkpt lat="37.83485617483955" lon="112.00693617369882">
        <ele>1154.0</ele>
        <time>2018-08-02T00:05:40.918000Z</time>
      </trkpt>
      <trkpt lat="37.834931931278305" lon="112.00689647418722">
        <ele>1154.0</ele>
        <time>2018-08-02T00:05:43.918000Z</time>
      </trkpt>
      <trkpt lat="37.8350295346734" lon="112.0068849262734">
        <ele>1153.0</ele>
        <time>2018-08-02T00:05:46.918000Z</time>
      </trkpt>
      <trkpt lat="37.83521321669252" lon="112.0068878227496">
        <ele>1157.0</ele>
        <time>2018-08-02T00:05:52.918000Z</time>
      </trkpt>
      <trkpt lat="37.835303281015015" lon="112.00690189668686">
        <ele>1154.0</ele>
        <time>2018-08-02T00:05:55.918000Z</time>
      </trkpt>
      <trkpt lat="37.835367168933175" lon="112.00699456206843">
        <ele>1151.0</ele>
        <time>2018-08-02T00:05:58.918000Z</time>
      </trkpt>
      <trkpt lat="37.835407164875264" lon="112.00712294472548">
        <ele>1151.0</ele>
        <time>2018-08-02T00:06:01.918000Z</time>
      </trkpt>
      <trkpt lat="37.83545334477332" lon="112.007218801803">
        <ele>1153.0</ele>
        <time>2018-08-02T00:06:04.918000Z</time>
      </trkpt>
      <trkpt lat="37.83551483732702" lon="112.00731149720012">
        <ele>1153.0</ele>
        <time>2018-08-02T00:06:07.918000Z</time>
      </trkpt>
      <trkpt lat="37.835602600282705" lon="112.00735994079022">
        <ele>1151.0</ele>
        <time>2018-08-02T00:06:10.918000Z</time>
      </trkpt>
      <trkpt lat="37.835677506543334" lon="112.00738261402803">
        <ele>1154.0</ele>
        <time>2018-08-02T00:06:13.918000Z</time>
      </trkpt>
      <trkpt lat="37.836000470136824" lon="112.00744366388582">
        <ele>1156.0</ele>
        <time>2018-08-02T00:06:25.918000Z</time>
      </trkpt>
      <trkpt lat="37.83609569445742" lon="112.0074637051603">
        <ele>1156.0</ele>
        <time>2018-08-02T00:06:28.918000Z</time>
      </trkpt>
      <trkpt lat="37.8361843516148" lon="112.00747238460808">
        <ele>1154.0</ele>
        <time>2018-08-02T00:06:31.918000Z</time>
      </trkpt>
      <trkpt lat="37.83628770874616" lon="112.00748215967434">
        <ele>1154.0</ele>
        <time>2018-08-02T00:06:34.918000Z</time>
      </trkpt>
      <trkpt lat="37.8365803061595" lon="112.0075749791707">
        <ele>1154.0</ele>
        <time>2018-08-02T00:06:43.918000Z</time>
      </trkpt>
      <trkpt lat="37.836910828279166" lon="112.00770499990594">
        <ele>1155.0</ele>
        <time>2018-08-02T00:06:55.918000Z</time>
      </trkpt>
      <trkpt lat="37.83718193425182" lon="112.00778714836643">
        <ele>1157.0</ele>
        <time>2018-08-02T00:07:04.918000Z</time>
      </trkpt>
      <trkpt lat="37.837463107089235" lon="112.00787743905933">
        <ele>1155.0</ele>
        <time>2018-08-02T00:07:13.918000Z</time>
      </trkpt>
      <trkpt lat="37.837638605653424" lon="112.00798742431695">
        <ele>1154.0</ele>
        <time>2018-08-02T00:07:19.918000Z</time>
      </trkpt>
      <trkpt lat="37.83787129362132" lon="112.00808964840024">
        <ele>1149.0</ele>
        <time>2018-08-02T00:07:28.918000Z</time>
      </trkpt>
      <trkpt lat="37.83796879909598" lon="112.00811800024461">
        <ele>1146.0</ele>
        <time>2018-08-02T00:07:31.918000Z</time>
      </trkpt>
      <trkpt lat="37.83824241464946" lon="112.0082222031191">
        <ele>1146.0</ele>
        <time>2018-08-02T00:07:40.918000Z</time>
      </trkpt>
      <trkpt lat="37.83833082250582" lon="112.00825246348401">
        <ele>1145.0</ele>
        <time>2018-08-02T00:07:43.918000Z</time>
      </trkpt>
      <trkpt lat="37.838546613481576" lon="112.00827568469354">
        <ele>1148.0</ele>
        <time>2018-08-02T00:07:49.918000Z</time>
      </trkpt>
      <trkpt lat="37.83863488691937" lon="112.00825659609353">
        <ele>1148.0</ele>
        <time>2018-08-02T00:07:52.918000Z</time>
      </trkpt>
      <trkpt lat="37.83900559411499" lon="112.00819586229933">
        <ele>1143.0</ele>
        <time>2018-08-02T00:08:04.918000Z</time>
      </trkpt>
      <trkpt lat="37.83918466652676" lon="112.00816377799539">
        <ele>1141.0</ele>
        <time>2018-08-02T00:08:10.818000Z</time>
      </trkpt>
      <trkpt lat="37.8392771523259" lon="112.00815281575294">
        <ele>1143.0</ele>
        <time>2018-08-02T00:08:13.918000Z</time>
      </trkpt>
      <trkpt lat="37.839535207966115" lon="112.00814479682826">
        <ele>1141.0</ele>
        <time>2018-08-02T00:08:22.918000Z</time>
      </trkpt>
      <trkpt lat="37.83973604331923" lon="112.00809586107997">
        <ele>1143.0</ele>
        <time>2018-08-02T00:08:28.918000Z</time>
      </trkpt>
      <trkpt lat="37.840023623543914" lon="112.00805478169607">
        <ele>1146.0</ele>
        <time>2018-08-02T00:08:37.918000Z</time>
      </trkpt>
      <trkpt lat="37.84024424080036" lon="112.00801162712858">
        <ele>1141.0</ele>
        <time>2018-08-02T00:08:43.918000Z</time>
      </trkpt>
      <trkpt lat="37.84043676801705" lon="112.00801423136951">
        <ele>1140.0</ele>
        <time>2018-08-02T00:08:49.818000Z</time>
      </trkpt>
      <trkpt lat="37.84057817997146" lon="112.00807934116827">
        <ele>1136.0</ele>
        <time>2018-08-02T00:08:55.918000Z</time>
      </trkpt>
      <trkpt lat="37.840920367411655" lon="112.0081564729478">
        <ele>1141.0</ele>
        <time>2018-08-02T00:09:07.918000Z</time>
      </trkpt>
      <trkpt lat="37.84119522265354" lon="112.00819946142305">
        <ele>1143.0</ele>
        <time>2018-08-02T00:09:16.918000Z</time>
      </trkpt>
      <trkpt lat="37.841472384609695" lon="112.00818986436833">
        <ele>1135.0</ele>
        <time>2018-08-02T00:09:25.918000Z</time>
      </trkpt>
      <trkpt lat="37.84176568147007" lon="112.00805615896222">
        <ele>1132.0</ele>
        <time>2018-08-02T00:09:34.918000Z</time>
      </trkpt>
      <trkpt lat="37.84203025319063" lon="112.00791992091749">
        <ele>1136.0</ele>
        <time>2018-08-02T00:09:43.918000Z</time>
      </trkpt>
      <trkpt lat="37.8421246572076" lon="112.00786763566765">
        <ele>1135.0</ele>
        <time>2018-08-02T00:09:46.918000Z</time>
      </trkpt>
      <trkpt lat="37.84227948324773" lon="112.00771036332884">
        <ele>1135.0</ele>
        <time>2018-08-02T00:09:52.918000Z</time>
      </trkpt>
      <trkpt lat="37.84242716260632" lon="112.00758978514976">
        <ele>1135.0</ele>
        <time>2018-08-02T00:09:58.918000Z</time>
      </trkpt>
      <trkpt lat="37.84248927356066" lon="112.00751590826468">
        <ele>1131.0</ele>
        <time>2018-08-02T00:10:01.918000Z</time>
      </trkpt>
      <trkpt lat="37.84273378704153" lon="112.00736513622245">
        <ele>1136.0</ele>
        <time>2018-08-02T00:10:10.918000Z</time>
      </trkpt>
      <trkpt lat="37.84297322175803" lon="112.00719335358075">
        <ele>1131.0</ele>
        <time>2018-08-02T00:10:19.918000Z</time>
      </trkpt>
      <trkpt lat="37.84313868269242" lon="112.0070847539375">
        <ele>1131.0</ele>
        <time>2018-08-02T00:10:25.918000Z</time>
      </trkpt>
      <trkpt lat="37.843376846778035" lon="112.00682684753976">
        <ele>1137.0</ele>
        <time>2018-08-02T00:10:34.918000Z</time>
      </trkpt>
      <trkpt lat="37.84354794274484" lon="112.00672278472251">
        <ele>1136.0</ele>
        <time>2018-08-02T00:10:40.918000Z</time>
      </trkpt>
      <trkpt lat="37.8437075300616" lon="112.00657399987914">
        <ele>1133.0</ele>
        <time>2018-08-02T00:10:46.918000Z</time>
      </trkpt>
      <trkpt lat="37.8438705726191" lon="112.00645963503037">
        <ele>1130.0</ele>
        <time>2018-08-02T00:10:52.918000Z</time>
      </trkpt>
      <trkpt lat="37.84395122907394" lon="112.00638267502359">
        <ele>1130.0</ele>
        <time>2018-08-02T00:10:55.918000Z</time>
      </trkpt>
      <trkpt lat="37.84414884100592" lon="112.0062920060201">
        <ele>1130.0</ele>
        <time>2018-08-02T00:11:01.918000Z</time>
      </trkpt>
      <trkpt lat="37.844254676351895" lon="112.00626737085906">
        <ele>1133.0</ele>
        <time>2018-08-02T00:11:04.918000Z</time>
      </trkpt>
      <trkpt lat="37.84450951635932" lon="112.00613533894553">
        <ele>1132.0</ele>
        <time>2018-08-02T00:11:13.918000Z</time>
      </trkpt>
      <trkpt lat="37.84459982270482" lon="112.00610789926102">
        <ele>1133.0</ele>
        <time>2018-08-02T00:11:16.918000Z</time>
      </trkpt>
      <trkpt lat="37.84491026668628" lon="112.00619927365236">
        <ele>1132.0</ele>
        <time>2018-08-02T00:11:25.918000Z</time>
      </trkpt>
      <trkpt lat="37.84518604096764" lon="112.00624924802915">
        <ele>1132.0</ele>
        <time>2018-08-02T00:11:34.918000Z</time>
      </trkpt>
      <trkpt lat="37.84546051120966" lon="112.00635681211376">
        <ele>1134.0</ele>
        <time>2018-08-02T00:11:43.918000Z</time>
      </trkpt>
      <trkpt lat="37.84573645925192" lon="112.00646316111472">
        <ele>1130.0</ele>
        <time>2018-08-02T00:11:52.918000Z</time>
      </trkpt>
      <trkpt lat="37.846017955463836" lon="112.00657320775115">
        <ele>1129.0</ele>
        <time>2018-08-02T00:12:01.918000Z</time>
      </trkpt>
      <trkpt lat="37.846333638569675" lon="112.00662970811092">
        <ele>1128.0</ele>
        <time>2018-08-02T00:12:10.818000Z</time>
      </trkpt>
      <trkpt lat="37.84669304970103" lon="112.00665534479268">
        <ele>1129.0</ele>
        <time>2018-08-02T00:12:22.918000Z</time>
      </trkpt>
      <trkpt lat="37.84697509690231" lon="112.00669450627443">
        <ele>1126.0</ele>
        <time>2018-08-02T00:12:31.918000Z</time>
      </trkpt>
      <trkpt lat="37.8472588211322" lon="112.0067171785805">
        <ele>1126.0</ele>
        <time>2018-08-02T00:12:40.918000Z</time>
      </trkpt>
      <trkpt lat="37.84753487868504" lon="112.00676336890861">
        <ele>1126.0</ele>
        <time>2018-08-02T00:12:49.918000Z</time>
      </trkpt>
      <trkpt lat="37.84787744869204" lon="112.00679576543388">
        <ele>1124.0</ele>
        <time>2018-08-02T00:12:58.918000Z</time>
      </trkpt>
      <trkpt lat="37.848048538539175" lon="112.00683196679603">
        <ele>1123.0</ele>
        <time>2018-08-02T00:13:04.918000Z</time>
      </trkpt>
      <trkpt lat="37.848154614969" lon="112.00683411663523">
        <ele>1122.0</ele>
        <time>2018-08-02T00:13:07.918000Z</time>
      </trkpt>
      <trkpt lat="37.84832547907515" lon="112.00693546282973">
        <ele>1121.0</ele>
        <time>2018-08-02T00:13:13.918000Z</time>
      </trkpt>
      <trkpt lat="37.848427135131104" lon="112.00706628236117">
        <ele>1120.0</ele>
        <time>2018-08-02T00:13:19.818000Z</time>
      </trkpt>
      <trkpt lat="37.84847243504302" lon="112.007160616162">
        <ele>1120.0</ele>
        <time>2018-08-02T00:13:22.918000Z</time>
      </trkpt>
      <trkpt lat="37.84854353617917" lon="112.00724602667047">
        <ele>1124.0</ele>
        <time>2018-08-02T00:13:25.918000Z</time>
      </trkpt>
      <trkpt lat="37.848736634666324" lon="112.00754551158269">
        <ele>1122.0</ele>
        <time>2018-08-02T00:13:34.918000Z</time>
      </trkpt>
      <trkpt lat="37.84885759051628" lon="112.0077449896562">
        <ele>1122.0</ele>
        <time>2018-08-02T00:13:40.918000Z</time>
      </trkpt>
      <trkpt lat="37.84898378507981" lon="112.00791635482273">
        <ele>1123.0</ele>
        <time>2018-08-02T00:13:46.918000Z</time>
      </trkpt>
      <trkpt lat="37.84916900835957" lon="112.00821908754087">
        <ele>1124.0</ele>
        <time>2018-08-02T00:13:55.918000Z</time>
      </trkpt>
      <trkpt lat="37.849394469988674" lon="112.00858089653468">
        <ele>1121.0</ele>
        <time>2018-08-02T00:14:07.918000Z</time>
      </trkpt>
      <trkpt lat="37.849583435942876" lon="112.00887481490564">
        <ele>1120.0</ele>
        <time>2018-08-02T00:14:16.918000Z</time>
      </trkpt>
      <trkpt lat="37.84978025171148" lon="112.00914913465795">
        <ele>1119.0</ele>
        <time>2018-08-02T00:14:25.918000Z</time>
      </trkpt>
      <trkpt lat="37.84987399546686" lon="112.00935908796968">
        <ele>1117.0</ele>
        <time>2018-08-02T00:14:31.918000Z</time>
      </trkpt>
      <trkpt lat="37.84992256885611" lon="112.0097271217142">
        <ele>1116.0</ele>
        <time>2018-08-02T00:14:40.918000Z</time>
      </trkpt>
      <trkpt lat="37.84990130676361" lon="112.01011807178655">
        <ele>1115.0</ele>
        <time>2018-08-02T00:14:49.918000Z</time>
      </trkpt>
      <trkpt lat="37.84989592934759" lon="112.01049619782093">
        <ele>1115.0</ele>
        <time>2018-08-02T00:14:58.918000Z</time>
      </trkpt>
      <trkpt lat="37.84986127380499" lon="112.01084222272677">
        <ele>1115.0</ele>
        <time>2018-08-02T00:15:07.918000Z</time>
      </trkpt>
      <trkpt lat="37.84982059192949" lon="112.01120852541466">
        <ele>1114.0</ele>
        <time>2018-08-02T00:15:16.918000Z</time>
      </trkpt>
      <trkpt lat="37.849795349236295" lon="112.0115842904481">
        <ele>1114.0</ele>
        <time>2018-08-02T00:15:25.918000Z</time>
      </trkpt>
      <trkpt lat="37.849773413930514" lon="112.01194302667295">
        <ele>1113.0</ele>
        <time>2018-08-02T00:15:34.918000Z</time>
      </trkpt>
      <trkpt lat="37.84977133109271" lon="112.01228635382428">
        <ele>1111.0</ele>
        <time>2018-08-02T00:15:43.918000Z</time>
      </trkpt>
      <trkpt lat="37.84974087137433" lon="112.01263563115374">
        <ele>1111.0</ele>
        <time>2018-08-02T00:15:52.918000Z</time>
      </trkpt>
      <trkpt lat="37.84973368028196" lon="112.01300037220196">
        <ele>1111.0</ele>
        <time>2018-08-02T00:16:01.918000Z</time>
      </trkpt>
      <trkpt lat="37.849697583111556" lon="112.01311251958128">
        <ele>1111.0</ele>
        <time>2018-08-02T00:16:04.918000Z</time>
      </trkpt>
      <trkpt lat="37.849666977561455" lon="112.01347018650218">
        <ele>1110.0</ele>
        <time>2018-08-02T00:16:13.918000Z</time>
      </trkpt>
      <trkpt lat="37.84968537618573" lon="112.01358183634431">
        <ele>1111.0</ele>
        <time>2018-08-02T00:16:16.918000Z</time>
      </trkpt>
      <trkpt lat="37.84962458003155" lon="112.01396654506051">
        <ele>1110.0</ele>
        <time>2018-08-02T00:16:25.918000Z</time>
      </trkpt>
      <trkpt lat="37.8495950058619" lon="112.01434476486115">
        <ele>1110.0</ele>
        <time>2018-08-02T00:16:34.918000Z</time>
      </trkpt>
      <trkpt lat="37.84955212568718" lon="112.01473589149013">
        <ele>1108.0</ele>
        <time>2018-08-02T00:16:43.918000Z</time>
      </trkpt>
      <trkpt lat="37.84946104803509" lon="112.01517340725309">
        <ele>1101.0</ele>
        <time>2018-08-02T00:16:55.918000Z</time>
      </trkpt>
      <trkpt lat="37.84942878839077" lon="112.01551661213801">
        <ele>1101.0</ele>
        <time>2018-08-02T00:17:04.918000Z</time>
      </trkpt>
      <trkpt lat="37.849399908299226" lon="112.01587336590501">
        <ele>1104.0</ele>
        <time>2018-08-02T00:17:13.818000Z</time>
      </trkpt>
      <trkpt lat="37.84935185633042" lon="112.01626620373118">
        <ele>1106.0</ele>
        <time>2018-08-02T00:17:22.918000Z</time>
      </trkpt>
      <trkpt lat="37.84932751075697" lon="112.01662389519944">
        <ele>1105.0</ele>
        <time>2018-08-02T00:17:31.918000Z</time>
      </trkpt>
      <trkpt lat="37.84932717065329" lon="112.01674420689594">
        <ele>1105.0</ele>
        <time>2018-08-02T00:17:34.918000Z</time>
      </trkpt>
      <trkpt lat="37.84927676866187" lon="112.01710677220913">
        <ele>1105.0</ele>
        <time>2018-08-02T00:17:43.918000Z</time>
      </trkpt>
      <trkpt lat="37.84923401763438" lon="112.0174509547858">
        <ele>1106.0</ele>
        <time>2018-08-02T00:17:52.918000Z</time>
      </trkpt>
      <trkpt lat="37.84920811713169" lon="112.0176888827546">
        <ele>1106.0</ele>
        <time>2018-08-02T00:17:58.918000Z</time>
      </trkpt>
      <trkpt lat="37.84920362713575" lon="112.01793546147319">
        <ele>1105.0</ele>
        <time>2018-08-02T00:18:04.918000Z</time>
      </trkpt>
      <trkpt lat="37.84923930990389" lon="112.01817581833316">
        <ele>1106.0</ele>
        <time>2018-08-02T00:18:10.918000Z</time>
      </trkpt>
      <trkpt lat="37.84919055279125" lon="112.01853596309499">
        <ele>1105.0</ele>
        <time>2018-08-02T00:18:19.918000Z</time>
      </trkpt>
      <trkpt lat="37.84916351305096" lon="112.01889259370071">
        <ele>1106.0</ele>
        <time>2018-08-02T00:18:28.918000Z</time>
      </trkpt>
      <trkpt lat="37.84914214698328" lon="112.01935656833506">
        <ele>1106.0</ele>
        <time>2018-08-02T00:18:40.918000Z</time>
      </trkpt>
      <trkpt lat="37.84913186437726" lon="112.01973862081489">
        <ele>1105.0</ele>
        <time>2018-08-02T00:18:49.918000Z</time>
      </trkpt>
      <trkpt lat="37.849154228986954" lon="112.01999088767897">
        <ele>1105.0</ele>
        <time>2018-08-02T00:18:55.918000Z</time>
      </trkpt>
      <trkpt lat="37.849124018555564" lon="112.02022207231529">
        <ele>1105.0</ele>
        <time>2018-08-02T00:19:01.918000Z</time>
      </trkpt>
      <trkpt lat="37.84912409521977" lon="112.02058872030169">
        <ele>1104.0</ele>
        <time>2018-08-02T00:19:10.918000Z</time>
      </trkpt>
      <trkpt lat="37.84910604345582" lon="112.02083937557236">
        <ele>1105.0</ele>
        <time>2018-08-02T00:19:16.918000Z</time>
      </trkpt>
      <trkpt lat="37.84911714838803" lon="112.0212428023673">
        <ele>1105.0</ele>
        <time>2018-08-02T00:19:25.918000Z</time>
      </trkpt>
      <trkpt lat="37.84909087410064" lon="112.02162487677614">
        <ele>1105.0</ele>
        <time>2018-08-02T00:19:34.918000Z</time>
      </trkpt>
      <trkpt lat="37.84907547027564" lon="112.0220015460534">
        <ele>1105.0</ele>
        <time>2018-08-02T00:19:43.818000Z</time>
      </trkpt>
      <trkpt lat="37.84908446654675" lon="112.02238605827353">
        <ele>1105.0</ele>
        <time>2018-08-02T00:19:52.918000Z</time>
      </trkpt>
      <trkpt lat="37.849094917104914" lon="112.02263510065761">
        <ele>1105.0</ele>
        <time>2018-08-02T00:19:58.918000Z</time>
      </trkpt>
      <trkpt lat="37.84912089500157" lon="112.0227608368833">
        <ele>1105.0</ele>
        <time>2018-08-02T00:20:01.918000Z</time>
      </trkpt>
      <trkpt lat="37.849120885821385" lon="112.02306639898121">
        <ele>1104.0</ele>
        <time>2018-08-02T00:20:10.918000Z</time>
      </trkpt>
      <trkpt lat="37.84909850173713" lon="112.02321810212455">
        <ele>1104.0</ele>
        <time>2018-08-02T00:20:16.818000Z</time>
      </trkpt>
      <trkpt lat="37.84910621217748" lon="112.02327678052768">
        <ele>1104.0</ele>
        <time>2018-08-02T00:20:19.918000Z</time>
      </trkpt>
      <trkpt lat="37.849086879270885" lon="112.02334931141641">
        <ele>1104.0</ele>
        <time>2018-08-02T00:20:22.918000Z</time>
      </trkpt>
      <trkpt lat="37.849161577082505" lon="112.02337141817833">
        <ele>1105.0</ele>
        <time>2018-08-02T00:20:28.918000Z</time>
      </trkpt>
      <trkpt lat="37.8490906203255" lon="112.02347180662585">
        <ele>1104.0</ele>
        <time>2018-08-02T00:20:37.918000Z</time>
      </trkpt>
      <trkpt lat="37.849085337454625" lon="112.02357423746298">
        <ele>1105.0</ele>
        <time>2018-08-02T00:20:43.918000Z</time>
      </trkpt>
      <trkpt lat="37.84904252287609" lon="112.02365590783832">
        <ele>1105.0</ele>
        <time>2018-08-02T00:20:49.918000Z</time>
      </trkpt>
      <trkpt lat="37.84906958770909" lon="112.02384492236838">
        <ele>1106.0</ele>
        <time>2018-08-02T00:21:01.818000Z</time>
      </trkpt>
      <trkpt lat="37.849146661832435" lon="112.0239450757729">
        <ele>1105.0</ele>
        <time>2018-08-02T00:21:07.818000Z</time>
      </trkpt>
      <trkpt lat="37.84915177713686" lon="112.0240371331366">
        <ele>1104.0</ele>
        <time>2018-08-02T00:21:13.818000Z</time>
      </trkpt>
      <trkpt lat="37.84920128123365" lon="112.02411104758148">
        <ele>1104.0</ele>
        <time>2018-08-02T00:21:19.818000Z</time>
      </trkpt>
      <trkpt lat="37.84923473749398" lon="112.02421862328377">
        <ele>1103.0</ele>
        <time>2018-08-02T00:21:25.818000Z</time>
      </trkpt>
      <trkpt lat="37.849226184495556" lon="112.02428205622893">
        <ele>1103.0</ele>
        <time>2018-08-02T00:21:28.818000Z</time>
      </trkpt>
      <trkpt lat="37.849234441262674" lon="112.02434289495979">
        <ele>1103.0</ele>
        <time>2018-08-02T00:21:31.818000Z</time>
      </trkpt>
      <trkpt lat="37.849181259504086" lon="112.02439442274591">
        <ele>1103.0</ele>
        <time>2018-08-02T00:21:34.818000Z</time>
      </trkpt>
      <trkpt lat="37.84899730708894" lon="112.02439774916203">
        <ele>1104.0</ele>
        <time>2018-08-02T00:21:40.918000Z</time>
      </trkpt>
      <trkpt lat="37.84903663829185" lon="112.0245079155927">
        <ele>1105.0</ele>
        <time>2018-08-02T00:21:46.818000Z</time>
      </trkpt>
      <trkpt lat="37.84913777658885" lon="112.02461408579842">
        <ele>1106.0</ele>
        <time>2018-08-02T00:21:52.818000Z</time>
      </trkpt>
      <trkpt lat="37.849099513230364" lon="112.0246688915309">
        <ele>1106.0</ele>
        <time>2018-08-02T00:21:55.818000Z</time>
      </trkpt>
      <trkpt lat="37.84914064757526" lon="112.02471125239919">
        <ele>1105.0</ele>
        <time>2018-08-02T00:22:01.818000Z</time>
      </trkpt>
      <trkpt lat="37.849052589362906" lon="112.02489392918064">
        <ele>1107.0</ele>
        <time>2018-08-02T00:22:10.818000Z</time>
      </trkpt>
      <trkpt lat="37.84912492572895" lon="112.02501070567612">
        <ele>1111.0</ele>
        <time>2018-08-02T00:22:19.818000Z</time>
      </trkpt>
      <trkpt lat="37.84910303789535" lon="112.02507993755763">
        <ele>1112.0</ele>
        <time>2018-08-02T00:22:22.818000Z</time>
      </trkpt>
      <trkpt lat="37.84901630236934" lon="112.02515079995013">
        <ele>1113.0</ele>
        <time>2018-08-02T00:22:28.818000Z</time>
      </trkpt>
      <trkpt lat="37.84898441618556" lon="112.02520488936345">
        <ele>1113.0</ele>
        <time>2018-08-02T00:22:31.818000Z</time>
      </trkpt>
      <trkpt lat="37.84902538460215" lon="112.02541068093699">
        <ele>1115.0</ele>
        <time>2018-08-02T00:22:44.718000Z</time>
      </trkpt>
      <trkpt lat="37.84901431508408" lon="112.0254931635055">
        <ele>1112.0</ele>
        <time>2018-08-02T00:22:54.418000Z</time>
      </trkpt>
      <trkpt lat="37.849041797609196" lon="112.02556590613281">
        <ele>1110.0</ele>
        <time>2018-08-02T00:22:56.018000Z</time>
      </trkpt>
      <trkpt lat="37.84903133141985" lon="112.02562540233038">
        <ele>1110.0</ele>
        <time>2018-08-02T00:22:59.018000Z</time>
      </trkpt>
      <trkpt lat="37.84898290935572" lon="112.02567435634522">
        <ele>1110.0</ele>
        <time>2018-08-02T00:23:01.818000Z</time>
      </trkpt>
      <trkpt lat="37.84898290935572" lon="112.02567435634522">
        <ele>1110.0</ele>
        <time>2018-08-02T00:23:04.618000Z</time>
      </trkpt>
    </trkseg>
  </trk>
</gpx>