<?xml version="1.0" encoding="UTF-8"?>
<gpx xmlns="http://www.topografix.com/GPX/1/1" xmlns:gpxtpx="http://www.garmin.com/xmlschemas/TrackPointExtension/v1" xmlns:xsi="http://www.w3.org/2001/XMLSchema-instance" xsi:schemaLocation="http://www.topografix.com/GPX/1/1 http://www.topografix.com/GPX/1/1/gpx.xsd" version="1.1" creator="gpx.py -- https://github.com/tkrajina/gpxpy">
  <trk>
    <name>gpx from keep</name>
    <type>Run</type>
    <trkseg>
      <trkpt lat="37.84731782579023" lon="112.0292693581082">
        <ele>1122.9</ele>
        <time>2017-05-05T23:16:36.300000Z</time>
      </trkpt>
      <trkpt lat="37.84733638295971" lon="112.02911951851226">
        <ele>1119.8</ele>
        <time>2017-05-05T23:16:45.300000Z</time>
      </trkpt>
      <trkpt lat="37.84732145621515" lon="112.02901431007098">
        <ele>1117.8</ele>
        <time>2017-05-05T23:16:51.300000Z</time>
      </trkpt>
      <trkpt lat="37.847356323598945" lon="112.02863917640181">
        <ele>1109.4</ele>
        <time>2017-05-05T23:17:12.300000Z</time>
      </trkpt>
      <trkpt lat="37.84741269320539" lon="112.02855749103787">
        <ele>1108.09</ele>
        <time>2017-05-05T23:17:18.300000Z</time>
      </trkpt>
      <trkpt lat="37.847449440179865" lon="112.028404137059">
        <ele>1104.4</ele>
        <time>2017-05-05T23:17:30.300000Z</time>
      </trkpt>
      <trkpt lat="37.8474278803156" lon="112.02834734372712">
        <ele>1102.2</ele>
        <time>2017-05-05T23:17:36.300000Z</time>
      </trkpt>
      <trkpt lat="37.84744942987938" lon="112.02819588588146">
        <ele>1099.3</ele>
        <time>2017-05-05T23:17:48.300000Z</time>
      </trkpt>
      <trkpt lat="37.84741457143763" lon="112.02792922257129">
        <ele>1098.4</ele>
        <time>2017-05-05T23:18:06.300000Z</time>
      </trkpt>
      <trkpt lat="37.84748610523233" lon="112.0277539612008">
        <ele>1098.8</ele>
        <time>2017-05-05T23:18:21.300000Z</time>
      </trkpt>
      <trkpt lat="37.847524230047405" lon="112.02769905511664">
        <ele>1098.7</ele>
        <time>2017-05-05T23:18:27.400000Z</time>
      </trkpt>
      <trkpt lat="37.8476577775074" lon="112.02735908477156">
        <ele>1097.0</ele>
        <time>2017-05-05T23:18:45.300000Z</time>
      </trkpt>
      <trkpt lat="37.84776419230848" lon="112.02712567683244">
        <ele>1096.3</ele>
        <time>2017-05-05T23:18:54.300000Z</time>
      </trkpt>
      <trkpt lat="37.847807749186266" lon="112.0270688781537">
        <ele>1096.2</ele>
        <time>2017-05-05T23:18:57.300000Z</time>
      </trkpt>
      <trkpt lat="37.84782427871023" lon="112.02697205712052">
        <ele>1096.0</ele>
        <time>2017-05-05T23:19:00.300000Z</time>
      </trkpt>
      <trkpt lat="37.84788103067592" lon="112.02684899861205">
        <ele>1095.09</ele>
        <time>2017-05-05T23:19:06.300000Z</time>
      </trkpt>
      <trkpt lat="37.84792591854784" lon="112.02680220666376">
        <ele>1094.8</ele>
        <time>2017-05-05T23:19:09.300000Z</time>
      </trkpt>
      <trkpt lat="37.84802582584897" lon="112.02677731397297">
        <ele>1094.9</ele>
        <time>2017-05-05T23:19:15.300000Z</time>
      </trkpt>
      <trkpt lat="37.84806577820861" lon="112.02675053541807">
        <ele>1095.09</ele>
        <time>2017-05-05T23:19:18.300000Z</time>
      </trkpt>
      <trkpt lat="37.848119239256306" lon="112.02674566103865">
        <ele>1094.59</ele>
        <time>2017-05-05T23:19:21.300000Z</time>
      </trkpt>
      <trkpt lat="37.84820427717577" lon="112.0267004870736">
        <ele>1093.59</ele>
        <time>2017-05-05T23:19:27.300000Z</time>
      </trkpt>
      <trkpt lat="37.84831927890102" lon="112.02671372487778">
        <ele>1091.9</ele>
        <time>2017-05-05T23:19:33.300000Z</time>
      </trkpt>
      <trkpt lat="37.84843601894844" lon="112.02678889366892">
        <ele>1089.7</ele>
        <time>2017-05-05T23:19:39.300000Z</time>
      </trkpt>
      <trkpt lat="37.84849271888966" lon="112.02679050950519">
        <ele>1089.3</ele>
        <time>2017-05-05T23:19:42.300000Z</time>
      </trkpt>
      <trkpt lat="37.848604047320215" lon="112.02675560910096">
        <ele>1089.2</ele>
        <time>2017-05-05T23:19:48.300000Z</time>
      </trkpt>
      <trkpt lat="37.848697378571714" lon="112.0267555978803">
        <ele>1090.0</ele>
        <time>2017-05-05T23:19:54.300000Z</time>
      </trkpt>
      <trkpt lat="37.848800672427885" lon="112.02668040272061">
        <ele>1089.0</ele>
        <time>2017-05-05T23:20:00.300000Z</time>
      </trkpt>
      <trkpt lat="37.84890929802352" lon="112.02653732662007">
        <ele>1087.8</ele>
        <time>2017-05-05T23:20:06.300000Z</time>
      </trkpt>
      <trkpt lat="37.84905449821702" lon="112.02619166731667">
        <ele>1084.7</ele>
        <time>2017-05-05T23:20:18.300000Z</time>
      </trkpt>
      <trkpt lat="37.849153689662984" lon="112.02598859986041">
        <ele>1083.0</ele>
        <time>2017-05-05T23:20:24.300000Z</time>
      </trkpt>
      <trkpt lat="37.84921988218428" lon="112.02577252972716">
        <ele>1081.3</ele>
        <time>2017-05-05T23:20:30.300000Z</time>
      </trkpt>
      <trkpt lat="37.849059184910104" lon="112.0256602847055">
        <ele>1080.8</ele>
        <time>2017-05-05T23:20:33.300000Z</time>
      </trkpt>
      <trkpt lat="37.84904070525353" lon="112.02556861057704">
        <ele>1080.7</ele>
        <time>2017-05-05T23:20:36.300000Z</time>
      </trkpt>
      <trkpt lat="37.849025774827794" lon="112.0253655191246">
        <ele>1080.09</ele>
        <time>2017-05-05T23:20:42.300000Z</time>
      </trkpt>
      <trkpt lat="37.84903893131968" lon="112.02521191394544">
        <ele>1080.4</ele>
        <time>2017-05-05T23:20:48.300000Z</time>
      </trkpt>
      <trkpt lat="37.84902392693573" lon="112.02514025235641">
        <ele>1080.3</ele>
        <time>2017-05-05T23:20:51.300000Z</time>
      </trkpt>
      <trkpt lat="37.84903884372267" lon="112.02493688968033">
        <ele>1079.0</ele>
        <time>2017-05-05T23:20:57.300000Z</time>
      </trkpt>
      <trkpt lat="37.84902550348705" lon="112.02485170726135">
        <ele>1078.7</ele>
        <time>2017-05-05T23:21:00.300000Z</time>
      </trkpt>
      <trkpt lat="37.84905881850482" lon="112.02446364561848">
        <ele>1078.7</ele>
        <time>2017-05-05T23:21:12.300000Z</time>
      </trkpt>
      <trkpt lat="37.849082358875144" lon="112.02418159410685">
        <ele>1078.59</ele>
        <time>2017-05-05T23:21:21.300000Z</time>
      </trkpt>
      <trkpt lat="37.84905884663198" lon="112.02404530583765">
        <ele>1077.59</ele>
        <time>2017-05-05T23:21:24.300000Z</time>
      </trkpt>
      <trkpt lat="37.84905379136415" lon="112.02370322914774">
        <ele>1076.3</ele>
        <time>2017-05-05T23:21:33.300000Z</time>
      </trkpt>
      <trkpt lat="37.8490636864677" lon="112.02335168981399">
        <ele>1075.5</ele>
        <time>2017-05-05T23:21:43.100000Z</time>
      </trkpt>
      <trkpt lat="37.84909712412701" lon="112.02292335515884">
        <ele>1078.0</ele>
        <time>2017-05-05T23:21:52.300000Z</time>
      </trkpt>
      <trkpt lat="37.84911873817787" lon="112.02255478710798">
        <ele>1079.0</ele>
        <time>2017-05-05T23:22:04.300000Z</time>
      </trkpt>
      <trkpt lat="37.84911705776277" lon="112.02217324653554">
        <ele>1078.0</ele>
        <time>2017-05-05T23:22:19.300000Z</time>
      </trkpt>
      <trkpt lat="37.84912498180316" lon="112.02175304189942">
        <ele>1074.9</ele>
        <time>2017-05-05T23:22:34.300000Z</time>
      </trkpt>
      <trkpt lat="37.84914193550613" lon="112.02130634244774">
        <ele>1073.3</ele>
        <time>2017-05-05T23:22:46.300000Z</time>
      </trkpt>
      <trkpt lat="37.849121822002985" lon="112.02112112393729">
        <ele>1073.2</ele>
        <time>2017-05-05T23:22:52.300000Z</time>
      </trkpt>
      <trkpt lat="37.84914824601425" lon="112.02068605820752">
        <ele>1072.09</ele>
        <time>2017-05-05T23:23:04.300000Z</time>
      </trkpt>
      <trkpt lat="37.84914175936498" lon="112.02047948048481">
        <ele>1071.5</ele>
        <time>2017-05-05T23:23:10.300000Z</time>
      </trkpt>
      <trkpt lat="37.84921162250661" lon="112.02003603533457">
        <ele>1073.7</ele>
        <time>2017-05-05T23:23:22.300000Z</time>
      </trkpt>
      <trkpt lat="37.849221602960775" lon="112.01966425440759">
        <ele>1074.4</ele>
        <time>2017-05-05T23:23:34.300000Z</time>
      </trkpt>
      <trkpt lat="37.84923502218316" lon="112.01922758536863">
        <ele>1077.09</ele>
        <time>2017-05-05T23:23:46.300000Z</time>
      </trkpt>
      <trkpt lat="37.84924646262605" lon="112.01882093356463">
        <ele>1079.5</ele>
        <time>2017-05-05T23:23:58.300000Z</time>
      </trkpt>
      <trkpt lat="37.849251260600354" lon="112.01846241366533">
        <ele>1083.09</ele>
        <time>2017-05-05T23:24:10.300000Z</time>
      </trkpt>
      <trkpt lat="37.84926135084246" lon="112.01805577012586">
        <ele>1086.0</ele>
        <time>2017-05-05T23:24:22.300000Z</time>
      </trkpt>
      <trkpt lat="37.84925483858079" lon="112.01776566230207">
        <ele>1087.5</ele>
        <time>2017-05-05T23:24:31.300000Z</time>
      </trkpt>
      <trkpt lat="37.84927810627292" lon="112.01740255359589">
        <ele>1093.8</ele>
        <time>2017-05-05T23:24:43.300000Z</time>
      </trkpt>
      <trkpt lat="37.84932634790427" lon="112.01703566005853">
        <ele>1101.09</ele>
        <time>2017-05-05T23:24:55.300000Z</time>
      </trkpt>
      <trkpt lat="37.84931786883019" lon="112.01667553569631">
        <ele>1114.4</ele>
        <time>2017-05-05T23:25:07.300000Z</time>
      </trkpt>
      <trkpt lat="37.84932304634315" lon="112.01647573714095">
        <ele>1118.3</ele>
        <time>2017-05-05T23:25:13.300000Z</time>
      </trkpt>
      <trkpt lat="37.84935621120411" lon="112.01616562920056">
        <ele>1117.9</ele>
        <time>2017-05-05T23:25:22.300000Z</time>
      </trkpt>
      <trkpt lat="37.849412751463454" lon="112.01574575555458">
        <ele>1119.3</ele>
        <time>2017-05-05T23:25:34.300000Z</time>
      </trkpt>
      <trkpt lat="37.84946773024462" lon="112.0153988820121">
        <ele>1119.3</ele>
        <time>2017-05-05T23:25:46.300000Z</time>
      </trkpt>
      <trkpt lat="37.849502691265364" lon="112.01503200751358">
        <ele>1120.09</ele>
        <time>2017-05-05T23:25:58.300000Z</time>
      </trkpt>
      <trkpt lat="37.8495578405072" lon="112.01472190730182">
        <ele>1120.5</ele>
        <time>2017-05-05T23:26:07.300000Z</time>
      </trkpt>
      <trkpt lat="37.84952760114279" lon="112.01457565129735">
        <ele>1126.4</ele>
        <time>2017-05-05T23:26:13.300000Z</time>
      </trkpt>
      <trkpt lat="37.84955458648891" lon="112.01415363357164">
        <ele>1135.2</ele>
        <time>2017-05-05T23:26:28.300000Z</time>
      </trkpt>
      <trkpt lat="37.84958103613115" lon="112.01373026805427">
        <ele>1132.2</ele>
        <time>2017-05-05T23:26:40.300000Z</time>
      </trkpt>
      <trkpt lat="37.849606030760384" lon="112.01334205109323">
        <ele>1130.8</ele>
        <time>2017-05-05T23:26:52.300000Z</time>
      </trkpt>
      <trkpt lat="37.84960602948176" lon="112.01324851254627">
        <ele>1131.4</ele>
        <time>2017-05-05T23:26:55.300000Z</time>
      </trkpt>
      <trkpt lat="37.8496592921139" lon="112.01284353502115">
        <ele>1131.4</ele>
        <time>2017-05-05T23:27:07.300000Z</time>
      </trkpt>
      <trkpt lat="37.84970091609936" lon="112.01252344840827">
        <ele>1129.5</ele>
        <time>2017-05-05T23:27:16.300000Z</time>
      </trkpt>
      <trkpt lat="37.8497224249633" lon="112.01212361702379">
        <ele>1126.8</ele>
        <time>2017-05-05T23:27:28.300000Z</time>
      </trkpt>
      <trkpt lat="37.849770738717076" lon="112.01174351997946">
        <ele>1119.9</ele>
        <time>2017-05-05T23:27:40.300000Z</time>
      </trkpt>
      <trkpt lat="37.84976077068574" lon="112.01134694243483">
        <ele>1117.0</ele>
        <time>2017-05-05T23:27:52.300000Z</time>
      </trkpt>
      <trkpt lat="37.84978905127405" lon="112.01095333692945">
        <ele>1117.8</ele>
        <time>2017-05-05T23:28:04.300000Z</time>
      </trkpt>
      <trkpt lat="37.849800741948194" lon="112.01066678634602">
        <ele>1118.8</ele>
        <time>2017-05-05T23:28:13.300000Z</time>
      </trkpt>
      <trkpt lat="37.84983413278449" lon="112.01047484930731">
        <ele>1122.4</ele>
        <time>2017-05-05T23:28:19.300000Z</time>
      </trkpt>
      <trkpt lat="37.84990238765203" lon="112.01023668289984">
        <ele>1126.9</ele>
        <time>2017-05-05T23:28:28.300000Z</time>
      </trkpt>
      <trkpt lat="37.8499289222381" lon="112.00979307550206">
        <ele>1127.8</ele>
        <time>2017-05-05T23:28:40.300000Z</time>
      </trkpt>
      <trkpt lat="37.84991731413913" lon="112.00949653167336">
        <ele>1127.0</ele>
        <time>2017-05-05T23:28:49.300000Z</time>
      </trkpt>
      <trkpt lat="37.84976734251337" lon="112.00910647461468">
        <ele>1128.2</ele>
        <time>2017-05-05T23:29:01.300000Z</time>
      </trkpt>
      <trkpt lat="37.84953411514188" lon="112.00879644468522">
        <ele>1132.0</ele>
        <time>2017-05-05T23:29:13.300000Z</time>
      </trkpt>
      <trkpt lat="37.84949063108849" lon="112.00872968088458">
        <ele>1133.2</ele>
        <time>2017-05-05T23:29:16.300000Z</time>
      </trkpt>
      <trkpt lat="37.84927894330264" lon="112.00865969340741">
        <ele>1117.2</ele>
        <time>2017-05-05T23:29:25.300000Z</time>
      </trkpt>
      <trkpt lat="37.84915571719964" lon="112.00849319161989">
        <ele>1111.09</ele>
        <time>2017-05-05T23:29:31.300000Z</time>
      </trkpt>
      <trkpt lat="37.8491172209525" lon="112.00839128617493">
        <ele>1110.9</ele>
        <time>2017-05-05T23:29:34.300000Z</time>
      </trkpt>
      <trkpt lat="37.84901235582213" lon="112.0082547881554">
        <ele>1106.09</ele>
        <time>2017-05-05T23:29:40.300000Z</time>
      </trkpt>
      <trkpt lat="37.84887223106398" lon="112.00793150584553">
        <ele>1104.5</ele>
        <time>2017-05-05T23:29:52.300000Z</time>
      </trkpt>
      <trkpt lat="37.84883747459096" lon="112.00784960422534">
        <ele>1104.5</ele>
        <time>2017-05-05T23:29:55.300000Z</time>
      </trkpt>
      <trkpt lat="37.84868070044891" lon="112.00783475556463">
        <ele>1091.8</ele>
        <time>2017-05-05T23:30:01.300000Z</time>
      </trkpt>
      <trkpt lat="37.848573823243306" lon="112.0077366437453">
        <ele>1086.5</ele>
        <time>2017-05-05T23:30:07.300000Z</time>
      </trkpt>
      <trkpt lat="37.8484073447616" lon="112.0074263422271">
        <ele>1080.59</ele>
        <time>2017-05-05T23:30:19.300000Z</time>
      </trkpt>
      <trkpt lat="37.84826394713004" lon="112.00720118801623">
        <ele>1081.8</ele>
        <time>2017-05-05T23:30:28.300000Z</time>
      </trkpt>
      <trkpt lat="37.8481372994819" lon="112.00709145603162">
        <ele>1083.5</ele>
        <time>2017-05-05T23:30:34.300000Z</time>
      </trkpt>
      <trkpt lat="37.848050730965795" lon="112.00709822418172">
        <ele>1080.7</ele>
        <time>2017-05-05T23:30:37.300000Z</time>
      </trkpt>
      <trkpt lat="37.84777075942742" lon="112.0069995934641">
        <ele>1083.59</ele>
        <time>2017-05-05T23:30:49.300000Z</time>
      </trkpt>
      <trkpt lat="37.847498832498864" lon="112.00693285875886">
        <ele>1085.0</ele>
        <time>2017-05-05T23:31:01.300000Z</time>
      </trkpt>
      <trkpt lat="37.847173900185645" lon="112.00689964913019">
        <ele>1085.5</ele>
        <time>2017-05-05T23:31:16.300000Z</time>
      </trkpt>
      <trkpt lat="37.847023835166546" lon="112.00690966858123">
        <ele>1084.9</ele>
        <time>2017-05-05T23:31:22.300000Z</time>
      </trkpt>
      <trkpt lat="37.84670048578722" lon="112.00689159624672">
        <ele>1084.9</ele>
        <time>2017-05-05T23:31:37.300000Z</time>
      </trkpt>
      <trkpt lat="37.84652874646203" lon="112.00689134642298">
        <ele>1087.3</ele>
        <time>2017-05-05T23:31:46.300000Z</time>
      </trkpt>
      <trkpt lat="37.84625039765975" lon="112.00679460797713">
        <ele>1090.7</ele>
        <time>2017-05-05T23:31:58.300000Z</time>
      </trkpt>
      <trkpt lat="37.845945721350915" lon="112.00670138685018">
        <ele>1105.59</ele>
        <time>2017-05-05T23:32:07.300000Z</time>
      </trkpt>
      <trkpt lat="37.845717161313566" lon="112.00655814925106">
        <ele>1118.3</ele>
        <time>2017-05-05T23:32:16.300000Z</time>
      </trkpt>
      <trkpt lat="37.84552370672985" lon="112.00656141605543">
        <ele>1112.2</ele>
        <time>2017-05-05T23:32:22.300000Z</time>
      </trkpt>
      <trkpt lat="37.84523882765674" lon="112.00647116628245">
        <ele>1115.3</ele>
        <time>2017-05-05T23:32:34.300000Z</time>
      </trkpt>
      <trkpt lat="37.844953810381114" lon="112.00633631547981">
        <ele>1119.9</ele>
        <time>2017-05-05T23:32:46.300000Z</time>
      </trkpt>
      <trkpt lat="37.844666982471594" lon="112.0062628254147">
        <ele>1127.7</ele>
        <time>2017-05-05T23:32:58.300000Z</time>
      </trkpt>
      <trkpt lat="37.84460543435907" lon="112.00624958758118">
        <ele>1128.3</ele>
        <time>2017-05-05T23:33:01.300000Z</time>
      </trkpt>
      <trkpt lat="37.84452709766889" lon="112.00631636343576">
        <ele>1123.4</ele>
        <time>2017-05-05T23:33:04.300000Z</time>
      </trkpt>
      <trkpt lat="37.84422229910091" lon="112.00644641896285">
        <ele>1115.59</ele>
        <time>2017-05-05T23:33:16.300000Z</time>
      </trkpt>
      <trkpt lat="37.84393560453185" lon="112.00660134117571">
        <ele>1109.0</ele>
        <time>2017-05-05T23:33:28.300000Z</time>
      </trkpt>
      <trkpt lat="37.84379390377835" lon="112.00671813251554">
        <ele>1104.0</ele>
        <time>2017-05-05T23:33:34.300000Z</time>
      </trkpt>
      <trkpt lat="37.843485381021736" lon="112.0069146860007">
        <ele>1105.59</ele>
        <time>2017-05-05T23:33:49.300000Z</time>
      </trkpt>
      <trkpt lat="37.843318972136665" lon="112.00703796832134">
        <ele>1109.8</ele>
        <time>2017-05-05T23:33:58.300000Z</time>
      </trkpt>
      <trkpt lat="37.84325051740584" lon="112.00706635932441">
        <ele>1111.0</ele>
        <time>2017-05-05T23:34:01.300000Z</time>
      </trkpt>
      <trkpt lat="37.84301724566374" lon="112.00732156290725">
        <ele>1105.3</ele>
        <time>2017-05-05T23:34:13.300000Z</time>
      </trkpt>
      <trkpt lat="37.84284723091053" lon="112.00747160752421">
        <ele>1103.0</ele>
        <time>2017-05-05T23:34:22.300000Z</time>
      </trkpt>
      <trkpt lat="37.842655581358976" lon="112.00759813765917">
        <ele>1103.7</ele>
        <time>2017-05-05T23:34:31.300000Z</time>
      </trkpt>
      <trkpt lat="37.84259211895542" lon="112.00768140228462">
        <ele>1100.2</ele>
        <time>2017-05-05T23:34:34.300000Z</time>
      </trkpt>
      <trkpt lat="37.84238388453508" lon="112.00781982870153">
        <ele>1098.7</ele>
        <time>2017-05-05T23:34:43.300000Z</time>
      </trkpt>
      <trkpt lat="37.84207580325166" lon="112.00795988922874">
        <ele>1104.7</ele>
        <time>2017-05-05T23:34:55.300000Z</time>
      </trkpt>
      <trkpt lat="37.84179718226143" lon="112.0081380612621">
        <ele>1108.9</ele>
        <time>2017-05-05T23:35:07.300000Z</time>
      </trkpt>
      <trkpt lat="37.8415108360745" lon="112.0082681181409">
        <ele>1108.59</ele>
        <time>2017-05-05T23:35:19.300000Z</time>
      </trkpt>
      <trkpt lat="37.84122395689165" lon="112.00830329369555">
        <ele>1120.59</ele>
        <time>2017-05-05T23:35:34.300000Z</time>
      </trkpt>
      <trkpt lat="37.8409388551968" lon="112.00828791960005">
        <ele>1128.2</ele>
        <time>2017-05-05T23:35:46.300000Z</time>
      </trkpt>
      <trkpt lat="37.84065895557703" lon="112.00816495849881">
        <ele>1133.09</ele>
        <time>2017-05-05T23:35:58.300000Z</time>
      </trkpt>
      <trkpt lat="37.84035060456339" lon="112.00812147421858">
        <ele>1139.09</ele>
        <time>2017-05-05T23:36:10.300000Z</time>
      </trkpt>
      <trkpt lat="37.84001053511913" lon="112.00816125143136">
        <ele>1142.2</ele>
        <time>2017-05-05T23:36:22.300000Z</time>
      </trkpt>
      <trkpt lat="37.83986745059078" lon="112.00819640976678">
        <ele>1141.09</ele>
        <time>2017-05-05T23:36:28.300000Z</time>
      </trkpt>
      <trkpt lat="37.83971223633988" lon="112.00820480813034">
        <ele>1140.0</ele>
        <time>2017-05-05T23:36:34.300000Z</time>
      </trkpt>
      <trkpt lat="37.83965382063802" lon="112.0082331984459">
        <ele>1143.0</ele>
        <time>2017-05-05T23:36:37.300000Z</time>
      </trkpt>
      <trkpt lat="37.83954388641209" lon="112.00825132284815">
        <ele>1145.8</ele>
        <time>2017-05-05T23:36:43.300000Z</time>
      </trkpt>
      <trkpt lat="37.83953732048324" lon="112.00817806757445">
        <ele>1148.4</ele>
        <time>2017-05-05T23:36:52.300000Z</time>
      </trkpt>
      <trkpt lat="37.8395990999719" lon="112.0081131840603">
        <ele>1152.2</ele>
        <time>2017-05-05T23:36:58.300000Z</time>
      </trkpt>
      <trkpt lat="37.83974386120679" lon="112.00806153623796">
        <ele>1159.0</ele>
        <time>2017-05-05T23:37:07.300000Z</time>
      </trkpt>
      <trkpt lat="37.84001569004694" lon="112.00806961331045">
        <ele>1154.0</ele>
        <time>2017-05-05T23:37:25.300000Z</time>
      </trkpt>
      <trkpt lat="37.840185435818796" lon="112.0081014904616">
        <ele>1153.5</ele>
        <time>2017-05-05T23:37:31.300000Z</time>
      </trkpt>
      <trkpt lat="37.84052563414895" lon="112.00810982969662">
        <ele>1153.5</ele>
        <time>2017-05-05T23:37:43.300000Z</time>
      </trkpt>
      <trkpt lat="37.84085875447337" lon="112.00812627929082">
        <ele>1151.09</ele>
        <time>2017-05-05T23:37:55.300000Z</time>
      </trkpt>
      <trkpt lat="37.8411587934047" lon="112.0081365155399">
        <ele>1153.4</ele>
        <time>2017-05-05T23:38:04.300000Z</time>
      </trkpt>
      <trkpt lat="37.84148226514792" lon="112.00811295934746">
        <ele>1147.0</ele>
        <time>2017-05-05T23:38:19.300000Z</time>
      </trkpt>
      <trkpt lat="37.84180074956577" lon="112.00794127021786">
        <ele>1139.8</ele>
        <time>2017-05-05T23:38:34.300000Z</time>
      </trkpt>
      <trkpt lat="37.84202077232094" lon="112.00785312088796">
        <ele>1137.8</ele>
        <time>2017-05-05T23:38:43.300000Z</time>
      </trkpt>
      <trkpt lat="37.84212737292208" lon="112.00776985089428">
        <ele>1136.59</ele>
        <time>2017-05-05T23:38:49.300000Z</time>
      </trkpt>
      <trkpt lat="37.842260424158454" lon="112.00773307210075">
        <ele>1135.5</ele>
        <time>2017-05-05T23:38:55.300000Z</time>
      </trkpt>
      <trkpt lat="37.842443812028286" lon="112.00755626412348">
        <ele>1134.9</ele>
        <time>2017-05-05T23:39:04.300000Z</time>
      </trkpt>
      <trkpt lat="37.84254567147844" lon="112.00751651571171">
        <ele>1128.5</ele>
        <time>2017-05-05T23:39:10.300000Z</time>
      </trkpt>
      <trkpt lat="37.842675611615036" lon="112.00733971469243">
        <ele>1122.09</ele>
        <time>2017-05-05T23:39:19.300000Z</time>
      </trkpt>
      <trkpt lat="37.84297895055545" lon="112.00706125577656">
        <ele>1121.0</ele>
        <time>2017-05-05T23:39:31.300000Z</time>
      </trkpt>
      <trkpt lat="37.84325906006077" lon="112.00683956624748">
        <ele>1124.0</ele>
        <time>2017-05-05T23:39:40.300000Z</time>
      </trkpt>
      <trkpt lat="37.84344232428932" lon="112.00670492919137">
        <ele>1127.0</ele>
        <time>2017-05-05T23:39:46.300000Z</time>
      </trkpt>
      <trkpt lat="37.843618892133065" lon="112.00654136993782">
        <ele>1132.7</ele>
        <time>2017-05-05T23:39:52.300000Z</time>
      </trkpt>
      <trkpt lat="37.843887093282966" lon="112.0064013171202">
        <ele>1137.8</ele>
        <time>2017-05-05T23:40:01.300000Z</time>
      </trkpt>
      <trkpt lat="37.84417382768211" lon="112.00623315016632">
        <ele>1143.3</ele>
        <time>2017-05-05T23:40:13.300000Z</time>
      </trkpt>
      <trkpt lat="37.84434557238985" lon="112.0062315078275">
        <ele>1143.09</ele>
        <time>2017-05-05T23:40:19.300000Z</time>
      </trkpt>
      <trkpt lat="37.844617075743905" lon="112.00625796579223">
        <ele>1145.0</ele>
        <time>2017-05-05T23:40:28.300000Z</time>
      </trkpt>
      <trkpt lat="37.8449688711254" lon="112.00628982038539">
        <ele>1147.3</ele>
        <time>2017-05-05T23:40:40.300000Z</time>
      </trkpt>
      <trkpt lat="37.84532382884386" lon="112.00635303056904">
        <ele>1146.09</ele>
        <time>2017-05-05T23:40:52.300000Z</time>
      </trkpt>
      <trkpt lat="37.84565233495345" lon="112.00646138578658">
        <ele>1144.59</ele>
        <time>2017-05-05T23:41:04.300000Z</time>
      </trkpt>
      <trkpt lat="37.8459255332111" lon="112.00655650253206">
        <ele>1144.3</ele>
        <time>2017-05-05T23:41:16.300000Z</time>
      </trkpt>
      <trkpt lat="37.846163882196656" lon="112.00660134570498">
        <ele>1143.5</ele>
        <time>2017-05-05T23:41:25.300000Z</time>
      </trkpt>
      <trkpt lat="37.8462871404782" lon="112.00666458379209">
        <ele>1140.2</ele>
        <time>2017-05-05T23:41:31.300000Z</time>
      </trkpt>
      <trkpt lat="37.84660038037496" lon="112.00670644467263">
        <ele>1140.0</ele>
        <time>2017-05-05T23:41:43.300000Z</time>
      </trkpt>
      <trkpt lat="37.84695377042841" lon="112.00674965234425">
        <ele>1140.59</ele>
        <time>2017-05-05T23:41:55.300000Z</time>
      </trkpt>
      <trkpt lat="37.84723065555694" lon="112.0067912472973">
        <ele>1140.5</ele>
        <time>2017-05-05T23:42:04.300000Z</time>
      </trkpt>
      <trkpt lat="37.847530656138254" lon="112.00681472862625">
        <ele>1139.8</ele>
        <time>2017-05-05T23:42:13.300000Z</time>
      </trkpt>
      <trkpt lat="37.84774218988725" lon="112.00684470800076">
        <ele>1141.3</ele>
        <time>2017-05-05T23:42:19.300000Z</time>
      </trkpt>
      <trkpt lat="37.84780368833858" lon="112.00687470528726">
        <ele>1139.0</ele>
        <time>2017-05-05T23:42:22.300000Z</time>
      </trkpt>
      <trkpt lat="37.84797049995545" lon="112.00688982285833">
        <ele>1137.59</ele>
        <time>2017-05-05T23:42:28.300000Z</time>
      </trkpt>
      <trkpt lat="37.84812710499075" lon="112.006961436901">
        <ele>1137.9</ele>
        <time>2017-05-05T23:42:34.300000Z</time>
      </trkpt>
      <trkpt lat="37.848355561556595" lon="112.00713981600204">
        <ele>1135.8</ele>
        <time>2017-05-05T23:42:43.300000Z</time>
      </trkpt>
      <trkpt lat="37.84855889484964" lon="112.00737307227307">
        <ele>1135.2</ele>
        <time>2017-05-05T23:42:52.300000Z</time>
      </trkpt>
      <trkpt lat="37.84879879172839" lon="112.00762795018264">
        <ele>1134.8</ele>
        <time>2017-05-05T23:43:04.300000Z</time>
      </trkpt>
      <trkpt lat="37.84903559041952" lon="112.00792148464667">
        <ele>1134.9</ele>
        <time>2017-05-05T23:43:16.300000Z</time>
      </trkpt>
      <trkpt lat="37.84909074580741" lon="112.00798635398253">
        <ele>1133.9</ele>
        <time>2017-05-05T23:43:19.300000Z</time>
      </trkpt>
      <trkpt lat="37.84916884836211" lon="112.00827315107334">
        <ele>1127.3</ele>
        <time>2017-05-05T23:43:28.300000Z</time>
      </trkpt>
      <trkpt lat="37.849369081940544" lon="112.00863832741953">
        <ele>1123.9</ele>
        <time>2017-05-05T23:43:40.300000Z</time>
      </trkpt>
      <trkpt lat="37.849547375922064" lon="112.00889970541253">
        <ele>1123.8</ele>
        <time>2017-05-05T23:43:49.300000Z</time>
      </trkpt>
      <trkpt lat="37.84972233537536" lon="112.00918811708978">
        <ele>1119.5</ele>
        <time>2017-05-05T23:44:01.300000Z</time>
      </trkpt>
      <trkpt lat="37.849797451624475" lon="112.00938490264811">
        <ele>1119.7</ele>
        <time>2017-05-05T23:44:07.300000Z</time>
      </trkpt>
      <trkpt lat="37.849859129577375" lon="112.0097230698364">
        <ele>1119.59</ele>
        <time>2017-05-05T23:44:16.300000Z</time>
      </trkpt>
      <trkpt lat="37.84987394768702" lon="112.00994311236256">
        <ele>1119.09</ele>
        <time>2017-05-05T23:44:22.300000Z</time>
      </trkpt>
      <trkpt lat="37.84983737507487" lon="112.0102018185454">
        <ele>1115.2</ele>
        <time>2017-05-05T23:44:28.300000Z</time>
      </trkpt>
      <trkpt lat="37.84984412975032" lon="112.01039645311585">
        <ele>1113.7</ele>
        <time>2017-05-05T23:44:34.300000Z</time>
      </trkpt>
      <trkpt lat="37.84984918890729" lon="112.01079978244358">
        <ele>1112.2</ele>
        <time>2017-05-05T23:44:46.300000Z</time>
      </trkpt>
      <trkpt lat="37.84982738972354" lon="112.01120338830535">
        <ele>1112.9</ele>
        <time>2017-05-05T23:44:58.300000Z</time>
      </trkpt>
      <trkpt lat="37.84984597289611" lon="112.01134341793295">
        <ele>1113.59</ele>
        <time>2017-05-05T23:45:04.300000Z</time>
      </trkpt>
      <trkpt lat="37.84983600449804" lon="112.01178487332336">
        <ele>1115.9</ele>
        <time>2017-05-05T23:45:22.300000Z</time>
      </trkpt>
      <trkpt lat="37.84983755363631" lon="112.01190517208612">
        <ele>1115.8</ele>
        <time>2017-05-05T23:45:25.300000Z</time>
      </trkpt>
      <trkpt lat="37.84976435782081" lon="112.01225850994852">
        <ele>1109.0</ele>
        <time>2017-05-05T23:45:31.300000Z</time>
      </trkpt>
      <trkpt lat="37.849727607771925" lon="112.01267510525874">
        <ele>1104.0</ele>
        <time>2017-05-05T23:45:43.300000Z</time>
      </trkpt>
      <trkpt lat="37.84971923008005" lon="112.01303871379336">
        <ele>1104.9</ele>
        <time>2017-05-05T23:45:55.300000Z</time>
      </trkpt>
      <trkpt lat="37.84969940108222" lon="112.01332852278146">
        <ele>1105.0</ele>
        <time>2017-05-05T23:46:04.300000Z</time>
      </trkpt>
      <trkpt lat="37.84962444604076" lon="112.01373026286056">
        <ele>1108.5</ele>
        <time>2017-05-05T23:46:16.300000Z</time>
      </trkpt>
      <trkpt lat="37.84958103607062" lon="112.01420202264617">
        <ele>1107.3</ele>
        <time>2017-05-05T23:46:28.300000Z</time>
      </trkpt>
      <trkpt lat="37.849525950033254" lon="112.01458376199771">
        <ele>1103.59</ele>
        <time>2017-05-05T23:46:37.300000Z</time>
      </trkpt>
      <trkpt lat="37.849532726924565" lon="112.01468054663202">
        <ele>1104.59</ele>
        <time>2017-05-05T23:46:40.300000Z</time>
      </trkpt>
      <trkpt lat="37.84947769658209" lon="112.01504390603152">
        <ele>1108.2</ele>
        <time>2017-05-05T23:46:52.300000Z</time>
      </trkpt>
      <trkpt lat="37.84946280886788" lon="112.01541213000242">
        <ele>1114.7</ele>
        <time>2017-05-05T23:47:04.300000Z</time>
      </trkpt>
      <trkpt lat="37.849419626433445" lon="112.0158087480172">
        <ele>1123.7</ele>
        <time>2017-05-05T23:47:20.500000Z</time>
      </trkpt>
      <trkpt lat="37.84940098739997" lon="112.0158755286403">
        <ele>1124.3</ele>
        <time>2017-05-05T23:47:23.300000Z</time>
      </trkpt>
      <trkpt lat="37.849399361231164" lon="112.01597042462323">
        <ele>1127.2</ele>
        <time>2017-05-05T23:47:29.300000Z</time>
      </trkpt>
      <trkpt lat="37.84933464815364" lon="112.01611561522776">
        <ele>1127.4</ele>
        <time>2017-05-05T23:47:35.300000Z</time>
      </trkpt>
      <trkpt lat="37.84930137326291" lon="112.01636867655542">
        <ele>1132.5</ele>
        <time>2017-05-05T23:47:56.300000Z</time>
      </trkpt>
      <trkpt lat="37.84931458260055" lon="112.01678232969816">
        <ele>1138.5</ele>
        <time>2017-05-05T23:48:26.300000Z</time>
      </trkpt>
      <trkpt lat="37.849269565356764" lon="112.01696726442484">
        <ele>1139.7</ele>
        <time>2017-05-05T23:48:38.300000Z</time>
      </trkpt>
      <trkpt lat="37.84927284761869" lon="112.01705405133166">
        <ele>1140.9</ele>
        <time>2017-05-05T23:48:44.300000Z</time>
      </trkpt>
      <trkpt lat="37.849236367918756" lon="112.01729062638542">
        <ele>1142.4</ele>
        <time>2017-05-05T23:49:02.300000Z</time>
      </trkpt>
      <trkpt lat="37.84923619801324" lon="112.01744743973602">
        <ele>1142.0</ele>
        <time>2017-05-05T23:49:14.300000Z</time>
      </trkpt>
      <trkpt lat="37.84920471533617" lon="112.01764427214192">
        <ele>1140.59</ele>
        <time>2017-05-05T23:49:32.300000Z</time>
      </trkpt>
      <trkpt lat="37.84916158672617" lon="112.01783407727055">
        <ele>1134.7</ele>
        <time>2017-05-05T23:49:39.100000Z</time>
      </trkpt>
      <trkpt lat="37.849144691281275" lon="112.01805416187179">
        <ele>1131.09</ele>
        <time>2017-05-05T23:49:45.300000Z</time>
      </trkpt>
      <trkpt lat="37.84912810773631" lon="112.0179692669947">
        <ele>1128.8</ele>
        <time>2017-05-05T23:49:54.300000Z</time>
      </trkpt>
      <trkpt lat="37.84916314899754" lon="112.01756749221045">
        <ele>1124.3</ele>
        <time>2017-05-05T23:50:09.300000Z</time>
      </trkpt>
      <trkpt lat="37.84919473053137" lon="112.01723926162231">
        <ele>1121.59</ele>
        <time>2017-05-05T23:50:21.300000Z</time>
      </trkpt>
      <trkpt lat="37.84918112363396" lon="112.01715761251825">
        <ele>1118.0</ele>
        <time>2017-05-05T23:50:24.300000Z</time>
      </trkpt>
      <trkpt lat="37.84923309968448" lon="112.01681397204887">
        <ele>1117.8</ele>
        <time>2017-05-05T23:50:36.300000Z</time>
      </trkpt>
      <trkpt lat="37.84924450368103" lon="112.01642708143147">
        <ele>1116.59</ele>
        <time>2017-05-05T23:50:48.300000Z</time>
      </trkpt>
      <trkpt lat="37.8492827695935" lon="112.01604046153878">
        <ele>1117.8</ele>
        <time>2017-05-05T23:51:00.300000Z</time>
      </trkpt>
      <trkpt lat="37.849352819461565" lon="112.01564059388802">
        <ele>1122.59</ele>
        <time>2017-05-05T23:51:12.300000Z</time>
      </trkpt>
      <trkpt lat="37.84941792767934" lon="112.01526208851583">
        <ele>1124.7</ele>
        <time>2017-05-05T23:51:24.300000Z</time>
      </trkpt>
      <trkpt lat="37.84949103022673" lon="112.01484032916917">
        <ele>1126.9</ele>
        <time>2017-05-05T23:51:36.300000Z</time>
      </trkpt>
      <trkpt lat="37.84951265251792" lon="112.0144902225457">
        <ele>1128.5</ele>
        <time>2017-05-05T23:51:48.300000Z</time>
      </trkpt>
      <trkpt lat="37.84952265245255" lon="112.01412552125471">
        <ele>1127.8</ele>
        <time>2017-05-05T23:52:00.300000Z</time>
      </trkpt>
      <trkpt lat="37.84954772704811" lon="112.01370864443624">
        <ele>1129.0</ele>
        <time>2017-05-05T23:52:12.300000Z</time>
      </trkpt>
      <trkpt lat="37.84959277548893" lon="112.0133285355365">
        <ele>1127.4</ele>
        <time>2017-05-05T23:52:24.300000Z</time>
      </trkpt>
      <trkpt lat="37.849594387269285" lon="112.01324013332653">
        <ele>1127.2</ele>
        <time>2017-05-05T23:52:27.300000Z</time>
      </trkpt>
      <trkpt lat="37.84966762611312" lon="112.01287002736119">
        <ele>1126.9</ele>
        <time>2017-05-05T23:52:39.300000Z</time>
      </trkpt>
      <trkpt lat="37.84969596508289" lon="112.01254669810335">
        <ele>1126.2</ele>
        <time>2017-05-05T23:52:48.300000Z</time>
      </trkpt>
      <trkpt lat="37.849757439515194" lon="112.01221174251178">
        <ele>1124.4</ele>
        <time>2017-05-05T23:52:57.300000Z</time>
      </trkpt>
      <trkpt lat="37.84980426099741" lon="112.01178487711836">
        <ele>1119.7</ele>
        <time>2017-05-05T23:53:09.300000Z</time>
      </trkpt>
      <trkpt lat="37.84984263908129" lon="112.0113701812173">
        <ele>1115.0</ele>
        <time>2017-05-05T23:53:21.300000Z</time>
      </trkpt>
      <trkpt lat="37.849859221902726" lon="112.01108011352594">
        <ele>1113.7</ele>
        <time>2017-05-05T23:53:30.300000Z</time>
      </trkpt>
      <trkpt lat="37.84982261614803" lon="112.01070165614674">
        <ele>1114.09</ele>
        <time>2017-05-05T23:53:42.300000Z</time>
      </trkpt>
      <trkpt lat="37.84985227121503" lon="112.01030318927347">
        <ele>1113.5</ele>
        <time>2017-05-05T23:53:54.300000Z</time>
      </trkpt>
      <trkpt lat="37.84989576461427" lon="112.00990499391472">
        <ele>1111.7</ele>
        <time>2017-05-05T23:54:06.300000Z</time>
      </trkpt>
      <trkpt lat="37.84989739045657" lon="112.00981335360976">
        <ele>1111.59</ele>
        <time>2017-05-05T23:54:09.300000Z</time>
      </trkpt>
      <trkpt lat="37.8498541407932" lon="112.00966657270811">
        <ele>1116.0</ele>
        <time>2017-05-05T23:54:15.300000Z</time>
      </trkpt>
      <trkpt lat="37.849847320422064" lon="112.0094949180949">
        <ele>1116.8</ele>
        <time>2017-05-05T23:54:21.300000Z</time>
      </trkpt>
      <trkpt lat="37.84978755703621" lon="112.00942815546261">
        <ele>1116.7</ele>
        <time>2017-05-05T23:54:24.300000Z</time>
      </trkpt>
      <trkpt lat="37.84965071380181" lon="112.00918650371307">
        <ele>1123.2</ele>
        <time>2017-05-05T23:54:33.300000Z</time>
      </trkpt>
      <trkpt lat="37.849423765396956" lon="112.00886322692782">
        <ele>1128.2</ele>
        <time>2017-05-05T23:54:45.300000Z</time>
      </trkpt>
      <trkpt lat="37.84922072416842" lon="112.00852967688454">
        <ele>1132.5</ele>
        <time>2017-05-05T23:54:57.300000Z</time>
      </trkpt>
      <trkpt lat="37.84903725721961" lon="112.0081831510578">
        <ele>1136.3</ele>
        <time>2017-05-05T23:55:09.300000Z</time>
      </trkpt>
      <trkpt lat="37.84883379883295" lon="112.0078082463449">
        <ele>1138.5</ele>
        <time>2017-05-05T23:55:21.300000Z</time>
      </trkpt>
      <trkpt lat="37.84879063582423" lon="112.0077249943061">
        <ele>1140.2</ele>
        <time>2017-05-05T23:55:24.300000Z</time>
      </trkpt>
      <trkpt lat="37.84869386785441" lon="112.00760309373113">
        <ele>1143.3</ele>
        <time>2017-05-05T23:55:30.300000Z</time>
      </trkpt>
      <trkpt lat="37.84850568804338" lon="112.0073830802392">
        <ele>1151.0</ele>
        <time>2017-05-05T23:55:42.300000Z</time>
      </trkpt>
      <trkpt lat="37.848372284055614" lon="112.00717306251586">
        <ele>1154.2</ele>
        <time>2017-05-05T23:55:51.300000Z</time>
      </trkpt>
      <trkpt lat="37.84810386019047" lon="112.00702307091007">
        <ele>1150.59</ele>
        <time>2017-05-05T23:56:03.300000Z</time>
      </trkpt>
      <trkpt lat="37.84776875215497" lon="112.00694472029396">
        <ele>1147.9</ele>
        <time>2017-05-05T23:56:15.300000Z</time>
      </trkpt>
      <trkpt lat="37.84748730442912" lon="112.00688636644931">
        <ele>1148.4</ele>
        <time>2017-05-05T23:56:27.300000Z</time>
      </trkpt>
      <trkpt lat="37.847182287282614" lon="112.00681639205689">
        <ele>1147.5</ele>
        <time>2017-05-05T23:56:39.300000Z</time>
      </trkpt>
      <trkpt lat="37.846888857783796" lon="112.00677290688148">
        <ele>1145.59</ele>
        <time>2017-05-05T23:56:51.300000Z</time>
      </trkpt>
      <trkpt lat="37.84660403468091" lon="112.00675482998417">
        <ele>1140.5</ele>
        <time>2017-05-05T23:57:03.300000Z</time>
      </trkpt>
      <trkpt lat="37.84639889831621" lon="112.0067632341133">
        <ele>1136.5</ele>
        <time>2017-05-05T23:57:12.300000Z</time>
      </trkpt>
      <trkpt lat="37.84615565046204" lon="112.00681462234773">
        <ele>1134.7</ele>
        <time>2017-05-05T23:57:24.300000Z</time>
      </trkpt>
      <trkpt lat="37.84583212491477" lon="112.00676465328166">
        <ele>1134.3</ele>
        <time>2017-05-05T23:57:36.300000Z</time>
      </trkpt>
      <trkpt lat="37.845583980470366" lon="112.00663817717572">
        <ele>1135.0</ele>
        <time>2017-05-05T23:57:45.300000Z</time>
      </trkpt>
      <trkpt lat="37.84526547321878" lon="112.00654306572414">
        <ele>1137.4</ele>
        <time>2017-05-05T23:57:57.300000Z</time>
      </trkpt>
      <trkpt lat="37.84497868456032" lon="112.0064563302357">
        <ele>1141.09</ele>
        <time>2017-05-05T23:58:09.300000Z</time>
      </trkpt>
      <trkpt lat="37.8447554319894" lon="112.00635309835863">
        <ele>1141.9</ele>
        <time>2017-05-05T23:58:18.300000Z</time>
      </trkpt>
      <trkpt lat="37.844687092218294" lon="112.00634283472873">
        <ele>1141.8</ele>
        <time>2017-05-05T23:58:21.300000Z</time>
      </trkpt>
      <trkpt lat="37.84455730559724" lon="112.0063763686539">
        <ele>1140.9</ele>
        <time>2017-05-05T23:58:27.300000Z</time>
      </trkpt>
      <trkpt lat="37.84445718516948" lon="112.0064696376456">
        <ele>1136.3</ele>
        <time>2017-05-05T23:58:30.300000Z</time>
      </trkpt>
      <trkpt lat="37.84437898798209" lon="112.0064896499495">
        <ele>1134.8</ele>
        <time>2017-05-05T23:58:33.300000Z</time>
      </trkpt>
      <trkpt lat="37.84428900040303" lon="112.00655129151343">
        <ele>1131.9</ele>
        <time>2017-05-05T23:58:36.300000Z</time>
      </trkpt>
      <trkpt lat="37.84402232984215" lon="112.00663295722302">
        <ele>1130.7</ele>
        <time>2017-05-05T23:58:45.300000Z</time>
      </trkpt>
      <trkpt lat="37.843706995759064" lon="112.00674787714485">
        <ele>1127.9</ele>
        <time>2017-05-05T23:58:57.300000Z</time>
      </trkpt>
      <trkpt lat="37.84355558191813" lon="112.00684655898809">
        <ele>1130.3</ele>
        <time>2017-05-05T23:59:03.300000Z</time>
      </trkpt>
      <trkpt lat="37.84334723267759" lon="112.0070230977545">
        <ele>1127.3</ele>
        <time>2017-05-05T23:59:12.300000Z</time>
      </trkpt>
      <trkpt lat="37.84306400203374" lon="112.00719964591104">
        <ele>1123.7</ele>
        <time>2017-05-05T23:59:24.300000Z</time>
      </trkpt>
      <trkpt lat="37.84289373020536" lon="112.00734482463466">
        <ele>1121.7</ele>
        <time>2017-05-05T23:59:33.300000Z</time>
      </trkpt>
      <trkpt lat="37.84265044234965" lon="112.00750136559554">
        <ele>1121.7</ele>
        <time>2017-05-05T23:59:45.300000Z</time>
      </trkpt>
      <trkpt lat="37.84246386757409" lon="112.00765492669484">
        <ele>1119.5</ele>
        <time>2017-05-05T23:59:54.300000Z</time>
      </trkpt>
      <trkpt lat="37.84241403009297" lon="112.00771818642224">
        <ele>1119.4</ele>
        <time>2017-05-05T23:59:57.300000Z</time>
      </trkpt>
      <trkpt lat="37.84235204780394" lon="112.00775982240802">
        <ele>1118.5</ele>
        <time>2017-05-06T00:00:00.300000Z</time>
      </trkpt>
      <trkpt lat="37.84217558629956" lon="112.00797988074173">
        <ele>1122.9</ele>
        <time>2017-05-06T00:00:09.300000Z</time>
      </trkpt>
      <trkpt lat="37.84215232790852" lon="112.00804638141723">
        <ele>1121.3</ele>
        <time>2017-05-06T00:00:12.300000Z</time>
      </trkpt>
      <trkpt lat="37.84201909912459" lon="112.0081431708065">
        <ele>1125.2</ele>
        <time>2017-05-06T00:00:18.300000Z</time>
      </trkpt>
      <trkpt lat="37.841752366459794" lon="112.00824646389994">
        <ele>1137.5</ele>
        <time>2017-05-06T00:00:27.300000Z</time>
      </trkpt>
      <trkpt lat="37.84144079796514" lon="112.0082816423886">
        <ele>1149.8</ele>
        <time>2017-05-06T00:00:36.300000Z</time>
      </trkpt>
      <trkpt lat="37.841170444596315" lon="112.00823328778117">
        <ele>1155.5</ele>
        <time>2017-05-06T00:00:45.300000Z</time>
      </trkpt>
      <trkpt lat="37.841008877184045" lon="112.00818816403631">
        <ele>1159.8</ele>
        <time>2017-05-06T00:00:51.300000Z</time>
      </trkpt>
      <trkpt lat="37.84097726670552" lon="112.00814329513213">
        <ele>1162.7</ele>
        <time>2017-05-06T00:00:57.300000Z</time>
      </trkpt>
      <trkpt lat="37.841297206569536" lon="112.00812136126143">
        <ele>1167.5</ele>
        <time>2017-05-06T00:01:12.300000Z</time>
      </trkpt>
      <trkpt lat="37.841547448515094" lon="112.00808970430295">
        <ele>1170.4</ele>
        <time>2017-05-06T00:01:24.300000Z</time>
      </trkpt>
      <trkpt lat="37.84167897018041" lon="112.00801967654456">
        <ele>1170.3</ele>
        <time>2017-05-06T00:01:30.300000Z</time>
      </trkpt>
      <trkpt lat="37.8418138413622" lon="112.0079180214521">
        <ele>1170.3</ele>
        <time>2017-05-06T00:01:36.300000Z</time>
      </trkpt>
      <trkpt lat="37.842128808832655" lon="112.00774308947896">
        <ele>1170.4</ele>
        <time>2017-05-06T00:01:48.300000Z</time>
      </trkpt>
      <trkpt lat="37.842420423957115" lon="112.0075749186356">
        <ele>1167.09</ele>
        <time>2017-05-06T00:02:00.300000Z</time>
      </trkpt>
      <trkpt lat="37.842648908372205" lon="112.00746973898462">
        <ele>1159.3</ele>
        <time>2017-05-06T00:02:09.300000Z</time>
      </trkpt>
      <trkpt lat="37.842845541272034" lon="112.00730968958506">
        <ele>1157.09</ele>
        <time>2017-05-06T00:02:18.300000Z</time>
      </trkpt>
      <trkpt lat="37.84290221163791" lon="112.00722966999749">
        <ele>1157.4</ele>
        <time>2017-05-06T00:02:21.300000Z</time>
      </trkpt>
      <trkpt lat="37.84313880647191" lon="112.00704312575418">
        <ele>1156.59</ele>
        <time>2017-05-06T00:02:30.300000Z</time>
      </trkpt>
      <trkpt lat="37.84341213891119" lon="112.00681954491054">
        <ele>1154.4</ele>
        <time>2017-05-06T00:02:42.300000Z</time>
      </trkpt>
      <trkpt lat="37.843662365439165" lon="112.00661110496095">
        <ele>1151.3</ele>
        <time>2017-05-06T00:02:54.300000Z</time>
      </trkpt>
      <trkpt lat="37.843825607821586" lon="112.00645808962147">
        <ele>1149.4</ele>
        <time>2017-05-06T00:03:03.300000Z</time>
      </trkpt>
      <trkpt lat="37.84410034558275" lon="112.00630965658267">
        <ele>1145.09</ele>
        <time>2017-05-06T00:03:15.300000Z</time>
      </trkpt>
      <trkpt lat="37.8442405750261" lon="112.00623152034892">
        <ele>1144.8</ele>
        <time>2017-05-06T00:03:21.300000Z</time>
      </trkpt>
      <trkpt lat="37.84436381553633" lon="112.00620961057945">
        <ele>1143.4</ele>
        <time>2017-05-06T00:03:27.300000Z</time>
      </trkpt>
      <trkpt lat="37.84466887116936" lon="112.00626633921551">
        <ele>1140.2</ele>
        <time>2017-05-06T00:03:39.300000Z</time>
      </trkpt>
      <trkpt lat="37.844855734386066" lon="112.00628983387816">
        <ele>1140.09</ele>
        <time>2017-05-06T00:03:45.300000Z</time>
      </trkpt>
      <trkpt lat="37.84495386035041" lon="112.00631955625823">
        <ele>1139.8</ele>
        <time>2017-05-06T00:03:48.300000Z</time>
      </trkpt>
      <trkpt lat="37.844988739404506" lon="112.00635982828442">
        <ele>1135.9</ele>
        <time>2017-05-06T00:03:51.300000Z</time>
      </trkpt>
      <trkpt lat="37.84514873401377" lon="112.00638629959207">
        <ele>1135.7</ele>
        <time>2017-05-06T00:03:57.300000Z</time>
      </trkpt>
      <trkpt lat="37.84528389995258" lon="112.0064595375576">
        <ele>1134.8</ele>
        <time>2017-05-06T00:04:03.300000Z</time>
      </trkpt>
      <trkpt lat="37.845598889738575" lon="112.00655140558881">
        <ele>1131.8</ele>
        <time>2017-05-06T00:04:15.300000Z</time>
      </trkpt>
      <trkpt lat="37.845909006542364" lon="112.00663976027248">
        <ele>1133.4</ele>
        <time>2017-05-06T00:04:27.300000Z</time>
      </trkpt>
      <trkpt lat="37.846263812530864" lon="112.00666296470767">
        <ele>1137.0</ele>
        <time>2017-05-06T00:04:39.300000Z</time>
      </trkpt>
      <trkpt lat="37.84661724675545" lon="112.00669130522697">
        <ele>1137.9</ele>
        <time>2017-05-06T00:04:51.300000Z</time>
      </trkpt>
      <trkpt lat="37.84697037434636" lon="112.0067315394949">
        <ele>1137.2</ele>
        <time>2017-05-06T00:05:03.300000Z</time>
      </trkpt>
      <trkpt lat="37.8472773106807" lon="112.00679475578319">
        <ele>1128.9</ele>
        <time>2017-05-06T00:05:15.300000Z</time>
      </trkpt>
      <trkpt lat="37.847585672857555" lon="112.00683472513519">
        <ele>1124.4</ele>
        <time>2017-05-06T00:05:24.300000Z</time>
      </trkpt>
      <trkpt lat="37.84786716480391" lon="112.00687821177007">
        <ele>1122.4</ele>
        <time>2017-05-06T00:05:33.300000Z</time>
      </trkpt>
      <trkpt lat="37.847950447826605" lon="112.00688144557799">
        <ele>1123.9</ele>
        <time>2017-05-06T00:05:36.300000Z</time>
      </trkpt>
      <trkpt lat="37.84812705111961" lon="112.00697954783497">
        <ele>1124.0</ele>
        <time>2017-05-06T00:05:42.300000Z</time>
      </trkpt>
      <trkpt lat="37.848382084811874" lon="112.0072530740856">
        <ele>1124.7</ele>
        <time>2017-05-06T00:05:54.300000Z</time>
      </trkpt>
      <trkpt lat="37.84857886279746" lon="112.00750119882412">
        <ele>1127.09</ele>
        <time>2017-05-06T00:06:03.300000Z</time>
      </trkpt>
      <trkpt lat="37.848790645831585" lon="112.00781311717869">
        <ele>1127.4</ele>
        <time>2017-05-06T00:06:15.300000Z</time>
      </trkpt>
      <trkpt lat="37.848965591678905" lon="112.00810476764391">
        <ele>1126.5</ele>
        <time>2017-05-06T00:06:24.300000Z</time>
      </trkpt>
      <trkpt lat="37.84917737223871" lon="112.00841831081861">
        <ele>1124.09</ele>
        <time>2017-05-06T00:06:36.300000Z</time>
      </trkpt>
      <trkpt lat="37.84935388847458" lon="112.0086383292336">
        <ele>1123.4</ele>
        <time>2017-05-06T00:06:45.300000Z</time>
      </trkpt>
      <trkpt lat="37.84946248879621" lon="112.00879645323786">
        <ele>1124.0</ele>
        <time>2017-05-06T00:06:51.300000Z</time>
      </trkpt>
      <trkpt lat="37.84949072039666" lon="112.00888322263476">
        <ele>1121.59</ele>
        <time>2017-05-06T00:06:54.300000Z</time>
      </trkpt>
      <trkpt lat="37.84963902152552" lon="112.00910324608311">
        <ele>1117.9</ele>
        <time>2017-05-06T00:07:03.300000Z</time>
      </trkpt>
      <trkpt lat="37.849787315920885" lon="112.00951006335816">
        <ele>1115.09</ele>
        <time>2017-05-06T00:07:15.300000Z</time>
      </trkpt>
      <trkpt lat="37.849849122349106" lon="112.00980470898936">
        <ele>1113.3</ele>
        <time>2017-05-06T00:07:24.300000Z</time>
      </trkpt>
      <trkpt lat="37.8498659032803" lon="112.01018802849005">
        <ele>1111.59</ele>
        <time>2017-05-06T00:07:36.300000Z</time>
      </trkpt>
      <trkpt lat="37.84990427800809" lon="112.01061000497418">
        <ele>1110.09</ele>
        <time>2017-05-06T00:07:48.300000Z</time>
      </trkpt>
      <trkpt lat="37.84991078779407" lon="112.0107032675835">
        <ele>1109.3</ele>
        <time>2017-05-06T00:07:51.300000Z</time>
      </trkpt>
      <trkpt lat="37.84987763242351" lon="112.01109335753503">
        <ele>1103.09</ele>
        <time>2017-05-06T00:08:03.300000Z</time>
      </trkpt>
      <trkpt lat="37.84984579642923" lon="112.01149696681749">
        <ele>1104.9</ele>
        <time>2017-05-06T00:08:18.300000Z</time>
      </trkpt>
      <trkpt lat="37.849839104464" lon="112.01183839919149">
        <ele>1103.9</ele>
        <time>2017-05-06T00:08:27.300000Z</time>
      </trkpt>
      <trkpt lat="37.84984428340659" lon="112.01229688824738">
        <ele>1102.0</ele>
        <time>2017-05-06T00:08:39.300000Z</time>
      </trkpt>
      <trkpt lat="37.84982415097712" lon="112.01269023270855">
        <ele>1101.7</ele>
        <time>2017-05-06T00:08:51.300000Z</time>
      </trkpt>
      <trkpt lat="37.84980091920963" lon="112.01303032344657">
        <ele>1098.5</ele>
        <time>2017-05-06T00:09:00.300000Z</time>
      </trkpt>
      <trkpt lat="37.84975441174494" lon="112.01344530443656">
        <ele>1107.0</ele>
        <time>2017-05-06T00:09:12.300000Z</time>
      </trkpt>
      <trkpt lat="37.84973096862924" lon="112.01386028628967">
        <ele>1109.09</ele>
        <time>2017-05-06T00:09:24.300000Z</time>
      </trkpt>
      <trkpt lat="37.849679244449845" lon="112.01429879552578">
        <ele>1111.7</ele>
        <time>2017-05-06T00:09:36.300000Z</time>
      </trkpt>
      <trkpt lat="37.84962292131944" lon="112.01473379495543">
        <ele>1113.5</ele>
        <time>2017-05-06T00:09:48.300000Z</time>
      </trkpt>
      <trkpt lat="37.84958615477159" lon="112.01497224958854">
        <ele>1116.5</ele>
        <time>2017-05-06T00:09:54.300000Z</time>
      </trkpt>
      <trkpt lat="37.84955100913176" lon="112.0154037384336">
        <ele>1111.7</ele>
        <time>2017-05-06T00:10:06.300000Z</time>
      </trkpt>
      <trkpt lat="37.849492684674885" lon="112.01578224422795">
        <ele>1111.7</ele>
        <time>2017-05-06T00:10:18.300000Z</time>
      </trkpt>
      <trkpt lat="37.84945451124777" lon="112.01613560748851">
        <ele>1112.5</ele>
        <time>2017-05-06T00:10:30.300000Z</time>
      </trkpt>
      <trkpt lat="37.84942442286615" lon="112.0165089795277">
        <ele>1113.5</ele>
        <time>2017-05-06T00:10:42.300000Z</time>
      </trkpt>
      <trkpt lat="37.84935126416211" lon="112.01685910872764">
        <ele>1119.2</ele>
        <time>2017-05-06T00:11:00.300000Z</time>
      </trkpt>
      <trkpt lat="37.84929616843391" lon="112.01725087524962">
        <ele>1118.9</ele>
        <time>2017-05-06T00:11:18.300000Z</time>
      </trkpt>
      <trkpt lat="37.849281352889086" lon="112.01740579762344">
        <ele>1119.4</ele>
        <time>2017-05-06T00:11:24.400000Z</time>
      </trkpt>
      <trkpt lat="37.8492597360052" lon="112.01747095896806">
        <ele>1120.8</ele>
        <time>2017-05-06T00:11:27.300000Z</time>
      </trkpt>
      <trkpt lat="37.849256536781674" lon="112.01783731034409">
        <ele>1122.5</ele>
        <time>2017-05-06T00:11:39.300000Z</time>
      </trkpt>
      <trkpt lat="37.84920131640871" lon="112.01817933773982">
        <ele>1118.09</ele>
        <time>2017-05-06T00:11:51.300000Z</time>
      </trkpt>
      <trkpt lat="37.84916634568515" lon="112.01855759606832">
        <ele>1115.09</ele>
        <time>2017-05-06T00:12:00.300000Z</time>
      </trkpt>
      <trkpt lat="37.849116708231946" lon="112.01894261933731">
        <ele>1112.59</ele>
        <time>2017-05-06T00:12:09.300000Z</time>
      </trkpt>
      <trkpt lat="37.849091609310676" lon="112.01918758623596">
        <ele>1112.9</ele>
        <time>2017-05-06T00:12:15.300000Z</time>
      </trkpt>
      <trkpt lat="37.84908490405972" lon="112.01955098012009">
        <ele>1118.4</ele>
        <time>2017-05-06T00:12:27.300000Z</time>
      </trkpt>
      <trkpt lat="37.84911663530659" lon="112.01994790079199">
        <ele>1119.4</ele>
        <time>2017-05-06T00:12:39.300000Z</time>
      </trkpt>
      <trkpt lat="37.849123119642975" lon="112.02005605456488">
        <ele>1120.2</ele>
        <time>2017-05-06T00:12:42.300000Z</time>
      </trkpt>
      <trkpt lat="37.84909832088442" lon="112.02029264673614">
        <ele>1121.7</ele>
        <time>2017-05-06T00:12:48.300000Z</time>
      </trkpt>
      <trkpt lat="37.84907325783357" lon="112.02072473320682">
        <ele>1125.9</ele>
        <time>2017-05-06T00:13:00.300000Z</time>
      </trkpt>
      <trkpt lat="37.84907012635536" lon="112.02117466835055">
        <ele>1121.0</ele>
        <time>2017-05-06T00:13:12.300000Z</time>
      </trkpt>
      <trkpt lat="37.84906181333676" lon="112.02153646000393">
        <ele>1122.3</ele>
        <time>2017-05-06T00:13:21.300000Z</time>
      </trkpt>
      <trkpt lat="37.84905685843148" lon="112.02196152886732">
        <ele>1125.9</ele>
        <time>2017-05-06T00:13:33.300000Z</time>
      </trkpt>
      <trkpt lat="37.849071830528736" lon="112.02234333587585">
        <ele>1128.5</ele>
        <time>2017-05-06T00:13:45.300000Z</time>
      </trkpt>
      <trkpt lat="37.849105446272894" lon="112.02275488976912">
        <ele>1131.2</ele>
        <time>2017-05-06T00:13:57.300000Z</time>
      </trkpt>
      <trkpt lat="37.84913034766373" lon="112.02297824424485">
        <ele>1133.7</ele>
        <time>2017-05-06T00:14:06.300000Z</time>
      </trkpt>
      <trkpt lat="37.84918017514756" lon="112.02301312110075">
        <ele>1131.2</ele>
        <time>2017-05-06T00:14:09.300000Z</time>
      </trkpt>
      <trkpt lat="37.84920359315693" lon="112.02318320645193">
        <ele>1129.09</ele>
        <time>2017-05-06T00:14:15.300000Z</time>
      </trkpt>
      <trkpt lat="37.849185411176975" lon="112.02338682884212">
        <ele>1128.5</ele>
        <time>2017-05-06T00:14:21.300000Z</time>
      </trkpt>
      <trkpt lat="37.84911047822569" lon="112.02360830666878">
        <ele>1128.2</ele>
        <time>2017-05-06T00:14:27.300000Z</time>
      </trkpt>
      <trkpt lat="37.849048915554974" lon="112.02400501473423">
        <ele>1129.3</ele>
        <time>2017-05-06T00:14:39.300000Z</time>
      </trkpt>
      <trkpt lat="37.84904877814846" lon="112.02415834207969">
        <ele>1128.59</ele>
        <time>2017-05-06T00:14:45.300000Z</time>
      </trkpt>
      <trkpt lat="37.849107355624525" lon="112.02437196693246">
        <ele>1127.5</ele>
        <time>2017-05-06T00:14:51.300000Z</time>
      </trkpt>
      <trkpt lat="37.84905392253627" lon="112.02477517363636">
        <ele>1124.8</ele>
        <time>2017-05-06T00:15:03.300000Z</time>
      </trkpt>
      <trkpt lat="37.84901249830737" lon="112.02505020147349">
        <ele>1124.8</ele>
        <time>2017-05-06T00:15:12.300000Z</time>
      </trkpt>
      <trkpt lat="37.84903725495104" lon="112.02523030327016">
        <ele>1127.0</ele>
        <time>2017-05-06T00:15:18.300000Z</time>
      </trkpt>
      <trkpt lat="37.84911401632451" lon="112.02554696726983">
        <ele>1125.8</ele>
        <time>2017-05-06T00:15:27.300000Z</time>
      </trkpt>
      <trkpt lat="37.84911745965343" lon="112.02578548802309">
        <ele>1123.5</ele>
        <time>2017-05-06T00:15:36.300000Z</time>
      </trkpt>
      <trkpt lat="37.84907747755879" lon="112.02603050629419">
        <ele>1124.4</ele>
        <time>2017-05-06T00:15:45.300000Z</time>
      </trkpt>
      <trkpt lat="37.84903433587233" lon="112.02613544058417">
        <ele>1125.2</ele>
        <time>2017-05-06T00:15:48.300000Z</time>
      </trkpt>
      <trkpt lat="37.84894912348437" lon="112.02624714122463">
        <ele>1125.4</ele>
        <time>2017-05-06T00:15:51.300000Z</time>
      </trkpt>
      <trkpt lat="37.84885262497031" lon="112.02631719616478">
        <ele>1125.0</ele>
        <time>2017-05-06T00:15:54.300000Z</time>
      </trkpt>
      <trkpt lat="37.84877414248493" lon="112.0263453311558">
        <ele>1124.8</ele>
        <time>2017-05-06T00:15:57.300000Z</time>
      </trkpt>
      <trkpt lat="37.848577347604056" lon="112.02648544211081">
        <ele>1123.5</ele>
        <time>2017-05-06T00:16:03.300000Z</time>
      </trkpt>
      <trkpt lat="37.848497499541786" lon="112.02651709313925">
        <ele>1123.7</ele>
        <time>2017-05-06T00:16:06.300000Z</time>
      </trkpt>
      <trkpt lat="37.848409331675654" lon="112.0265138584618">
        <ele>1123.09</ele>
        <time>2017-05-06T00:16:09.300000Z</time>
      </trkpt>
      <trkpt lat="37.848255866665355" lon="112.02658067558659">
        <ele>1123.3</ele>
        <time>2017-05-06T00:16:15.300000Z</time>
      </trkpt>
      <trkpt lat="37.84810415205735" lon="112.02660043597227">
        <ele>1122.9</ele>
        <time>2017-05-06T00:16:21.300000Z</time>
      </trkpt>
      <trkpt lat="37.84786235369115" lon="112.02683223341431">
        <ele>1120.4</ele>
        <time>2017-05-06T00:16:33.300000Z</time>
      </trkpt>
      <trkpt lat="37.847775864682745" lon="112.02691391757601">
        <ele>1119.5</ele>
        <time>2017-05-06T00:16:39.300000Z</time>
      </trkpt>
      <trkpt lat="37.84762594363678" lon="112.02728904281807">
        <ele>1116.5</ele>
        <time>2017-05-06T00:16:57.300000Z</time>
      </trkpt>
      <trkpt lat="37.84756931792971" lon="112.02746889723818">
        <ele>1115.59</ele>
        <time>2017-05-06T00:17:03.300000Z</time>
      </trkpt>
      <trkpt lat="37.847532785795885" lon="112.02753732514603">
        <ele>1115.5</ele>
        <time>2017-05-06T00:17:06.300000Z</time>
      </trkpt>
      <trkpt lat="37.84748763659273" lon="112.02758060244565">
        <ele>1115.0</ele>
        <time>2017-05-06T00:17:09.300000Z</time>
      </trkpt>
      <trkpt lat="37.847426009859255" lon="112.02759575502617">
        <ele>1116.7</ele>
        <time>2017-05-06T00:17:12.300000Z</time>
      </trkpt>
      <trkpt lat="37.84738273415091" lon="112.02764903883597">
        <ele>1117.09</ele>
        <time>2017-05-06T00:17:15.300000Z</time>
      </trkpt>
      <trkpt lat="37.84738449888927" lon="112.0279124581307">
        <ele>1118.59</ele>
        <time>2017-05-06T00:17:27.300000Z</time>
      </trkpt>
      <trkpt lat="37.84732927761789" lon="112.02818075485139">
        <ele>1119.9</ele>
        <time>2017-05-06T00:17:34.300000Z</time>
      </trkpt>
      <trkpt lat="37.8473593848215" lon="112.02850259442785">
        <ele>1123.2</ele>
        <time>2017-05-06T00:17:49.300000Z</time>
      </trkpt>
      <trkpt lat="37.84738115282125" lon="112.02858427023583">
        <ele>1124.09</ele>
        <time>2017-05-06T00:17:55.300000Z</time>
      </trkpt>
      <trkpt lat="37.84736954983726" lon="112.02877251154183">
        <ele>1125.0</ele>
        <time>2017-05-06T00:18:07.300000Z</time>
      </trkpt>
      <trkpt lat="37.84737976281881" lon="112.02902431018255">
        <ele>1123.7</ele>
        <time>2017-05-06T00:18:22.300000Z</time>
      </trkpt>
      <trkpt lat="37.847371170460264" lon="112.02909598398274">
        <ele>1123.09</ele>
        <time>2017-05-06T00:18:28.300000Z</time>
      </trkpt>
    </trkseg>
  </trk>
</gpx>