<?xml version="1.0" encoding="UTF-8"?>
<gpx xmlns="http://www.topografix.com/GPX/1/1" xmlns:gpxtpx="http://www.garmin.com/xmlschemas/TrackPointExtension/v1" xmlns:xsi="http://www.w3.org/2001/XMLSchema-instance" xsi:schemaLocation="http://www.topografix.com/GPX/1/1 http://www.topografix.com/GPX/1/1/gpx.xsd" version="1.1" creator="gpx.py -- https://github.com/tkrajina/gpxpy">
  <trk>
    <name>gpx from keep</name>
    <type>Run</type>
    <trkseg>
      <trkpt lat="37.84862246979253" lon="112.03258692820657">
        <ele>1099.992616720522</ele>
        <time>2016-05-22T08:03:38.900000Z</time>
      </trkpt>
      <trkpt lat="37.84858085367275" lon="112.0325187677349">
        <ele>1097.8064530417123</ele>
        <time>2016-05-22T08:03:42.800000Z</time>
      </trkpt>
      <trkpt lat="37.84852235902811" lon="112.03247414271425">
        <ele>1098.164788401403</ele>
        <time>2016-05-22T08:03:49.900000Z</time>
      </trkpt>
      <trkpt lat="37.84844661260765" lon="112.03238353545073">
        <ele>1098.0443045649158</ele>
        <time>2016-05-22T08:03:57.800000Z</time>
      </trkpt>
      <trkpt lat="37.84842290480381" lon="112.03231483235766">
        <ele>1098.2421400800088</ele>
        <time>2016-05-22T08:04:03.900000Z</time>
      </trkpt>
      <trkpt lat="37.84838853736507" lon="112.03227831962884">
        <ele>1098.2678001137263</ele>
        <time>2016-05-22T08:04:07.900000Z</time>
      </trkpt>
      <trkpt lat="37.848380594287555" lon="112.03219798365294">
        <ele>1098.282964266331</ele>
        <time>2016-05-22T08:04:15.900000Z</time>
      </trkpt>
      <trkpt lat="37.848467927494866" lon="112.03209897240173">
        <ele>1099.0174407688469</ele>
        <time>2016-05-22T08:04:23.900000Z</time>
      </trkpt>
      <trkpt lat="37.84853085951051" lon="112.03199320215393">
        <ele>1099.117346925111</ele>
        <time>2016-05-22T08:04:30.900000Z</time>
      </trkpt>
      <trkpt lat="37.848596412084774" lon="112.03192530079914">
        <ele>1099.5967779576795</ele>
        <time>2016-05-22T08:04:37.900000Z</time>
      </trkpt>
      <trkpt lat="37.84887140196567" lon="112.03175323562797">
        <ele>1101.5709915521234</ele>
        <time>2016-05-22T08:05:06.900000Z</time>
      </trkpt>
      <trkpt lat="37.84905475760479" lon="112.03166368158163">
        <ele>1100.260667311162</ele>
        <time>2016-05-22T08:05:21.900000Z</time>
      </trkpt>
      <trkpt lat="37.849264628132715" lon="112.03160414882348">
        <ele>1099.564927541671</ele>
        <time>2016-05-22T08:05:39.900000Z</time>
      </trkpt>
      <trkpt lat="37.849316545954274" lon="112.03156465131424">
        <ele>1097.5668057333364</ele>
        <time>2016-05-22T08:05:51.900000Z</time>
      </trkpt>
      <trkpt lat="37.849332386177466" lon="112.03141236517332">
        <ele>1095.630550684813</ele>
        <time>2016-05-22T08:06:05.800000Z</time>
      </trkpt>
      <trkpt lat="37.84931399030087" lon="112.03128091135561">
        <ele>1094.6510328409017</ele>
        <time>2016-05-22T08:06:16.900000Z</time>
      </trkpt>
      <trkpt lat="37.84915440042222" lon="112.03097582520988">
        <ele>1091.384878822256</ele>
        <time>2016-05-22T08:06:36.900000Z</time>
      </trkpt>
      <trkpt lat="37.84900353834074" lon="112.03065343079629">
        <ele>1090.4262771309131</ele>
        <time>2016-05-22T08:06:50.900000Z</time>
      </trkpt>
      <trkpt lat="37.84892548711829" lon="112.03050981635315">
        <ele>1090.8096632452687</ele>
        <time>2016-05-22T08:06:58.900000Z</time>
      </trkpt>
      <trkpt lat="37.848807136326876" lon="112.0300992490768">
        <ele>1091.721336730316</ele>
        <time>2016-05-22T08:07:12.900000Z</time>
      </trkpt>
      <trkpt lat="37.848777499092094" lon="112.0296927342556">
        <ele>1091.8979692318908</ele>
        <time>2016-05-22T08:07:27.900000Z</time>
      </trkpt>
      <trkpt lat="37.84877342516077" lon="112.02958671096557">
        <ele>1092.1491796323824</ele>
        <time>2016-05-22T08:07:31.900000Z</time>
      </trkpt>
      <trkpt lat="37.84885270644503" lon="112.02924131551423">
        <ele>1094.981873080847</ele>
        <time>2016-05-22T08:07:45.900000Z</time>
      </trkpt>
      <trkpt lat="37.84891403640808" lon="112.02891485877886">
        <ele>1096.9184316970038</ele>
        <time>2016-05-22T08:07:56.900000Z</time>
      </trkpt>
      <trkpt lat="37.848906309371976" lon="112.0286460218793">
        <ele>1097.952687805949</ele>
        <time>2016-05-22T08:08:03.900000Z</time>
      </trkpt>
      <trkpt lat="37.84892537451961" lon="112.02851079024552">
        <ele>1098.4374225194026</ele>
        <time>2016-05-22T08:08:06.900000Z</time>
      </trkpt>
      <trkpt lat="37.848878525489205" lon="112.02815785029969">
        <ele>1098.8670361375457</ele>
        <time>2016-05-22T08:08:14.900000Z</time>
      </trkpt>
      <trkpt lat="37.84886224218053" lon="112.02805372737406">
        <ele>1098.7657338061945</ele>
        <time>2016-05-22T08:08:18.900000Z</time>
      </trkpt>
      <trkpt lat="37.84887462357494" lon="112.0277751598471">
        <ele>1098.6435088682913</ele>
        <time>2016-05-22T08:08:26.800000Z</time>
      </trkpt>
      <trkpt lat="37.84891009179781" lon="112.02759287205984">
        <ele>1098.8310194427359</ele>
        <time>2016-05-22T08:08:30.900000Z</time>
      </trkpt>
      <trkpt lat="37.84890564667479" lon="112.02742276035899">
        <ele>1099.3936157508874</ele>
        <time>2016-05-22T08:08:34.900000Z</time>
      </trkpt>
      <trkpt lat="37.848858796560094" lon="112.02717909341865">
        <ele>1100.168682522432</ele>
        <time>2016-05-22T08:08:41.800000Z</time>
      </trkpt>
      <trkpt lat="37.84887526537528" lon="112.02689620658776">
        <ele>1102.163080208837</ele>
        <time>2016-05-22T08:08:51.900000Z</time>
      </trkpt>
      <trkpt lat="37.84894537686375" lon="112.02653948580199">
        <ele>1102.1570516528316</ele>
        <time>2016-05-22T08:09:05.900000Z</time>
      </trkpt>
      <trkpt lat="37.84906045950495" lon="112.02620953708089">
        <ele>1103.3821153852216</ele>
        <time>2016-05-22T08:09:16.900000Z</time>
      </trkpt>
      <trkpt lat="37.849162073649424" lon="112.02584362585591">
        <ele>1103.8497697325165</ele>
        <time>2016-05-22T08:09:31.800000Z</time>
      </trkpt>
      <trkpt lat="37.849226573070084" lon="112.0255612865958">
        <ele>1103.4006601490682</ele>
        <time>2016-05-22T08:09:41.800000Z</time>
      </trkpt>
      <trkpt lat="37.849182058929024" lon="112.02505369664884">
        <ele>1103.1891999670158</ele>
        <time>2016-05-22T08:09:51.900000Z</time>
      </trkpt>
      <trkpt lat="37.84910099775077" lon="112.02472297610598">
        <ele>1103.3396085809754</ele>
        <time>2016-05-22T08:09:58.900000Z</time>
      </trkpt>
      <trkpt lat="37.84911845396223" lon="112.02448364967336">
        <ele>1103.6363099918215</ele>
        <time>2016-05-22T08:10:06.900000Z</time>
      </trkpt>
      <trkpt lat="37.84910935253804" lon="112.02423324101295">
        <ele>1103.950802535038</ele>
        <time>2016-05-22T08:10:13.800000Z</time>
      </trkpt>
      <trkpt lat="37.84911939919807" lon="112.02412831707848">
        <ele>1103.8173849527798</ele>
        <time>2016-05-22T08:10:16.900000Z</time>
      </trkpt>
      <trkpt lat="37.84910494288442" lon="112.02395362863973">
        <ele>1103.7071142732354</ele>
        <time>2016-05-22T08:10:20.900000Z</time>
      </trkpt>
      <trkpt lat="37.84901691183803" lon="112.02359479717674">
        <ele>1103.4198682965687</ele>
        <time>2016-05-22T08:10:28.800000Z</time>
      </trkpt>
      <trkpt lat="37.84900527836669" lon="112.02348122467505">
        <ele>1103.3398670728325</ele>
        <time>2016-05-22T08:10:31.900000Z</time>
      </trkpt>
      <trkpt lat="37.84902558536644" lon="112.02329436698693">
        <ele>1103.4534644589737</ele>
        <time>2016-05-22T08:10:38.900000Z</time>
      </trkpt>
      <trkpt lat="37.84907907046038" lon="112.02317970605921">
        <ele>1103.1611965153531</ele>
        <time>2016-05-22T08:10:42.900000Z</time>
      </trkpt>
      <trkpt lat="37.84909609040009" lon="112.02280356430487">
        <ele>1103.5464940979086</ele>
        <time>2016-05-22T08:10:54.800000Z</time>
      </trkpt>
      <trkpt lat="37.84913115048012" lon="112.02237929255311">
        <ele>1105.559046626828</ele>
        <time>2016-05-22T08:11:08.900000Z</time>
      </trkpt>
      <trkpt lat="37.84917503585393" lon="112.0220036973167">
        <ele>1105.48303641432</ele>
        <time>2016-05-22T08:11:19.900000Z</time>
      </trkpt>
      <trkpt lat="37.84913724675389" lon="112.02173249005712">
        <ele>1105.655187765067</ele>
        <time>2016-05-22T08:11:27.900000Z</time>
      </trkpt>
      <trkpt lat="37.849140947350236" lon="112.02137015613276">
        <ele>1107.270854709263</ele>
        <time>2016-05-22T08:11:38.900000Z</time>
      </trkpt>
      <trkpt lat="37.84915568956705" lon="112.02103891995101">
        <ele>1107.6435420112048</ele>
        <time>2016-05-22T08:11:49.900000Z</time>
      </trkpt>
      <trkpt lat="37.84914487747653" lon="112.02092508548623">
        <ele>1107.863077991367</ele>
        <time>2016-05-22T08:11:53.900000Z</time>
      </trkpt>
      <trkpt lat="37.84916586495868" lon="112.02069200470712">
        <ele>1107.813830422508</ele>
        <time>2016-05-22T08:12:00.900000Z</time>
      </trkpt>
      <trkpt lat="37.84913698504927" lon="112.02053842611073">
        <ele>1107.6406929745854</ele>
        <time>2016-05-22T08:12:03.900000Z</time>
      </trkpt>
      <trkpt lat="37.849131454233564" lon="112.02018205402034">
        <ele>1106.6389381450392</ele>
        <time>2016-05-22T08:12:17.900000Z</time>
      </trkpt>
      <trkpt lat="37.84917391397735" lon="112.01973996769458">
        <ele>1106.3815124301736</ele>
        <time>2016-05-22T08:12:28.900000Z</time>
      </trkpt>
      <trkpt lat="37.84918529804448" lon="112.01964587266077">
        <ele>1106.2763224761748</ele>
        <time>2016-05-22T08:12:32.900000Z</time>
      </trkpt>
      <trkpt lat="37.849186999683674" lon="112.01932546907895">
        <ele>1105.5471025005572</ele>
        <time>2016-05-22T08:12:42.900000Z</time>
      </trkpt>
      <trkpt lat="37.84921335176169" lon="112.01921515045521">
        <ele>1105.4358165938208</ele>
        <time>2016-05-22T08:12:46.900000Z</time>
      </trkpt>
      <trkpt lat="37.84917914093556" lon="112.01873658384523">
        <ele>1104.9656756642232</ele>
        <time>2016-05-22T08:13:00.900000Z</time>
      </trkpt>
      <trkpt lat="37.84917916411421" lon="112.01843646628626">
        <ele>1105.4361551947763</ele>
        <time>2016-05-22T08:13:08.900000Z</time>
      </trkpt>
      <trkpt lat="37.84914387753083" lon="112.01824801951163">
        <ele>1106.3424507943412</ele>
        <time>2016-05-22T08:13:15.900000Z</time>
      </trkpt>
      <trkpt lat="37.84914851726027" lon="112.01814122144587">
        <ele>1106.7511737428933</ele>
        <time>2016-05-22T08:13:19.900000Z</time>
      </trkpt>
      <trkpt lat="37.84916938066061" lon="112.01805415891295">
        <ele>1106.7019426959932</ele>
        <time>2016-05-22T08:13:23.900000Z</time>
      </trkpt>
      <trkpt lat="37.84917461040497" lon="112.01793059826096">
        <ele>1106.1050485332903</ele>
        <time>2016-05-22T08:13:30.900000Z</time>
      </trkpt>
      <trkpt lat="37.849256558569" lon="112.01744311140335">
        <ele>1105.5464217620079</ele>
        <time>2016-05-22T08:13:45.800000Z</time>
      </trkpt>
      <trkpt lat="37.84933378759951" lon="112.01709135451594">
        <ele>1104.7246571329458</ele>
        <time>2016-05-22T08:13:56.900000Z</time>
      </trkpt>
      <trkpt lat="37.84941407450529" lon="112.01671445649403">
        <ele>1103.6313029619284</ele>
        <time>2016-05-22T08:14:07.800000Z</time>
      </trkpt>
      <trkpt lat="37.8494582872862" lon="112.01633486262351">
        <ele>1104.3969888988195</ele>
        <time>2016-05-22T08:14:18.800000Z</time>
      </trkpt>
      <trkpt lat="37.8494844848343" lon="112.0159944763584">
        <ele>1105.261911088217</ele>
        <time>2016-05-22T08:14:29.800000Z</time>
      </trkpt>
      <trkpt lat="37.849525163763865" lon="112.01552377936385">
        <ele>1105.8349350335036</ele>
        <time>2016-05-22T08:14:43.800000Z</time>
      </trkpt>
      <trkpt lat="37.84954238490414" lon="112.015098239254">
        <ele>1105.872836375447</ele>
        <time>2016-05-22T08:14:55.900000Z</time>
      </trkpt>
      <trkpt lat="37.849573053751556" lon="112.01462025364053">
        <ele>1106.5392025385754</ele>
        <time>2016-05-22T08:15:07.900000Z</time>
      </trkpt>
      <trkpt lat="37.84960583919426" lon="112.0142569003243">
        <ele>1106.955603605195</ele>
        <time>2016-05-22T08:15:18.900000Z</time>
      </trkpt>
      <trkpt lat="37.84964344129095" lon="112.01391761011836">
        <ele>1107.2845030634878</ele>
        <time>2016-05-22T08:15:29.800000Z</time>
      </trkpt>
      <trkpt lat="37.84967790958939" lon="112.01353668976952">
        <ele>1107.3250546450856</ele>
        <time>2016-05-22T08:15:42.900000Z</time>
      </trkpt>
      <trkpt lat="37.849677477122015" lon="112.01312252462625">
        <ele>1107.218040485378</ele>
        <time>2016-05-22T08:15:57.900000Z</time>
      </trkpt>
      <trkpt lat="37.849617895423" lon="112.01299168657121">
        <ele>1107.37060206027</ele>
        <time>2016-05-22T08:16:04.900000Z</time>
      </trkpt>
      <trkpt lat="37.84961388444481" lon="112.0128776033163">
        <ele>1107.7121363444364</ele>
        <time>2016-05-22T08:16:08.800000Z</time>
      </trkpt>
      <trkpt lat="37.84963556064711" lon="112.01279379530656">
        <ele>1106.2612453351592</ele>
        <time>2016-05-22T08:16:25.800000Z</time>
      </trkpt>
      <trkpt lat="37.849587714133285" lon="112.01292059057099">
        <ele>1108.5323338587643</ele>
        <time>2016-05-22T08:16:44.800000Z</time>
      </trkpt>
      <trkpt lat="37.84958272659891" lon="112.0128627383293">
        <ele>1110.3491535340422</ele>
        <time>2016-05-22T08:16:56.900000Z</time>
      </trkpt>
      <trkpt lat="37.849607774792936" lon="112.01292626532302">
        <ele>1110.0845149688078</ele>
        <time>2016-05-22T08:17:03.900000Z</time>
      </trkpt>
      <trkpt lat="37.849684596741106" lon="112.0129121984278">
        <ele>1109.303644237775</ele>
        <time>2016-05-22T08:17:09.900000Z</time>
      </trkpt>
      <trkpt lat="37.84974712934165" lon="112.01277323614077">
        <ele>1109.0247132377292</ele>
        <time>2016-05-22T08:17:13.900000Z</time>
      </trkpt>
      <trkpt lat="37.84976679393995" lon="112.01235393867748">
        <ele>1110.2769260636583</ele>
        <time>2016-05-22T08:17:25.800000Z</time>
      </trkpt>
      <trkpt lat="37.84979781077997" lon="112.01195032280783">
        <ele>1111.9667085056763</ele>
        <time>2016-05-22T08:17:37.900000Z</time>
      </trkpt>
      <trkpt lat="37.84981879271325" lon="112.01163943567892">
        <ele>1112.4198341325746</ele>
        <time>2016-05-22T08:17:47.900000Z</time>
      </trkpt>
      <trkpt lat="37.84984129356113" lon="112.0113663967268">
        <ele>1113.1626056503123</ele>
        <time>2016-05-22T08:17:55.900000Z</time>
      </trkpt>
      <trkpt lat="37.84989714515459" lon="112.01100793072575">
        <ele>1114.0406768829152</ele>
        <time>2016-05-22T08:18:06.800000Z</time>
      </trkpt>
      <trkpt lat="37.84990502160908" lon="112.01091223290477">
        <ele>1114.308196354874</ele>
        <time>2016-05-22T08:18:09.900000Z</time>
      </trkpt>
      <trkpt lat="37.849889680843354" lon="112.01068434708684">
        <ele>1114.8666581078155</ele>
        <time>2016-05-22T08:18:16.800000Z</time>
      </trkpt>
      <trkpt lat="37.84989702183809" lon="112.0103085904655">
        <ele>1115.5764352906476</ele>
        <time>2016-05-22T08:18:27.900000Z</time>
      </trkpt>
      <trkpt lat="37.84991741080687" lon="112.00992499538428">
        <ele>1115.2613180496649</ele>
        <time>2016-05-22T08:18:39.800000Z</time>
      </trkpt>
      <trkpt lat="37.84992148408615" lon="112.0095546506744">
        <ele>1114.0259700955396</ele>
        <time>2016-05-22T08:18:50.900000Z</time>
      </trkpt>
      <trkpt lat="37.849904570500804" lon="112.00940164985796">
        <ele>1113.5366367804536</ele>
        <time>2016-05-22T08:18:54.900000Z</time>
      </trkpt>
      <trkpt lat="37.849769271985586" lon="112.00909620217426">
        <ele>1113.1747015443752</ele>
        <time>2016-05-22T08:19:04.900000Z</time>
      </trkpt>
      <trkpt lat="37.84960379362328" lon="112.00881292588463">
        <ele>1112.8446378213425</ele>
        <time>2016-05-22T08:19:15.900000Z</time>
      </trkpt>
      <trkpt lat="37.849498214427115" lon="112.00864236679034">
        <ele>1112.9649232063173</ele>
        <time>2016-05-22T08:19:22.900000Z</time>
      </trkpt>
      <trkpt lat="37.84941220084611" lon="112.00855317176253">
        <ele>1113.1851956853754</ele>
        <time>2016-05-22T08:19:26.800000Z</time>
      </trkpt>
      <trkpt lat="37.84922344124161" lon="112.00825314105079">
        <ele>1113.6405401952986</ele>
        <time>2016-05-22T08:19:38.900000Z</time>
      </trkpt>
      <trkpt lat="37.849007931031565" lon="112.0079166222568">
        <ele>1114.951381072814</ele>
        <time>2016-05-22T08:19:50.900000Z</time>
      </trkpt>
      <trkpt lat="37.84879483674616" lon="112.00758929562359">
        <ele>1116.0341174351665</ele>
        <time>2016-05-22T08:20:05.800000Z</time>
      </trkpt>
      <trkpt lat="37.84863104057319" lon="112.00728953670617">
        <ele>1116.4665639694956</ele>
        <time>2016-05-22T08:20:16.800000Z</time>
      </trkpt>
      <trkpt lat="37.848434442865496" lon="112.00707222836942">
        <ele>1116.7672329038394</ele>
        <time>2016-05-22T08:20:28.900000Z</time>
      </trkpt>
      <trkpt lat="37.84818361099557" lon="112.00693683174293">
        <ele>1116.5903140333903</ele>
        <time>2016-05-22T08:20:39.900000Z</time>
      </trkpt>
      <trkpt lat="37.84812268971504" lon="112.00689521094206">
        <ele>1116.644931093149</ele>
        <time>2016-05-22T08:20:43.800000Z</time>
      </trkpt>
      <trkpt lat="37.847769962623005" lon="112.00681145633595">
        <ele>1117.6283243590585</ele>
        <time>2016-05-22T08:20:57.800000Z</time>
      </trkpt>
      <trkpt lat="37.84755660775207" lon="112.00675525697028">
        <ele>1118.3394389887756</ele>
        <time>2016-05-22T08:21:04.900000Z</time>
      </trkpt>
      <trkpt lat="37.847266700434076" lon="112.00671339328136">
        <ele>1120.1938230132105</ele>
        <time>2016-05-22T08:21:15.900000Z</time>
      </trkpt>
      <trkpt lat="37.847184861742505" lon="112.00668069537669">
        <ele>1120.832671257024</ele>
        <time>2016-05-22T08:21:19.900000Z</time>
      </trkpt>
      <trkpt lat="37.846820188516595" lon="112.00669101070682">
        <ele>1121.4223330994844</ele>
        <time>2016-05-22T08:21:33.800000Z</time>
      </trkpt>
      <trkpt lat="37.84656346834028" lon="112.00671104436888">
        <ele>1122.0449569055222</ele>
        <time>2016-05-22T08:21:43.800000Z</time>
      </trkpt>
      <trkpt lat="37.84628933350852" lon="112.00665701481762">
        <ele>1124.0702938945253</ele>
        <time>2016-05-22T08:21:53.900000Z</time>
      </trkpt>
      <trkpt lat="37.84619303810202" lon="112.00665026852559">
        <ele>1124.403041720785</ele>
        <time>2016-05-22T08:21:57.900000Z</time>
      </trkpt>
      <trkpt lat="37.845887371736765" lon="112.00652515104034">
        <ele>1125.6594550565223</ele>
        <time>2016-05-22T08:22:11.900000Z</time>
      </trkpt>
      <trkpt lat="37.84549517101586" lon="112.00639544881874">
        <ele>1125.8130026476817</ele>
        <time>2016-05-22T08:22:26.900000Z</time>
      </trkpt>
      <trkpt lat="37.845285627961495" lon="112.00633492435611">
        <ele>1126.244435431116</ele>
        <time>2016-05-22T08:22:33.800000Z</time>
      </trkpt>
      <trkpt lat="37.84520895731706" lon="112.00629790104625">
        <ele>1126.819842847553</ele>
        <time>2016-05-22T08:22:36.900000Z</time>
      </trkpt>
      <trkpt lat="37.84491477415937" lon="112.00623441335183">
        <ele>1127.206341239512</ele>
        <time>2016-05-22T08:22:46.800000Z</time>
      </trkpt>
      <trkpt lat="37.84460835468452" lon="112.0061801176883">
        <ele>1127.4538331594715</ele>
        <time>2016-05-22T08:22:57.900000Z</time>
      </trkpt>
      <trkpt lat="37.84450993005565" lon="112.00615958591544">
        <ele>1127.7469863818906</ele>
        <time>2016-05-22T08:23:01.800000Z</time>
      </trkpt>
      <trkpt lat="37.84444181485359" lon="112.00616500022473">
        <ele>1127.8296542452772</ele>
        <time>2016-05-22T08:23:04.900000Z</time>
      </trkpt>
      <trkpt lat="37.84418609597634" lon="112.00630424015907">
        <ele>1130.078120534185</ele>
        <time>2016-05-22T08:23:17.900000Z</time>
      </trkpt>
      <trkpt lat="37.84392800483632" lon="112.00642023395876">
        <ele>1132.1470579457318</ele>
        <time>2016-05-22T08:23:28.900000Z</time>
      </trkpt>
      <trkpt lat="37.84380220983211" lon="112.00647998756047">
        <ele>1132.1533597816076</ele>
        <time>2016-05-22T08:23:35.900000Z</time>
      </trkpt>
      <trkpt lat="37.84362605407507" lon="112.00668733703986">
        <ele>1133.1320056976533</ele>
        <time>2016-05-22T08:23:45.900000Z</time>
      </trkpt>
      <trkpt lat="37.843540759433914" lon="112.00672194706952">
        <ele>1132.539276438222</ele>
        <time>2016-05-22T08:23:49.800000Z</time>
      </trkpt>
      <trkpt lat="37.84327918718225" lon="112.00691389965964">
        <ele>1132.754470488612</ele>
        <time>2016-05-22T08:24:00.900000Z</time>
      </trkpt>
      <trkpt lat="37.84310728297445" lon="112.00706042952963">
        <ele>1132.867737201226</ele>
        <time>2016-05-22T08:24:07.800000Z</time>
      </trkpt>
      <trkpt lat="37.84282195506085" lon="112.00721237951353">
        <ele>1133.450428734589</ele>
        <time>2016-05-22T08:24:19.900000Z</time>
      </trkpt>
      <trkpt lat="37.84261418379404" lon="112.00737729566185">
        <ele>1133.8976197415184</ele>
        <time>2016-05-22T08:24:30.800000Z</time>
      </trkpt>
      <trkpt lat="37.84249574068023" lon="112.00751976544423">
        <ele>1134.1563004832842</ele>
        <time>2016-05-22T08:24:37.800000Z</time>
      </trkpt>
      <trkpt lat="37.842205712404926" lon="112.00770172203853">
        <ele>1135.5898331670332</ele>
        <time>2016-05-22T08:24:51.900000Z</time>
      </trkpt>
      <trkpt lat="37.8419544082879" lon="112.00790854361023">
        <ele>1136.3208473845402</ele>
        <time>2016-05-22T08:25:02.900000Z</time>
      </trkpt>
      <trkpt lat="37.84168128386898" lon="112.00806292695515">
        <ele>1136.677118537998</ele>
        <time>2016-05-22T08:25:13.800000Z</time>
      </trkpt>
      <trkpt lat="37.8415310065983" lon="112.00814485095641">
        <ele>1137.1285935337048</ele>
        <time>2016-05-22T08:25:19.900000Z</time>
      </trkpt>
      <trkpt lat="37.84130598614942" lon="112.00818001905907">
        <ele>1138.6249305164088</ele>
        <time>2016-05-22T08:25:29.900000Z</time>
      </trkpt>
      <trkpt lat="37.841154566895796" lon="112.00818949823774">
        <ele>1139.12078829096</ele>
        <time>2016-05-22T08:25:36.900000Z</time>
      </trkpt>
      <trkpt lat="37.84099660017891" lon="112.00811950491307">
        <ele>1139.8615851511045</ele>
        <time>2016-05-22T08:25:43.900000Z</time>
      </trkpt>
      <trkpt lat="37.84069315752535" lon="112.00806764025378">
        <ele>1142.6364442565036</ele>
        <time>2016-05-22T08:25:57.900000Z</time>
      </trkpt>
      <trkpt lat="37.840519010695424" lon="112.00805603740751">
        <ele>1143.2454323552195</ele>
        <time>2016-05-22T08:26:04.800000Z</time>
      </trkpt>
      <trkpt lat="37.84043173443586" lon="112.00802712392314">
        <ele>1143.3034702844986</ele>
        <time>2016-05-22T08:26:07.900000Z</time>
      </trkpt>
      <trkpt lat="37.84031673248847" lon="112.00801578434297">
        <ele>1143.0678780581259</ele>
        <time>2016-05-22T08:26:11.900000Z</time>
      </trkpt>
      <trkpt lat="37.840187858179924" lon="112.00783333620404">
        <ele>1142.8280278707336</ele>
        <time>2016-05-22T08:26:19.900000Z</time>
      </trkpt>
      <trkpt lat="37.83992456116021" lon="112.0076014369511">
        <ele>1142.452593336999</ele>
        <time>2016-05-22T08:26:30.900000Z</time>
      </trkpt>
      <trkpt lat="37.83985772320859" lon="112.00754224596932">
        <ele>1142.3385260116893</ele>
        <time>2016-05-22T08:26:34.900000Z</time>
      </trkpt>
      <trkpt lat="37.839682659008325" lon="112.0074741475725">
        <ele>1141.9798408677977</ele>
        <time>2016-05-22T08:26:41.800000Z</time>
      </trkpt>
      <trkpt lat="37.83982784378402" lon="112.00755414338364">
        <ele>1138.1086761245656</ele>
        <time>2016-05-22T08:26:48.900000Z</time>
      </trkpt>
      <trkpt lat="37.83994062381073" lon="112.00758278330349">
        <ele>1135.069932678821</ele>
        <time>2016-05-22T08:26:52.800000Z</time>
      </trkpt>
      <trkpt lat="37.840050667767244" lon="112.0077106292507">
        <ele>1132.756667953507</ele>
        <time>2016-05-22T08:27:00.900000Z</time>
      </trkpt>
      <trkpt lat="37.84014158479399" lon="112.00788416114162">
        <ele>1130.509402389335</ele>
        <time>2016-05-22T08:27:08.900000Z</time>
      </trkpt>
      <trkpt lat="37.840259029077615" lon="112.00798686734758">
        <ele>1129.7285138577486</ele>
        <time>2016-05-22T08:27:14.900000Z</time>
      </trkpt>
      <trkpt lat="37.84039017911654" lon="112.0080422666213">
        <ele>1129.0745008001077</ele>
        <time>2016-05-22T08:27:21.900000Z</time>
      </trkpt>
      <trkpt lat="37.840471260874914" lon="112.00805577278835">
        <ele>1128.6367262225492</ele>
        <time>2016-05-22T08:27:24.900000Z</time>
      </trkpt>
      <trkpt lat="37.84054329573701" lon="112.00810090712558">
        <ele>1128.314759478818</ele>
        <time>2016-05-22T08:27:28.900000Z</time>
      </trkpt>
      <trkpt lat="37.84079010973912" lon="112.0081273687508">
        <ele>1127.8723117885154</ele>
        <time>2016-05-22T08:27:36.800000Z</time>
      </trkpt>
      <trkpt lat="37.84086733076337" lon="112.00816196014271">
        <ele>1127.7751491299</ele>
        <time>2016-05-22T08:27:39.900000Z</time>
      </trkpt>
      <trkpt lat="37.84115942807955" lon="112.00819706654605">
        <ele>1127.0690716148376</ele>
        <time>2016-05-22T08:27:50.900000Z</time>
      </trkpt>
      <trkpt lat="37.84132248007709" lon="112.00819893931046">
        <ele>1126.6866740479259</ele>
        <time>2016-05-22T08:27:57.900000Z</time>
      </trkpt>
      <trkpt lat="37.841511183322694" lon="112.00815080030138">
        <ele>1126.111454077198</ele>
        <time>2016-05-22T08:28:04.800000Z</time>
      </trkpt>
      <trkpt lat="37.841814445444435" lon="112.00798884428218">
        <ele>1125.989142520671</ele>
        <time>2016-05-22T08:28:15.900000Z</time>
      </trkpt>
      <trkpt lat="37.84209850258822" lon="112.00780742822546">
        <ele>1126.6056887922232</ele>
        <time>2016-05-22T08:28:26.900000Z</time>
      </trkpt>
      <trkpt lat="37.842355445951455" lon="112.00762033929792">
        <ele>1127.6580120519543</ele>
        <time>2016-05-22T08:28:37.800000Z</time>
      </trkpt>
      <trkpt lat="37.84259662806462" lon="112.00744190284314">
        <ele>1127.4179612035878</ele>
        <time>2016-05-22T08:28:47.900000Z</time>
      </trkpt>
      <trkpt lat="37.842665541002184" lon="112.00735052845027">
        <ele>1127.466803064182</ele>
        <time>2016-05-22T08:28:51.900000Z</time>
      </trkpt>
      <trkpt lat="37.84291676704135" lon="112.00717046964277">
        <ele>1127.68196680514</ele>
        <time>2016-05-22T08:29:02.900000Z</time>
      </trkpt>
      <trkpt lat="37.84317672850257" lon="112.00697256965199">
        <ele>1128.1450376786331</ele>
        <time>2016-05-22T08:29:13.900000Z</time>
      </trkpt>
      <trkpt lat="37.843428689532004" lon="112.00672817760014">
        <ele>1128.3073179583266</ele>
        <time>2016-05-22T08:29:24.800000Z</time>
      </trkpt>
      <trkpt lat="37.84359509563321" lon="112.00660597707505">
        <ele>1127.3386498198852</ele>
        <time>2016-05-22T08:29:31.800000Z</time>
      </trkpt>
      <trkpt lat="37.843834346969544" lon="112.00643889654103">
        <ele>1126.460075837113</ele>
        <time>2016-05-22T08:29:41.900000Z</time>
      </trkpt>
      <trkpt lat="37.844126590210706" lon="112.00633398134532">
        <ele>1126.696548273346</ele>
        <time>2016-05-22T08:29:53.900000Z</time>
      </trkpt>
      <trkpt lat="37.84447329257994" lon="112.00616310430564">
        <ele>1127.8591675851405</ele>
        <time>2016-05-22T08:30:07.800000Z</time>
      </trkpt>
      <trkpt lat="37.84459701606821" lon="112.00616119738608">
        <ele>1127.4552782104377</ele>
        <time>2016-05-22T08:30:11.900000Z</time>
      </trkpt>
      <trkpt lat="37.844964316068825" lon="112.00627062893632">
        <ele>1126.0922533191065</ele>
        <time>2016-05-22T08:30:26.800000Z</time>
      </trkpt>
      <trkpt lat="37.845235682525505" lon="112.00634303961185">
        <ele>1125.236990673356</ele>
        <time>2016-05-22T08:30:37.800000Z</time>
      </trkpt>
      <trkpt lat="37.845509184125525" lon="112.0064273437552">
        <ele>1125.3468607478221</ele>
        <time>2016-05-22T08:30:48.900000Z</time>
      </trkpt>
      <trkpt lat="37.84585194504005" lon="112.00657759555361">
        <ele>1124.4753538826599</ele>
        <time>2016-05-22T08:31:02.800000Z</time>
      </trkpt>
      <trkpt lat="37.84618402445406" lon="112.00667054293879">
        <ele>1122.1992060491352</ele>
        <time>2016-05-22T08:31:13.900000Z</time>
      </trkpt>
      <trkpt lat="37.846360595830525" lon="112.00668809210708">
        <ele>1120.8611084282543</ele>
        <time>2016-05-22T08:31:20.900000Z</time>
      </trkpt>
      <trkpt lat="37.84640488317502" lon="112.0066667322365">
        <ele>1120.6978060642318</ele>
        <time>2016-05-22T08:31:23.900000Z</time>
      </trkpt>
      <trkpt lat="37.84631834209886" lon="112.00657321494779">
        <ele>1120.9471865669138</ele>
        <time>2016-05-22T08:31:34.800000Z</time>
      </trkpt>
      <trkpt lat="37.845915014079885" lon="112.00653568985977">
        <ele>1121.6701737073472</ele>
        <time>2016-05-22T08:31:48.900000Z</time>
      </trkpt>
      <trkpt lat="37.84564590726665" lon="112.00643327427483">
        <ele>1120.775563619509</ele>
        <time>2016-05-22T08:31:59.900000Z</time>
      </trkpt>
      <trkpt lat="37.84544437322427" lon="112.00632544457571">
        <ele>1120.1894835289252</ele>
        <time>2016-05-22T08:32:10.800000Z</time>
      </trkpt>
      <trkpt lat="37.84517511354902" lon="112.00627438813254">
        <ele>1119.9955160776503</ele>
        <time>2016-05-22T08:32:20.900000Z</time>
      </trkpt>
      <trkpt lat="37.84504332323528" lon="112.00625196814605">
        <ele>1119.94498277806</ele>
        <time>2016-05-22T08:32:24.800000Z</time>
      </trkpt>
      <trkpt lat="37.84499622958104" lon="112.00621358980293">
        <ele>1120.1627997293178</ele>
        <time>2016-05-22T08:32:27.800000Z</time>
      </trkpt>
      <trkpt lat="37.84472971944544" lon="112.00615036918911">
        <ele>1121.4254804273232</ele>
        <time>2016-05-22T08:32:38.900000Z</time>
      </trkpt>
      <trkpt lat="37.84456473569623" lon="112.00615930907043">
        <ele>1122.037091521919</ele>
        <time>2016-05-22T08:32:45.800000Z</time>
      </trkpt>
      <trkpt lat="37.844403992145914" lon="112.00620203712275">
        <ele>1122.6868436928628</ele>
        <time>2016-05-22T08:32:52.800000Z</time>
      </trkpt>
      <trkpt lat="37.844224127879556" lon="112.00628801703428">
        <ele>1122.7802828111485</ele>
        <time>2016-05-22T08:32:59.900000Z</time>
      </trkpt>
      <trkpt lat="37.84393601929278" lon="112.00646213110998">
        <ele>1123.684011246832</ele>
        <time>2016-05-22T08:33:10.800000Z</time>
      </trkpt>
      <trkpt lat="37.84377952188466" lon="112.00653675549742">
        <ele>1124.448391967208</ele>
        <time>2016-05-22T08:33:17.800000Z</time>
      </trkpt>
      <trkpt lat="37.84373049909955" lon="112.00659947346189">
        <ele>1124.5820902237713</ele>
        <time>2016-05-22T08:33:20.900000Z</time>
      </trkpt>
      <trkpt lat="37.84355058537818" lon="112.00670221316493">
        <ele>1125.9599210799402</ele>
        <time>2016-05-22T08:33:28.900000Z</time>
      </trkpt>
      <trkpt lat="37.84331477715736" lon="112.00689767668477">
        <ele>1128.1391101414367</ele>
        <time>2016-05-22T08:33:39.900000Z</time>
      </trkpt>
      <trkpt lat="37.84307507220311" lon="112.00712638971966">
        <ele>1129.820726861625</ele>
        <time>2016-05-22T08:33:51.800000Z</time>
      </trkpt>
      <trkpt lat="37.84293387628404" lon="112.00725615694266">
        <ele>1130.3547158798601</ele>
        <time>2016-05-22T08:33:59.900000Z</time>
      </trkpt>
      <trkpt lat="37.842648482925156" lon="112.00743027314265">
        <ele>1132.6801239566762</ele>
        <time>2016-05-22T08:34:12.900000Z</time>
      </trkpt>
      <trkpt lat="37.84251918172507" lon="112.007483270184">
        <ele>1133.8631148579911</ele>
        <time>2016-05-22T08:34:19.800000Z</time>
      </trkpt>
      <trkpt lat="37.84230714891838" lon="112.00771306318195">
        <ele>1134.2941542863043</ele>
        <time>2016-05-22T08:34:29.900000Z</time>
      </trkpt>
      <trkpt lat="37.842113042773995" lon="112.00784473008264">
        <ele>1134.3989812463658</ele>
        <time>2016-05-22T08:34:37.900000Z</time>
      </trkpt>
      <trkpt lat="37.841847949597444" lon="112.00794396774944">
        <ele>1136.7467998575794</ele>
        <time>2016-05-22T08:34:48.900000Z</time>
      </trkpt>
      <trkpt lat="37.8417674486542" lon="112.00800912363613">
        <ele>1137.6198291490057</ele>
        <time>2016-05-22T08:34:52.800000Z</time>
      </trkpt>
      <trkpt lat="37.84148136397478" lon="112.00814242402541">
        <ele>1140.1244066106385</ele>
        <time>2016-05-22T08:35:05.900000Z</time>
      </trkpt>
      <trkpt lat="37.84135725583118" lon="112.0081827161147">
        <ele>1140.1420265437562</ele>
        <time>2016-05-22T08:35:09.800000Z</time>
      </trkpt>
      <trkpt lat="37.841101912662374" lon="112.00819626245722">
        <ele>1140.8076801841773</ele>
        <time>2016-05-22T08:35:20.900000Z</time>
      </trkpt>
      <trkpt lat="37.840892592242604" lon="112.00815195538844">
        <ele>1140.7944817286937</ele>
        <time>2016-05-22T08:35:28.900000Z</time>
      </trkpt>
      <trkpt lat="37.84062924669235" lon="112.00811927843183">
        <ele>1139.1816419019517</ele>
        <time>2016-05-22T08:35:40.900000Z</time>
      </trkpt>
      <trkpt lat="37.84044438433841" lon="112.00806145264987">
        <ele>1137.8575307333351</ele>
        <time>2016-05-22T08:35:48.800000Z</time>
      </trkpt>
      <trkpt lat="37.84026022707939" lon="112.00804038990987">
        <ele>1136.4938013089645</ele>
        <time>2016-05-22T08:35:56.800000Z</time>
      </trkpt>
      <trkpt lat="37.84015846169864" lon="112.00804851155745">
        <ele>1131.40780129155</ele>
        <time>2016-05-22T08:35:59.800000Z</time>
      </trkpt>
      <trkpt lat="37.840115150539006" lon="112.00801526776249">
        <ele>1131.4557856482484</ele>
        <time>2016-05-22T08:36:03.900000Z</time>
      </trkpt>
      <trkpt lat="37.83994167758898" lon="112.0080509702761">
        <ele>1134.2319851454333</ele>
        <time>2016-05-22T08:36:13.900000Z</time>
      </trkpt>
      <trkpt lat="37.83963828150877" lon="112.00807506468233">
        <ele>1135.7009985380635</ele>
        <time>2016-05-22T08:36:25.800000Z</time>
      </trkpt>
      <trkpt lat="37.83953600157188" lon="112.00807372530163">
        <ele>1136.0372387769114</ele>
        <time>2016-05-22T08:36:29.800000Z</time>
      </trkpt>
      <trkpt lat="37.83943310697445" lon="112.00809671452448">
        <ele>1136.6597858247387</ele>
        <time>2016-05-22T08:36:33.800000Z</time>
      </trkpt>
      <trkpt lat="37.83936054149918" lon="112.0081391629748">
        <ele>1136.9832442475083</ele>
        <time>2016-05-22T08:36:36.800000Z</time>
      </trkpt>
      <trkpt lat="37.839230786429525" lon="112.00816242574405">
        <ele>1137.4805465789048</ele>
        <time>2016-05-22T08:36:43.800000Z</time>
      </trkpt>
      <trkpt lat="37.83935034297289" lon="112.00819322766172">
        <ele>1137.089068713376</ele>
        <time>2016-05-22T08:36:53.800000Z</time>
      </trkpt>
      <trkpt lat="37.83968887403117" lon="112.00812317508249">
        <ele>1136.4044718693237</ele>
        <time>2016-05-22T08:37:07.900000Z</time>
      </trkpt>
      <trkpt lat="37.84004066099874" lon="112.00806609621084">
        <ele>1134.496856980934</ele>
        <time>2016-05-22T08:37:21.900000Z</time>
      </trkpt>
      <trkpt lat="37.840310337823105" lon="112.00806795625058">
        <ele>1131.6286801232852</ele>
        <time>2016-05-22T08:37:31.900000Z</time>
      </trkpt>
      <trkpt lat="37.84063734438343" lon="112.00813333395811">
        <ele>1129.9339045160436</ele>
        <time>2016-05-22T08:37:45.900000Z</time>
      </trkpt>
      <trkpt lat="37.8407577885859" lon="112.00813926656413">
        <ele>1129.740733664002</ele>
        <time>2016-05-22T08:37:49.900000Z</time>
      </trkpt>
      <trkpt lat="37.84110404233928" lon="112.00821004839483">
        <ele>1128.899628268739</ele>
        <time>2016-05-22T08:38:04.800000Z</time>
      </trkpt>
      <trkpt lat="37.84128417569049" lon="112.00821570356658">
        <ele>1128.1672305428917</ele>
        <time>2016-05-22T08:38:11.900000Z</time>
      </trkpt>
      <trkpt lat="37.84151760034559" lon="112.00818269697996">
        <ele>1126.1913393469954</ele>
        <time>2016-05-22T08:38:19.800000Z</time>
      </trkpt>
      <trkpt lat="37.84184453369138" lon="112.00799803145581">
        <ele>1126.206838901201</ele>
        <time>2016-05-22T08:38:29.900000Z</time>
      </trkpt>
      <trkpt lat="37.84212948169066" lon="112.00779066495113">
        <ele>1127.0471388049118</ele>
        <time>2016-05-22T08:38:40.800000Z</time>
      </trkpt>
      <trkpt lat="37.842440286593735" lon="112.00755572391456">
        <ele>1127.3652005993713</ele>
        <time>2016-05-22T08:38:54.900000Z</time>
      </trkpt>
      <trkpt lat="37.84274724327083" lon="112.00733781394955">
        <ele>1128.268099664015</ele>
        <time>2016-05-22T08:39:08.800000Z</time>
      </trkpt>
      <trkpt lat="37.84298307936133" lon="112.00713261789369">
        <ele>1127.4028187036206</ele>
        <time>2016-05-22T08:39:18.900000Z</time>
      </trkpt>
      <trkpt lat="37.843246829620306" lon="112.00693796130864">
        <ele>1128.2839629961497</ele>
        <time>2016-05-22T08:39:29.900000Z</time>
      </trkpt>
      <trkpt lat="37.84351550901162" lon="112.00672816724476">
        <ele>1125.7851265492452</ele>
        <time>2016-05-22T08:39:40.900000Z</time>
      </trkpt>
      <trkpt lat="37.84381741129953" lon="112.00647728264236">
        <ele>1124.5026958887277</ele>
        <time>2016-05-22T08:39:55.800000Z</time>
      </trkpt>
      <trkpt lat="37.843989999907535" lon="112.00637454414091">
        <ele>1123.9774376627147</ele>
        <time>2016-05-22T08:40:02.900000Z</time>
      </trkpt>
      <trkpt lat="37.84421759787598" lon="112.00629423493847">
        <ele>1124.5926657523455</ele>
        <time>2016-05-22T08:40:12.800000Z</time>
      </trkpt>
      <trkpt lat="37.844488791987075" lon="112.0061514791574">
        <ele>1124.8688077135075</ele>
        <time>2016-05-22T08:40:23.900000Z</time>
      </trkpt>
      <trkpt lat="37.84460908521484" lon="112.00611713554198">
        <ele>1125.0367565409567</ele>
        <time>2016-05-22T08:40:27.800000Z</time>
      </trkpt>
      <trkpt lat="37.844894364965555" lon="112.00616386501929">
        <ele>1123.833780202374</ele>
        <time>2016-05-22T08:40:37.800000Z</time>
      </trkpt>
      <trkpt lat="37.84514819892952" lon="112.00629277240617">
        <ele>1124.6319887934778</ele>
        <time>2016-05-22T08:40:51.800000Z</time>
      </trkpt>
      <trkpt lat="37.84534667539837" lon="112.00633410614543">
        <ele>1124.4716337337875</ele>
        <time>2016-05-22T08:40:58.800000Z</time>
      </trkpt>
      <trkpt lat="37.84562256563695" lon="112.00643625047236">
        <ele>1124.2415162328173</ele>
        <time>2016-05-22T08:41:09.900000Z</time>
      </trkpt>
      <trkpt lat="37.84590330098513" lon="112.00655136927928">
        <ele>1124.5237594913742</ele>
        <time>2016-05-22T08:41:19.800000Z</time>
      </trkpt>
      <trkpt lat="37.84600469813454" lon="112.00657595546808">
        <ele>1124.0999745990605</ele>
        <time>2016-05-22T08:41:23.800000Z</time>
      </trkpt>
      <trkpt lat="37.84634678551241" lon="112.00667917348288">
        <ele>1121.9735766801346</ele>
        <time>2016-05-22T08:41:38.800000Z</time>
      </trkpt>
      <trkpt lat="37.846422165806764" lon="112.00669403161086">
        <ele>1121.9846947750939</ele>
        <time>2016-05-22T08:41:41.800000Z</time>
      </trkpt>
      <trkpt lat="37.84642157485516" lon="112.00661915549118">
        <ele>1121.1981886927347</ele>
        <time>2016-05-22T08:41:48.800000Z</time>
      </trkpt>
      <trkpt lat="37.84627469559494" lon="112.0065615967889">
        <ele>1120.727536990257</ele>
        <time>2016-05-22T08:41:56.900000Z</time>
      </trkpt>
      <trkpt lat="37.846199555233895" lon="112.0065572807791">
        <ele>1120.989157515927</ele>
        <time>2016-05-22T08:42:00.900000Z</time>
      </trkpt>
      <trkpt lat="37.8459002884873" lon="112.00646973583574">
        <ele>1122.8227567063025</ele>
        <time>2016-05-22T08:42:12.900000Z</time>
      </trkpt>
      <trkpt lat="37.845665169560085" lon="112.00643354228768">
        <ele>1122.7768182355005</ele>
        <time>2016-05-22T08:42:20.800000Z</time>
      </trkpt>
      <trkpt lat="37.84560205797388" lon="112.00639867979258">
        <ele>1122.8398081882226</ele>
        <time>2016-05-22T08:42:23.800000Z</time>
      </trkpt>
      <trkpt lat="37.845518534401" lon="112.00638517424628">
        <ele>1122.9691157386121</ele>
        <time>2016-05-22T08:42:26.800000Z</time>
      </trkpt>
      <trkpt lat="37.845248184126575" lon="112.00624491566396">
        <ele>1123.7038541364811</ele>
        <time>2016-05-22T08:42:38.800000Z</time>
      </trkpt>
      <trkpt lat="37.84498005573653" lon="112.00617845150492">
        <ele>1124.2128977377565</ele>
        <time>2016-05-22T08:42:49.800000Z</time>
      </trkpt>
      <trkpt lat="37.844721405583265" lon="112.00611793307512">
        <ele>1123.5713324912665</ele>
        <time>2016-05-22T08:43:00.900000Z</time>
      </trkpt>
      <trkpt lat="37.844583879902295" lon="112.0061082183463">
        <ele>1123.4343085621485</ele>
        <time>2016-05-22T08:43:04.800000Z</time>
      </trkpt>
      <trkpt lat="37.84430273266068" lon="112.00622232241128">
        <ele>1124.9569698488976</ele>
        <time>2016-05-22T08:43:17.900000Z</time>
      </trkpt>
      <trkpt lat="37.843997588556384" lon="112.00637724633711">
        <ele>1125.9443958408349</ele>
        <time>2016-05-22T08:43:28.900000Z</time>
      </trkpt>
      <trkpt lat="37.84377780795889" lon="112.0064745842606">
        <ele>1126.4147168739642</ele>
        <time>2016-05-22T08:43:38.900000Z</time>
      </trkpt>
      <trkpt lat="37.84349170930699" lon="112.00670276081003">
        <ele>1127.3573725980937</ele>
        <time>2016-05-22T08:43:52.900000Z</time>
      </trkpt>
      <trkpt lat="37.84320675281924" lon="112.00691201611447">
        <ele>1129.11321900382</ele>
        <time>2016-05-22T08:44:07.800000Z</time>
      </trkpt>
      <trkpt lat="37.843064546893196" lon="112.00701637366024">
        <ele>1130.541359237178</ele>
        <time>2016-05-22T08:44:14.800000Z</time>
      </trkpt>
      <trkpt lat="37.84297393033214" lon="112.0071072095625">
        <ele>1130.8483543481527</ele>
        <time>2016-05-22T08:44:18.800000Z</time>
      </trkpt>
      <trkpt lat="37.842949358883345" lon="112.00715884228784">
        <ele>1130.885585843746</ele>
        <time>2016-05-22T08:44:21.900000Z</time>
      </trkpt>
      <trkpt lat="37.84281933655696" lon="112.00727184879474">
        <ele>1131.4655628258915</ele>
        <time>2016-05-22T08:44:29.800000Z</time>
      </trkpt>
      <trkpt lat="37.8425563994414" lon="112.00746704687745">
        <ele>1133.4149077213735</ele>
        <time>2016-05-22T08:44:42.900000Z</time>
      </trkpt>
      <trkpt lat="37.84246112537402" lon="112.00757329189044">
        <ele>1133.6210578590903</ele>
        <time>2016-05-22T08:44:46.800000Z</time>
      </trkpt>
      <trkpt lat="37.84215254389651" lon="112.00779039188363">
        <ele>1135.3406245487552</ele>
        <time>2016-05-22T08:45:00.900000Z</time>
      </trkpt>
      <trkpt lat="37.84198842626431" lon="112.00787339845064">
        <ele>1135.7225002309262</ele>
        <time>2016-05-22T08:45:08.900000Z</time>
      </trkpt>
      <trkpt lat="37.84172660554251" lon="112.0080585964769">
        <ele>1137.2259820674162</ele>
        <time>2016-05-22T08:45:20.800000Z</time>
      </trkpt>
      <trkpt lat="37.84157224740033" lon="112.00814430540052">
        <ele>1137.9291275849039</ele>
        <time>2016-05-22T08:45:27.800000Z</time>
      </trkpt>
      <trkpt lat="37.84125246356795" lon="112.00820516496792">
        <ele>1137.5288765370096</ele>
        <time>2016-05-22T08:45:41.900000Z</time>
      </trkpt>
      <trkpt lat="37.84116758739763" lon="112.00819030763624">
        <ele>1137.2232924872133</ele>
        <time>2016-05-22T08:45:45.800000Z</time>
      </trkpt>
      <trkpt lat="37.84102374724833" lon="112.00820573289671">
        <ele>1136.2166597885353</ele>
        <time>2016-05-22T08:45:51.900000Z</time>
      </trkpt>
      <trkpt lat="37.840676701195804" lon="112.00812765260088">
        <ele>1134.0029741050394</ele>
        <time>2016-05-22T08:46:03.900000Z</time>
      </trkpt>
      <trkpt lat="37.84036663997471" lon="112.00802037377201">
        <ele>1135.241893314641</ele>
        <time>2016-05-22T08:46:14.800000Z</time>
      </trkpt>
      <trkpt lat="37.840137862298995" lon="112.00795011876045">
        <ele>1136.6170663193573</ele>
        <time>2016-05-22T08:46:24.900000Z</time>
      </trkpt>
      <trkpt lat="37.839976871191645" lon="112.00798527911486">
        <ele>1137.9985999475432</ele>
        <time>2016-05-22T08:46:32.800000Z</time>
      </trkpt>
      <trkpt lat="37.83985784192392" lon="112.0080512505963">
        <ele>1138.6790479481147</ele>
        <time>2016-05-22T08:46:39.800000Z</time>
      </trkpt>
      <trkpt lat="37.83974224615521" lon="112.0080572113604">
        <ele>1138.7590419452508</ele>
        <time>2016-05-22T08:46:45.800000Z</time>
      </trkpt>
      <trkpt lat="37.83945149443061" lon="112.00811752674703">
        <ele>1139.1459433594434</ele>
        <time>2016-05-22T08:46:56.800000Z</time>
      </trkpt>
      <trkpt lat="37.83930170241505" lon="112.00812727603835">
        <ele>1139.3827918920383</ele>
        <time>2016-05-22T08:47:03.800000Z</time>
      </trkpt>
      <trkpt lat="37.8393571769389" lon="112.00817592653087">
        <ele>1140.325565812412</ele>
        <time>2016-05-22T08:47:10.800000Z</time>
      </trkpt>
      <trkpt lat="37.839489563491334" lon="112.00818023581229">
        <ele>1140.962379697967</ele>
        <time>2016-05-22T08:47:16.900000Z</time>
      </trkpt>
      <trkpt lat="37.83983416027656" lon="112.0080774741625">
        <ele>1139.327464929282</ele>
        <time>2016-05-22T08:47:28.800000Z</time>
      </trkpt>
      <trkpt lat="37.84014848006588" lon="112.0080293202556">
        <ele>1134.6421168987802</ele>
        <time>2016-05-22T08:47:39.900000Z</time>
      </trkpt>
      <trkpt lat="37.84045018994454" lon="112.00802495918704">
        <ele>1131.9870900402418</ele>
        <time>2016-05-22T08:47:51.900000Z</time>
      </trkpt>
      <trkpt lat="37.84077713086237" lon="112.0081125028571">
        <ele>1130.7987225127135</ele>
        <time>2016-05-22T08:48:06.800000Z</time>
      </trkpt>
      <trkpt lat="37.841124048858305" lon="112.0081421963475">
        <ele>1134.6955784011</ele>
        <time>2016-05-22T08:48:31.800000Z</time>
      </trkpt>
      <trkpt lat="37.841237665521696" lon="112.00816326753639">
        <ele>1135.480988986231</ele>
        <time>2016-05-22T08:48:38.800000Z</time>
      </trkpt>
      <trkpt lat="37.841329165181726" lon="112.00814027965001">
        <ele>1136.5239752590599</ele>
        <time>2016-05-22T08:48:46.800000Z</time>
      </trkpt>
      <trkpt lat="37.84144219842624" lon="112.00817513709151">
        <ele>1137.24403999605</ele>
        <time>2016-05-22T08:48:53.900000Z</time>
      </trkpt>
      <trkpt lat="37.84137422197244" lon="112.0082254242528">
        <ele>1158.1550277411332</ele>
        <time>2016-05-22T08:50:52.900000Z</time>
      </trkpt>
      <trkpt lat="37.84152572045695" lon="112.0081891836287">
        <ele>1158.4585155997613</ele>
        <time>2016-05-22T08:50:56.900000Z</time>
      </trkpt>
      <trkpt lat="37.84135214200386" lon="112.00835220595866">
        <ele>1150.083851737867</ele>
        <time>2016-05-22T08:52:12.900000Z</time>
      </trkpt>
      <trkpt lat="37.84142579214343" lon="112.00840166540438">
        <ele>1150.2966747514731</ele>
        <time>2016-05-22T08:52:15.900000Z</time>
      </trkpt>
      <trkpt lat="37.84118903242765" lon="112.008369796105">
        <ele>1149.5191026047091</ele>
        <time>2016-05-22T08:52:37.900000Z</time>
      </trkpt>
      <trkpt lat="37.841079434797734" lon="112.00827411661483">
        <ele>1149.774020103919</ele>
        <time>2016-05-22T08:52:48.800000Z</time>
      </trkpt>
      <trkpt lat="37.84139474654901" lon="112.00834922737485">
        <ele>1143.3015825435702</ele>
        <time>2016-05-22T08:54:12.900000Z</time>
      </trkpt>
      <trkpt lat="37.84126198674881" lon="112.00828761072015">
        <ele>1143.994800012457</ele>
        <time>2016-05-22T08:54:31.900000Z</time>
      </trkpt>
      <trkpt lat="37.841313609250584" lon="112.00817109767632">
        <ele>1144.3735700773573</ele>
        <time>2016-05-22T08:54:35.800000Z</time>
      </trkpt>
      <trkpt lat="37.84139109681065" lon="112.0081156733978">
        <ele>1144.7264918625492</ele>
        <time>2016-05-22T08:54:38.800000Z</time>
      </trkpt>
      <trkpt lat="37.84138749379276" lon="112.008049716487">
        <ele>1144.6901748559226</ele>
        <time>2016-05-22T08:54:42.800000Z</time>
      </trkpt>
      <trkpt lat="37.84173723405636" lon="112.00795100918693">
        <ele>1141.4213554324308</ele>
        <time>2016-05-22T08:55:12.800000Z</time>
      </trkpt>
      <trkpt lat="37.84183278584158" lon="112.00793396785356">
        <ele>1139.69522357412</ele>
        <time>2016-05-22T08:55:19.800000Z</time>
      </trkpt>
      <trkpt lat="37.84208874304369" lon="112.00771335955673">
        <ele>1139.984819849012</ele>
        <time>2016-05-22T08:55:34.800000Z</time>
      </trkpt>
      <trkpt lat="37.84234315977562" lon="112.00755492455842">
        <ele>1141.0930702210233</ele>
        <time>2016-05-22T08:55:45.800000Z</time>
      </trkpt>
      <trkpt lat="37.842660675072494" lon="112.00734458212455">
        <ele>1139.5038036872681</ele>
        <time>2016-05-22T08:56:01.800000Z</time>
      </trkpt>
      <trkpt lat="37.842744706022216" lon="112.00727861553871">
        <ele>1138.7094111471743</ele>
        <time>2016-05-22T08:56:05.800000Z</time>
      </trkpt>
      <trkpt lat="37.84301266509444" lon="112.00712828935559">
        <ele>1136.081282141744</ele>
        <time>2016-05-22T08:56:17.800000Z</time>
      </trkpt>
      <trkpt lat="37.84310068873073" lon="112.00708827253716">
        <ele>1134.5792240447126</ele>
        <time>2016-05-22T08:56:21.800000Z</time>
      </trkpt>
      <trkpt lat="37.843368324326256" lon="112.00686442191385">
        <ele>1132.1231920992714</ele>
        <time>2016-05-22T08:56:32.800000Z</time>
      </trkpt>
      <trkpt lat="37.843527540855064" lon="112.00669653937504">
        <ele>1130.8394836753052</ele>
        <time>2016-05-22T08:56:40.800000Z</time>
      </trkpt>
      <trkpt lat="37.84382470769652" lon="112.00648701295103">
        <ele>1129.620039430427</ele>
        <time>2016-05-22T08:56:54.800000Z</time>
      </trkpt>
      <trkpt lat="37.8441472743236" lon="112.00631235408483">
        <ele>1127.7718991371923</ele>
        <time>2016-05-22T08:57:08.800000Z</time>
      </trkpt>
      <trkpt lat="37.844534209006575" lon="112.00611525230698">
        <ele>1127.1709390754365</ele>
        <time>2016-05-22T08:57:23.800000Z</time>
      </trkpt>
      <trkpt lat="37.84480469844119" lon="112.00620874707343">
        <ele>1127.2811379707518</ele>
        <time>2016-05-22T08:57:34.800000Z</time>
      </trkpt>
      <trkpt lat="37.84505728712204" lon="112.00630035192317">
        <ele>1126.808303321826</ele>
        <time>2016-05-22T08:57:45.900000Z</time>
      </trkpt>
      <trkpt lat="37.84534334793854" lon="112.00635816413161">
        <ele>1128.5149736036487</ele>
        <time>2016-05-22T08:57:56.900000Z</time>
      </trkpt>
      <trkpt lat="37.84563818246328" lon="112.00647625454937">
        <ele>1128.3696950322021</ele>
        <time>2016-05-22T08:58:09.900000Z</time>
      </trkpt>
      <trkpt lat="37.845961371267634" lon="112.00654811862367">
        <ele>1127.3598104976886</ele>
        <time>2016-05-22T08:58:29.900000Z</time>
      </trkpt>
      <trkpt lat="37.84626478183955" lon="112.00661079455315">
        <ele>1126.5583216711868</ele>
        <time>2016-05-22T08:58:40.900000Z</time>
      </trkpt>
      <trkpt lat="37.846402038825175" lon="112.00661969844354">
        <ele>1126.7667607459302</ele>
        <time>2016-05-22T08:58:44.800000Z</time>
      </trkpt>
      <trkpt lat="37.84669540215446" lon="112.00668534905581">
        <ele>1126.475557433979</ele>
        <time>2016-05-22T08:58:55.900000Z</time>
      </trkpt>
      <trkpt lat="37.84697663945865" lon="112.00672315909347">
        <ele>1125.014222569086</ele>
        <time>2016-05-22T08:59:07.800000Z</time>
      </trkpt>
      <trkpt lat="37.84706559904616" lon="112.0067334203153">
        <ele>1124.7456744391911</ele>
        <time>2016-05-22T08:59:11.800000Z</time>
      </trkpt>
      <trkpt lat="37.84735927653637" lon="112.00678474447352">
        <ele>1123.3065844460953</ele>
        <time>2016-05-22T08:59:22.800000Z</time>
      </trkpt>
      <trkpt lat="37.84764571156045" lon="112.00680822741842">
        <ele>1122.068363274689</ele>
        <time>2016-05-22T08:59:32.900000Z</time>
      </trkpt>
      <trkpt lat="37.847731696421775" lon="112.00681524526556">
        <ele>1121.877038433422</ele>
        <time>2016-05-22T08:59:35.900000Z</time>
      </trkpt>
      <trkpt lat="37.84806301321075" lon="112.00689116338113">
        <ele>1119.8062350228238</ele>
        <time>2016-05-22T08:59:49.900000Z</time>
      </trkpt>
      <trkpt lat="37.848165487796436" lon="112.00691845267673">
        <ele>1119.0295904328832</ele>
        <time>2016-05-22T08:59:53.900000Z</time>
      </trkpt>
      <trkpt lat="37.84832351173555" lon="112.00706034784544">
        <ele>1118.6310743355714</ele>
        <time>2016-05-22T09:00:00.800000Z</time>
      </trkpt>
      <trkpt lat="37.84855326474134" lon="112.00735036657717">
        <ele>1119.0028078082576</ele>
        <time>2016-05-22T09:00:11.800000Z</time>
      </trkpt>
      <trkpt lat="37.848745338493515" lon="112.00762957845197">
        <ele>1120.2537767763508</ele>
        <time>2016-05-22T09:00:22.900000Z</time>
      </trkpt>
      <trkpt lat="37.84897461953659" lon="112.00798798974276">
        <ele>1121.5793929580816</ele>
        <time>2016-05-22T09:00:37.800000Z</time>
      </trkpt>
      <trkpt lat="37.849162277687554" lon="112.00829315536943">
        <ele>1121.5662786574073</ele>
        <time>2016-05-22T09:00:48.800000Z</time>
      </trkpt>
      <trkpt lat="37.84932689307248" lon="112.00859237819928">
        <ele>1121.507916512095</ele>
        <time>2016-05-22T09:00:59.800000Z</time>
      </trkpt>
      <trkpt lat="37.8495705587837" lon="112.00895052290343">
        <ele>1121.6571257643295</ele>
        <time>2016-05-22T09:01:13.800000Z</time>
      </trkpt>
      <trkpt lat="37.849759282057995" lon="112.00926380280376">
        <ele>1121.8565450578444</ele>
        <time>2016-05-22T09:01:26.900000Z</time>
      </trkpt>
      <trkpt lat="37.84981962358437" lon="112.00941058065301">
        <ele>1121.772669086736</ele>
        <time>2016-05-22T09:01:30.800000Z</time>
      </trkpt>
      <trkpt lat="37.84987581236032" lon="112.00967792372465">
        <ele>1120.4099068020673</ele>
        <time>2016-05-22T09:01:37.900000Z</time>
      </trkpt>
      <trkpt lat="37.84990347050326" lon="112.01005259064985">
        <ele>1120.1704950417418</ele>
        <time>2016-05-22T09:01:47.800000Z</time>
      </trkpt>
      <trkpt lat="37.84989179905324" lon="112.01042429114757">
        <ele>1121.5026175796736</ele>
        <time>2016-05-22T09:01:58.800000Z</time>
      </trkpt>
      <trkpt lat="37.849873989100296" lon="112.01085465636928">
        <ele>1121.3077568351737</ele>
        <time>2016-05-22T09:02:12.900000Z</time>
      </trkpt>
      <trkpt lat="37.84982227412727" lon="112.01128286640723">
        <ele>1120.4042720625935</ele>
        <time>2016-05-22T09:02:26.900000Z</time>
      </trkpt>
      <trkpt lat="37.84978551392839" lon="112.01170080542981">
        <ele>1119.4239719174223</ele>
        <time>2016-05-22T09:02:38.900000Z</time>
      </trkpt>
      <trkpt lat="37.84975083103624" lon="112.0121517285989">
        <ele>1118.9847252848497</ele>
        <time>2016-05-22T09:02:52.900000Z</time>
      </trkpt>
      <trkpt lat="37.849725134976374" lon="112.01249857439068">
        <ele>1118.163103652642</ele>
        <time>2016-05-22T09:03:02.900000Z</time>
      </trkpt>
      <trkpt lat="37.8496818898786" lon="112.01291003602778">
        <ele>1117.766075467293</ele>
        <time>2016-05-22T09:03:14.900000Z</time>
      </trkpt>
      <trkpt lat="37.849638004998404" lon="112.01335610510043">
        <ele>1117.0503394462742</ele>
        <time>2016-05-22T09:03:28.800000Z</time>
      </trkpt>
      <trkpt lat="37.84960934174779" lon="112.01379352546425">
        <ele>1116.3337670529</ele>
        <time>2016-05-22T09:03:41.800000Z</time>
      </trkpt>
      <trkpt lat="37.849583108412084" lon="112.0141417348673">
        <ele>1116.3740037430648</ele>
        <time>2016-05-22T09:03:53.800000Z</time>
      </trkpt>
      <trkpt lat="37.849564406619535" lon="112.01460808891206">
        <ele>1114.8172272313695</ele>
        <time>2016-05-22T09:04:07.800000Z</time>
      </trkpt>
      <trkpt lat="37.84954965912373" lon="112.01483140054766">
        <ele>1113.4649872643472</ele>
        <time>2016-05-22T09:04:14.900000Z</time>
      </trkpt>
      <trkpt lat="37.8494853056049" lon="112.01522963795314">
        <ele>1112.8462396802397</ele>
        <time>2016-05-22T09:04:25.800000Z</time>
      </trkpt>
      <trkpt lat="37.84943793753131" lon="112.01566653793722">
        <ele>1112.318326024619</ele>
        <time>2016-05-22T09:04:39.800000Z</time>
      </trkpt>
      <trkpt lat="37.84939885623519" lon="112.01595717711085">
        <ele>1111.7817568115777</ele>
        <time>2016-05-22T09:04:47.900000Z</time>
      </trkpt>
      <trkpt lat="37.8493334439788" lon="112.01634893634986">
        <ele>1111.6937947445933</ele>
        <time>2016-05-22T09:04:59.800000Z</time>
      </trkpt>
      <trkpt lat="37.84926864001307" lon="112.0168145085199">
        <ele>1112.3504594339736</ele>
        <time>2016-05-22T09:05:13.800000Z</time>
      </trkpt>
      <trkpt lat="37.849228858725866" lon="112.01725953505925">
        <ele>1112.9039900069774</ele>
        <time>2016-05-22T09:05:26.900000Z</time>
      </trkpt>
      <trkpt lat="37.849178724067635" lon="112.0176248086449">
        <ele>1112.0363600689914</ele>
        <time>2016-05-22T09:05:37.800000Z</time>
      </trkpt>
      <trkpt lat="37.849173351605025" lon="112.01789572048797">
        <ele>1111.3809820746824</ele>
        <time>2016-05-22T09:05:44.900000Z</time>
      </trkpt>
      <trkpt lat="37.8491181339022" lon="112.01823693727229">
        <ele>1111.4356691518947</ele>
        <time>2016-05-22T09:05:54.800000Z</time>
      </trkpt>
      <trkpt lat="37.84909269101291" lon="112.01831237466708">
        <ele>1111.65695313417</ele>
        <time>2016-05-22T09:05:57.900000Z</time>
      </trkpt>
      <trkpt lat="37.84909965521049" lon="112.0182474840641">
        <ele>1111.4728460824902</ele>
        <time>2016-05-22T09:06:08.800000Z</time>
      </trkpt>
      <trkpt lat="37.849109521415755" lon="112.0183091281589">
        <ele>1110.2331211536334</ele>
        <time>2016-05-22T09:06:18.800000Z</time>
      </trkpt>
      <trkpt lat="37.84909765247074" lon="112.01877066116019">
        <ele>1107.6174262379734</ele>
        <time>2016-05-22T09:06:33.800000Z</time>
      </trkpt>
      <trkpt lat="37.84908614703671" lon="112.0192005651545">
        <ele>1105.4148974860227</ele>
        <time>2016-05-22T09:06:45.800000Z</time>
      </trkpt>
      <trkpt lat="37.84908315491214" lon="112.01959478241325">
        <ele>1104.2297032334932</ele>
        <time>2016-05-22T09:06:56.800000Z</time>
      </trkpt>
      <trkpt lat="37.849109374488116" lon="112.02002279865503">
        <ele>1104.159578474956</ele>
        <time>2016-05-22T09:07:07.800000Z</time>
      </trkpt>
      <trkpt lat="37.849094468654606" lon="112.02041080718024">
        <ele>1105.2094409552346</ele>
        <time>2016-05-22T09:07:17.800000Z</time>
      </trkpt>
      <trkpt lat="37.84906914430299" lon="112.02083965039175">
        <ele>1106.4301147057513</ele>
        <time>2016-05-22T09:07:27.900000Z</time>
      </trkpt>
      <trkpt lat="37.849069476563166" lon="112.02121387575572">
        <ele>1107.8729242154984</ele>
        <time>2016-05-22T09:07:37.800000Z</time>
      </trkpt>
      <trkpt lat="37.849033537463505" lon="112.02165787231279">
        <ele>1109.1772826413048</ele>
        <time>2016-05-22T09:07:51.800000Z</time>
      </trkpt>
      <trkpt lat="37.8490235966927" lon="112.0221210700142">
        <ele>1109.52781507023</ele>
        <time>2016-05-22T09:08:05.900000Z</time>
      </trkpt>
      <trkpt lat="37.84903223719705" lon="112.02253722110378">
        <ele>1110.2692196092046</ele>
        <time>2016-05-22T09:08:16.800000Z</time>
      </trkpt>
      <trkpt lat="37.849030398165446" lon="112.02291714376327">
        <ele>1109.8516449087674</ele>
        <time>2016-05-22T09:08:26.800000Z</time>
      </trkpt>
      <trkpt lat="37.84905037390883" lon="112.02315645415835">
        <ele>1109.12076335049</ele>
        <time>2016-05-22T09:08:33.800000Z</time>
      </trkpt>
      <trkpt lat="37.84904676729223" lon="112.02328706331922">
        <ele>1108.7206764675784</ele>
        <time>2016-05-22T09:08:37.900000Z</time>
      </trkpt>
      <trkpt lat="37.849086560825484" lon="112.02342145356859">
        <ele>1108.9236566274683</ele>
        <time>2016-05-22T09:08:41.800000Z</time>
      </trkpt>
      <trkpt lat="37.8491000005763" lon="112.02377245001708">
        <ele>1109.6556218902906</ele>
        <time>2016-05-22T09:08:51.900000Z</time>
      </trkpt>
      <trkpt lat="37.849098316014015" lon="112.02389521930911">
        <ele>1109.8293369025685</ele>
        <time>2016-05-22T09:08:55.800000Z</time>
      </trkpt>
      <trkpt lat="37.84911829782033" lon="112.02403258904108">
        <ele>1109.9841003745673</ele>
        <time>2016-05-22T09:08:59.800000Z</time>
      </trkpt>
      <trkpt lat="37.849110442304166" lon="112.02412967024915">
        <ele>1110.48250452947</ele>
        <time>2016-05-22T09:09:02.900000Z</time>
      </trkpt>
      <trkpt lat="37.849159267506934" lon="112.02433761724632">
        <ele>1111.6686245896012</ele>
        <time>2016-05-22T09:09:09.800000Z</time>
      </trkpt>
      <trkpt lat="37.849145250964504" lon="112.02471188340746">
        <ele>1112.423841622418</ele>
        <time>2016-05-22T09:09:20.900000Z</time>
      </trkpt>
      <trkpt lat="37.84906995570407" lon="112.02507318085675">
        <ele>1112.364720268222</ele>
        <time>2016-05-22T09:09:30.800000Z</time>
      </trkpt>
      <trkpt lat="37.84903013583321" lon="112.02546098037377">
        <ele>1110.958010117187</ele>
        <time>2016-05-22T09:09:41.800000Z</time>
      </trkpt>
      <trkpt lat="37.849011848123006" lon="112.02560593358801">
        <ele>1110.5993632879415</ele>
        <time>2016-05-22T09:09:45.800000Z</time>
      </trkpt>
      <trkpt lat="37.848969191137776" lon="112.02573250097912">
        <ele>1109.8591141516442</ele>
        <time>2016-05-22T09:09:49.800000Z</time>
      </trkpt>
      <trkpt lat="37.84893086375196" lon="112.02607081881358">
        <ele>1107.7151783500526</ele>
        <time>2016-05-22T09:10:00.800000Z</time>
      </trkpt>
      <trkpt lat="37.848911165249916" lon="112.02623741004625">
        <ele>1107.1397682895283</ele>
        <time>2016-05-22T09:10:07.800000Z</time>
      </trkpt>
      <trkpt lat="37.84895664184946" lon="112.02627715887553">
        <ele>1105.903086396608</ele>
        <time>2016-05-22T09:10:21.800000Z</time>
      </trkpt>
      <trkpt lat="37.84891146218159" lon="112.02653976031901">
        <ele>1104.2090264843705</ele>
        <time>2016-05-22T09:10:38.800000Z</time>
      </trkpt>
      <trkpt lat="37.84883447229378" lon="112.02651570043187">
        <ele>1103.3207235336727</ele>
        <time>2016-05-22T09:10:45.800000Z</time>
      </trkpt>
      <trkpt lat="37.84851448305297" lon="112.02655900928211">
        <ele>1102.3096961376618</ele>
        <time>2016-05-22T09:11:02.800000Z</time>
      </trkpt>
      <trkpt lat="37.84824766187279" lon="112.02660582752996">
        <ele>1101.5303892869852</ele>
        <time>2016-05-22T09:11:21.900000Z</time>
      </trkpt>
      <trkpt lat="37.84804705872738" lon="112.02654148687206">
        <ele>1101.9844643591607</ele>
        <time>2016-05-22T09:11:32.800000Z</time>
      </trkpt>
      <trkpt lat="37.84784431500635" lon="112.02656990745102">
        <ele>1105.2563066315624</ele>
        <time>2016-05-22T09:11:43.800000Z</time>
      </trkpt>
      <trkpt lat="37.84773554834817" lon="112.02666295209661">
        <ele>1107.7754553719965</ele>
        <time>2016-05-22T09:11:56.800000Z</time>
      </trkpt>
      <trkpt lat="37.8476517681405" lon="112.02685064883111">
        <ele>1107.5582999794408</ele>
        <time>2016-05-22T09:12:09.800000Z</time>
      </trkpt>
      <trkpt lat="37.84758044598587" lon="112.02694260807375">
        <ele>1107.4870301814906</ele>
        <time>2016-05-22T09:12:16.800000Z</time>
      </trkpt>
      <trkpt lat="37.84755008686031" lon="112.02714138840234">
        <ele>1106.9149391821438</ele>
        <time>2016-05-22T09:12:24.800000Z</time>
      </trkpt>
      <trkpt lat="37.84755173370565" lon="112.02755436115882">
        <ele>1108.9566670198471</ele>
        <time>2016-05-22T09:12:45.800000Z</time>
      </trkpt>
      <trkpt lat="37.84752504885235" lon="112.02769716186486">
        <ele>1107.8990921456482</ele>
        <time>2016-05-22T09:12:52.900000Z</time>
      </trkpt>
      <trkpt lat="37.84739406873283" lon="112.02777804241718">
        <ele>1108.451381407084</ele>
        <time>2016-05-22T09:12:59.800000Z</time>
      </trkpt>
      <trkpt lat="37.847309114537204" lon="112.02800252800566">
        <ele>1109.4158209149805</ele>
        <time>2016-05-22T09:13:14.800000Z</time>
      </trkpt>
      <trkpt lat="37.8473196007476" lon="112.0283576341011">
        <ele>1109.5596956066597</ele>
        <time>2016-05-22T09:13:36.800000Z</time>
      </trkpt>
      <trkpt lat="37.84733067370935" lon="112.02859022640133">
        <ele>1111.8936918588718</ele>
        <time>2016-05-22T09:13:54.800000Z</time>
      </trkpt>
      <trkpt lat="37.84738315256038" lon="112.0287579050404">
        <ele>1112.047168859992</ele>
        <time>2016-05-22T09:14:05.800000Z</time>
      </trkpt>
      <trkpt lat="37.84733770952746" lon="112.02902431524208">
        <ele>1109.3200384618522</ele>
        <time>2016-05-22T09:14:32.800000Z</time>
      </trkpt>
      <trkpt lat="37.847350396050956" lon="112.02937159024772">
        <ele>1110.2283466144575</ele>
        <time>2016-05-22T09:14:59.900000Z</time>
      </trkpt>
      <trkpt lat="37.847348049743" lon="112.02954874648546">
        <ele>1110.409844632794</ele>
        <time>2016-05-22T09:15:07.800000Z</time>
      </trkpt>
      <trkpt lat="37.847322764108014" lon="112.02946247038109">
        <ele>1109.8251084736573</ele>
        <time>2016-05-22T09:15:17.800000Z</time>
      </trkpt>
      <trkpt lat="37.84715839956732" lon="112.02955012164657">
        <ele>1108.794792410192</ele>
        <time>2016-05-22T09:15:58.800000Z</time>
      </trkpt>
      <trkpt lat="37.84708864864038" lon="112.02955959642071">
        <ele>1108.7723631775045</ele>
        <time>2016-05-22T09:16:06.800000Z</time>
      </trkpt>
      <trkpt lat="37.84693672790928" lon="112.02966185181934">
        <ele>1108.6956106759858</ele>
        <time>2016-05-22T09:16:26.800000Z</time>
      </trkpt>
      <trkpt lat="37.84686710468217" lon="112.02972839566569">
        <ele>1108.55920615222</ele>
        <time>2016-05-22T09:16:34.800000Z</time>
      </trkpt>
      <trkpt lat="37.8466439701331" lon="112.02948404187165">
        <ele>0.0</ele>
        <time>2016-05-22T09:18:11.200000Z</time>
      </trkpt>
      <trkpt lat="37.846463415723164" lon="112.02971951874571">
        <ele>1110.0000071332986</ele>
        <time>2016-05-22T09:18:22.800000Z</time>
      </trkpt>
      <trkpt lat="37.84658012300553" lon="112.02959454801585">
        <ele>1112.184321623899</ele>
        <time>2016-05-22T09:18:38.800000Z</time>
      </trkpt>
      <trkpt lat="37.84665451755486" lon="112.02957263113109">
        <ele>1112.7111572717847</ele>
        <time>2016-05-22T09:18:41.800000Z</time>
      </trkpt>
    </trkseg>
  </trk>
</gpx>