<?xml version="1.0" encoding="UTF-8"?>
<gpx xmlns="http://www.topografix.com/GPX/1/1" xmlns:gpxtpx="http://www.garmin.com/xmlschemas/TrackPointExtension/v1" xmlns:xsi="http://www.w3.org/2001/XMLSchema-instance" xsi:schemaLocation="http://www.topografix.com/GPX/1/1 http://www.topografix.com/GPX/1/1/gpx.xsd" version="1.1" creator="gpx.py -- https://github.com/tkrajina/gpxpy">
  <trk>
    <name>gpx from keep</name>
    <type>Run</type>
    <trkseg>
      <trkpt lat="37.847496499780036" lon="112.02942431363626">
        <ele>1101.8</ele>
        <time>2017-05-24T08:48:56.400000Z</time>
      </trkpt>
      <trkpt lat="37.84739954643429" lon="112.02956956632943">
        <ele>1085.0</ele>
        <time>2017-05-24T08:48:59.300000Z</time>
      </trkpt>
      <trkpt lat="37.847331977258996" lon="112.0294736789261">
        <ele>1126.4</ele>
        <time>2017-05-24T08:49:02.300000Z</time>
      </trkpt>
      <trkpt lat="37.84739203397718" lon="112.02943179416529">
        <ele>1132.8</ele>
        <time>2017-05-24T08:49:08.600000Z</time>
      </trkpt>
      <trkpt lat="37.8474604053864" lon="112.02940820558703">
        <ele>1132.59</ele>
        <time>2017-05-24T08:49:11.300000Z</time>
      </trkpt>
      <trkpt lat="37.847580464252296" lon="112.02929532070127">
        <ele>1106.3</ele>
        <time>2017-05-24T08:49:14.300000Z</time>
      </trkpt>
      <trkpt lat="37.847665223992095" lon="112.02919163250262">
        <ele>1121.2</ele>
        <time>2017-05-24T08:49:17.400000Z</time>
      </trkpt>
      <trkpt lat="37.84761948497288" lon="112.02917763423441">
        <ele>1113.9</ele>
        <time>2017-05-24T08:49:23.300000Z</time>
      </trkpt>
      <trkpt lat="37.84750452773277" lon="112.02903944109964">
        <ele>1102.5</ele>
        <time>2017-05-24T08:49:47.300000Z</time>
      </trkpt>
      <trkpt lat="37.84748272507147" lon="112.02897101664847">
        <ele>1103.7</ele>
        <time>2017-05-24T08:50:02.300000Z</time>
      </trkpt>
      <trkpt lat="37.847439488926206" lon="112.02890259494073">
        <ele>1104.5</ele>
        <time>2017-05-24T08:50:09.300000Z</time>
      </trkpt>
      <trkpt lat="37.847451252451656" lon="112.02875762638747">
        <ele>1103.5</ele>
        <time>2017-05-24T08:50:21.700000Z</time>
      </trkpt>
      <trkpt lat="37.84747444949674" lon="112.0287043429497">
        <ele>1102.59</ele>
        <time>2017-05-24T08:50:28.400000Z</time>
      </trkpt>
      <trkpt lat="37.847472744172954" lon="112.02830920398664">
        <ele>1100.7</ele>
        <time>2017-05-24T08:50:57.300000Z</time>
      </trkpt>
      <trkpt lat="37.8474676036023" lon="112.02819750642621">
        <ele>1101.0</ele>
        <time>2017-05-24T08:51:03.400000Z</time>
      </trkpt>
      <trkpt lat="37.84742266997209" lon="112.02805092552883">
        <ele>1100.2</ele>
        <time>2017-05-24T08:51:09.300000Z</time>
      </trkpt>
      <trkpt lat="37.84746105596005" lon="112.02789405816203">
        <ele>1098.9</ele>
        <time>2017-05-24T08:51:15.400000Z</time>
      </trkpt>
      <trkpt lat="37.847612607163384" lon="112.02751567963621">
        <ele>1096.9</ele>
        <time>2017-05-24T08:51:27.300000Z</time>
      </trkpt>
      <trkpt lat="37.84760422232003" lon="112.02740046968528">
        <ele>1096.8</ele>
        <time>2017-05-24T08:51:30.300000Z</time>
      </trkpt>
      <trkpt lat="37.847707708405366" lon="112.02714542613141">
        <ele>1095.9</ele>
        <time>2017-05-24T08:51:39.300000Z</time>
      </trkpt>
      <trkpt lat="37.84774249335285" lon="112.02691392158812">
        <ele>1097.09</ele>
        <time>2017-05-24T08:51:45.300000Z</time>
      </trkpt>
      <trkpt lat="37.84781414364991" lon="112.02669566603062">
        <ele>1097.3</ele>
        <time>2017-05-24T08:51:51.300000Z</time>
      </trkpt>
      <trkpt lat="37.84786394626392" lon="112.02663697433361">
        <ele>1097.5</ele>
        <time>2017-05-24T08:51:54.300000Z</time>
      </trkpt>
      <trkpt lat="37.84797743191602" lon="112.02660721221827">
        <ele>1099.2</ele>
        <time>2017-05-24T08:52:00.300000Z</time>
      </trkpt>
      <trkpt lat="37.84819248641103" lon="112.02664396629928">
        <ele>1100.09</ele>
        <time>2017-05-24T08:52:09.300000Z</time>
      </trkpt>
      <trkpt lat="37.84827741119509" lon="112.02664233344476">
        <ele>1101.2</ele>
        <time>2017-05-24T08:52:12.300000Z</time>
      </trkpt>
      <trkpt lat="37.84860419223555" lon="112.02659550793156">
        <ele>1104.0</ele>
        <time>2017-05-24T08:52:24.300000Z</time>
      </trkpt>
      <trkpt lat="37.84870899440365" lon="112.0264621685035">
        <ele>1104.5</ele>
        <time>2017-05-24T08:52:30.300000Z</time>
      </trkpt>
      <trkpt lat="37.84873906003729" lon="112.0263772470942">
        <ele>1104.59</ele>
        <time>2017-05-24T08:52:33.500000Z</time>
      </trkpt>
      <trkpt lat="37.848868993890754" lon="112.0261787302975">
        <ele>1101.3</ele>
        <time>2017-05-24T08:52:39.300000Z</time>
      </trkpt>
      <trkpt lat="37.84894049538567" lon="112.02591531750701">
        <ele>1099.4</ele>
        <time>2017-05-24T08:52:48.300000Z</time>
      </trkpt>
      <trkpt lat="37.84900732949851" lon="112.02588042346245">
        <ele>1098.4</ele>
        <time>2017-05-24T08:52:51.300000Z</time>
      </trkpt>
      <trkpt lat="37.84910734209795" lon="112.02571220192672">
        <ele>1097.7</ele>
        <time>2017-05-24T08:52:57.300000Z</time>
      </trkpt>
      <trkpt lat="37.849132298504685" lon="112.02561051645071">
        <ele>1098.2</ele>
        <time>2017-05-24T08:53:00.300000Z</time>
      </trkpt>
      <trkpt lat="37.849097232698476" lon="112.02522353535483">
        <ele>1098.09</ele>
        <time>2017-05-24T08:53:09.300000Z</time>
      </trkpt>
      <trkpt lat="37.84907556126456" lon="112.02500530307849">
        <ele>1098.59</ele>
        <time>2017-05-24T08:53:15.300000Z</time>
      </trkpt>
      <trkpt lat="37.84910563936208" lon="112.02491687014981">
        <ele>1098.5</ele>
        <time>2017-05-24T08:53:18.300000Z</time>
      </trkpt>
      <trkpt lat="37.84901068226841" lon="112.02481357912586">
        <ele>1098.8</ele>
        <time>2017-05-24T08:53:21.300000Z</time>
      </trkpt>
      <trkpt lat="37.848972162606344" lon="112.02470865911539">
        <ele>1099.09</ele>
        <time>2017-05-24T08:53:24.300000Z</time>
      </trkpt>
      <trkpt lat="37.848940476384726" lon="112.02427842144388">
        <ele>1100.09</ele>
        <time>2017-05-24T08:53:33.300000Z</time>
      </trkpt>
      <trkpt lat="37.848840525711" lon="112.0240134227203">
        <ele>1104.5</ele>
        <time>2017-05-24T08:53:39.300000Z</time>
      </trkpt>
      <trkpt lat="37.848798633810084" lon="112.02364836550773">
        <ele>1106.4</ele>
        <time>2017-05-24T08:53:48.300000Z</time>
      </trkpt>
      <trkpt lat="37.84875701995117" lon="112.02338309450458">
        <ele>1107.2</ele>
        <time>2017-05-24T08:53:54.300000Z</time>
      </trkpt>
      <trkpt lat="37.84875707016642" lon="112.02326330185895">
        <ele>1108.7</ele>
        <time>2017-05-24T08:53:57.300000Z</time>
      </trkpt>
      <trkpt lat="37.84879539458837" lon="112.02313647437221">
        <ele>1110.0</ele>
        <time>2017-05-24T08:54:00.300000Z</time>
      </trkpt>
      <trkpt lat="37.84887875205905" lon="112.02301153483252">
        <ele>1113.4</ele>
        <time>2017-05-24T08:54:03.400000Z</time>
      </trkpt>
      <trkpt lat="37.848950191815845" lon="112.02267811272245">
        <ele>1113.7</ele>
        <time>2017-05-24T08:54:12.400000Z</time>
      </trkpt>
      <trkpt lat="37.84896544481237" lon="112.02235497603503">
        <ele>1113.5</ele>
        <time>2017-05-24T08:54:21.300000Z</time>
      </trkpt>
      <trkpt lat="37.8490034779454" lon="112.0220364365237">
        <ele>1117.5</ele>
        <time>2017-05-24T08:54:30.300000Z</time>
      </trkpt>
      <trkpt lat="37.848968408634065" lon="112.02166301770896">
        <ele>1120.7</ele>
        <time>2017-05-24T08:54:42.300000Z</time>
      </trkpt>
      <trkpt lat="37.84897345528083" lon="112.02130474028621">
        <ele>1122.4</ele>
        <time>2017-05-24T08:54:51.300000Z</time>
      </trkpt>
      <trkpt lat="37.84897184346915" lon="112.021199556511">
        <ele>1122.7</ele>
        <time>2017-05-24T08:54:54.300000Z</time>
      </trkpt>
      <trkpt lat="37.849006657550575" lon="112.02096971699156">
        <ele>1119.9</ele>
        <time>2017-05-24T08:55:00.300000Z</time>
      </trkpt>
      <trkpt lat="37.84898840067855" lon="112.02060279690114">
        <ele>1119.2</ele>
        <time>2017-05-24T08:55:09.300000Z</time>
      </trkpt>
      <trkpt lat="37.84899177388121" lon="112.02036269021401">
        <ele>1118.9</ele>
        <time>2017-05-24T08:55:15.300000Z</time>
      </trkpt>
      <trkpt lat="37.84904521212364" lon="112.02007093518432">
        <ele>1118.5</ele>
        <time>2017-05-24T08:55:21.300000Z</time>
      </trkpt>
      <trkpt lat="37.849059859949975" lon="112.01967914492045">
        <ele>1119.5</ele>
        <time>2017-05-24T08:55:30.300000Z</time>
      </trkpt>
      <trkpt lat="37.849091658450526" lon="112.0192676189272">
        <ele>1120.9</ele>
        <time>2017-05-24T08:55:39.300000Z</time>
      </trkpt>
      <trkpt lat="37.84911657083229" lon="112.0188944919766">
        <ele>1118.5</ele>
        <time>2017-05-24T08:55:48.400000Z</time>
      </trkpt>
      <trkpt lat="37.849121527160676" lon="112.01877092867568">
        <ele>1118.0</ele>
        <time>2017-05-24T08:55:51.300000Z</time>
      </trkpt>
      <trkpt lat="37.849089739877996" lon="112.0186892785753">
        <ele>1115.9</ele>
        <time>2017-05-24T08:55:54.300000Z</time>
      </trkpt>
      <trkpt lat="37.84906624151858" lon="112.01826262900504">
        <ele>1114.2</ele>
        <time>2017-05-24T08:56:06.300000Z</time>
      </trkpt>
      <trkpt lat="37.84904292586917" lon="112.0180625556151">
        <ele>1111.2</ele>
        <time>2017-05-24T08:56:12.400000Z</time>
      </trkpt>
      <trkpt lat="37.84907137595535" lon="112.01768889913967">
        <ele>1105.5</ele>
        <time>2017-05-24T08:56:21.300000Z</time>
      </trkpt>
      <trkpt lat="37.849126405941504" lon="112.01731929850217">
        <ele>1106.3</ele>
        <time>2017-05-24T08:56:30.300000Z</time>
      </trkpt>
      <trkpt lat="37.849174813378845" lon="112.01718248699042">
        <ele>1108.8</ele>
        <time>2017-05-24T08:56:33.400000Z</time>
      </trkpt>
      <trkpt lat="37.84925320959979" lon="112.01680234398432">
        <ele>1115.7</ele>
        <time>2017-05-24T08:56:42.400000Z</time>
      </trkpt>
      <trkpt lat="37.84929630511076" lon="112.01643383426789">
        <ele>1122.2</ele>
        <time>2017-05-24T08:56:51.300000Z</time>
      </trkpt>
      <trkpt lat="37.849348025695285" lon="112.0159907076758">
        <ele>1126.7</ele>
        <time>2017-05-24T08:57:03.300000Z</time>
      </trkpt>
      <trkpt lat="37.849404640034024" lon="112.01564058768345">
        <ele>1126.8</ele>
        <time>2017-05-24T08:57:12.300000Z</time>
      </trkpt>
      <trkpt lat="37.849444364281766" lon="112.01541051007966">
        <ele>1125.7</ele>
        <time>2017-05-24T08:57:18.300000Z</time>
      </trkpt>
      <trkpt lat="37.84951759477228" lon="112.01494360044356">
        <ele>1123.3</ele>
        <time>2017-05-24T08:57:30.300000Z</time>
      </trkpt>
      <trkpt lat="37.84955088269916" lon="112.01449886915701">
        <ele>1125.9</ele>
        <time>2017-05-24T08:57:39.300000Z</time>
      </trkpt>
      <trkpt lat="37.849564121824436" lon="112.01404549353137">
        <ele>1126.8</ele>
        <time>2017-05-24T08:57:48.300000Z</time>
      </trkpt>
      <trkpt lat="37.84955937503089" lon="112.01390356217749">
        <ele>1127.4</ele>
        <time>2017-05-24T08:57:51.300000Z</time>
      </trkpt>
      <trkpt lat="37.84958422414915" lon="112.01375378770265">
        <ele>1127.9</ele>
        <time>2017-05-24T08:57:54.300000Z</time>
      </trkpt>
      <trkpt lat="37.84958096942196" lon="112.01337692833624">
        <ele>1126.8</ele>
        <time>2017-05-24T08:58:03.300000Z</time>
      </trkpt>
      <trkpt lat="37.849602591901466" lon="112.01312361495025">
        <ele>1124.9</ele>
        <time>2017-05-24T08:58:09.300000Z</time>
      </trkpt>
      <trkpt lat="37.849709279529606" lon="112.01272701259887">
        <ele>1121.5</ele>
        <time>2017-05-24T08:58:18.300000Z</time>
      </trkpt>
      <trkpt lat="37.84974413245205" lon="112.01259021685577">
        <ele>1118.4</ele>
        <time>2017-05-24T08:58:21.300000Z</time>
      </trkpt>
      <trkpt lat="37.84974735700885" lon="112.01222688257265">
        <ele>1123.59</ele>
        <time>2017-05-24T08:58:30.300000Z</time>
      </trkpt>
      <trkpt lat="37.849747400587425" lon="112.01211847765016">
        <ele>1126.9</ele>
        <time>2017-05-24T08:58:33.400000Z</time>
      </trkpt>
      <trkpt lat="37.8497708691381" lon="112.01197844090478">
        <ele>1126.7</ele>
        <time>2017-05-24T08:58:36.300000Z</time>
      </trkpt>
      <trkpt lat="37.849775933727244" lon="112.01154347244861">
        <ele>1131.3</ele>
        <time>2017-05-24T08:58:45.300000Z</time>
      </trkpt>
      <trkpt lat="37.849764320057105" lon="112.01115338455844">
        <ele>1135.0</ele>
        <time>2017-05-24T08:58:54.300000Z</time>
      </trkpt>
      <trkpt lat="37.84976920011667" lon="112.0107833019136">
        <ele>1137.59</ele>
        <time>2017-05-24T08:59:03.300000Z</time>
      </trkpt>
      <trkpt lat="37.849815770701035" lon="112.01044511545497">
        <ele>1139.0</ele>
        <time>2017-05-24T08:59:12.300000Z</time>
      </trkpt>
      <trkpt lat="37.84985582268" lon="112.01010990542572">
        <ele>1138.5</ele>
        <time>2017-05-24T08:59:21.300000Z</time>
      </trkpt>
      <trkpt lat="37.84985218754843" lon="112.00968495497006">
        <ele>1138.09</ele>
        <time>2017-05-24T08:59:33.300000Z</time>
      </trkpt>
      <trkpt lat="37.84983906585204" lon="112.00934975574971">
        <ele>1136.5</ele>
        <time>2017-05-24T08:59:42.300000Z</time>
      </trkpt>
      <trkpt lat="37.849760688370004" lon="112.00915486294856">
        <ele>1136.59</ele>
        <time>2017-05-24T08:59:48.400000Z</time>
      </trkpt>
      <trkpt lat="37.849578975760544" lon="112.00885645038824">
        <ele>1135.9</ele>
        <time>2017-05-24T08:59:57.300000Z</time>
      </trkpt>
      <trkpt lat="37.84934391414411" lon="112.00852479643858">
        <ele>1133.09</ele>
        <time>2017-05-24T09:00:09.300000Z</time>
      </trkpt>
      <trkpt lat="37.84915242233368" lon="112.00823125380734">
        <ele>1135.9</ele>
        <time>2017-05-24T09:00:18.300000Z</time>
      </trkpt>
      <trkpt lat="37.84897907825848" lon="112.007948252701">
        <ele>1139.09</ele>
        <time>2017-05-24T09:00:27.300000Z</time>
      </trkpt>
      <trkpt lat="37.84877382571678" lon="112.00772121189718">
        <ele>1141.59</ele>
        <time>2017-05-24T09:00:36.300000Z</time>
      </trkpt>
      <trkpt lat="37.84871542442702" lon="112.00765309943037">
        <ele>1142.2</ele>
        <time>2017-05-24T09:00:39.300000Z</time>
      </trkpt>
      <trkpt lat="37.84855216584557" lon="112.007354962044">
        <ele>1142.9</ele>
        <time>2017-05-24T09:00:48.400000Z</time>
      </trkpt>
      <trkpt lat="37.848382161687184" lon="112.00704466271264">
        <ele>1144.9</ele>
        <time>2017-05-24T09:00:57.300000Z</time>
      </trkpt>
      <trkpt lat="37.848165759912334" lon="112.00691818233211">
        <ele>1141.0</ele>
        <time>2017-05-24T09:01:06.300000Z</time>
      </trkpt>
      <trkpt lat="37.847827110425015" lon="112.00684469786951">
        <ele>1137.8</ele>
        <time>2017-05-24T09:01:18.300000Z</time>
      </trkpt>
      <trkpt lat="37.84756715368492" lon="112.00685824447764">
        <ele>1136.4</ele>
        <time>2017-05-24T09:01:27.300000Z</time>
      </trkpt>
      <trkpt lat="37.84738699537397" lon="112.00676960371669">
        <ele>1136.8</ele>
        <time>2017-05-24T09:01:33.400000Z</time>
      </trkpt>
      <trkpt lat="37.84719390041933" lon="112.0067431362223">
        <ele>1137.2</ele>
        <time>2017-05-24T09:01:39.300000Z</time>
      </trkpt>
      <trkpt lat="37.846920425604566" lon="112.00664964113554">
        <ele>1142.59</ele>
        <time>2017-05-24T09:01:48.300000Z</time>
      </trkpt>
      <trkpt lat="37.8465821598064" lon="112.00662967846597">
        <ele>1145.09</ele>
        <time>2017-05-24T09:02:00.300000Z</time>
      </trkpt>
      <trkpt lat="37.84624547686755" lon="112.00662485302841">
        <ele>1145.2</ele>
        <time>2017-05-24T09:02:12.300000Z</time>
      </trkpt>
      <trkpt lat="37.84606380293671" lon="112.00658973427281">
        <ele>1145.4</ele>
        <time>2017-05-24T09:02:18.300000Z</time>
      </trkpt>
      <trkpt lat="37.84597046218125" lon="112.00659298913754">
        <ele>1144.2</ele>
        <time>2017-05-24T09:02:21.300000Z</time>
      </trkpt>
      <trkpt lat="37.84570237368739" lon="112.0065130091275">
        <ele>1144.09</ele>
        <time>2017-05-24T09:02:30.300000Z</time>
      </trkpt>
      <trkpt lat="37.845527389371135" lon="112.0064181510344">
        <ele>1144.8</ele>
        <time>2017-05-24T09:02:36.600000Z</time>
      </trkpt>
      <trkpt lat="37.84524734890637" lon="112.00634303822046">
        <ele>1144.0</ele>
        <time>2017-05-24T09:02:46.300000Z</time>
      </trkpt>
      <trkpt lat="37.845158809083664" lon="112.00628303998882">
        <ele>1144.59</ele>
        <time>2017-05-24T09:02:49.300000Z</time>
      </trkpt>
      <trkpt lat="37.84486214383298" lon="112.00623306808052">
        <ele>1143.0</ele>
        <time>2017-05-24T09:03:01Z</time>
      </trkpt>
      <trkpt lat="37.84476721477606" lon="112.00622307794782">
        <ele>1142.7</ele>
        <time>2017-05-24T09:03:04.400000Z</time>
      </trkpt>
      <trkpt lat="37.8450788424235" lon="112.00625953258046">
        <ele>1137.4</ele>
        <time>2017-05-24T09:03:19.300000Z</time>
      </trkpt>
      <trkpt lat="37.84539370976116" lon="112.00630139303972">
        <ele>1137.2</ele>
        <time>2017-05-24T09:03:31.300000Z</time>
      </trkpt>
      <trkpt lat="37.84571054460644" lon="112.0064113714332">
        <ele>1141.3</ele>
        <time>2017-05-24T09:03:43.300000Z</time>
      </trkpt>
      <trkpt lat="37.84596722263431" lon="112.00649648859172">
        <ele>1143.09</ele>
        <time>2017-05-24T09:03:52.400000Z</time>
      </trkpt>
      <trkpt lat="37.84604209972456" lon="112.00649810152397">
        <ele>1145.2</ele>
        <time>2017-05-24T09:03:55.300000Z</time>
      </trkpt>
      <trkpt lat="37.846285504565905" lon="112.006576192284">
        <ele>1143.09</ele>
        <time>2017-05-24T09:04:04.300000Z</time>
      </trkpt>
      <trkpt lat="37.84638053763067" lon="112.00655131235453">
        <ele>1144.9</ele>
        <time>2017-05-24T09:04:07.300000Z</time>
      </trkpt>
      <trkpt lat="37.84674721135434" lon="112.00659803239196">
        <ele>1147.8</ele>
        <time>2017-05-24T09:04:19.300000Z</time>
      </trkpt>
      <trkpt lat="37.847022156945364" lon="112.00665314304477">
        <ele>1149.4</ele>
        <time>2017-05-24T09:04:28.300000Z</time>
      </trkpt>
      <trkpt lat="37.847298988116506" lon="112.00671284880691">
        <ele>1152.4</ele>
        <time>2017-05-24T09:04:37.300000Z</time>
      </trkpt>
      <trkpt lat="37.84759726667021" lon="112.0067679567624">
        <ele>1153.4</ele>
        <time>2017-05-24T09:04:46.300000Z</time>
      </trkpt>
      <trkpt lat="37.84788534408558" lon="112.00678657389565">
        <ele>1151.09</ele>
        <time>2017-05-24T09:04:55.300000Z</time>
      </trkpt>
      <trkpt lat="37.847962155052265" lon="112.00677656320221">
        <ele>1148.0</ele>
        <time>2017-05-24T09:04:58.300000Z</time>
      </trkpt>
      <trkpt lat="37.84806240680908" lon="112.00682142298163">
        <ele>1147.09</ele>
        <time>2017-05-24T09:05:01.300000Z</time>
      </trkpt>
      <trkpt lat="37.84831372602731" lon="112.00706656620548">
        <ele>1147.4</ele>
        <time>2017-05-24T09:05:10.300000Z</time>
      </trkpt>
      <trkpt lat="37.8485906086221" lon="112.00738307010538">
        <ele>1148.09</ele>
        <time>2017-05-24T09:05:19.300000Z</time>
      </trkpt>
      <trkpt lat="37.84881392935701" lon="112.00773823698101">
        <ele>1147.3</ele>
        <time>2017-05-24T09:05:28.300000Z</time>
      </trkpt>
      <trkpt lat="37.84900915927826" lon="112.00805151002287">
        <ele>1149.0</ele>
        <time>2017-05-24T09:05:37.300000Z</time>
      </trkpt>
      <trkpt lat="37.849072390092154" lon="112.00813800389088">
        <ele>1150.2</ele>
        <time>2017-05-24T09:05:40.300000Z</time>
      </trkpt>
      <trkpt lat="37.849207374646575" lon="112.0082731464741">
        <ele>1151.09</ele>
        <time>2017-05-24T09:05:46.400000Z</time>
      </trkpt>
      <trkpt lat="37.8494275034552" lon="112.00860804469427">
        <ele>1147.09</ele>
        <time>2017-05-24T09:05:58.300000Z</time>
      </trkpt>
      <trkpt lat="37.84959923559215" lon="112.00888645352103">
        <ele>1146.09</ele>
        <time>2017-05-24T09:06:07.300000Z</time>
      </trkpt>
      <trkpt lat="37.84973395679579" lon="112.009111344386">
        <ele>1143.7</ele>
        <time>2017-05-24T09:06:13.300000Z</time>
      </trkpt>
      <trkpt lat="37.84978893073301" lon="112.00923811867344">
        <ele>1142.0</ele>
        <time>2017-05-24T09:06:16.300000Z</time>
      </trkpt>
      <trkpt lat="37.8498507361864" lon="112.00962494324797">
        <ele>1135.59</ele>
        <time>2017-05-24T09:06:25.300000Z</time>
      </trkpt>
      <trkpt lat="37.84987550516948" lon="112.00987471993994">
        <ele>1133.2</ele>
        <time>2017-05-24T09:06:31.300000Z</time>
      </trkpt>
      <trkpt lat="37.84987767447387" lon="112.01024479565143">
        <ele>1131.4</ele>
        <time>2017-05-24T09:06:40.300000Z</time>
      </trkpt>
      <trkpt lat="37.849862491213834" lon="112.01061163193815">
        <ele>1130.4</ele>
        <time>2017-05-24T09:06:49.300000Z</time>
      </trkpt>
      <trkpt lat="37.84983572990832" lon="112.01104172937762">
        <ele>1126.4</ele>
        <time>2017-05-24T09:06:58.300000Z</time>
      </trkpt>
      <trkpt lat="37.84980915653483" lon="112.01140830208053">
        <ele>1125.8</ele>
        <time>2017-05-24T09:07:07.300000Z</time>
      </trkpt>
      <trkpt lat="37.849800921852236" lon="112.01181353297184">
        <ele>1123.9</ele>
        <time>2017-05-24T09:07:16.300000Z</time>
      </trkpt>
      <trkpt lat="37.84977756920465" lon="112.01219362755182">
        <ele>1122.4</ele>
        <time>2017-05-24T09:07:25.300000Z</time>
      </trkpt>
      <trkpt lat="37.849745882007944" lon="112.01264185136644">
        <ele>1125.4</ele>
        <time>2017-05-24T09:07:34.300000Z</time>
      </trkpt>
      <trkpt lat="37.84969284561014" lon="112.01306196629642">
        <ele>1126.0</ele>
        <time>2017-05-24T09:07:43.300000Z</time>
      </trkpt>
      <trkpt lat="37.84962765520053" lon="112.01318200578541">
        <ele>1126.3</ele>
        <time>2017-05-24T09:07:46.300000Z</time>
      </trkpt>
      <trkpt lat="37.849604214288625" lon="112.01331339497321">
        <ele>1126.7</ele>
        <time>2017-05-24T09:07:49.300000Z</time>
      </trkpt>
      <trkpt lat="37.84959771073517" lon="112.01368701086284">
        <ele>1123.7</ele>
        <time>2017-05-24T09:07:58.300000Z</time>
      </trkpt>
      <trkpt lat="37.84958261533083" lon="112.01403008154594">
        <ele>1123.59</ele>
        <time>2017-05-24T09:08:07.300000Z</time>
      </trkpt>
      <trkpt lat="37.84956766760295" lon="112.0144169512908">
        <ele>1123.8</ele>
        <time>2017-05-24T09:08:16.300000Z</time>
      </trkpt>
      <trkpt lat="37.84956256659169" lon="112.01468216516479">
        <ele>1124.09</ele>
        <time>2017-05-24T09:08:22.300000Z</time>
      </trkpt>
      <trkpt lat="37.84950448540627" lon="112.01506877529847">
        <ele>1124.8</ele>
        <time>2017-05-24T09:08:31.300000Z</time>
      </trkpt>
      <trkpt lat="37.84948777418776" lon="112.01541050488257">
        <ele>1126.59</ele>
        <time>2017-05-24T09:08:40.300000Z</time>
      </trkpt>
      <trkpt lat="37.84946118942897" lon="112.01579035872435">
        <ele>1126.4</ele>
        <time>2017-05-24T09:08:49.300000Z</time>
      </trkpt>
      <trkpt lat="37.8494279272831" lon="112.01613398851374">
        <ele>1125.5</ele>
        <time>2017-05-24T09:08:58.300000Z</time>
      </trkpt>
      <trkpt lat="37.849398006150786" lon="112.01654412978343">
        <ele>1125.2</ele>
        <time>2017-05-24T09:09:07.300000Z</time>
      </trkpt>
      <trkpt lat="37.849374733652105" lon="112.01681071071377">
        <ele>1125.09</ele>
        <time>2017-05-24T09:09:13.300000Z</time>
      </trkpt>
      <trkpt lat="37.84938621406054" lon="112.01706890786727">
        <ele>1124.8</ele>
        <time>2017-05-24T09:09:19.300000Z</time>
      </trkpt>
      <trkpt lat="37.84932976335926" lon="112.01746067657615">
        <ele>1123.4</ele>
        <time>2017-05-24T09:09:28.300000Z</time>
      </trkpt>
      <trkpt lat="37.84928152022223" lon="112.01782919622163">
        <ele>1122.5</ele>
        <time>2017-05-24T09:09:37.300000Z</time>
      </trkpt>
      <trkpt lat="37.849243254038996" lon="112.01822069985586">
        <ele>1125.0</ele>
        <time>2017-05-24T09:09:49.300000Z</time>
      </trkpt>
      <trkpt lat="37.84921479436213" lon="112.01859922818322">
        <ele>1124.9</ele>
        <time>2017-05-24T09:09:58.300000Z</time>
      </trkpt>
      <trkpt lat="37.84916498583167" lon="112.01904589835137">
        <ele>1121.8</ele>
        <time>2017-05-24T09:10:07.300000Z</time>
      </trkpt>
      <trkpt lat="37.84915161140596" lon="112.01936792323178">
        <ele>1120.0</ele>
        <time>2017-05-24T09:10:16.300000Z</time>
      </trkpt>
      <trkpt lat="37.84917674028777" lon="112.01960099000968">
        <ele>1120.2</ele>
        <time>2017-05-24T09:10:22.400000Z</time>
      </trkpt>
      <trkpt lat="37.84918497427231" lon="112.02005766946714">
        <ele>1119.0</ele>
        <time>2017-05-24T09:10:34.400000Z</time>
      </trkpt>
      <trkpt lat="37.84913650106225" lon="112.02012283855468">
        <ele>1116.8</ele>
        <time>2017-05-24T09:10:37.300000Z</time>
      </trkpt>
      <trkpt lat="37.84911677117098" lon="112.02048948791105">
        <ele>1115.5</ele>
        <time>2017-05-24T09:10:46.300000Z</time>
      </trkpt>
      <trkpt lat="37.84908819739631" lon="112.02061954916695">
        <ele>1115.3</ele>
        <time>2017-05-24T09:10:49.300000Z</time>
      </trkpt>
      <trkpt lat="37.849090029464115" lon="112.02074284744867">
        <ele>1114.59</ele>
        <time>2017-05-24T09:10:52.300000Z</time>
      </trkpt>
      <trkpt lat="37.84913486516297" lon="112.02101458698267">
        <ele>1115.2</ele>
        <time>2017-05-24T09:10:58.300000Z</time>
      </trkpt>
      <trkpt lat="37.849111593624535" lon="112.02128985192277">
        <ele>1114.5</ele>
        <time>2017-05-24T09:11:04.400000Z</time>
      </trkpt>
      <trkpt lat="37.84907019231387" lon="112.02154808611455">
        <ele>1114.4</ele>
        <time>2017-05-24T09:11:10.300000Z</time>
      </trkpt>
      <trkpt lat="37.8490734495833" lon="112.02194638440507">
        <ele>1113.7</ele>
        <time>2017-05-24T09:11:19.300000Z</time>
      </trkpt>
      <trkpt lat="37.84908845787545" lon="112.02221462165241">
        <ele>1114.9</ele>
        <time>2017-05-24T09:11:25.300000Z</time>
      </trkpt>
      <trkpt lat="37.84905511605514" lon="112.02260481990035">
        <ele>1121.8</ele>
        <time>2017-05-24T09:11:34.400000Z</time>
      </trkpt>
      <trkpt lat="37.849025232806746" lon="112.02271974642271">
        <ele>1122.3</ele>
        <time>2017-05-24T09:11:37.300000Z</time>
      </trkpt>
      <trkpt lat="37.84904357738014" lon="112.0229598668246">
        <ele>1123.0</ele>
        <time>2017-05-24T09:11:43.300000Z</time>
      </trkpt>
      <trkpt lat="37.84911560310173" lon="112.02321485513433">
        <ele>1127.5</ele>
        <time>2017-05-24T09:11:52.300000Z</time>
      </trkpt>
      <trkpt lat="37.849068956013525" lon="112.02341009833509">
        <ele>1127.7</ele>
        <time>2017-05-24T09:11:58.300000Z</time>
      </trkpt>
      <trkpt lat="37.849041937672155" lon="112.02377326823829">
        <ele>1126.0</ele>
        <time>2017-05-24T09:12:07.300000Z</time>
      </trkpt>
      <trkpt lat="37.84901862169754" lon="112.02397013447897">
        <ele>1125.8</ele>
        <time>2017-05-24T09:12:13.300000Z</time>
      </trkpt>
      <trkpt lat="37.84901889350974" lon="112.0241734891488">
        <ele>1125.09</ele>
        <time>2017-05-24T09:12:19.300000Z</time>
      </trkpt>
      <trkpt lat="37.84897060582875" lon="112.02437522841174">
        <ele>1124.8</ele>
        <time>2017-05-24T09:12:25.300000Z</time>
      </trkpt>
      <trkpt lat="37.84898746054045" lon="112.0245669554826">
        <ele>1123.4</ele>
        <time>2017-05-24T09:12:31.300000Z</time>
      </trkpt>
      <trkpt lat="37.849018711772956" lon="112.02465024201953">
        <ele>1124.09</ele>
        <time>2017-05-24T09:12:34.400000Z</time>
      </trkpt>
      <trkpt lat="37.84898913201179" lon="112.02475517001773">
        <ele>1123.59</ele>
        <time>2017-05-24T09:12:37.300000Z</time>
      </trkpt>
      <trkpt lat="37.84899237266918" lon="112.0248633395233">
        <ele>1122.4</ele>
        <time>2017-05-24T09:12:40.300000Z</time>
      </trkpt>
      <trkpt lat="37.84895248719077" lon="112.02496691733765">
        <ele>1122.2</ele>
        <time>2017-05-24T09:12:43.300000Z</time>
      </trkpt>
      <trkpt lat="37.84891919200379" lon="112.02514351007221">
        <ele>1124.2</ele>
        <time>2017-05-24T09:12:46.300000Z</time>
      </trkpt>
      <trkpt lat="37.848925596069385" lon="112.02528710669546">
        <ele>1125.0</ele>
        <time>2017-05-24T09:12:49.300000Z</time>
      </trkpt>
      <trkpt lat="37.849025870473604" lon="112.02574195931476">
        <ele>1128.3</ele>
        <time>2017-05-24T09:12:58.300000Z</time>
      </trkpt>
      <trkpt lat="37.849022448562124" lon="112.02590881723326">
        <ele>1128.4</ele>
        <time>2017-05-24T09:13:01.300000Z</time>
      </trkpt>
      <trkpt lat="37.848965918693175" lon="112.02625714538736">
        <ele>1127.5</ele>
        <time>2017-05-24T09:13:10.300000Z</time>
      </trkpt>
      <trkpt lat="37.849037622776414" lon="112.02643535552781">
        <ele>1125.09</ele>
        <time>2017-05-24T09:13:13.300000Z</time>
      </trkpt>
      <trkpt lat="37.84898083545094" lon="112.02646727417029">
        <ele>1125.0</ele>
        <time>2017-05-24T09:13:16.300000Z</time>
      </trkpt>
      <trkpt lat="37.84878246353826" lon="112.02648379481673">
        <ele>1123.8</ele>
        <time>2017-05-24T09:13:22.300000Z</time>
      </trkpt>
      <trkpt lat="37.848587553216284" lon="112.0265254659458">
        <ele>1124.59</ele>
        <time>2017-05-24T09:13:28.300000Z</time>
      </trkpt>
      <trkpt lat="37.8484407869364" lon="112.02652034523358">
        <ele>1124.59</ele>
        <time>2017-05-24T09:13:34.300000Z</time>
      </trkpt>
      <trkpt lat="37.84838066772038" lon="112.02647735257223">
        <ele>1124.5</ele>
        <time>2017-05-24T09:13:37.300000Z</time>
      </trkpt>
      <trkpt lat="37.84816070860789" lon="112.02644871245506">
        <ele>1122.9</ele>
        <time>2017-05-24T09:13:43.300000Z</time>
      </trkpt>
      <trkpt lat="37.848009199033285" lon="112.02649389403204">
        <ele>1123.09</ele>
        <time>2017-05-24T09:13:49.300000Z</time>
      </trkpt>
      <trkpt lat="37.847892669429456" lon="112.02665076336436">
        <ele>1121.9</ele>
        <time>2017-05-24T09:13:55.300000Z</time>
      </trkpt>
      <trkpt lat="37.84783095525878" lon="112.02680384073419">
        <ele>1120.5</ele>
        <time>2017-05-24T09:14:01.300000Z</time>
      </trkpt>
      <trkpt lat="37.84772934978413" lon="112.02696043945157">
        <ele>1120.4</ele>
        <time>2017-05-24T09:14:07.300000Z</time>
      </trkpt>
      <trkpt lat="37.847706059153296" lon="112.02704887747886">
        <ele>1119.7</ele>
        <time>2017-05-24T09:14:10.300000Z</time>
      </trkpt>
      <trkpt lat="37.847617602158294" lon="112.02726226960871">
        <ele>1118.8</ele>
        <time>2017-05-24T09:14:16.300000Z</time>
      </trkpt>
      <trkpt lat="37.84761763176845" lon="112.02735584423078">
        <ele>1118.5</ele>
        <time>2017-05-24T09:14:19.300000Z</time>
      </trkpt>
      <trkpt lat="37.84758935175236" lon="112.02748566263226">
        <ele>1119.9</ele>
        <time>2017-05-24T09:14:22.300000Z</time>
      </trkpt>
      <trkpt lat="37.84746751688273" lon="112.02770257779333">
        <ele>1120.0</ele>
        <time>2017-05-24T09:14:28.300000Z</time>
      </trkpt>
      <trkpt lat="37.847427635606316" lon="112.02780751757749">
        <ele>1119.59</ele>
        <time>2017-05-24T09:14:31.300000Z</time>
      </trkpt>
      <trkpt lat="37.84738939709873" lon="112.0280125251238">
        <ele>1119.5</ele>
        <time>2017-05-24T09:14:37.300000Z</time>
      </trkpt>
      <trkpt lat="37.847369594629434" lon="112.02832923015679">
        <ele>1119.7</ele>
        <time>2017-05-24T09:14:43.300000Z</time>
      </trkpt>
      <trkpt lat="37.84743269788337" lon="112.0285858867878">
        <ele>1122.8</ele>
        <time>2017-05-24T09:14:49.300000Z</time>
      </trkpt>
      <trkpt lat="37.8474413208062" lon="112.02892909998587">
        <ele>1123.7</ele>
        <time>2017-05-24T09:14:58.300000Z</time>
      </trkpt>
      <trkpt lat="37.84744784898972" lon="112.029029440787">
        <ele>1123.7</ele>
        <time>2017-05-24T09:15:01.300000Z</time>
      </trkpt>
      <trkpt lat="37.847384439368646" lon="112.02910598954169">
        <ele>1123.59</ele>
        <time>2017-05-24T09:15:04.300000Z</time>
      </trkpt>
      <trkpt lat="37.8472627020394" lon="112.02918092273512">
        <ele>1123.59</ele>
        <time>2017-05-24T09:15:07.400000Z</time>
      </trkpt>
      <trkpt lat="37.847152996978025" lon="112.029321264866">
        <ele>1125.4</ele>
        <time>2017-05-24T09:15:16.300000Z</time>
      </trkpt>
      <trkpt lat="37.84720281218807" lon="112.02934665247939">
        <ele>1125.2</ele>
        <time>2017-05-24T09:15:19.300000Z</time>
      </trkpt>
      <trkpt lat="37.847104938580664" lon="112.02936520471938">
        <ele>1124.9</ele>
        <time>2017-05-24T09:15:25.800000Z</time>
      </trkpt>
    </trkseg>
  </trk>
</gpx>