<?xml version="1.0" encoding="UTF-8"?>
<gpx xmlns="http://www.topografix.com/GPX/1/1" xmlns:gpxtpx="http://www.garmin.com/xmlschemas/TrackPointExtension/v1" xmlns:xsi="http://www.w3.org/2001/XMLSchema-instance" xsi:schemaLocation="http://www.topografix.com/GPX/1/1 http://www.topografix.com/GPX/1/1/gpx.xsd" version="1.1" creator="gpx.py -- https://github.com/tkrajina/gpxpy">
  <trk>
    <name>gpx from keep</name>
    <type>Run</type>
    <trkseg>
      <trkpt lat="37.847345414936925" lon="112.02970747235855">
        <ele>1083.55</ele>
        <time>2019-04-21T23:14:46.161000Z</time>
      </trkpt>
      <trkpt lat="37.847487946891675" lon="112.02983650102163">
        <ele>1109.37</ele>
        <time>2019-04-21T23:14:49.061000Z</time>
      </trkpt>
      <trkpt lat="37.847679784661395" lon="112.02988395948212">
        <ele>1116.41</ele>
        <time>2019-04-21T23:14:58.061000Z</time>
      </trkpt>
      <trkpt lat="37.84796951520466" lon="112.0298859471863">
        <ele>1115.39</ele>
        <time>2019-04-21T23:15:10.061000Z</time>
      </trkpt>
      <trkpt lat="37.84829951767775" lon="112.02983749359976">
        <ele>1111.85</ele>
        <time>2019-04-21T23:15:22.061000Z</time>
      </trkpt>
      <trkpt lat="37.84839572968017" lon="112.02984950529122">
        <ele>1112.23</ele>
        <time>2019-04-21T23:15:25.061000Z</time>
      </trkpt>
      <trkpt lat="37.848729511231426" lon="112.02979523042185">
        <ele>1111.83</ele>
        <time>2019-04-21T23:15:37.061000Z</time>
      </trkpt>
      <trkpt lat="37.8487923959666" lon="112.02982445614276">
        <ele>1111.28</ele>
        <time>2019-04-21T23:15:40.061000Z</time>
      </trkpt>
      <trkpt lat="37.8488353607617" lon="112.02991634562011">
        <ele>1108.62</ele>
        <time>2019-04-21T23:15:43.061000Z</time>
      </trkpt>
      <trkpt lat="37.84886312122557" lon="112.0302284632664">
        <ele>1107.13</ele>
        <time>2019-04-21T23:15:52.061000Z</time>
      </trkpt>
      <trkpt lat="37.84896646088804" lon="112.03059349244799">
        <ele>1106.72</ele>
        <time>2019-04-21T23:16:04.061000Z</time>
      </trkpt>
      <trkpt lat="37.84898539648357" lon="112.03068831322003">
        <ele>1106.13</ele>
        <time>2019-04-21T23:16:07.061000Z</time>
      </trkpt>
      <trkpt lat="37.849130434218246" lon="112.03103675929911">
        <ele>1103.93</ele>
        <time>2019-04-21T23:16:19.061000Z</time>
      </trkpt>
      <trkpt lat="37.8492853918629" lon="112.03138120509882">
        <ele>1103.64</ele>
        <time>2019-04-21T23:16:31.061000Z</time>
      </trkpt>
      <trkpt lat="37.84935978173321" lon="112.03155841441755">
        <ele>1104.27</ele>
        <time>2019-04-21T23:16:37.061000Z</time>
      </trkpt>
      <trkpt lat="37.84951468076743" lon="112.03178841517463">
        <ele>1103.44</ele>
        <time>2019-04-21T23:16:46.061000Z</time>
      </trkpt>
      <trkpt lat="37.84970995718596" lon="112.03200146197858">
        <ele>1102.18</ele>
        <time>2019-04-21T23:16:55.061000Z</time>
      </trkpt>
      <trkpt lat="37.84985682244824" lon="112.03226496112246">
        <ele>1099.4</ele>
        <time>2019-04-21T23:17:04.061000Z</time>
      </trkpt>
      <trkpt lat="37.8500664609659" lon="112.03260277733574">
        <ele>1100.73</ele>
        <time>2019-04-21T23:17:16.061000Z</time>
      </trkpt>
      <trkpt lat="37.85017931971842" lon="112.03276760466188">
        <ele>1100.84</ele>
        <time>2019-04-21T23:17:22.061000Z</time>
      </trkpt>
      <trkpt lat="37.85033456618973" lon="112.0329184884793">
        <ele>1100.87</ele>
        <time>2019-04-21T23:17:28.061000Z</time>
      </trkpt>
      <trkpt lat="37.85049008485153" lon="112.03302429183219">
        <ele>1100.66</ele>
        <time>2019-04-21T23:17:34.061000Z</time>
      </trkpt>
      <trkpt lat="37.85071046947999" lon="112.03322014586578">
        <ele>1100.4</ele>
        <time>2019-04-21T23:17:43.061000Z</time>
      </trkpt>
      <trkpt lat="37.850792729674275" lon="112.03339059539718">
        <ele>1099.78</ele>
        <time>2019-04-21T23:17:49.061000Z</time>
      </trkpt>
      <trkpt lat="37.850948065341086" lon="112.033534518098">
        <ele>1100.22</ele>
        <time>2019-04-21T23:17:55.061000Z</time>
      </trkpt>
      <trkpt lat="37.85100532088257" lon="112.03362156827936">
        <ele>1098.68</ele>
        <time>2019-04-21T23:17:58.061000Z</time>
      </trkpt>
      <trkpt lat="37.85103820481825" lon="112.0337076017156">
        <ele>1096.08</ele>
        <time>2019-04-21T23:18:01.061000Z</time>
      </trkpt>
      <trkpt lat="37.851190136348556" lon="112.03395080124226">
        <ele>1096.95</ele>
        <time>2019-04-21T23:18:10.061000Z</time>
      </trkpt>
      <trkpt lat="37.85122707024155" lon="112.03405173313081">
        <ele>1097.04</ele>
        <time>2019-04-21T23:18:13.061000Z</time>
      </trkpt>
      <trkpt lat="37.85137125799621" lon="112.03427168094231">
        <ele>1098.35</ele>
        <time>2019-04-21T23:18:22.061000Z</time>
      </trkpt>
      <trkpt lat="37.851422883546434" lon="112.0343020778143">
        <ele>1097.1</ele>
        <time>2019-04-21T23:18:25.061000Z</time>
      </trkpt>
      <trkpt lat="37.851654377848156" lon="112.03459944789022">
        <ele>1095.88</ele>
        <time>2019-04-21T23:18:49.061000Z</time>
      </trkpt>
      <trkpt lat="37.85175783650199" lon="112.03475556504895">
        <ele>1097.57</ele>
        <time>2019-04-21T23:18:55.061000Z</time>
      </trkpt>
      <trkpt lat="37.851783822372276" lon="112.03484417000162">
        <ele>1097.16</ele>
        <time>2019-04-21T23:18:58.061000Z</time>
      </trkpt>
      <trkpt lat="37.85192809896354" lon="112.03511756455642">
        <ele>1096.24</ele>
        <time>2019-04-21T23:19:07.061000Z</time>
      </trkpt>
      <trkpt lat="37.85208760916456" lon="112.03527378180063">
        <ele>1099.21</ele>
        <time>2019-04-21T23:19:13.061000Z</time>
      </trkpt>
      <trkpt lat="37.85213327720807" lon="112.03536234951045">
        <ele>1098.0</ele>
        <time>2019-04-21T23:19:16.061000Z</time>
      </trkpt>
      <trkpt lat="37.852378516443345" lon="112.03563955432418">
        <ele>1100.13</ele>
        <time>2019-04-21T23:19:25.061000Z</time>
      </trkpt>
      <trkpt lat="37.85247804424884" lon="112.03582285222704">
        <ele>1096.43</ele>
        <time>2019-04-21T23:19:31.061000Z</time>
      </trkpt>
      <trkpt lat="37.85273608423977" lon="112.03613784265903">
        <ele>1109.79</ele>
        <time>2019-04-21T23:19:43.061000Z</time>
      </trkpt>
      <trkpt lat="37.852943326397195" lon="112.03648323895271">
        <ele>1093.29</ele>
        <time>2019-04-21T23:19:55.061000Z</time>
      </trkpt>
      <trkpt lat="37.85299397459704" lon="112.0365792526606">
        <ele>1095.5</ele>
        <time>2019-04-21T23:19:58.061000Z</time>
      </trkpt>
      <trkpt lat="37.853066194710784" lon="112.03666303011777">
        <ele>1095.5</ele>
        <time>2019-04-21T23:20:01.061000Z</time>
      </trkpt>
      <trkpt lat="37.85318744076555" lon="112.03690994797111">
        <ele>1098.97</ele>
        <time>2019-04-21T23:20:10.061000Z</time>
      </trkpt>
      <trkpt lat="37.85338257654678" lon="112.03719546062709">
        <ele>1098.05</ele>
        <time>2019-04-21T23:20:19.061000Z</time>
      </trkpt>
      <trkpt lat="37.853534736476604" lon="112.03747706147">
        <ele>1100.2</ele>
        <time>2019-04-21T23:20:28.061000Z</time>
      </trkpt>
      <trkpt lat="37.85380804776077" lon="112.03771058420152">
        <ele>1100.01</ele>
        <time>2019-04-21T23:20:37.061000Z</time>
      </trkpt>
      <trkpt lat="37.85385771649446" lon="112.03775045403475">
        <ele>1098.27</ele>
        <time>2019-04-21T23:20:40.061000Z</time>
      </trkpt>
      <trkpt lat="37.85389600160884" lon="112.03786029558125">
        <ele>1089.67</ele>
        <time>2019-04-21T23:20:46.061000Z</time>
      </trkpt>
      <trkpt lat="37.85412385900511" lon="112.03811274541003">
        <ele>1089.54</ele>
        <time>2019-04-21T23:21:13.061000Z</time>
      </trkpt>
      <trkpt lat="37.854355896639056" lon="112.03840175948744">
        <ele>1097.42</ele>
        <time>2019-04-21T23:21:28.061000Z</time>
      </trkpt>
      <trkpt lat="37.854498544672154" lon="112.03864147173323">
        <ele>1091.38</ele>
        <time>2019-04-21T23:21:43.061000Z</time>
      </trkpt>
      <trkpt lat="37.854609802673075" lon="112.03872865362216">
        <ele>1093.69</ele>
        <time>2019-04-21T23:21:55.061000Z</time>
      </trkpt>
      <trkpt lat="37.85465055444191" lon="112.03883905059288">
        <ele>1090.06</ele>
        <time>2019-04-21T23:22:07.061000Z</time>
      </trkpt>
      <trkpt lat="37.85486649266076" lon="112.0391264378474">
        <ele>1086.45</ele>
        <time>2019-04-21T23:22:25.061000Z</time>
      </trkpt>
      <trkpt lat="37.8549662754648" lon="112.03928779029371">
        <ele>1085.2</ele>
        <time>2019-04-21T23:22:34.061000Z</time>
      </trkpt>
      <trkpt lat="37.85517901081885" lon="112.03950968818083">
        <ele>1089.99</ele>
        <time>2019-04-21T23:22:49.061000Z</time>
      </trkpt>
      <trkpt lat="37.855280215180294" lon="112.0395796061528">
        <ele>1091.77</ele>
        <time>2019-04-21T23:22:58.061000Z</time>
      </trkpt>
      <trkpt lat="37.85554029377846" lon="112.03984353322564">
        <ele>1095.37</ele>
        <time>2019-04-21T23:23:19.061000Z</time>
      </trkpt>
      <trkpt lat="37.855732038282056" lon="112.04017650448786">
        <ele>1094.16</ele>
        <time>2019-04-21T23:23:34.061000Z</time>
      </trkpt>
      <trkpt lat="37.85592334439881" lon="112.04044629677938">
        <ele>1096.45</ele>
        <time>2019-04-21T23:23:52.061000Z</time>
      </trkpt>
      <trkpt lat="37.856144953029286" lon="112.04072655205529">
        <ele>1093.37</ele>
        <time>2019-04-21T23:24:13.061000Z</time>
      </trkpt>
      <trkpt lat="37.856256873454804" lon="112.04087139114066">
        <ele>1091.92</ele>
        <time>2019-04-21T23:24:25.061000Z</time>
      </trkpt>
      <trkpt lat="37.85630169009132" lon="112.04090284945136">
        <ele>1090.09</ele>
        <time>2019-04-21T23:24:31.061000Z</time>
      </trkpt>
      <trkpt lat="37.856330600605354" lon="112.0409528130581">
        <ele>1087.12</ele>
        <time>2019-04-21T23:24:40.061000Z</time>
      </trkpt>
      <trkpt lat="37.85637647030469" lon="112.04095120217973">
        <ele>1087.73</ele>
        <time>2019-04-21T23:24:43.061000Z</time>
      </trkpt>
      <trkpt lat="37.856664768208525" lon="112.0407770672851">
        <ele>1084.99</ele>
        <time>2019-04-21T23:25:07.061000Z</time>
      </trkpt>
      <trkpt lat="37.85679456074431" lon="112.0406173257568">
        <ele>1083.04</ele>
        <time>2019-04-21T23:25:16.061000Z</time>
      </trkpt>
      <trkpt lat="37.85684547172769" lon="112.04058151924689">
        <ele>1086.79</ele>
        <time>2019-04-21T23:25:19.061000Z</time>
      </trkpt>
      <trkpt lat="37.856875095516024" lon="112.0405297055328">
        <ele>1085.79</ele>
        <time>2019-04-21T23:25:22.061000Z</time>
      </trkpt>
      <trkpt lat="37.85693524949351" lon="112.04036191490759">
        <ele>1089.48</ele>
        <time>2019-04-21T23:25:31.061000Z</time>
      </trkpt>
      <trkpt lat="37.85685497007509" lon="112.0400355053665">
        <ele>1080.73</ele>
        <time>2019-04-21T23:25:52.061000Z</time>
      </trkpt>
      <trkpt lat="37.85680249290532" lon="112.03995352968738">
        <ele>1092.87</ele>
        <time>2019-04-21T23:26:01.061000Z</time>
      </trkpt>
      <trkpt lat="37.85667473863604" lon="112.03959314399935">
        <ele>1091.94</ele>
        <time>2019-04-21T23:26:16.061000Z</time>
      </trkpt>
      <trkpt lat="37.85650466356212" lon="112.03927225165283">
        <ele>1086.23</ele>
        <time>2019-04-21T23:26:34.061000Z</time>
      </trkpt>
      <trkpt lat="37.85645194265633" lon="112.03921504024838">
        <ele>1087.51</ele>
        <time>2019-04-21T23:26:40.061000Z</time>
      </trkpt>
      <trkpt lat="37.85628111167726" lon="112.03886824541404">
        <ele>1089.91</ele>
        <time>2019-04-21T23:27:13.061000Z</time>
      </trkpt>
      <trkpt lat="37.85613035800077" lon="112.038651469054">
        <ele>1101.87</ele>
        <time>2019-04-21T23:27:28.061000Z</time>
      </trkpt>
      <trkpt lat="37.85607808976501" lon="112.03860156868168">
        <ele>1097.15</ele>
        <time>2019-04-21T23:27:31.061000Z</time>
      </trkpt>
      <trkpt lat="37.85591138720533" lon="112.03842980169888">
        <ele>1099.41</ele>
        <time>2019-04-21T23:27:43.061000Z</time>
      </trkpt>
      <trkpt lat="37.85595458216412" lon="112.03847134839671">
        <ele>1099.51</ele>
        <time>2019-04-21T23:27:58.061000Z</time>
      </trkpt>
      <trkpt lat="37.85605308830116" lon="112.03851381690131">
        <ele>1099.04</ele>
        <time>2019-04-21T23:28:13.061000Z</time>
      </trkpt>
      <trkpt lat="37.85618894551972" lon="112.03848891534058">
        <ele>1099.18</ele>
        <time>2019-04-21T23:28:16.061000Z</time>
      </trkpt>
      <trkpt lat="37.85618894551972" lon="112.03848891534058">
        <ele>1099.18</ele>
        <time>2019-04-21T23:28:30.861000Z</time>
      </trkpt>
      <trkpt lat="37.85636583667096" lon="112.03814226209911">
        <ele>1091.88</ele>
        <time>2019-04-21T23:32:09.061000Z</time>
      </trkpt>
      <trkpt lat="37.85638861372227" lon="112.03822808449765">
        <ele>1096.24</ele>
        <time>2019-04-21T23:32:12.061000Z</time>
      </trkpt>
      <trkpt lat="37.8563925153978" lon="112.03832780100416">
        <ele>1097.99</ele>
        <time>2019-04-21T23:32:18.061000Z</time>
      </trkpt>
      <trkpt lat="37.85635339960336" lon="112.03840850249385">
        <ele>1093.94</ele>
        <time>2019-04-21T23:32:24.061000Z</time>
      </trkpt>
      <trkpt lat="37.85637562216474" lon="112.03847135893162">
        <ele>1093.1</ele>
        <time>2019-04-21T23:32:33.061000Z</time>
      </trkpt>
      <trkpt lat="37.85652088412184" lon="112.03868041308172">
        <ele>1092.04</ele>
        <time>2019-04-21T23:32:51.061000Z</time>
      </trkpt>
      <trkpt lat="37.8565741598124" lon="112.03869246129909">
        <ele>1090.78</ele>
        <time>2019-04-21T23:33:00.061000Z</time>
      </trkpt>
    </trkseg>
  </trk>
</gpx>