<?xml version="1.0" encoding="UTF-8"?>
<gpx xmlns="http://www.topografix.com/GPX/1/1" xmlns:gpxtpx="http://www.garmin.com/xmlschemas/TrackPointExtension/v1" xmlns:xsi="http://www.w3.org/2001/XMLSchema-instance" xsi:schemaLocation="http://www.topografix.com/GPX/1/1 http://www.topografix.com/GPX/1/1/gpx.xsd" version="1.1" creator="gpx.py -- https://github.com/tkrajina/gpxpy">
  <trk>
    <name>gpx from keep</name>
    <type>Run</type>
    <trkseg>
      <trkpt lat="37.846986165863946" lon="112.0296383150719">
        <ele>1137.9514522359693</ele>
        <time>2016-06-06T12:52:49.100000Z</time>
      </trkpt>
      <trkpt lat="37.84703910907961" lon="112.02962343291922">
        <ele>1134.688355847486</ele>
        <time>2016-06-06T12:52:59.100000Z</time>
      </trkpt>
      <trkpt lat="37.84710737936319" lon="112.02955553714605">
        <ele>1131.875396575792</ele>
        <time>2016-06-06T12:53:02.700000Z</time>
      </trkpt>
      <trkpt lat="37.84709976787364" lon="112.02945384226726">
        <ele>1121.7532024312513</ele>
        <time>2016-06-06T12:53:09.700000Z</time>
      </trkpt>
      <trkpt lat="37.84713112645297" lon="112.02939136067523">
        <ele>1115.757348399298</ele>
        <time>2016-06-06T12:53:16.700000Z</time>
      </trkpt>
      <trkpt lat="37.84730325493478" lon="112.02945246544661">
        <ele>1114.7012313989928</ele>
        <time>2016-06-06T12:53:29.700000Z</time>
      </trkpt>
      <trkpt lat="37.84736101610184" lon="112.029571193775">
        <ele>1113.3745841969292</ele>
        <time>2016-06-06T12:53:37.600000Z</time>
      </trkpt>
      <trkpt lat="37.84735290479809" lon="112.0296677520575">
        <ele>1112.7677839216378</ele>
        <time>2016-06-06T12:53:44.600000Z</time>
      </trkpt>
      <trkpt lat="37.84745559991435" lon="112.02993604634942">
        <ele>1110.1307305232153</ele>
        <time>2016-06-06T12:54:05.700000Z</time>
      </trkpt>
      <trkpt lat="37.847521903851444" lon="112.0298946562278">
        <ele>1109.6112771278558</ele>
        <time>2016-06-06T12:54:16.600000Z</time>
      </trkpt>
      <trkpt lat="37.84780224280223" lon="112.02986514113182">
        <ele>1109.5169190242643</ele>
        <time>2016-06-06T12:54:24.600000Z</time>
      </trkpt>
      <trkpt lat="37.848125967906164" lon="112.02984508732315">
        <ele>1110.8702314398322</ele>
        <time>2016-06-06T12:54:34.700000Z</time>
      </trkpt>
      <trkpt lat="37.84846055167608" lon="112.02982259798648">
        <ele>1113.2826537718017</ele>
        <time>2016-06-06T12:54:45.700000Z</time>
      </trkpt>
      <trkpt lat="37.848633441864884" lon="112.02979688248358">
        <ele>1114.0883285990258</ele>
        <time>2016-06-06T12:54:52.700000Z</time>
      </trkpt>
      <trkpt lat="37.84876472276888" lon="112.02981039020462">
        <ele>1114.6969571183845</ele>
        <time>2016-06-06T12:54:56.700000Z</time>
      </trkpt>
      <trkpt lat="37.848852338316966" lon="112.02992560032364">
        <ele>1114.812785304912</ele>
        <time>2016-06-06T12:55:00.700000Z</time>
      </trkpt>
      <trkpt lat="37.848900943676554" lon="112.03001755497067">
        <ele>1114.5347199833795</ele>
        <time>2016-06-06T12:55:03.700000Z</time>
      </trkpt>
      <trkpt lat="37.848907395673464" lon="112.03014954508814">
        <ele>1113.984801706674</ele>
        <time>2016-06-06T12:55:07.600000Z</time>
      </trkpt>
      <trkpt lat="37.84888657962934" lon="112.03022798510402">
        <ele>1113.5051337680638</ele>
        <time>2016-06-06T12:55:10.700000Z</time>
      </trkpt>
      <trkpt lat="37.8489180219674" lon="112.03045707422301">
        <ele>1112.5986896292347</ele>
        <time>2016-06-06T12:55:17.600000Z</time>
      </trkpt>
      <trkpt lat="37.84905691273723" lon="112.03090145451219">
        <ele>1110.8708096104044</ele>
        <time>2016-06-06T12:55:31.600000Z</time>
      </trkpt>
      <trkpt lat="37.8492203665624" lon="112.03117976142715">
        <ele>1109.672729484547</ele>
        <time>2016-06-06T12:55:42.700000Z</time>
      </trkpt>
      <trkpt lat="37.84935824359056" lon="112.0313788217762">
        <ele>1108.423040054818</ele>
        <time>2016-06-06T12:55:49.700000Z</time>
      </trkpt>
      <trkpt lat="37.849550619934554" lon="112.03170257228926">
        <ele>1105.7185090810015</ele>
        <time>2016-06-06T12:56:00.700000Z</time>
      </trkpt>
      <trkpt lat="37.849609484767974" lon="112.03181698239975">
        <ele>1104.7494099824291</ele>
        <time>2016-06-06T12:56:04.700000Z</time>
      </trkpt>
      <trkpt lat="37.84982943729932" lon="112.03207148860531">
        <ele>1102.8714699499362</ele>
        <time>2016-06-06T12:56:15.600000Z</time>
      </trkpt>
      <trkpt lat="37.85004910199438" lon="112.0323335711646">
        <ele>1101.7490029403216</ele>
        <time>2016-06-06T12:56:25.700000Z</time>
      </trkpt>
      <trkpt lat="37.85023076074618" lon="112.03260566934745">
        <ele>1100.18796023609</ele>
        <time>2016-06-06T12:56:35.700000Z</time>
      </trkpt>
      <trkpt lat="37.8503659358028" lon="112.03280365870205">
        <ele>1099.349806293957</ele>
        <time>2016-06-06T12:56:42.700000Z</time>
      </trkpt>
      <trkpt lat="37.850461877929234" lon="112.03284584525989">
        <ele>1099.0141077884896</ele>
        <time>2016-06-06T12:56:46.700000Z</time>
      </trkpt>
      <trkpt lat="37.85047412885132" lon="112.03294051929504">
        <ele>1098.7923032674626</ele>
        <time>2016-06-06T12:56:50.700000Z</time>
      </trkpt>
      <trkpt lat="37.850529972974016" lon="112.03307170634417">
        <ele>1098.520514047248</ele>
        <time>2016-06-06T12:56:54.600000Z</time>
      </trkpt>
      <trkpt lat="37.850662336779976" lon="112.03319909777024">
        <ele>1098.8346589449009</ele>
        <time>2016-06-06T12:57:01.700000Z</time>
      </trkpt>
      <trkpt lat="37.85072420427435" lon="112.03330810391708">
        <ele>1098.665898588516</ele>
        <time>2016-06-06T12:57:05.700000Z</time>
      </trkpt>
      <trkpt lat="37.8509310635392" lon="112.03359671027687">
        <ele>1098.289212420786</ele>
        <time>2016-06-06T12:57:17.600000Z</time>
      </trkpt>
      <trkpt lat="37.851141214799796" lon="112.0338712528663">
        <ele>1099.3049072847614</ele>
        <time>2016-06-06T12:57:27.700000Z</time>
      </trkpt>
      <trkpt lat="37.851382111663575" lon="112.03422397354427">
        <ele>1098.856470094917</ele>
        <time>2016-06-06T12:57:39.700000Z</time>
      </trkpt>
      <trkpt lat="37.85160057757018" lon="112.03454126383073">
        <ele>1099.3507757034236</ele>
        <time>2016-06-06T12:57:51.700000Z</time>
      </trkpt>
      <trkpt lat="37.851748013920044" lon="112.034722223818">
        <ele>1099.9739914607399</ele>
        <time>2016-06-06T12:57:58.600000Z</time>
      </trkpt>
      <trkpt lat="37.851908347882194" lon="112.03495674711282">
        <ele>1099.5780280135305</ele>
        <time>2016-06-06T12:58:05.700000Z</time>
      </trkpt>
      <trkpt lat="37.85214079034215" lon="112.03521777545788">
        <ele>1099.0190922772683</ele>
        <time>2016-06-06T12:58:15.700000Z</time>
      </trkpt>
      <trkpt lat="37.85233608611284" lon="112.03546988356055">
        <ele>1098.8445885073083</ele>
        <time>2016-06-06T12:58:25.700000Z</time>
      </trkpt>
      <trkpt lat="37.85250581677509" lon="112.03574932102103">
        <ele>1098.4983442100095</ele>
        <time>2016-06-06T12:58:35.700000Z</time>
      </trkpt>
      <trkpt lat="37.852575056940275" lon="112.03584183477278">
        <ele>1098.123417912731</ele>
        <time>2016-06-06T12:58:39.700000Z</time>
      </trkpt>
      <trkpt lat="37.85264366723254" lon="112.03597195320121">
        <ele>1097.9444953260752</ele>
        <time>2016-06-06T12:58:43.600000Z</time>
      </trkpt>
      <trkpt lat="37.85271783256072" lon="112.03604688239979">
        <ele>1097.7921496330882</ele>
        <time>2016-06-06T12:58:46.700000Z</time>
      </trkpt>
      <trkpt lat="37.85289807951956" lon="112.03623948249829">
        <ele>1097.391788951712</ele>
        <time>2016-06-06T12:58:54.600000Z</time>
      </trkpt>
      <trkpt lat="37.8530352315457" lon="112.03653110696732">
        <ele>1095.9707552496793</ele>
        <time>2016-06-06T12:59:05.700000Z</time>
      </trkpt>
      <trkpt lat="37.853238802566274" lon="112.03684680533418">
        <ele>1094.902478547069</ele>
        <time>2016-06-06T12:59:16.700000Z</time>
      </trkpt>
      <trkpt lat="37.85348982685999" lon="112.03717548838603">
        <ele>1094.1694198349987</ele>
        <time>2016-06-06T12:59:28.700000Z</time>
      </trkpt>
      <trkpt lat="37.853695623784404" lon="112.03746982136869">
        <ele>1093.7022199078358</ele>
        <time>2016-06-06T12:59:38.600000Z</time>
      </trkpt>
      <trkpt lat="37.853928251028556" lon="112.03777849412383">
        <ele>1092.8841844422113</ele>
        <time>2016-06-06T12:59:49.600000Z</time>
      </trkpt>
      <trkpt lat="37.85406155971625" lon="112.03797652484556">
        <ele>1092.7424273931838</ele>
        <time>2016-06-06T12:59:56.600000Z</time>
      </trkpt>
      <trkpt lat="37.85410557338323" lon="112.03806959128313">
        <ele>1092.5430998408247</ele>
        <time>2016-06-06T12:59:59.600000Z</time>
      </trkpt>
      <trkpt lat="37.854020533228926" lon="112.03788237618937">
        <ele>1090.8856334260047</ele>
        <time>2016-06-06T13:00:07.600000Z</time>
      </trkpt>
      <trkpt lat="37.85376141168299" lon="112.03753176971748">
        <ele>1088.3412727519358</ele>
        <time>2016-06-06T13:00:21.600000Z</time>
      </trkpt>
      <trkpt lat="37.85363135304422" lon="112.03733752998987">
        <ele>1088.4824476550834</ele>
        <time>2016-06-06T13:00:27.700000Z</time>
      </trkpt>
      <trkpt lat="37.853396142210904" lon="112.03709271220448">
        <ele>1087.8259782700177</ele>
        <time>2016-06-06T13:00:38.700000Z</time>
      </trkpt>
      <trkpt lat="37.85320080699469" lon="112.03685195025713">
        <ele>1087.7789122397712</ele>
        <time>2016-06-06T13:00:46.700000Z</time>
      </trkpt>
      <trkpt lat="37.853127263877134" lon="112.03674157735864">
        <ele>1087.7524865258779</ele>
        <time>2016-06-06T13:00:50.700000Z</time>
      </trkpt>
      <trkpt lat="37.852971371153906" lon="112.03645779828072">
        <ele>1087.3783249794833</ele>
        <time>2016-06-06T13:01:00.700000Z</time>
      </trkpt>
      <trkpt lat="37.852878208493166" lon="112.0362676207966">
        <ele>1088.0150079556659</ele>
        <time>2016-06-06T13:01:07.600000Z</time>
      </trkpt>
      <trkpt lat="37.852665719730155" lon="112.03593921590036">
        <ele>1089.9865638869646</ele>
        <time>2016-06-06T13:01:19.600000Z</time>
      </trkpt>
      <trkpt lat="37.85243145040464" lon="112.03564463434492">
        <ele>1089.9616130715601</ele>
        <time>2016-06-06T13:01:31.700000Z</time>
      </trkpt>
      <trkpt lat="37.85220909623748" lon="112.03536087596792">
        <ele>1088.8782730761473</ele>
        <time>2016-06-06T13:01:41.700000Z</time>
      </trkpt>
      <trkpt lat="37.851952828706644" lon="112.03507793649311">
        <ele>1086.3325385041403</ele>
        <time>2016-06-06T13:01:52.700000Z</time>
      </trkpt>
      <trkpt lat="37.85186438571154" lon="112.03496081026364">
        <ele>1086.055289378011</ele>
        <time>2016-06-06T13:01:56.700000Z</time>
      </trkpt>
      <trkpt lat="37.851805516835284" lon="112.03484341049419">
        <ele>1085.6173796464905</ele>
        <time>2016-06-06T13:01:59.700000Z</time>
      </trkpt>
      <trkpt lat="37.851721932088054" lon="112.03473737613164">
        <ele>1085.437199996797</ele>
        <time>2016-06-06T13:02:02.700000Z</time>
      </trkpt>
      <trkpt lat="37.851671164306055" lon="112.03463647813683">
        <ele>1085.3436484778144</ele>
        <time>2016-06-06T13:02:05.700000Z</time>
      </trkpt>
      <trkpt lat="37.85147485560274" lon="112.03435678580321">
        <ele>1086.1223997445318</ele>
        <time>2016-06-06T13:02:16.600000Z</time>
      </trkpt>
      <trkpt lat="37.85128889216192" lon="112.0340632991057">
        <ele>1087.513973699674</ele>
        <time>2016-06-06T13:02:27.600000Z</time>
      </trkpt>
      <trkpt lat="37.85109399431894" lon="112.03376305410112">
        <ele>1091.065577430151</ele>
        <time>2016-06-06T13:02:38.600000Z</time>
      </trkpt>
      <trkpt lat="37.850859246982964" lon="112.03345010357164">
        <ele>1091.849678589766</ele>
        <time>2016-06-06T13:02:48.700000Z</time>
      </trkpt>
      <trkpt lat="37.850668580223854" lon="112.03319774449471">
        <ele>1091.9518329672385</ele>
        <time>2016-06-06T13:02:56.700000Z</time>
      </trkpt>
      <trkpt lat="37.850581481072126" lon="112.03308874185241">
        <ele>1091.903202051469</ele>
        <time>2016-06-06T13:03:00.700000Z</time>
      </trkpt>
      <trkpt lat="37.850549093714065" lon="112.03301841494148">
        <ele>1091.9690598640989</ele>
        <time>2016-06-06T13:03:03.700000Z</time>
      </trkpt>
      <trkpt lat="37.850493045371486" lon="112.03297162475894">
        <ele>1091.7855074679226</ele>
        <time>2016-06-06T13:03:07.700000Z</time>
      </trkpt>
      <trkpt lat="37.85052401588132" lon="112.03306683800271">
        <ele>1091.71534249322</ele>
        <time>2016-06-06T13:03:11.600000Z</time>
      </trkpt>
      <trkpt lat="37.85078378211757" lon="112.03335408276222">
        <ele>1092.6184205015247</ele>
        <time>2016-06-06T13:03:22.600000Z</time>
      </trkpt>
      <trkpt lat="37.850903770845505" lon="112.03355099761687">
        <ele>1093.4828890732026</ele>
        <time>2016-06-06T13:03:29.600000Z</time>
      </trkpt>
      <trkpt lat="37.8509974357099" lon="112.03375116327621">
        <ele>1094.1083577188574</ele>
        <time>2016-06-06T13:03:36.700000Z</time>
      </trkpt>
      <trkpt lat="37.851230346209476" lon="112.03403923045009">
        <ele>1095.2017617408765</ele>
        <time>2016-06-06T13:03:46.700000Z</time>
      </trkpt>
      <trkpt lat="37.851378765068354" lon="112.03426211665622">
        <ele>1096.3401779400451</ele>
        <time>2016-06-06T13:03:53.700000Z</time>
      </trkpt>
      <trkpt lat="37.851464540590214" lon="112.03435895118177">
        <ele>1097.0958887781455</ele>
        <time>2016-06-06T13:03:57.600000Z</time>
      </trkpt>
      <trkpt lat="37.85166107383869" lon="112.03465839147269">
        <ele>1098.1606703183031</ele>
        <time>2016-06-06T13:04:05.600000Z</time>
      </trkpt>
      <trkpt lat="37.85196149127505" lon="112.03497107844552">
        <ele>1099.5682247037366</ele>
        <time>2016-06-06T13:04:17.600000Z</time>
      </trkpt>
      <trkpt lat="37.85211163622817" lon="112.03515501698479">
        <ele>1099.789688743566</ele>
        <time>2016-06-06T13:04:24.700000Z</time>
      </trkpt>
      <trkpt lat="37.852326243453135" lon="112.03550207770735">
        <ele>1099.4361262902012</ele>
        <time>2016-06-06T13:04:35.700000Z</time>
      </trkpt>
      <trkpt lat="37.8525459527396" lon="112.03587349066113">
        <ele>1098.3724906395987</ele>
        <time>2016-06-06T13:04:46.700000Z</time>
      </trkpt>
      <trkpt lat="37.85282191661652" lon="112.03620675668715">
        <ele>1097.8122634624585</ele>
        <time>2016-06-06T13:04:57.600000Z</time>
      </trkpt>
      <trkpt lat="37.85309400270789" lon="112.03657600965727">
        <ele>1096.897897152312</ele>
        <time>2016-06-06T13:05:08.700000Z</time>
      </trkpt>
      <trkpt lat="37.85333852313152" lon="112.03690009055232">
        <ele>1094.6360409537608</ele>
        <time>2016-06-06T13:05:19.600000Z</time>
      </trkpt>
      <trkpt lat="37.85354975600085" lon="112.03718900854871">
        <ele>1093.1997661386843</ele>
        <time>2016-06-06T13:05:28.700000Z</time>
      </trkpt>
      <trkpt lat="37.8536257215645" lon="112.03730858187646">
        <ele>1092.9525334228495</ele>
        <time>2016-06-06T13:05:32.600000Z</time>
      </trkpt>
      <trkpt lat="37.8536631698434" lon="112.03742437273921">
        <ele>1092.6092096491764</ele>
        <time>2016-06-06T13:05:35.700000Z</time>
      </trkpt>
      <trkpt lat="37.85379322412213" lon="112.03762077759505">
        <ele>1091.9858142516846</ele>
        <time>2016-06-06T13:05:42.700000Z</time>
      </trkpt>
      <trkpt lat="37.853894435757624" lon="112.03773493895002">
        <ele>1091.3167106567153</ele>
        <time>2016-06-06T13:05:46.600000Z</time>
      </trkpt>
      <trkpt lat="37.8541227198539" lon="112.03804578012645">
        <ele>1090.6552186404963</ele>
        <time>2016-06-06T13:05:57.600000Z</time>
      </trkpt>
      <trkpt lat="37.85405286237463" lon="112.03810341741263">
        <ele>1090.837060691279</ele>
        <time>2016-06-06T13:06:00.700000Z</time>
      </trkpt>
      <trkpt lat="37.85388961791033" lon="112.03782557533795">
        <ele>1090.5319321699092</ele>
        <time>2016-06-06T13:06:10.600000Z</time>
      </trkpt>
      <trkpt lat="37.85381636587473" lon="112.03770491688239">
        <ele>1090.5526119648723</ele>
        <time>2016-06-06T13:06:14.700000Z</time>
      </trkpt>
      <trkpt lat="37.853624099170915" lon="112.03754423167545">
        <ele>1089.6081522404695</ele>
        <time>2016-06-06T13:06:21.600000Z</time>
      </trkpt>
      <trkpt lat="37.85349210597727" lon="112.03724664228899">
        <ele>1089.2326794199234</ele>
        <time>2016-06-06T13:06:28.700000Z</time>
      </trkpt>
      <trkpt lat="37.8532506626066" lon="112.03688062194145">
        <ele>1088.521250490651</ele>
        <time>2016-06-06T13:06:39.700000Z</time>
      </trkpt>
      <trkpt lat="37.85300487265454" lon="112.03651893630607">
        <ele>1088.130882116261</ele>
        <time>2016-06-06T13:06:50.600000Z</time>
      </trkpt>
      <trkpt lat="37.85282403441727" lon="112.03622948154988">
        <ele>1087.3508177992906</ele>
        <time>2016-06-06T13:07:00.600000Z</time>
      </trkpt>
      <trkpt lat="37.85259912619597" lon="112.03587510744782">
        <ele>1085.841548745553</ele>
        <time>2016-06-06T13:07:12.600000Z</time>
      </trkpt>
      <trkpt lat="37.85239391766212" lon="112.03556780824105">
        <ele>1085.1754843502295</ele>
        <time>2016-06-06T13:07:22.700000Z</time>
      </trkpt>
      <trkpt lat="37.8523022608267" lon="112.03543201362281">
        <ele>1084.8278582913117</ele>
        <time>2016-06-06T13:07:26.700000Z</time>
      </trkpt>
      <trkpt lat="37.85220725546246" lon="112.03533598765303">
        <ele>1084.5232301020246</ele>
        <time>2016-06-06T13:07:30.700000Z</time>
      </trkpt>
      <trkpt lat="37.852108929169184" lon="112.03526782668861">
        <ele>1084.7789788801438</ele>
        <time>2016-06-06T13:07:33.700000Z</time>
      </trkpt>
      <trkpt lat="37.85194605227061" lon="112.03507523206397">
        <ele>1085.325187696173</ele>
        <time>2016-06-06T13:07:40.700000Z</time>
      </trkpt>
      <trkpt lat="37.85178845740276" lon="112.03482934540564">
        <ele>1084.583994226547</ele>
        <time>2016-06-06T13:07:48.600000Z</time>
      </trkpt>
      <trkpt lat="37.85168262353274" lon="112.03460942478245">
        <ele>1084.1436699634294</ele>
        <time>2016-06-06T13:07:55.700000Z</time>
      </trkpt>
      <trkpt lat="37.85143782484193" lon="112.034298358689">
        <ele>1083.8753131200515</ele>
        <time>2016-06-06T13:08:06.600000Z</time>
      </trkpt>
      <trkpt lat="37.85120297856459" lon="112.03402462602426">
        <ele>1085.081291917099</ele>
        <time>2016-06-06T13:08:16.700000Z</time>
      </trkpt>
      <trkpt lat="37.8509958765836" lon="112.03372248937308">
        <ele>1087.5248070096688</ele>
        <time>2016-06-06T13:08:27.600000Z</time>
      </trkpt>
      <trkpt lat="37.85086043762771" lon="112.0335190828754">
        <ele>1089.4006141187774</ele>
        <time>2016-06-06T13:08:35.600000Z</time>
      </trkpt>
      <trkpt lat="37.85063953742006" lon="112.03320288758282">
        <ele>1090.9183661689085</ele>
        <time>2016-06-06T13:08:46.600000Z</time>
      </trkpt>
      <trkpt lat="37.8505856573723" lon="112.03304464931706">
        <ele>1091.6727708787223</ele>
        <time>2016-06-06T13:08:50.700000Z</time>
      </trkpt>
      <trkpt lat="37.8505067762264" lon="112.0330154445101">
        <ele>1092.013152315584</ele>
        <time>2016-06-06T13:08:54.700000Z</time>
      </trkpt>
      <trkpt lat="37.85051248215396" lon="112.03312418614838">
        <ele>1092.1501951653077</ele>
        <time>2016-06-06T13:08:58.700000Z</time>
      </trkpt>
      <trkpt lat="37.850740009642905" lon="112.03339195894222">
        <ele>1092.1910546797528</ele>
        <time>2016-06-06T13:09:09.600000Z</time>
      </trkpt>
      <trkpt lat="37.85097373345092" lon="112.03367893994599">
        <ele>1093.0707790077654</ele>
        <time>2016-06-06T13:09:20.700000Z</time>
      </trkpt>
      <trkpt lat="37.851139924428516" lon="112.03395700537902">
        <ele>1093.456899073055</ele>
        <time>2016-06-06T13:09:31.700000Z</time>
      </trkpt>
      <trkpt lat="37.851387343380885" lon="112.03430566871418">
        <ele>1094.6886990659912</ele>
        <time>2016-06-06T13:09:43.600000Z</time>
      </trkpt>
      <trkpt lat="37.85159462089461" lon="112.03453612469117">
        <ele>1096.1315490442148</ele>
        <time>2016-06-06T13:09:51.600000Z</time>
      </trkpt>
      <trkpt lat="37.851799291355015" lon="112.03483718923721">
        <ele>1095.7411329205531</ele>
        <time>2016-06-06T13:10:01.700000Z</time>
      </trkpt>
      <trkpt lat="37.85204321586841" lon="112.0351761262308">
        <ele>1096.122271976512</ele>
        <time>2016-06-06T13:10:12.600000Z</time>
      </trkpt>
      <trkpt lat="37.852131720799434" lon="112.03538279805284">
        <ele>1096.3979643838466</ele>
        <time>2016-06-06T13:10:18.700000Z</time>
      </trkpt>
      <trkpt lat="37.8524404885839" lon="112.0357244399725">
        <ele>1095.8690950874839</ele>
        <time>2016-06-06T13:10:30.700000Z</time>
      </trkpt>
      <trkpt lat="37.852497483657785" lon="112.03583237547663">
        <ele>1095.941975371805</ele>
        <time>2016-06-06T13:10:34.600000Z</time>
      </trkpt>
      <trkpt lat="37.85275529300889" lon="112.03615536274837">
        <ele>1097.1259867980928</ele>
        <time>2016-06-06T13:10:45.700000Z</time>
      </trkpt>
      <trkpt lat="37.8529448700896" lon="112.03641992593808">
        <ele>1097.8130711826134</ele>
        <time>2016-06-06T13:10:53.600000Z</time>
      </trkpt>
      <trkpt lat="37.853178722982186" lon="112.03678079990837">
        <ele>1097.8939489160748</ele>
        <time>2016-06-06T13:11:04.700000Z</time>
      </trkpt>
      <trkpt lat="37.85335286300221" lon="112.03703563210377">
        <ele>1097.2253271475388</ele>
        <time>2016-06-06T13:11:12.600000Z</time>
      </trkpt>
      <trkpt lat="37.8534278362172" lon="112.03711435213988">
        <ele>1097.0851447345303</ele>
        <time>2016-06-06T13:11:15.700000Z</time>
      </trkpt>
      <trkpt lat="37.85362742504782" lon="112.03739434595363">
        <ele>1096.2597968415685</ele>
        <time>2016-06-06T13:11:25.700000Z</time>
      </trkpt>
      <trkpt lat="37.85387838963755" lon="112.03775198580293">
        <ele>1094.7526633286716</ele>
        <time>2016-06-06T13:11:37.700000Z</time>
      </trkpt>
      <trkpt lat="37.85407133798522" lon="112.037971653642">
        <ele>1093.9067818792737</ele>
        <time>2016-06-06T13:11:45.700000Z</time>
      </trkpt>
      <trkpt lat="37.85412672111225" lon="112.03807608212213">
        <ele>1093.8062806605224</ele>
        <time>2016-06-06T13:11:49.700000Z</time>
      </trkpt>
      <trkpt lat="37.8540486465996" lon="112.03804795352852">
        <ele>1093.4181822914081</ele>
        <time>2016-06-06T13:11:53.600000Z</time>
      </trkpt>
      <trkpt lat="37.85383533503632" lon="112.03771492508541">
        <ele>1090.7236282085976</ele>
        <time>2016-06-06T13:12:07.700000Z</time>
      </trkpt>
      <trkpt lat="37.853723766974305" lon="112.03750201357802">
        <ele>1090.207715785976</ele>
        <time>2016-06-06T13:12:14.700000Z</time>
      </trkpt>
      <trkpt lat="37.85345950670844" lon="112.03714627289942">
        <ele>1090.4614080309877</ele>
        <time>2016-06-06T13:12:26.600000Z</time>
      </trkpt>
      <trkpt lat="37.8532531187158" lon="112.03687439912254">
        <ele>1091.8785060598195</ele>
        <time>2016-06-06T13:12:37.600000Z</time>
      </trkpt>
      <trkpt lat="37.85309474799424" lon="112.03660576910588">
        <ele>1092.4232684009341</ele>
        <time>2016-06-06T13:12:45.600000Z</time>
      </trkpt>
      <trkpt lat="37.85290056388009" lon="112.0363382285336">
        <ele>1091.2990307296066</ele>
        <time>2016-06-06T13:12:56.600000Z</time>
      </trkpt>
      <trkpt lat="37.852794902118646" lon="112.03615644011636">
        <ele>1090.3647774233498</ele>
        <time>2016-06-06T13:13:03.700000Z</time>
      </trkpt>
      <trkpt lat="37.852553929259074" lon="112.03582695801201">
        <ele>1090.5818666802163</ele>
        <time>2016-06-06T13:13:14.600000Z</time>
      </trkpt>
      <trkpt lat="37.85245863493581" lon="112.03573796437186">
        <ele>1090.6282861124146</ele>
        <time>2016-06-06T13:13:18.700000Z</time>
      </trkpt>
      <trkpt lat="37.85222285637493" lon="112.03539360818311">
        <ele>1091.282684646775</ele>
        <time>2016-06-06T13:13:32.600000Z</time>
      </trkpt>
      <trkpt lat="37.85216334731423" lon="112.03531705603429">
        <ele>1091.3846963250423</ele>
        <time>2016-06-06T13:13:35.700000Z</time>
      </trkpt>
      <trkpt lat="37.851949523542025" lon="112.0349837944953">
        <ele>1092.0182962146798</ele>
        <time>2016-06-06T13:13:46.600000Z</time>
      </trkpt>
      <trkpt lat="37.85180348446437" lon="112.03478497803329">
        <ele>1092.1313849331684</ele>
        <time>2016-06-06T13:13:53.700000Z</time>
      </trkpt>
      <trkpt lat="37.851528631989446" lon="112.03444713211891">
        <ele>1091.1880564377857</ele>
        <time>2016-06-06T13:14:05.700000Z</time>
      </trkpt>
      <trkpt lat="37.85131069867903" lon="112.03413444169293">
        <ele>1090.2161001369684</ele>
        <time>2016-06-06T13:14:15.600000Z</time>
      </trkpt>
      <trkpt lat="37.8510840851486" lon="112.03382229717862">
        <ele>1090.1121015267709</ele>
        <time>2016-06-06T13:14:26.700000Z</time>
      </trkpt>
      <trkpt lat="37.85092314741325" lon="112.03361672889102">
        <ele>1090.1980023197793</ele>
        <time>2016-06-06T13:14:36.600000Z</time>
      </trkpt>
      <trkpt lat="37.85075862961657" lon="112.03332108404969">
        <ele>1090.414073814095</ele>
        <time>2016-06-06T13:14:47.600000Z</time>
      </trkpt>
      <trkpt lat="37.85061135090876" lon="112.03307818861917">
        <ele>1090.557071923312</ele>
        <time>2016-06-06T13:14:55.600000Z</time>
      </trkpt>
      <trkpt lat="37.85054883941967" lon="112.03301138190126">
        <ele>1090.1344315912418</ele>
        <time>2016-06-06T13:14:59.600000Z</time>
      </trkpt>
      <trkpt lat="37.850611791534945" lon="112.03312038712835">
        <ele>1090.222595674922</ele>
        <time>2016-06-06T13:15:06.600000Z</time>
      </trkpt>
      <trkpt lat="37.850863038192955" lon="112.03345307869495">
        <ele>1090.9952783155807</ele>
        <time>2016-06-06T13:15:18.700000Z</time>
      </trkpt>
      <trkpt lat="37.85110452752386" lon="112.03378307062157">
        <ele>1092.4508277823422</ele>
        <time>2016-06-06T13:15:32.600000Z</time>
      </trkpt>
      <trkpt lat="37.85130405400399" lon="112.03407655245535">
        <ele>1093.5927814459606</ele>
        <time>2016-06-06T13:15:42.600000Z</time>
      </trkpt>
      <trkpt lat="37.85149144039508" lon="112.03434217589681">
        <ele>1094.2589509109418</ele>
        <time>2016-06-06T13:15:52.600000Z</time>
      </trkpt>
      <trkpt lat="37.851665485337634" lon="112.03462863374635">
        <ele>1094.5199703607877</ele>
        <time>2016-06-06T13:16:02.600000Z</time>
      </trkpt>
      <trkpt lat="37.85185115843465" lon="112.03493240692077">
        <ele>1095.0435929820749</ele>
        <time>2016-06-06T13:16:13.600000Z</time>
      </trkpt>
      <trkpt lat="37.85206557704089" lon="112.03524321399885">
        <ele>1095.5823907741233</ele>
        <time>2016-06-06T13:16:24.700000Z</time>
      </trkpt>
      <trkpt lat="37.85226786504251" lon="112.03552183339069">
        <ele>1095.9825110959596</ele>
        <time>2016-06-06T13:16:32.600000Z</time>
      </trkpt>
      <trkpt lat="37.852523238156614" lon="112.03584102942371">
        <ele>1096.0601071420435</ele>
        <time>2016-06-06T13:16:43.600000Z</time>
      </trkpt>
      <trkpt lat="37.85275421278242" lon="112.03615319858736">
        <ele>1096.48688526249</ele>
        <time>2016-06-06T13:16:54.600000Z</time>
      </trkpt>
      <trkpt lat="37.85283354603674" lon="112.03622271697229">
        <ele>1096.6501746504428</ele>
        <time>2016-06-06T13:16:57.600000Z</time>
      </trkpt>
      <trkpt lat="37.85302193410922" lon="112.0365324612745">
        <ele>1097.4074733156278</ele>
        <time>2016-06-06T13:17:07.700000Z</time>
      </trkpt>
      <trkpt lat="37.85314376225971" lon="112.03676403044263">
        <ele>1097.3592730012247</ele>
        <time>2016-06-06T13:17:14.700000Z</time>
      </trkpt>
      <trkpt lat="37.85339753099978" lon="112.03707864360358">
        <ele>1096.4925721824789</ele>
        <time>2016-06-06T13:17:26.700000Z</time>
      </trkpt>
      <trkpt lat="37.85356817920035" lon="112.03731914024527">
        <ele>1095.9026901232717</ele>
        <time>2016-06-06T13:17:34.600000Z</time>
      </trkpt>
      <trkpt lat="37.85362291754842" lon="112.03746739518257">
        <ele>1095.745055123095</ele>
        <time>2016-06-06T13:17:38.600000Z</time>
      </trkpt>
      <trkpt lat="37.85369139085784" lon="112.03754151803525">
        <ele>1095.3292073361706</ele>
        <time>2016-06-06T13:17:41.700000Z</time>
      </trkpt>
      <trkpt lat="37.853868535927695" lon="112.03767055027971">
        <ele>1094.842393345643</ele>
        <time>2016-06-06T13:17:48.700000Z</time>
      </trkpt>
      <trkpt lat="37.85401345337171" lon="112.03789374039053">
        <ele>1094.8513523562922</ele>
        <time>2016-06-06T13:17:55.600000Z</time>
      </trkpt>
      <trkpt lat="37.854111713416735" lon="112.03799383443888">
        <ele>1094.5876301500598</ele>
        <time>2016-06-06T13:17:59.600000Z</time>
      </trkpt>
      <trkpt lat="37.854152512313206" lon="112.03806877394376">
        <ele>1094.5366245359871</ele>
        <time>2016-06-06T13:18:02.700000Z</time>
      </trkpt>
      <trkpt lat="37.854065141682824" lon="112.03807230174286">
        <ele>1093.9942275123296</ele>
        <time>2016-06-06T13:18:06.700000Z</time>
      </trkpt>
      <trkpt lat="37.85387833563411" lon="112.03777579460193">
        <ele>1091.1732141771151</ele>
        <time>2016-06-06T13:18:18.700000Z</time>
      </trkpt>
      <trkpt lat="37.85382865173853" lon="112.03767109619992">
        <ele>1090.7442047331647</ele>
        <time>2016-06-06T13:18:22.600000Z</time>
      </trkpt>
      <trkpt lat="37.853660923827306" lon="112.03757669348977">
        <ele>1090.1620542199742</ele>
        <time>2016-06-06T13:18:29.700000Z</time>
      </trkpt>
      <trkpt lat="37.85357566540038" lon="112.03748661002051">
        <ele>1089.0808593327358</ele>
        <time>2016-06-06T13:18:33.600000Z</time>
      </trkpt>
      <trkpt lat="37.853379510987786" lon="112.03712815587782">
        <ele>1087.409009216583</ele>
        <time>2016-06-06T13:18:44.600000Z</time>
      </trkpt>
      <trkpt lat="37.853335020263245" lon="112.03700776801075">
        <ele>1086.9788940082788</ele>
        <time>2016-06-06T13:18:48.600000Z</time>
      </trkpt>
      <trkpt lat="37.85325765024122" lon="112.03690956937669">
        <ele>1086.349882635938</ele>
        <time>2016-06-06T13:18:52.700000Z</time>
      </trkpt>
      <trkpt lat="37.85315043259528" lon="112.0366950412224">
        <ele>1086.5557055192676</ele>
        <time>2016-06-06T13:18:59.700000Z</time>
      </trkpt>
      <trkpt lat="37.852913360042145" lon="112.03631901876751">
        <ele>1088.280258298129</ele>
        <time>2016-06-06T13:19:10.600000Z</time>
      </trkpt>
      <trkpt lat="37.852766306332285" lon="112.03608610419253">
        <ele>1089.0905584289321</ele>
        <time>2016-06-06T13:19:18.700000Z</time>
      </trkpt>
      <trkpt lat="37.8526223009206" lon="112.03594300861415">
        <ele>1088.845010933466</ele>
        <time>2016-06-06T13:19:25.700000Z</time>
      </trkpt>
      <trkpt lat="37.85241768747294" lon="112.03561298392039">
        <ele>1089.9332736436318</ele>
        <time>2016-06-06T13:19:37.600000Z</time>
      </trkpt>
      <trkpt lat="37.852282513377205" lon="112.03540712739604">
        <ele>1090.5971754246023</ele>
        <time>2016-06-06T13:19:45.600000Z</time>
      </trkpt>
      <trkpt lat="37.85212547286758" lon="112.03527052996081">
        <ele>1091.182632298699</ele>
        <time>2016-06-06T13:19:52.600000Z</time>
      </trkpt>
      <trkpt lat="37.85191020813866" lon="112.03497324881681">
        <ele>1091.2616004244178</ele>
        <time>2016-06-06T13:20:03.600000Z</time>
      </trkpt>
      <trkpt lat="37.85170661521912" lon="112.03467488771433">
        <ele>1091.7941138154831</ele>
        <time>2016-06-06T13:20:15.700000Z</time>
      </trkpt>
      <trkpt lat="37.8515162023972" lon="112.0344257627167">
        <ele>1091.26118787055</ele>
        <time>2016-06-06T13:20:25.700000Z</time>
      </trkpt>
      <trkpt lat="37.85125579271647" lon="112.03406303258157">
        <ele>1089.2598402232309</ele>
        <time>2016-06-06T13:20:37.700000Z</time>
      </trkpt>
      <trkpt lat="37.850996459430064" lon="112.03370571767957">
        <ele>1088.2313671056293</ele>
        <time>2016-06-06T13:20:51.600000Z</time>
      </trkpt>
      <trkpt lat="37.850772648544094" lon="112.03335814169819">
        <ele>1088.965056594675</ele>
        <time>2016-06-06T13:21:02.600000Z</time>
      </trkpt>
      <trkpt lat="37.85057378769704" lon="112.03301651844684">
        <ele>1090.372362337381</ele>
        <time>2016-06-06T13:21:13.600000Z</time>
      </trkpt>
      <trkpt lat="37.85054057703936" lon="112.0330622374521">
        <ele>1090.6592727439372</ele>
        <time>2016-06-06T13:21:17.600000Z</time>
      </trkpt>
      <trkpt lat="37.850606007063526" lon="112.03315636485897">
        <ele>1090.8518282610455</ele>
        <time>2016-06-06T13:21:20.700000Z</time>
      </trkpt>
      <trkpt lat="37.850799181096185" lon="112.03338140205398">
        <ele>1091.2866627815042</ele>
        <time>2016-06-06T13:21:30.700000Z</time>
      </trkpt>
      <trkpt lat="37.85101546166387" lon="112.03370138723037">
        <ele>1091.8639047756055</ele>
        <time>2016-06-06T13:21:42.600000Z</time>
      </trkpt>
      <trkpt lat="37.85121827416835" lon="112.03398188310885">
        <ele>1092.65573344231</ele>
        <time>2016-06-06T13:21:52.600000Z</time>
      </trkpt>
      <trkpt lat="37.85134853147067" lon="112.034197737606">
        <ele>1094.09701222452</ele>
        <time>2016-06-06T13:21:59.700000Z</time>
      </trkpt>
      <trkpt lat="37.851593068774015" lon="112.03450420368043">
        <ele>1096.9728449276129</ele>
        <time>2016-06-06T13:22:09.600000Z</time>
      </trkpt>
      <trkpt lat="37.851796897521076" lon="112.03470219939355">
        <ele>1098.620508158896</ele>
        <time>2016-06-06T13:22:16.700000Z</time>
      </trkpt>
      <trkpt lat="37.85202367691685" lon="112.03506277857537">
        <ele>1099.8084642146146</ele>
        <time>2016-06-06T13:22:27.600000Z</time>
      </trkpt>
      <trkpt lat="37.852244218367375" lon="112.03542417529745">
        <ele>1098.4127246351982</ele>
        <time>2016-06-06T13:22:38.800000Z</time>
      </trkpt>
      <trkpt lat="37.852434556351184" lon="112.03570874985529">
        <ele>1096.7687562149208</ele>
        <time>2016-06-06T13:22:46.600000Z</time>
      </trkpt>
      <trkpt lat="37.85259191896471" lon="112.03594084800605">
        <ele>1096.2148417543488</ele>
        <time>2016-06-06T13:22:53.600000Z</time>
      </trkpt>
      <trkpt lat="37.85278913047978" lon="112.03618836413318">
        <ele>1095.731063559399</ele>
        <time>2016-06-06T13:23:01.700000Z</time>
      </trkpt>
      <trkpt lat="37.85297592532656" lon="112.03648295794378">
        <ele>1095.0666290612166</ele>
        <time>2016-06-06T13:23:09.600000Z</time>
      </trkpt>
      <trkpt lat="37.85321549518459" lon="112.03683571583998">
        <ele>1094.644174475361</ele>
        <time>2016-06-06T13:23:20.600000Z</time>
      </trkpt>
      <trkpt lat="37.85341976375708" lon="112.03708513404302">
        <ele>1095.1512978774663</ele>
        <time>2016-06-06T13:23:27.700000Z</time>
      </trkpt>
      <trkpt lat="37.85360093207297" lon="112.0373524138951">
        <ele>1096.5460490931366</ele>
        <time>2016-06-06T13:23:35.600000Z</time>
      </trkpt>
      <trkpt lat="37.85366719760169" lon="112.0374427697018">
        <ele>1096.6448360884538</ele>
        <time>2016-06-06T13:23:38.600000Z</time>
      </trkpt>
      <trkpt lat="37.853861922448196" lon="112.03771546298451">
        <ele>1097.3374022090638</ele>
        <time>2016-06-06T13:23:48.600000Z</time>
      </trkpt>
      <trkpt lat="37.854075585410435" lon="112.03801304835983">
        <ele>1097.3076342265908</ele>
        <time>2016-06-06T13:24:00.600000Z</time>
      </trkpt>
      <trkpt lat="37.854064498292416" lon="112.0381169439286">
        <ele>1097.0921392720466</ele>
        <time>2016-06-06T13:24:03.700000Z</time>
      </trkpt>
      <trkpt lat="37.85401715477364" lon="112.03805661517748">
        <ele>1096.6258328807664</ele>
        <time>2016-06-06T13:24:07.700000Z</time>
      </trkpt>
      <trkpt lat="37.85385698662979" lon="112.03773846067361">
        <ele>1094.9637077424802</ele>
        <time>2016-06-06T13:24:19.600000Z</time>
      </trkpt>
      <trkpt lat="37.853589662626696" lon="112.03741626509265">
        <ele>1092.0376505244249</ele>
        <time>2016-06-06T13:24:33.700000Z</time>
      </trkpt>
      <trkpt lat="37.853391041192104" lon="112.03706917525345">
        <ele>1089.6187956446095</ele>
        <time>2016-06-06T13:24:44.600000Z</time>
      </trkpt>
      <trkpt lat="37.85320284552576" lon="112.03679134819207">
        <ele>1088.749761082246</ele>
        <time>2016-06-06T13:24:54.600000Z</time>
      </trkpt>
      <trkpt lat="37.8529893290598" lon="112.03643561186264">
        <ele>1088.9221072432144</ele>
        <time>2016-06-06T13:25:07.600000Z</time>
      </trkpt>
      <trkpt lat="37.852752199969274" lon="112.03608529428708">
        <ele>1087.7404068575909</ele>
        <time>2016-06-06T13:25:19.600000Z</time>
      </trkpt>
      <trkpt lat="37.85264194692293" lon="112.03589512175827">
        <ele>1087.9387269098147</ele>
        <time>2016-06-06T13:25:26.600000Z</time>
      </trkpt>
      <trkpt lat="37.8524626133959" lon="112.03566086244047">
        <ele>1089.0412904281047</ele>
        <time>2016-06-06T13:25:34.700000Z</time>
      </trkpt>
      <trkpt lat="37.852388155545704" lon="112.03559540300812">
        <ele>1089.1189673338133</ele>
        <time>2016-06-06T13:25:37.700000Z</time>
      </trkpt>
      <trkpt lat="37.85220642692056" lon="112.03534220988482">
        <ele>1089.37047572503</ele>
        <time>2016-06-06T13:25:47.600000Z</time>
      </trkpt>
      <trkpt lat="37.851952993826565" lon="112.03500787069045">
        <ele>1087.894965137019</ele>
        <time>2016-06-06T13:25:58.600000Z</time>
      </trkpt>
      <trkpt lat="37.85172874050271" lon="112.03472655447476">
        <ele>1086.6016125320339</ele>
        <time>2016-06-06T13:26:09.700000Z</time>
      </trkpt>
      <trkpt lat="37.85160563818413" lon="112.0345810295233">
        <ele>1085.7543828642667</ele>
        <time>2016-06-06T13:26:16.600000Z</time>
      </trkpt>
      <trkpt lat="37.85148108681089" lon="112.03447473068572">
        <ele>1085.356361970897</ele>
        <time>2016-06-06T13:26:23.700000Z</time>
      </trkpt>
      <trkpt lat="37.851277715110385" lon="112.03419936923333">
        <ele>1084.826506251939</ele>
        <time>2016-06-06T13:26:34.700000Z</time>
      </trkpt>
      <trkpt lat="37.85117059176178" lon="112.03395321450625">
        <ele>1084.2986353972324</ele>
        <time>2016-06-06T13:26:41.600000Z</time>
      </trkpt>
      <trkpt lat="37.851049752927764" lon="112.0337703632196">
        <ele>1084.997198506334</ele>
        <time>2016-06-06T13:26:48.700000Z</time>
      </trkpt>
      <trkpt lat="37.85091314459206" lon="112.03360185210438">
        <ele>1085.3762139496946</ele>
        <time>2016-06-06T13:26:55.700000Z</time>
      </trkpt>
      <trkpt lat="37.85081217020386" lon="112.03339546683331">
        <ele>1086.8725340098492</ele>
        <time>2016-06-06T13:27:03.700000Z</time>
      </trkpt>
      <trkpt lat="37.85060724722172" lon="112.03309225529344">
        <ele>1089.0708528747887</ele>
        <time>2016-06-06T13:27:14.600000Z</time>
      </trkpt>
      <trkpt lat="37.850554360595694" lon="112.03297215837574">
        <ele>1089.247889990817</ele>
        <time>2016-06-06T13:27:18.600000Z</time>
      </trkpt>
      <trkpt lat="37.85057454927935" lon="112.03303815858345">
        <ele>1089.0500659227491</ele>
        <time>2016-06-06T13:27:25.600000Z</time>
      </trkpt>
      <trkpt lat="37.850756663286994" lon="112.03334894641159">
        <ele>1091.185550717045</ele>
        <time>2016-06-06T13:27:36.600000Z</time>
      </trkpt>
      <trkpt lat="37.85091199178908" lon="112.03362998518116">
        <ele>1094.181512166936</ele>
        <time>2016-06-06T13:27:46.600000Z</time>
      </trkpt>
      <trkpt lat="37.850986694138165" lon="112.03370490732658">
        <ele>1094.8117454932503</ele>
        <time>2016-06-06T13:27:49.700000Z</time>
      </trkpt>
      <trkpt lat="37.85117645330152" lon="112.0339981189279">
        <ele>1097.5395492363807</ele>
        <time>2016-06-06T13:28:00.600000Z</time>
      </trkpt>
      <trkpt lat="37.85141122787168" lon="112.03430187860667">
        <ele>1098.87064308316</ele>
        <time>2016-06-06T13:28:11.600000Z</time>
      </trkpt>
      <trkpt lat="37.85170734822207" lon="112.034594543229">
        <ele>1101.2328056143097</ele>
        <time>2016-06-06T13:28:22.700000Z</time>
      </trkpt>
      <trkpt lat="37.85177368638593" lon="112.03465080333422">
        <ele>1101.3131413648568</ele>
        <time>2016-06-06T13:28:25.700000Z</time>
      </trkpt>
      <trkpt lat="37.8519452750838" lon="112.03494456911375">
        <ele>1101.2613470696215</ele>
        <time>2016-06-06T13:28:36.600000Z</time>
      </trkpt>
      <trkpt lat="37.852143661601424" lon="112.03526592881357">
        <ele>1100.900785190545</ele>
        <time>2016-06-06T13:28:48.600000Z</time>
      </trkpt>
      <trkpt lat="37.85236752694391" lon="112.03559919291997">
        <ele>1100.6539559423427</ele>
        <time>2016-06-06T13:28:59.600000Z</time>
      </trkpt>
      <trkpt lat="37.85244110070603" lon="112.03569468143142">
        <ele>1100.678745570826</ele>
        <time>2016-06-06T13:29:02.600000Z</time>
      </trkpt>
      <trkpt lat="37.85271126635927" lon="112.03607041976804">
        <ele>1098.989661028844</ele>
        <time>2016-06-06T13:29:13.600000Z</time>
      </trkpt>
      <trkpt lat="37.85297594116237" lon="112.03635878037174">
        <ele>1097.596466729816</ele>
        <time>2016-06-06T13:29:27.600000Z</time>
      </trkpt>
      <trkpt lat="37.85313756858319" lon="112.03662605455528">
        <ele>1097.2810991820447</ele>
        <time>2016-06-06T13:29:37.600000Z</time>
      </trkpt>
      <trkpt lat="37.85318533846211" lon="112.0367356184082">
        <ele>1097.3204410990893</ele>
        <time>2016-06-06T13:29:41.600000Z</time>
      </trkpt>
      <trkpt lat="37.85338085533751" lon="112.03701506722135">
        <ele>1097.1101404605697</ele>
        <time>2016-06-06T13:29:52.600000Z</time>
      </trkpt>
      <trkpt lat="37.85359310414055" lon="112.03733482910926">
        <ele>1098.0503257275557</ele>
        <time>2016-06-06T13:30:04.600000Z</time>
      </trkpt>
      <trkpt lat="37.8537973005765" lon="112.0376178010221">
        <ele>1097.671147870249</ele>
        <time>2016-06-06T13:30:15.700000Z</time>
      </trkpt>
      <trkpt lat="37.85398226895225" lon="112.03788643914507">
        <ele>1097.1360247034775</ele>
        <time>2016-06-06T13:30:26.600000Z</time>
      </trkpt>
      <trkpt lat="37.854109927216314" lon="112.03806390904148">
        <ele>1096.7506840135293</ele>
        <time>2016-06-06T13:30:32.600000Z</time>
      </trkpt>
      <trkpt lat="37.85406530307333" lon="112.0381210022091">
        <ele>1096.2993408504528</ele>
        <time>2016-06-06T13:30:36.600000Z</time>
      </trkpt>
      <trkpt lat="37.854030551784334" lon="112.03801115989428">
        <ele>1095.2265008458367</ele>
        <time>2016-06-06T13:30:40.600000Z</time>
      </trkpt>
      <trkpt lat="37.85392631073786" lon="112.03779662152483">
        <ele>1093.8816702221775</ele>
        <time>2016-06-06T13:30:47.600000Z</time>
      </trkpt>
      <trkpt lat="37.853721083419806" lon="112.0374890274339">
        <ele>1093.3801219163468</ele>
        <time>2016-06-06T13:30:59.600000Z</time>
      </trkpt>
      <trkpt lat="37.85351097562656" lon="112.03718143788656">
        <ele>1094.8698004644561</ele>
        <time>2016-06-06T13:31:10.600000Z</time>
      </trkpt>
      <trkpt lat="37.8532883601357" lon="112.03688711046192">
        <ele>1096.7371729167255</ele>
        <time>2016-06-06T13:31:22.600000Z</time>
      </trkpt>
      <trkpt lat="37.85318232226304" lon="112.03674941646257">
        <ele>1097.4672425868093</ele>
        <time>2016-06-06T13:31:29.700000Z</time>
      </trkpt>
      <trkpt lat="37.85297580221776" lon="112.03641884004922">
        <ele>1095.00575066597</ele>
        <time>2016-06-06T13:31:40.700000Z</time>
      </trkpt>
      <trkpt lat="37.85292230333112" lon="112.03632334630088">
        <ele>1094.3922458211487</ele>
        <time>2016-06-06T13:31:44.600000Z</time>
      </trkpt>
      <trkpt lat="37.85267843880869" lon="112.03606988265669">
        <ele>1091.6458918688531</ele>
        <time>2016-06-06T13:31:54.700000Z</time>
      </trkpt>
      <trkpt lat="37.852477924644994" lon="112.03572659971113">
        <ele>1094.0370987707267</ele>
        <time>2016-06-06T13:32:08.600000Z</time>
      </trkpt>
      <trkpt lat="37.852414126252995" lon="112.03562759299915">
        <ele>1094.707829038401</ele>
        <time>2016-06-06T13:32:11.600000Z</time>
      </trkpt>
      <trkpt lat="37.852301782901385" lon="112.0354044197903">
        <ele>1096.2712401655988</ele>
        <time>2016-06-06T13:32:18.700000Z</time>
      </trkpt>
      <trkpt lat="37.85210368479895" lon="112.03519045680565">
        <ele>1096.5451003030255</ele>
        <time>2016-06-06T13:32:29.700000Z</time>
      </trkpt>
      <trkpt lat="37.85188734835307" lon="112.0348877662918">
        <ele>1096.3167892693953</ele>
        <time>2016-06-06T13:32:41.600000Z</time>
      </trkpt>
      <trkpt lat="37.85176986686623" lon="112.03465973095719">
        <ele>1096.6462973359828</ele>
        <time>2016-06-06T13:32:48.600000Z</time>
      </trkpt>
      <trkpt lat="37.851522846351365" lon="112.0343700353485">
        <ele>1096.1443506621736</ele>
        <time>2016-06-06T13:33:02.600000Z</time>
      </trkpt>
      <trkpt lat="37.85127209405514" lon="112.03405356263731">
        <ele>1096.1715583569287</ele>
        <time>2016-06-06T13:33:16.600000Z</time>
      </trkpt>
      <trkpt lat="37.851078014131694" lon="112.03375169458569">
        <ele>1095.9173146424698</ele>
        <time>2016-06-06T13:33:31.600000Z</time>
      </trkpt>
      <trkpt lat="37.8510359015877" lon="112.03366324289688">
        <ele>1096.0106804840457</ele>
        <time>2016-06-06T13:33:34.600000Z</time>
      </trkpt>
      <trkpt lat="37.85082581985908" lon="112.03336056984769">
        <ele>1096.5540902530743</ele>
        <time>2016-06-06T13:33:46.600000Z</time>
      </trkpt>
      <trkpt lat="37.85062748916934" lon="112.0330240860542">
        <ele>1096.8382233983325</ele>
        <time>2016-06-06T13:34:01.600000Z</time>
      </trkpt>
      <trkpt lat="37.85054398264052" lon="112.03300029187858">
        <ele>1096.9649992959733</ele>
        <time>2016-06-06T13:34:04.600000Z</time>
      </trkpt>
      <trkpt lat="37.85055903999967" lon="112.03305655466049">
        <ele>1097.2662723556957</ele>
        <time>2016-06-06T13:34:07.600000Z</time>
      </trkpt>
      <trkpt lat="37.85074718952386" lon="112.03333975034359">
        <ele>1098.2650345422928</ele>
        <time>2016-06-06T13:34:18.600000Z</time>
      </trkpt>
      <trkpt lat="37.85095863085646" lon="112.0336410704386">
        <ele>1098.9639462810485</ele>
        <time>2016-06-06T13:34:31.600000Z</time>
      </trkpt>
      <trkpt lat="37.85115033844271" lon="112.0339134516288">
        <ele>1099.6484944219676</ele>
        <time>2016-06-06T13:34:41.600000Z</time>
      </trkpt>
      <trkpt lat="37.85133801154982" lon="112.03417203994492">
        <ele>1100.0671892460189</ele>
        <time>2016-06-06T13:34:51.600000Z</time>
      </trkpt>
      <trkpt lat="37.85155272995091" lon="112.03446768857836">
        <ele>1098.414865075151</ele>
        <time>2016-06-06T13:35:02.600000Z</time>
      </trkpt>
      <trkpt lat="37.85176232753743" lon="112.03475008574974">
        <ele>1096.9223161121997</ele>
        <time>2016-06-06T13:35:13.600000Z</time>
      </trkpt>
      <trkpt lat="37.8519972164626" lon="112.03500840640608">
        <ele>1097.0691095747668</ele>
        <time>2016-06-06T13:35:24.600000Z</time>
      </trkpt>
      <trkpt lat="37.852181116057395" lon="112.03526024323756">
        <ele>1096.8220265273885</ele>
        <time>2016-06-06T13:35:35.600000Z</time>
      </trkpt>
      <trkpt lat="37.852344875962935" lon="112.03553967905466">
        <ele>1096.4648788627524</ele>
        <time>2016-06-06T13:35:45.700000Z</time>
      </trkpt>
      <trkpt lat="37.852546361529" lon="112.03581451441872">
        <ele>1095.345418143401</ele>
        <time>2016-06-06T13:35:56.600000Z</time>
      </trkpt>
      <trkpt lat="37.852728597670016" lon="112.03608448552703">
        <ele>1094.8549566368724</ele>
        <time>2016-06-06T13:36:07.600000Z</time>
      </trkpt>
      <trkpt lat="37.85292221627744" lon="112.03636095116215">
        <ele>1094.6853832335185</ele>
        <time>2016-06-06T13:36:17.600000Z</time>
      </trkpt>
      <trkpt lat="37.853105241850244" lon="112.03664364366894">
        <ele>1095.1894267562861</ele>
        <time>2016-06-06T13:36:28.700000Z</time>
      </trkpt>
      <trkpt lat="37.85332746322321" lon="112.03699045398989">
        <ele>1096.1088673406707</ele>
        <time>2016-06-06T13:36:40.600000Z</time>
      </trkpt>
      <trkpt lat="37.85354117460957" lon="112.03726368093622">
        <ele>1096.3815615592098</ele>
        <time>2016-06-06T13:36:51.600000Z</time>
      </trkpt>
      <trkpt lat="37.853781355871654" lon="112.03759020657657">
        <ele>1095.728370991702</ele>
        <time>2016-06-06T13:37:05.700000Z</time>
      </trkpt>
      <trkpt lat="37.85399669569956" lon="112.03786560461224">
        <ele>1095.25378313527</ele>
        <time>2016-06-06T13:37:16.600000Z</time>
      </trkpt>
      <trkpt lat="37.854146361342885" lon="112.0380292732607">
        <ele>1095.5814865114194</ele>
        <time>2016-06-06T13:37:24.600000Z</time>
      </trkpt>
      <trkpt lat="37.85415542223762" lon="112.03810178168355">
        <ele>1095.884551972382</ele>
        <time>2016-06-06T13:37:28.600000Z</time>
      </trkpt>
      <trkpt lat="37.85407873664333" lon="112.03805931332268">
        <ele>1096.0380693509246</ele>
        <time>2016-06-06T13:37:32.700000Z</time>
      </trkpt>
      <trkpt lat="37.85386907051348" lon="112.03779365233014">
        <ele>1096.5729449200674</ele>
        <time>2016-06-06T13:37:44.700000Z</time>
      </trkpt>
      <trkpt lat="37.85378380629894" lon="112.03758641854631">
        <ele>1097.0236360979159</ele>
        <time>2016-06-06T13:37:51.600000Z</time>
      </trkpt>
      <trkpt lat="37.85356427945725" lon="112.03724473973986">
        <ele>1098.3168720723465</ele>
        <time>2016-06-06T13:38:05.600000Z</time>
      </trkpt>
      <trkpt lat="37.85334114742512" lon="112.03693877816056">
        <ele>1097.9665949905454</ele>
        <time>2016-06-06T13:38:18.600000Z</time>
      </trkpt>
      <trkpt lat="37.853146001106026" lon="112.03661658458203">
        <ele>1098.7136172402954</ele>
        <time>2016-06-06T13:38:29.600000Z</time>
      </trkpt>
      <trkpt lat="37.85298360742875" lon="112.0363287496721">
        <ele>1098.6761005779747</ele>
        <time>2016-06-06T13:38:39.600000Z</time>
      </trkpt>
      <trkpt lat="37.85277276790514" lon="112.03599087504517">
        <ele>1099.1590055131876</ele>
        <time>2016-06-06T13:38:54.600000Z</time>
      </trkpt>
      <trkpt lat="37.85256153562251" lon="112.0357065702891">
        <ele>1101.3330937635396</ele>
        <time>2016-06-06T13:39:05.600000Z</time>
      </trkpt>
      <trkpt lat="37.85231294858696" lon="112.0353865635901">
        <ele>1100.602744138201</ele>
        <time>2016-06-06T13:39:20.600000Z</time>
      </trkpt>
      <trkpt lat="37.85212122257714" lon="112.03511660124146">
        <ele>1099.67518371413</ele>
        <time>2016-06-06T13:39:31.600000Z</time>
      </trkpt>
      <trkpt lat="37.85203324424779" lon="112.03503247869925">
        <ele>1100.1296706029623</ele>
        <time>2016-06-06T13:39:35.600000Z</time>
      </trkpt>
      <trkpt lat="37.85183528495021" lon="112.03476089779986">
        <ele>1102.1059759108932</ele>
        <time>2016-06-06T13:39:45.700000Z</time>
      </trkpt>
      <trkpt lat="37.851602419931595" lon="112.0344509104738">
        <ele>1104.1291306123987</ele>
        <time>2016-06-06T13:40:00.600000Z</time>
      </trkpt>
      <trkpt lat="37.85143376155614" lon="112.03418176694174">
        <ele>1103.9847726469507</ele>
        <time>2016-06-06T13:40:11.700000Z</time>
      </trkpt>
      <trkpt lat="37.851248787895535" lon="112.0339288589606">
        <ele>1104.2463145143054</ele>
        <time>2016-06-06T13:40:22.600000Z</time>
      </trkpt>
      <trkpt lat="37.85117303862668" lon="112.03383770560029">
        <ele>1104.7505483240664</ele>
        <time>2016-06-06T13:40:26.600000Z</time>
      </trkpt>
      <trkpt lat="37.85105532379283" lon="112.03371003874506">
        <ele>1105.605315604787</ele>
        <time>2016-06-06T13:40:33.600000Z</time>
      </trkpt>
      <trkpt lat="37.85086687627295" lon="112.03343657729211">
        <ele>1105.049543361712</ele>
        <time>2016-06-06T13:40:44.600000Z</time>
      </trkpt>
      <trkpt lat="37.850698727217306" lon="112.03318475664302">
        <ele>1103.1820976054917</ele>
        <time>2016-06-06T13:40:55.600000Z</time>
      </trkpt>
      <trkpt lat="37.85064404761061" lon="112.03313282642057">
        <ele>1103.1738989866553</ele>
        <time>2016-06-06T13:40:58.600000Z</time>
      </trkpt>
      <trkpt lat="37.85061470543453" lon="112.0330373422361">
        <ele>1102.9953447258538</ele>
        <time>2016-06-06T13:41:01.600000Z</time>
      </trkpt>
      <trkpt lat="37.85056136560076" lon="112.03299244521067">
        <ele>1102.5883532148125</ele>
        <time>2016-06-06T13:41:05.600000Z</time>
      </trkpt>
      <trkpt lat="37.850560640398484" lon="112.03306791560283">
        <ele>1101.9285111359484</ele>
        <time>2016-06-06T13:41:08.700000Z</time>
      </trkpt>
      <trkpt lat="37.850793175748215" lon="112.03339655114908">
        <ele>1100.2181040555654</ele>
        <time>2016-06-06T13:41:22.600000Z</time>
      </trkpt>
      <trkpt lat="37.851014020771565" lon="112.03373655371755">
        <ele>1099.59154171029</ele>
        <time>2016-06-06T13:41:36.700000Z</time>
      </trkpt>
      <trkpt lat="37.85122510731309" lon="112.03407439786017">
        <ele>1098.7633800379301</ele>
        <time>2016-06-06T13:41:50.700000Z</time>
      </trkpt>
      <trkpt lat="37.851359502543474" lon="112.03426184846234">
        <ele>1098.4027544397925</ele>
        <time>2016-06-06T13:41:57.600000Z</time>
      </trkpt>
      <trkpt lat="37.85154652253504" lon="112.0344538929092">
        <ele>1098.2767801608584</ele>
        <time>2016-06-06T13:42:05.700000Z</time>
      </trkpt>
      <trkpt lat="37.8516736792044" lon="112.03460563858687">
        <ele>1098.9022711469597</ele>
        <time>2016-06-06T13:42:12.600000Z</time>
      </trkpt>
      <trkpt lat="37.85166221680969" lon="112.03451961490097">
        <ele>1099.1435227939933</ele>
        <time>2016-06-06T13:42:15.700000Z</time>
      </trkpt>
      <trkpt lat="37.851582229006794" lon="112.03438463611324">
        <ele>1099.3104764178754</ele>
        <time>2016-06-06T13:42:19.600000Z</time>
      </trkpt>
      <trkpt lat="37.85142363468257" lon="112.03421882874582">
        <ele>1099.5169662852422</ele>
        <time>2016-06-06T13:42:29.600000Z</time>
      </trkpt>
      <trkpt lat="37.85131558165395" lon="112.03413471161886">
        <ele>1099.1508411531793</ele>
        <time>2016-06-06T13:42:32.600000Z</time>
      </trkpt>
      <trkpt lat="37.8512010369456" lon="112.03392886471599">
        <ele>1098.6417540888547</ele>
        <time>2016-06-06T13:42:39.600000Z</time>
      </trkpt>
      <trkpt lat="37.85100718080126" lon="112.03364728630177">
        <ele>1099.0384600552916</ele>
        <time>2016-06-06T13:42:50.600000Z</time>
      </trkpt>
      <trkpt lat="37.85080899524761" lon="112.03336192440685">
        <ele>1101.879370737845</ele>
        <time>2016-06-06T13:43:04.600000Z</time>
      </trkpt>
      <trkpt lat="37.850641595344925" lon="112.03313715477968">
        <ele>1103.4940216966158</ele>
        <time>2016-06-06T13:43:15.600000Z</time>
      </trkpt>
      <trkpt lat="37.85057112563482" lon="112.03299541956227">
        <ele>1103.580588468516</ele>
        <time>2016-06-06T13:43:19.600000Z</time>
      </trkpt>
      <trkpt lat="37.85046476727805" lon="112.0328850675818">
        <ele>1103.5824335082182</ele>
        <time>2016-06-06T13:43:26.600000Z</time>
      </trkpt>
      <trkpt lat="37.85027550929549" lon="112.0327246835604">
        <ele>1104.6257287537574</ele>
        <time>2016-06-06T13:43:36.600000Z</time>
      </trkpt>
      <trkpt lat="37.85007036475566" lon="112.03240362707895">
        <ele>1108.3879190278487</ele>
        <time>2016-06-06T13:43:51.700000Z</time>
      </trkpt>
      <trkpt lat="37.849893834145234" lon="112.0321431615917">
        <ele>1108.7525893628172</ele>
        <time>2016-06-06T13:44:02.700000Z</time>
      </trkpt>
      <trkpt lat="37.849667947377526" lon="112.03187431938814">
        <ele>1107.8212599638039</ele>
        <time>2016-06-06T13:44:14.600000Z</time>
      </trkpt>
      <trkpt lat="37.84945714016126" lon="112.03154245438768">
        <ele>1107.1607567673552</ele>
        <time>2016-06-06T13:44:28.600000Z</time>
      </trkpt>
      <trkpt lat="37.84926294222233" lon="112.03129768757802">
        <ele>1106.952232618688</ele>
        <time>2016-06-06T13:44:39.700000Z</time>
      </trkpt>
      <trkpt lat="37.84913862139964" lon="112.0309931379602">
        <ele>1105.9574832105568</ele>
        <time>2016-06-06T13:44:50.600000Z</time>
      </trkpt>
      <trkpt lat="37.84899153682942" lon="112.03057012491304">
        <ele>1104.7897013100055</ele>
        <time>2016-06-06T13:45:04.600000Z</time>
      </trkpt>
      <trkpt lat="37.8488824592016" lon="112.03024827119933">
        <ele>1104.2132348552868</ele>
        <time>2016-06-06T13:45:14.700000Z</time>
      </trkpt>
      <trkpt lat="37.84882071883526" lon="112.02998429652912">
        <ele>1103.4792745807645</ele>
        <time>2016-06-06T13:45:22.600000Z</time>
      </trkpt>
      <trkpt lat="37.848749594594416" lon="112.0297844268711">
        <ele>1103.6781624375994</ele>
        <time>2016-06-06T13:45:30.600000Z</time>
      </trkpt>
      <trkpt lat="37.84868047539333" lon="112.02975847005956">
        <ele>1103.9400975895644</ele>
        <time>2016-06-06T13:45:33.600000Z</time>
      </trkpt>
      <trkpt lat="37.84836476639523" lon="112.02982747798563">
        <ele>1104.6373765425967</ele>
        <time>2016-06-06T13:45:44.600000Z</time>
      </trkpt>
      <trkpt lat="37.848012456333876" lon="112.02988621258038">
        <ele>1106.9427054137188</ele>
        <time>2016-06-06T13:45:58.600000Z</time>
      </trkpt>
      <trkpt lat="37.84772181906791" lon="112.02991113092303">
        <ele>1110.109473758265</ele>
        <time>2016-06-06T13:46:08.600000Z</time>
      </trkpt>
      <trkpt lat="37.84754466413672" lon="112.02990655422899">
        <ele>1112.8571113111066</ele>
        <time>2016-06-06T13:46:15.600000Z</time>
      </trkpt>
      <trkpt lat="37.84741330586655" lon="112.02992388021484">
        <ele>1114.2608309243421</ele>
        <time>2016-06-06T13:46:22.600000Z</time>
      </trkpt>
      <trkpt lat="37.84735362121532" lon="112.02981434661555">
        <ele>1114.3539895149877</ele>
        <time>2016-06-06T13:46:26.600000Z</time>
      </trkpt>
      <trkpt lat="37.84727992965162" lon="112.02944949311612">
        <ele>1112.3937208737245</ele>
        <time>2016-06-06T13:46:44.600000Z</time>
      </trkpt>
      <trkpt lat="37.84724757922452" lon="112.02936754562575">
        <ele>1111.6479722745048</ele>
        <time>2016-06-06T13:46:51.600000Z</time>
      </trkpt>
      <trkpt lat="37.84712625514286" lon="112.02938649286577">
        <ele>1111.332257114745</ele>
        <time>2016-06-06T13:47:11.600000Z</time>
      </trkpt>
      <trkpt lat="37.847092714457006" lon="112.02945357264893">
        <ele>1111.6484786250294</ele>
        <time>2016-06-06T13:47:15.600000Z</time>
      </trkpt>
      <trkpt lat="37.847082150802166" lon="112.02955418784175">
        <ele>1111.8860637245773</ele>
        <time>2016-06-06T13:47:19.600000Z</time>
      </trkpt>
      <trkpt lat="37.84701228263192" lon="112.02961018318484">
        <ele>1113.2546861624576</ele>
        <time>2016-06-06T13:47:27.600000Z</time>
      </trkpt>
      <trkpt lat="37.84695856908983" lon="112.02960775543153">
        <ele>1115.5239117916901</ele>
        <time>2016-06-06T13:47:34.600000Z</time>
      </trkpt>
    </trkseg>
  </trk>
</gpx>