<?xml version="1.0" encoding="UTF-8"?>
<gpx xmlns="http://www.topografix.com/GPX/1/1" xmlns:gpxtpx="http://www.garmin.com/xmlschemas/TrackPointExtension/v1" xmlns:xsi="http://www.w3.org/2001/XMLSchema-instance" xsi:schemaLocation="http://www.topografix.com/GPX/1/1 http://www.topografix.com/GPX/1/1/gpx.xsd" version="1.1" creator="gpx.py -- https://github.com/tkrajina/gpxpy">
  <trk>
    <name>gpx from keep</name>
    <type>Run</type>
    <trkseg>
      <trkpt lat="37.84705453805696" lon="112.0294224735495">
        <ele>1106.0</ele>
        <time>2017-11-29T02:17:10.200000Z</time>
      </trkpt>
      <trkpt lat="37.847149109025146" lon="112.02946871202168">
        <ele>1104.0</ele>
        <time>2017-11-29T02:17:16.200000Z</time>
      </trkpt>
      <trkpt lat="37.847208822027575" lon="112.02947646932937">
        <ele>1109.0</ele>
        <time>2017-11-29T02:17:19.200000Z</time>
      </trkpt>
      <trkpt lat="37.847279847471604" lon="112.02950243956913">
        <ele>1116.0</ele>
        <time>2017-11-29T02:17:25.200000Z</time>
      </trkpt>
      <trkpt lat="37.847329040123526" lon="112.02948693856372">
        <ele>1123.0</ele>
        <time>2017-11-29T02:17:28.300000Z</time>
      </trkpt>
      <trkpt lat="37.847438320719625" lon="112.02929789155125">
        <ele>1118.0</ele>
        <time>2017-11-29T02:17:40.200000Z</time>
      </trkpt>
      <trkpt lat="37.8474344881204" lon="112.02909269142725">
        <ele>1115.0</ele>
        <time>2017-11-29T02:17:52.300000Z</time>
      </trkpt>
      <trkpt lat="37.84739815932662" lon="112.02872463662604">
        <ele>1113.0</ele>
        <time>2017-11-29T02:18:16.200000Z</time>
      </trkpt>
      <trkpt lat="37.84740674760503" lon="112.02844200620683">
        <ele>1110.0</ele>
        <time>2017-11-29T02:18:40.200000Z</time>
      </trkpt>
      <trkpt lat="37.84738196888261" lon="112.028264589673">
        <ele>1111.0</ele>
        <time>2017-11-29T02:18:52.200000Z</time>
      </trkpt>
      <trkpt lat="37.84739737109303" lon="112.02817506709972">
        <ele>1112.0</ele>
        <time>2017-11-29T02:18:58.200000Z</time>
      </trkpt>
      <trkpt lat="37.84736968259411" lon="112.02800201607732">
        <ele>1113.0</ele>
        <time>2017-11-29T02:19:07.200000Z</time>
      </trkpt>
      <trkpt lat="37.847371796704586" lon="112.02792535369638">
        <ele>1112.0</ele>
        <time>2017-11-29T02:19:10.200000Z</time>
      </trkpt>
      <trkpt lat="37.84744533504179" lon="112.02756915554197">
        <ele>1112.0</ele>
        <time>2017-11-29T02:19:22.200000Z</time>
      </trkpt>
      <trkpt lat="37.847591982237404" lon="112.02727020306737">
        <ele>1111.0</ele>
        <time>2017-11-29T02:19:31.200000Z</time>
      </trkpt>
      <trkpt lat="37.8476323729947" lon="112.02716087337586">
        <ele>1111.0</ele>
        <time>2017-11-29T02:19:34.200000Z</time>
      </trkpt>
      <trkpt lat="37.84766258657903" lon="112.02704129906594">
        <ele>1110.0</ele>
        <time>2017-11-29T02:19:37.200000Z</time>
      </trkpt>
      <trkpt lat="37.84768124545661" lon="112.02692142564848">
        <ele>1109.0</ele>
        <time>2017-11-29T02:19:40.200000Z</time>
      </trkpt>
      <trkpt lat="37.847737629860035" lon="112.02680284229618">
        <ele>1110.0</ele>
        <time>2017-11-29T02:19:43.200000Z</time>
      </trkpt>
      <trkpt lat="37.8478151426116" lon="112.0266979476003">
        <ele>1110.0</ele>
        <time>2017-11-29T02:19:46.200000Z</time>
      </trkpt>
      <trkpt lat="37.84791022080056" lon="112.02663515084988">
        <ele>1110.0</ele>
        <time>2017-11-29T02:19:49.200000Z</time>
      </trkpt>
      <trkpt lat="37.84801650776014" lon="112.02660508927293">
        <ele>1110.0</ele>
        <time>2017-11-29T02:19:52.200000Z</time>
      </trkpt>
      <trkpt lat="37.84822030771597" lon="112.02658038412179">
        <ele>1110.0</ele>
        <time>2017-11-29T02:19:58.200000Z</time>
      </trkpt>
      <trkpt lat="37.8483229854829" lon="112.02655223330206">
        <ele>1111.0</ele>
        <time>2017-11-29T02:20:01.200000Z</time>
      </trkpt>
      <trkpt lat="37.848651538274204" lon="112.0265866495565">
        <ele>1111.0</ele>
        <time>2017-11-29T02:20:10.300000Z</time>
      </trkpt>
      <trkpt lat="37.848833149460276" lon="112.02663354097376">
        <ele>1112.0</ele>
        <time>2017-11-29T02:20:16.300000Z</time>
      </trkpt>
      <trkpt lat="37.848911206509115" lon="112.02655303668492">
        <ele>1110.0</ele>
        <time>2017-11-29T02:20:19.200000Z</time>
      </trkpt>
      <trkpt lat="37.84905403112289" lon="112.02622952238299">
        <ele>1109.0</ele>
        <time>2017-11-29T02:20:28.200000Z</time>
      </trkpt>
      <trkpt lat="37.849059025641225" lon="112.02610441586697">
        <ele>1110.0</ele>
        <time>2017-11-29T02:20:31.200000Z</time>
      </trkpt>
      <trkpt lat="37.8490512138061" lon="112.02594885876009">
        <ele>1109.0</ele>
        <time>2017-11-29T02:20:34.300000Z</time>
      </trkpt>
      <trkpt lat="37.849075613118075" lon="112.02584366713991">
        <ele>1110.0</ele>
        <time>2017-11-29T02:20:37.200000Z</time>
      </trkpt>
      <trkpt lat="37.84908363493432" lon="112.0257078336225">
        <ele>1110.0</ele>
        <time>2017-11-29T02:20:40.300000Z</time>
      </trkpt>
      <trkpt lat="37.84913426843089" lon="112.02548557844901">
        <ele>1110.0</ele>
        <time>2017-11-29T02:20:46.200000Z</time>
      </trkpt>
      <trkpt lat="37.84911984116643" lon="112.02535316635236">
        <ele>1111.0</ele>
        <time>2017-11-29T02:20:49.200000Z</time>
      </trkpt>
      <trkpt lat="37.84909731058567" lon="112.02522783758951">
        <ele>1111.0</ele>
        <time>2017-11-29T02:20:52.200000Z</time>
      </trkpt>
      <trkpt lat="37.84909814035484" lon="112.02498243444151">
        <ele>1110.0</ele>
        <time>2017-11-29T02:20:58.200000Z</time>
      </trkpt>
      <trkpt lat="37.849082451927245" lon="112.02486549072528">
        <ele>1111.0</ele>
        <time>2017-11-29T02:21:01.200000Z</time>
      </trkpt>
      <trkpt lat="37.849065490302785" lon="112.02474243203251">
        <ele>1111.0</ele>
        <time>2017-11-29T02:21:04.300000Z</time>
      </trkpt>
      <trkpt lat="37.849057745720366" lon="112.02462562583335">
        <ele>1110.0</ele>
        <time>2017-11-29T02:21:07.200000Z</time>
      </trkpt>
      <trkpt lat="37.84910677574692" lon="112.02439724145634">
        <ele>1110.0</ele>
        <time>2017-11-29T02:21:13.300000Z</time>
      </trkpt>
      <trkpt lat="37.84907939899456" lon="112.02404231238964">
        <ele>1108.0</ele>
        <time>2017-11-29T02:21:22.300000Z</time>
      </trkpt>
      <trkpt lat="37.849075989165385" lon="112.0237849381809">
        <ele>1107.0</ele>
        <time>2017-11-29T02:21:28.200000Z</time>
      </trkpt>
      <trkpt lat="37.849089187865935" lon="112.02366844349147">
        <ele>1107.0</ele>
        <time>2017-11-29T02:21:31.200000Z</time>
      </trkpt>
      <trkpt lat="37.84911083900773" lon="112.02356021044473">
        <ele>1106.0</ele>
        <time>2017-11-29T02:21:34.200000Z</time>
      </trkpt>
      <trkpt lat="37.84912450662603" lon="112.02321903230197">
        <ele>1105.0</ele>
        <time>2017-11-29T02:21:43.200000Z</time>
      </trkpt>
      <trkpt lat="37.849097104370145" lon="112.02310607583195">
        <ele>1105.0</ele>
        <time>2017-11-29T02:21:46.200000Z</time>
      </trkpt>
      <trkpt lat="37.84909216585162" lon="112.02274975361851">
        <ele>1105.0</ele>
        <time>2017-11-29T02:21:55.300000Z</time>
      </trkpt>
      <trkpt lat="37.84909170711394" lon="112.02251774474556">
        <ele>1106.0</ele>
        <time>2017-11-29T02:22:01.300000Z</time>
      </trkpt>
      <trkpt lat="37.84910691818051" lon="112.02239639323027">
        <ele>1105.0</ele>
        <time>2017-11-29T02:22:04.200000Z</time>
      </trkpt>
      <trkpt lat="37.84909739984421" lon="112.02228096614618">
        <ele>1105.0</ele>
        <time>2017-11-29T02:22:07.300000Z</time>
      </trkpt>
      <trkpt lat="37.84912113330537" lon="112.02217108282244">
        <ele>1105.0</ele>
        <time>2017-11-29T02:22:10.200000Z</time>
      </trkpt>
      <trkpt lat="37.84910041802937" lon="112.02182300423755">
        <ele>1104.0</ele>
        <time>2017-11-29T02:22:19.300000Z</time>
      </trkpt>
      <trkpt lat="37.849119488470876" lon="112.02147885835593">
        <ele>1104.0</ele>
        <time>2017-11-29T02:22:28.300000Z</time>
      </trkpt>
      <trkpt lat="37.84910301126951" lon="112.02137116438286">
        <ele>1103.0</ele>
        <time>2017-11-29T02:22:31.300000Z</time>
      </trkpt>
      <trkpt lat="37.84913359936127" lon="112.02108056332784">
        <ele>1105.0</ele>
        <time>2017-11-29T02:22:40.200000Z</time>
      </trkpt>
      <trkpt lat="37.849162445435475" lon="112.0210062443938">
        <ele>1105.0</ele>
        <time>2017-11-29T02:22:43.200000Z</time>
      </trkpt>
      <trkpt lat="37.849165052444874" lon="112.02091336686945">
        <ele>1103.0</ele>
        <time>2017-11-29T02:22:52.300000Z</time>
      </trkpt>
      <trkpt lat="37.84909677888109" lon="112.02075501427731">
        <ele>1103.0</ele>
        <time>2017-11-29T02:23:04.300000Z</time>
      </trkpt>
      <trkpt lat="37.84911228847673" lon="112.02058427260864">
        <ele>1104.0</ele>
        <time>2017-11-29T02:23:13.200000Z</time>
      </trkpt>
      <trkpt lat="37.8491324264851" lon="112.02052578999533">
        <ele>1104.0</ele>
        <time>2017-11-29T02:23:16.200000Z</time>
      </trkpt>
      <trkpt lat="37.84913720074454" lon="112.0203045765092">
        <ele>1102.0</ele>
        <time>2017-11-29T02:23:25.200000Z</time>
      </trkpt>
      <trkpt lat="37.849182568113044" lon="112.02009008720998">
        <ele>1101.0</ele>
        <time>2017-11-29T02:23:31.200000Z</time>
      </trkpt>
      <trkpt lat="37.84915601071343" lon="112.01976714852599">
        <ele>1101.0</ele>
        <time>2017-11-29T02:23:40.200000Z</time>
      </trkpt>
      <trkpt lat="37.84912721785341" lon="112.01965290960395">
        <ele>1102.0</ele>
        <time>2017-11-29T02:23:43.200000Z</time>
      </trkpt>
      <trkpt lat="37.84915027125575" lon="112.01930808847573">
        <ele>1102.0</ele>
        <time>2017-11-29T02:23:52.200000Z</time>
      </trkpt>
      <trkpt lat="37.84918562639006" lon="112.01885539261538">
        <ele>1102.0</ele>
        <time>2017-11-29T02:24:04.200000Z</time>
      </trkpt>
      <trkpt lat="37.84917391321798" lon="112.01874303053852">
        <ele>1103.0</ele>
        <time>2017-11-29T02:24:07.200000Z</time>
      </trkpt>
      <trkpt lat="37.849217098961205" lon="112.01853067527004">
        <ele>1104.0</ele>
        <time>2017-11-29T02:24:13.300000Z</time>
      </trkpt>
      <trkpt lat="37.84920070252152" lon="112.01841737351195">
        <ele>1103.0</ele>
        <time>2017-11-29T02:24:16.200000Z</time>
      </trkpt>
      <trkpt lat="37.84920474050294" lon="112.01829825252942">
        <ele>1103.0</ele>
        <time>2017-11-29T02:24:19.300000Z</time>
      </trkpt>
      <trkpt lat="37.84923547371922" lon="112.01818933746081">
        <ele>1102.0</ele>
        <time>2017-11-29T02:24:22.200000Z</time>
      </trkpt>
      <trkpt lat="37.84922753522487" lon="112.01782703972343">
        <ele>1102.0</ele>
        <time>2017-11-29T02:24:31.300000Z</time>
      </trkpt>
      <trkpt lat="37.84921756143677" lon="112.01770726678524">
        <ele>1102.0</ele>
        <time>2017-11-29T02:24:34.200000Z</time>
      </trkpt>
      <trkpt lat="37.849281424384834" lon="112.01738038302554">
        <ele>1103.0</ele>
        <time>2017-11-29T02:24:43.200000Z</time>
      </trkpt>
      <trkpt lat="37.8492882613521" lon="112.01716841434028">
        <ele>1102.0</ele>
        <time>2017-11-29T02:24:49.200000Z</time>
      </trkpt>
      <trkpt lat="37.84934965347525" lon="112.01694914037095">
        <ele>1103.0</ele>
        <time>2017-11-29T02:24:55.200000Z</time>
      </trkpt>
      <trkpt lat="37.84936958321546" lon="112.01661713108871">
        <ele>1102.0</ele>
        <time>2017-11-29T02:25:04.200000Z</time>
      </trkpt>
      <trkpt lat="37.84941993836031" lon="112.01625546888326">
        <ele>1102.0</ele>
        <time>2017-11-29T02:25:13.200000Z</time>
      </trkpt>
      <trkpt lat="37.849444442792915" lon="112.01614615272482">
        <ele>1103.0</ele>
        <time>2017-11-29T02:25:16.200000Z</time>
      </trkpt>
      <trkpt lat="37.849481780052606" lon="112.01570519372082">
        <ele>1104.0</ele>
        <time>2017-11-29T02:25:28.200000Z</time>
      </trkpt>
      <trkpt lat="37.84953170581317" lon="112.01538462915754">
        <ele>1106.0</ele>
        <time>2017-11-29T02:25:37.200000Z</time>
      </trkpt>
      <trkpt lat="37.84953196305858" lon="112.01505244890987">
        <ele>1105.0</ele>
        <time>2017-11-29T02:25:46.200000Z</time>
      </trkpt>
      <trkpt lat="37.84958846910447" lon="112.01482707027684">
        <ele>1104.0</ele>
        <time>2017-11-29T02:25:52.300000Z</time>
      </trkpt>
      <trkpt lat="37.84962471444752" lon="112.01439207235144">
        <ele>1103.0</ele>
        <time>2017-11-29T02:26:04.300000Z</time>
      </trkpt>
      <trkpt lat="37.8496695634899" lon="112.01407981498728">
        <ele>1102.0</ele>
        <time>2017-11-29T02:26:13.200000Z</time>
      </trkpt>
      <trkpt lat="37.84973307945129" lon="112.0137867520233">
        <ele>1103.0</ele>
        <time>2017-11-29T02:26:22.200000Z</time>
      </trkpt>
      <trkpt lat="37.84977775137575" lon="112.01346042041443">
        <ele>1102.0</ele>
        <time>2017-11-29T02:26:31.200000Z</time>
      </trkpt>
      <trkpt lat="37.84982681235457" lon="112.0133802935698">
        <ele>1102.0</ele>
        <time>2017-11-29T02:26:34.300000Z</time>
      </trkpt>
      <trkpt lat="37.849791309414925" lon="112.01316360295819">
        <ele>1102.0</ele>
        <time>2017-11-29T02:26:40.200000Z</time>
      </trkpt>
      <trkpt lat="37.849781909862706" lon="112.0127327406674">
        <ele>1102.0</ele>
        <time>2017-11-29T02:26:52.300000Z</time>
      </trkpt>
      <trkpt lat="37.849779953341596" lon="112.01262198228487">
        <ele>1101.0</ele>
        <time>2017-11-29T02:26:55.200000Z</time>
      </trkpt>
      <trkpt lat="37.84982960964934" lon="112.01229123306189">
        <ele>1101.0</ele>
        <time>2017-11-29T02:27:04.300000Z</time>
      </trkpt>
      <trkpt lat="37.849846338542356" lon="112.0120025744156">
        <ele>1101.0</ele>
        <time>2017-11-29T02:27:13.200000Z</time>
      </trkpt>
      <trkpt lat="37.849900636732684" lon="112.01184679167935">
        <ele>1101.0</ele>
        <time>2017-11-29T02:27:19.200000Z</time>
      </trkpt>
      <trkpt lat="37.849880387739795" lon="112.01146834187878">
        <ele>1100.0</ele>
        <time>2017-11-29T02:27:31.200000Z</time>
      </trkpt>
      <trkpt lat="37.84994516346624" lon="112.01128798802294">
        <ele>1101.0</ele>
        <time>2017-11-29T02:27:37.200000Z</time>
      </trkpt>
      <trkpt lat="37.849949090962376" lon="112.01118866213397">
        <ele>1100.0</ele>
        <time>2017-11-29T02:27:40.200000Z</time>
      </trkpt>
      <trkpt lat="37.84990968667795" lon="112.01109078198789">
        <ele>1101.0</ele>
        <time>2017-11-29T02:27:43.300000Z</time>
      </trkpt>
      <trkpt lat="37.84989957629731" lon="112.01097552659668">
        <ele>1102.0</ele>
        <time>2017-11-29T02:27:46.200000Z</time>
      </trkpt>
      <trkpt lat="37.849906723860954" lon="112.01086508907042">
        <ele>1101.0</ele>
        <time>2017-11-29T02:27:49.300000Z</time>
      </trkpt>
      <trkpt lat="37.84995897460106" lon="112.0106470334453">
        <ele>1101.0</ele>
        <time>2017-11-29T02:27:55.300000Z</time>
      </trkpt>
      <trkpt lat="37.84996626587059" lon="112.01054250325713">
        <ele>1101.0</ele>
        <time>2017-11-29T02:27:58.200000Z</time>
      </trkpt>
      <trkpt lat="37.850005950152614" lon="112.01043929425785">
        <ele>1101.0</ele>
        <time>2017-11-29T02:28:01.300000Z</time>
      </trkpt>
      <trkpt lat="37.85002817835351" lon="112.01024313722397">
        <ele>1102.0</ele>
        <time>2017-11-29T02:28:07.200000Z</time>
      </trkpt>
      <trkpt lat="37.85007776460334" lon="112.01008782315877">
        <ele>1103.0</ele>
        <time>2017-11-29T02:28:13.200000Z</time>
      </trkpt>
      <trkpt lat="37.85008484585801" lon="112.01001734086066">
        <ele>1103.0</ele>
        <time>2017-11-29T02:28:16.200000Z</time>
      </trkpt>
      <trkpt lat="37.85003187671519" lon="112.00983488945246">
        <ele>1106.0</ele>
        <time>2017-11-29T02:28:25.200000Z</time>
      </trkpt>
      <trkpt lat="37.85004724450608" lon="112.00976649849846">
        <ele>1106.0</ele>
        <time>2017-11-29T02:28:28.200000Z</time>
      </trkpt>
      <trkpt lat="37.85003097091505" lon="112.00962612545312">
        <ele>1107.0</ele>
        <time>2017-11-29T02:28:34.200000Z</time>
      </trkpt>
      <trkpt lat="37.8501216124748" lon="112.0094109662918">
        <ele>1107.0</ele>
        <time>2017-11-29T02:28:43.200000Z</time>
      </trkpt>
      <trkpt lat="37.85010549263972" lon="112.00935026457368">
        <ele>1108.0</ele>
        <time>2017-11-29T02:28:46.300000Z</time>
      </trkpt>
      <trkpt lat="37.84992979820883" lon="112.00921890899552">
        <ele>1107.0</ele>
        <time>2017-11-29T02:28:55.200000Z</time>
      </trkpt>
      <trkpt lat="37.84980748134933" lon="112.00905419414983">
        <ele>1108.0</ele>
        <time>2017-11-29T02:29:01.300000Z</time>
      </trkpt>
      <trkpt lat="37.84960445354917" lon="112.00886509759366">
        <ele>1110.0</ele>
        <time>2017-11-29T02:29:10.200000Z</time>
      </trkpt>
      <trkpt lat="37.849559711849764" lon="112.00876481420211">
        <ele>1111.0</ele>
        <time>2017-11-29T02:29:13.200000Z</time>
      </trkpt>
      <trkpt lat="37.8493830222113" lon="112.00851154615124">
        <ele>1113.0</ele>
        <time>2017-11-29T02:29:22.200000Z</time>
      </trkpt>
      <trkpt lat="37.849182049730864" lon="112.00821286868296">
        <ele>1116.0</ele>
        <time>2017-11-29T02:29:34.300000Z</time>
      </trkpt>
      <trkpt lat="37.84901477448818" lon="112.0079877146332">
        <ele>1118.0</ele>
        <time>2017-11-29T02:29:46.200000Z</time>
      </trkpt>
      <trkpt lat="37.848975492180095" lon="112.00787661934712">
        <ele>1119.0</ele>
        <time>2017-11-29T02:29:52.300000Z</time>
      </trkpt>
      <trkpt lat="37.84891387829308" lon="112.00779391005514">
        <ele>1121.0</ele>
        <time>2017-11-29T02:29:58.200000Z</time>
      </trkpt>
      <trkpt lat="37.84879430719561" lon="112.00767633711736">
        <ele>1123.0</ele>
        <time>2017-11-29T02:30:07.300000Z</time>
      </trkpt>
      <trkpt lat="37.8487228491118" lon="112.00752821309285">
        <ele>1124.0</ele>
        <time>2017-11-29T02:30:16.300000Z</time>
      </trkpt>
      <trkpt lat="37.848663398846185" lon="112.00744793680731">
        <ele>1124.0</ele>
        <time>2017-11-29T02:30:22.200000Z</time>
      </trkpt>
      <trkpt lat="37.848568739257665" lon="112.00725575494754">
        <ele>1125.0</ele>
        <time>2017-11-29T02:30:34.300000Z</time>
      </trkpt>
      <trkpt lat="37.84837255524577" lon="112.00699060135209">
        <ele>1128.0</ele>
        <time>2017-11-29T02:30:52.200000Z</time>
      </trkpt>
      <trkpt lat="37.84826516052519" lon="112.0068843814629">
        <ele>1129.0</ele>
        <time>2017-11-29T02:30:58.300000Z</time>
      </trkpt>
      <trkpt lat="37.848121567235296" lon="112.00681655031192">
        <ele>1130.0</ele>
        <time>2017-11-29T02:31:04.200000Z</time>
      </trkpt>
      <trkpt lat="37.84803775847776" lon="112.0068076400233">
        <ele>1130.0</ele>
        <time>2017-11-29T02:31:07.300000Z</time>
      </trkpt>
      <trkpt lat="37.847952196353226" lon="112.00684089858036">
        <ele>1130.0</ele>
        <time>2017-11-29T02:31:10.200000Z</time>
      </trkpt>
      <trkpt lat="37.84763596767487" lon="112.00680038954127">
        <ele>1131.0</ele>
        <time>2017-11-29T02:31:22.200000Z</time>
      </trkpt>
      <trkpt lat="37.84745635847479" lon="112.00670958629732">
        <ele>1131.0</ele>
        <time>2017-11-29T02:31:31.200000Z</time>
      </trkpt>
      <trkpt lat="37.847394783627976" lon="112.00670526866142">
        <ele>1131.0</ele>
        <time>2017-11-29T02:31:34.200000Z</time>
      </trkpt>
      <trkpt lat="37.847346643984515" lon="112.00674473986962">
        <ele>1132.0</ele>
        <time>2017-11-29T02:31:37.200000Z</time>
      </trkpt>
      <trkpt lat="37.84722313437558" lon="112.0066747439641">
        <ele>1133.0</ele>
        <time>2017-11-29T02:31:46.200000Z</time>
      </trkpt>
      <trkpt lat="37.8470429078447" lon="112.00660907986823">
        <ele>1137.0</ele>
        <time>2017-11-29T02:31:58.300000Z</time>
      </trkpt>
      <trkpt lat="37.84694817746503" lon="112.00662341765106">
        <ele>1139.0</ele>
        <time>2017-11-29T02:32:04.200000Z</time>
      </trkpt>
      <trkpt lat="37.84688893898386" lon="112.00665451049193">
        <ele>1136.0</ele>
        <time>2017-11-29T02:32:10.200000Z</time>
      </trkpt>
      <trkpt lat="37.84678333845163" lon="112.00658370160482">
        <ele>1136.0</ele>
        <time>2017-11-29T02:32:19.300000Z</time>
      </trkpt>
      <trkpt lat="37.8466380500019" lon="112.00653857703382">
        <ele>1138.0</ele>
        <time>2017-11-29T02:32:28.300000Z</time>
      </trkpt>
      <trkpt lat="37.84658214374272" lon="112.0065439899167">
        <ele>1138.0</ele>
        <time>2017-11-29T02:32:31.200000Z</time>
      </trkpt>
      <trkpt lat="37.84642884003931" lon="112.00645723851287">
        <ele>1137.0</ele>
        <time>2017-11-29T02:32:43.200000Z</time>
      </trkpt>
      <trkpt lat="37.84637868999203" lon="112.00653401268875">
        <ele>1132.0</ele>
        <time>2017-11-29T02:32:52.200000Z</time>
      </trkpt>
      <trkpt lat="37.846354920098946" lon="112.00649860483261">
        <ele>1130.0</ele>
        <time>2017-11-29T02:32:58.200000Z</time>
      </trkpt>
    </trkseg>
  </trk>
</gpx>