<?xml version="1.0" encoding="UTF-8"?>
<gpx xmlns="http://www.topografix.com/GPX/1/1" xmlns:gpxtpx="http://www.garmin.com/xmlschemas/TrackPointExtension/v1" xmlns:xsi="http://www.w3.org/2001/XMLSchema-instance" xsi:schemaLocation="http://www.topografix.com/GPX/1/1 http://www.topografix.com/GPX/1/1/gpx.xsd" version="1.1" creator="gpx.py -- https://github.com/tkrajina/gpxpy">
  <trk>
    <name>gpx from keep</name>
    <type>Run</type>
    <trkseg>
      <trkpt lat="37.85774477105741" lon="112.039615170819">
        <ele>1186.0</ele>
        <time>2018-06-23T12:09:59.533000Z</time>
      </trkpt>
      <trkpt lat="37.85772484331908" lon="112.03942468863941">
        <ele>1189.0</ele>
        <time>2018-06-23T12:10:02.533000Z</time>
      </trkpt>
      <trkpt lat="37.8571688389584" lon="112.03974340665512">
        <ele>1139.0</ele>
        <time>2018-06-23T12:10:05.533000Z</time>
      </trkpt>
      <trkpt lat="37.85666280214015" lon="112.03956624310432">
        <ele>1131.0</ele>
        <time>2018-06-23T12:10:17.533000Z</time>
      </trkpt>
      <trkpt lat="37.85669645527019" lon="112.03959391072672">
        <ele>1127.0</ele>
        <time>2018-06-23T12:10:20.533000Z</time>
      </trkpt>
      <trkpt lat="37.85675042400753" lon="112.03965343506692">
        <ele>1121.0</ele>
        <time>2018-06-23T12:10:23.533000Z</time>
      </trkpt>
      <trkpt lat="37.85677631110649" lon="112.03981053743095">
        <ele>1118.0</ele>
        <time>2018-06-23T12:10:35.533000Z</time>
      </trkpt>
      <trkpt lat="37.856740930603635" lon="112.03985340000858">
        <ele>1117.0</ele>
        <time>2018-06-23T12:10:38.633000Z</time>
      </trkpt>
      <trkpt lat="37.85677944249617" lon="112.04010747008597">
        <ele>1105.0</ele>
        <time>2018-06-23T12:10:47.533000Z</time>
      </trkpt>
      <trkpt lat="37.85347670114584" lon="112.03722040094738">
        <ele>1106.0</ele>
        <time>2018-06-23T12:15:55.533000Z</time>
      </trkpt>
      <trkpt lat="37.85347767846023" lon="112.03714897618167">
        <ele>1102.0</ele>
        <time>2018-06-23T12:16:07.633000Z</time>
      </trkpt>
      <trkpt lat="37.85337877254614" lon="112.03702949050486">
        <ele>1096.0</ele>
        <time>2018-06-23T12:16:22.533000Z</time>
      </trkpt>
      <trkpt lat="37.85284846409125" lon="112.0364588952667">
        <ele>1097.0</ele>
        <time>2018-06-23T12:16:46.533000Z</time>
      </trkpt>
      <trkpt lat="37.85287008013507" lon="112.0364688834169">
        <ele>1099.0</ele>
        <time>2018-06-23T12:16:49.533000Z</time>
      </trkpt>
      <trkpt lat="37.8528440089509" lon="112.03638058666793">
        <ele>1093.0</ele>
        <time>2018-06-23T12:16:55.533000Z</time>
      </trkpt>
      <trkpt lat="37.85282183598593" lon="112.03623811167196">
        <ele>1091.0</ele>
        <time>2018-06-23T12:16:58.533000Z</time>
      </trkpt>
      <trkpt lat="37.852777030599995" lon="112.0361606532092">
        <ele>1090.0</ele>
        <time>2018-06-23T12:17:01.533000Z</time>
      </trkpt>
      <trkpt lat="37.85271353385007" lon="112.03611021819493">
        <ele>1093.0</ele>
        <time>2018-06-23T12:17:04.533000Z</time>
      </trkpt>
      <trkpt lat="37.85268511014157" lon="112.0360163728566">
        <ele>1093.0</ele>
        <time>2018-06-23T12:17:07.533000Z</time>
      </trkpt>
      <trkpt lat="37.85247069524676" lon="112.0356854797978">
        <ele>1091.0</ele>
        <time>2018-06-23T12:17:19.533000Z</time>
      </trkpt>
      <trkpt lat="37.85229755468137" lon="112.03547205243851">
        <ele>1093.0</ele>
        <time>2018-06-23T12:17:31.533000Z</time>
      </trkpt>
      <trkpt lat="37.85221007487308" lon="112.03540632454686">
        <ele>1096.0</ele>
        <time>2018-06-23T12:17:37.533000Z</time>
      </trkpt>
      <trkpt lat="37.852143334511915" lon="112.03524669616291">
        <ele>1097.0</ele>
        <time>2018-06-23T12:17:46.733000Z</time>
      </trkpt>
      <trkpt lat="37.850343651803634" lon="112.03349263538246">
        <ele>1109.0</ele>
        <time>2018-06-23T12:20:39.533000Z</time>
      </trkpt>
      <trkpt lat="37.850218487836564" lon="112.03352971005091">
        <ele>1102.0</ele>
        <time>2018-06-23T12:20:48.533000Z</time>
      </trkpt>
      <trkpt lat="37.85013905576009" lon="112.0334395246496">
        <ele>1101.0</ele>
        <time>2018-06-23T12:20:57.533000Z</time>
      </trkpt>
      <trkpt lat="37.850098228288495" lon="112.03344532614881">
        <ele>1102.0</ele>
        <time>2018-06-23T12:21:03.533000Z</time>
      </trkpt>
      <trkpt lat="37.8501129403397" lon="112.03341989670882">
        <ele>1101.0</ele>
        <time>2018-06-23T12:21:18.533000Z</time>
      </trkpt>
      <trkpt lat="37.85011976691166" lon="112.03341656449604">
        <ele>1099.0</ele>
        <time>2018-06-23T12:21:33.333000Z</time>
      </trkpt>
      <trkpt lat="37.85011976691166" lon="112.03341656449604">
        <ele>1099.0</ele>
        <time>2018-06-23T12:21:35.433000Z</time>
      </trkpt>
      <trkpt lat="37.85011976691166" lon="112.03341656449604">
        <ele>1099.0</ele>
        <time>2018-06-23T12:21:55.633000Z</time>
      </trkpt>
      <trkpt lat="37.84687902197014" lon="112.02973650832392">
        <ele>1147.0</ele>
        <time>2018-06-23T12:27:35.533000Z</time>
      </trkpt>
      <trkpt lat="37.84692942770138" lon="112.0296518453444">
        <ele>1139.0</ele>
        <time>2018-06-23T12:27:38.533000Z</time>
      </trkpt>
      <trkpt lat="37.846942338065695" lon="112.02956496448914">
        <ele>1177.0</ele>
        <time>2018-06-23T12:27:41.533000Z</time>
      </trkpt>
      <trkpt lat="37.84696601528659" lon="112.02951929685038">
        <ele>1166.0</ele>
        <time>2018-06-23T12:27:44.533000Z</time>
      </trkpt>
      <trkpt lat="37.846972080966516" lon="112.02944502158952">
        <ele>1175.0</ele>
        <time>2018-06-23T12:27:50.533000Z</time>
      </trkpt>
      <trkpt lat="37.84701149868524" lon="112.02959828266513">
        <ele>1174.0</ele>
        <time>2018-06-23T12:28:03.533000Z</time>
      </trkpt>
      <trkpt lat="37.84702613996417" lon="112.02960206746174">
        <ele>1175.0</ele>
        <time>2018-06-23T12:28:12.533000Z</time>
      </trkpt>
    </trkseg>
  </trk>
</gpx>