<?xml version="1.0" encoding="UTF-8"?>
<gpx xmlns="http://www.topografix.com/GPX/1/1" xmlns:gpxtpx="http://www.garmin.com/xmlschemas/TrackPointExtension/v1" xmlns:xsi="http://www.w3.org/2001/XMLSchema-instance" xsi:schemaLocation="http://www.topografix.com/GPX/1/1 http://www.topografix.com/GPX/1/1/gpx.xsd" version="1.1" creator="gpx.py -- https://github.com/tkrajina/gpxpy">
  <trk>
    <name>gpx from keep</name>
    <type>Run</type>
    <trkseg>
      <trkpt lat="37.84736244191917" lon="112.02801137769882">
        <ele>1103.82</ele>
        <time>2019-06-21T22:36:04.637000Z</time>
      </trkpt>
      <trkpt lat="37.847366637078295" lon="112.02791334757758">
        <ele>1103.5</ele>
        <time>2019-06-21T22:36:07.637000Z</time>
      </trkpt>
      <trkpt lat="37.8474210499456" lon="112.02773308028996">
        <ele>1103.97</ele>
        <time>2019-06-21T22:36:13.537000Z</time>
      </trkpt>
      <trkpt lat="37.84746799458794" lon="112.02756366546743">
        <ele>1100.11</ele>
        <time>2019-06-21T22:36:19.637000Z</time>
      </trkpt>
      <trkpt lat="37.84746799458794" lon="112.02756366546743">
        <ele>1100.11</ele>
        <time>2019-06-21T22:36:22.137000Z</time>
      </trkpt>
      <trkpt lat="37.84752654883022" lon="112.02732319641747">
        <ele>1097.32</ele>
        <time>2019-06-21T22:36:28.637000Z</time>
      </trkpt>
      <trkpt lat="37.84754287475318" lon="112.02722803716956">
        <ele>1097.29</ele>
        <time>2019-06-21T22:36:31.637000Z</time>
      </trkpt>
      <trkpt lat="37.847645807027" lon="112.02703935850518">
        <ele>1098.46</ele>
        <time>2019-06-21T22:36:40.637000Z</time>
      </trkpt>
      <trkpt lat="37.847707671648486" lon="112.02686577343627">
        <ele>1102.24</ele>
        <time>2019-06-21T22:36:52.637000Z</time>
      </trkpt>
      <trkpt lat="37.84775754151402" lon="112.0267960391646">
        <ele>1101.96</ele>
        <time>2019-06-21T22:36:58.637000Z</time>
      </trkpt>
      <trkpt lat="37.84775754151402" lon="112.0267960391646">
        <ele>1101.96</ele>
        <time>2019-06-21T22:37:04.137000Z</time>
      </trkpt>
      <trkpt lat="37.84781074340276" lon="112.02667119402875">
        <ele>1103.45</ele>
        <time>2019-06-21T22:37:07.637000Z</time>
      </trkpt>
      <trkpt lat="37.84797192770953" lon="112.02649271745982">
        <ele>1101.53</ele>
        <time>2019-06-21T22:37:25.637000Z</time>
      </trkpt>
      <trkpt lat="37.84814366742876" lon="112.02648986528294">
        <ele>1102.51</ele>
        <time>2019-06-21T22:37:34.637000Z</time>
      </trkpt>
      <trkpt lat="37.848297713166716" lon="112.02652882146423">
        <ele>1105.0</ele>
        <time>2019-06-21T22:37:37.637000Z</time>
      </trkpt>
      <trkpt lat="37.84862760240774" lon="112.02652182698388">
        <ele>1107.2</ele>
        <time>2019-06-21T22:37:49.537000Z</time>
      </trkpt>
      <trkpt lat="37.848895244739595" lon="112.02653656735104">
        <ele>1104.76</ele>
        <time>2019-06-21T22:37:58.637000Z</time>
      </trkpt>
      <trkpt lat="37.84895132980728" lon="112.02650210006664">
        <ele>1104.99</ele>
        <time>2019-06-21T22:38:01.637000Z</time>
      </trkpt>
      <trkpt lat="37.84900992843517" lon="112.02622037616175">
        <ele>1107.15</ele>
        <time>2019-06-21T22:38:13.637000Z</time>
      </trkpt>
      <trkpt lat="37.8489731002529" lon="112.02603166425439">
        <ele>1108.25</ele>
        <time>2019-06-21T22:38:19.637000Z</time>
      </trkpt>
      <trkpt lat="37.84897951371183" lon="112.02584969966321">
        <ele>1108.26</ele>
        <time>2019-06-21T22:38:25.637000Z</time>
      </trkpt>
      <trkpt lat="37.8490050977457" lon="112.02575067608633">
        <ele>1107.18</ele>
        <time>2019-06-21T22:38:28.637000Z</time>
      </trkpt>
      <trkpt lat="37.84902836199952" lon="112.02538898753004">
        <ele>1103.28</ele>
        <time>2019-06-21T22:38:34.637000Z</time>
      </trkpt>
      <trkpt lat="37.84902634039098" lon="112.02529993280702">
        <ele>1101.92</ele>
        <time>2019-06-21T22:38:37.637000Z</time>
      </trkpt>
      <trkpt lat="37.84909521837367" lon="112.0248864009032">
        <ele>1102.21</ele>
        <time>2019-06-21T22:38:49.637000Z</time>
      </trkpt>
      <trkpt lat="37.84912191318583" lon="112.02479955854014">
        <ele>1099.99</ele>
        <time>2019-06-21T22:38:52.637000Z</time>
      </trkpt>
      <trkpt lat="37.84912274079164" lon="112.02471370616597">
        <ele>1100.49</ele>
        <time>2019-06-21T22:38:55.537000Z</time>
      </trkpt>
      <trkpt lat="37.84906157354988" lon="112.02449901623916">
        <ele>1098.59</ele>
        <time>2019-06-21T22:38:58.637000Z</time>
      </trkpt>
      <trkpt lat="37.84906037305749" lon="112.02425195544575">
        <ele>1100.21</ele>
        <time>2019-06-21T22:39:07.637000Z</time>
      </trkpt>
      <trkpt lat="37.84906644060937" lon="112.02416814006456">
        <ele>1100.98</ele>
        <time>2019-06-21T22:39:10.637000Z</time>
      </trkpt>
      <trkpt lat="37.84902554133507" lon="112.0240594751238">
        <ele>1098.82</ele>
        <time>2019-06-21T22:39:13.637000Z</time>
      </trkpt>
      <trkpt lat="37.84903420317078" lon="112.02376080570026">
        <ele>1102.33</ele>
        <time>2019-06-21T22:39:22.637000Z</time>
      </trkpt>
      <trkpt lat="37.84909390393989" lon="112.02338047761702">
        <ele>1110.32</ele>
        <time>2019-06-21T22:39:34.637000Z</time>
      </trkpt>
      <trkpt lat="37.84909350307906" lon="112.02298182783503">
        <ele>1109.48</ele>
        <time>2019-06-21T22:39:46.637000Z</time>
      </trkpt>
      <trkpt lat="37.84910208913056" lon="112.02263207736247">
        <ele>1108.79</ele>
        <time>2019-06-21T22:39:58.537000Z</time>
      </trkpt>
      <trkpt lat="37.84910733569775" lon="112.0222814575562">
        <ele>1108.07</ele>
        <time>2019-06-21T22:40:10.537000Z</time>
      </trkpt>
      <trkpt lat="37.849115641793105" lon="112.02192172698724">
        <ele>1110.35</ele>
        <time>2019-06-21T22:40:22.637000Z</time>
      </trkpt>
      <trkpt lat="37.84911095588902" lon="112.0215397337079">
        <ele>1107.75</ele>
        <time>2019-06-21T22:40:34.637000Z</time>
      </trkpt>
      <trkpt lat="37.84912476847825" lon="112.02113834805249">
        <ele>1108.77</ele>
        <time>2019-06-21T22:40:46.537000Z</time>
      </trkpt>
      <trkpt lat="37.84913811102047" lon="112.02072932222558">
        <ele>1110.37</ele>
        <time>2019-06-21T22:40:58.637000Z</time>
      </trkpt>
      <trkpt lat="37.849149326556535" lon="112.02033915045783">
        <ele>1108.65</ele>
        <time>2019-06-21T22:41:10.637000Z</time>
      </trkpt>
      <trkpt lat="37.849163321098054" lon="112.02002288106914">
        <ele>1108.79</ele>
        <time>2019-06-21T22:41:19.637000Z</time>
      </trkpt>
      <trkpt lat="37.84914643897748" lon="112.01982336048991">
        <ele>1108.32</ele>
        <time>2019-06-21T22:41:25.637000Z</time>
      </trkpt>
      <trkpt lat="37.849152836401586" lon="112.01943368114338">
        <ele>1109.56</ele>
        <time>2019-06-21T22:41:37.637000Z</time>
      </trkpt>
      <trkpt lat="37.849165390648444" lon="112.01900654718092">
        <ele>1107.17</ele>
        <time>2019-06-21T22:41:49.637000Z</time>
      </trkpt>
      <trkpt lat="37.84918319014564" lon="112.01862072037113">
        <ele>1109.33</ele>
        <time>2019-06-21T22:42:01.637000Z</time>
      </trkpt>
      <trkpt lat="37.8491736430451" lon="112.01826077850174">
        <ele>1115.16</ele>
        <time>2019-06-21T22:42:13.637000Z</time>
      </trkpt>
      <trkpt lat="37.8492198603475" lon="112.0179375321296">
        <ele>1113.38</ele>
        <time>2019-06-21T22:42:22.637000Z</time>
      </trkpt>
      <trkpt lat="37.84922613865184" lon="112.01761915750107">
        <ele>1117.61</ele>
        <time>2019-06-21T22:42:31.637000Z</time>
      </trkpt>
      <trkpt lat="37.84928196016472" lon="112.01722476269131">
        <ele>1111.29</ele>
        <time>2019-06-21T22:42:43.537000Z</time>
      </trkpt>
      <trkpt lat="37.849374136138145" lon="112.01686852367486">
        <ele>1114.98</ele>
        <time>2019-06-21T22:42:55.637000Z</time>
      </trkpt>
      <trkpt lat="37.8494155627504" lon="112.0165123259858">
        <ele>1112.7</ele>
        <time>2019-06-21T22:43:07.637000Z</time>
      </trkpt>
      <trkpt lat="37.8494646289316" lon="112.01614392749181">
        <ele>1109.97</ele>
        <time>2019-06-21T22:43:19.537000Z</time>
      </trkpt>
      <trkpt lat="37.84951286486315" lon="112.01576461852781">
        <ele>1110.41</ele>
        <time>2019-06-21T22:43:31.537000Z</time>
      </trkpt>
      <trkpt lat="37.849544881632376" lon="112.01538627079658">
        <ele>1109.12</ele>
        <time>2019-06-21T22:43:43.637000Z</time>
      </trkpt>
      <trkpt lat="37.84958595720562" lon="112.01498474112051">
        <ele>1109.18</ele>
        <time>2019-06-21T22:43:55.637000Z</time>
      </trkpt>
      <trkpt lat="37.84961429511215" lon="112.01460113477364">
        <ele>1109.62</ele>
        <time>2019-06-21T22:44:07.637000Z</time>
      </trkpt>
      <trkpt lat="37.849666355870106" lon="112.01424289214057">
        <ele>1110.11</ele>
        <time>2019-06-21T22:44:28.637000Z</time>
      </trkpt>
      <trkpt lat="37.849677874936575" lon="112.01385481735498">
        <ele>1112.15</ele>
        <time>2019-06-21T22:44:52.537000Z</time>
      </trkpt>
      <trkpt lat="37.84970139552967" lon="112.01347600449976">
        <ele>1111.98</ele>
        <time>2019-06-21T22:45:16.637000Z</time>
      </trkpt>
      <trkpt lat="37.849721769462114" lon="112.01313159638585">
        <ele>1112.26</ele>
        <time>2019-06-21T22:45:37.637000Z</time>
      </trkpt>
      <trkpt lat="37.84974491488718" lon="112.01293514489504">
        <ele>1112.04</ele>
        <time>2019-06-21T22:45:49.637000Z</time>
      </trkpt>
      <trkpt lat="37.84973294761426" lon="112.01283628440221">
        <ele>1112.13</ele>
        <time>2019-06-21T22:45:55.637000Z</time>
      </trkpt>
      <trkpt lat="37.849778746488305" lon="112.01240381834934">
        <ele>1110.87</ele>
        <time>2019-06-21T22:46:19.537000Z</time>
      </trkpt>
      <trkpt lat="37.84979003104288" lon="112.0120396808123">
        <ele>1111.07</ele>
        <time>2019-06-21T22:46:43.637000Z</time>
      </trkpt>
      <trkpt lat="37.84983535433163" lon="112.01164554088187">
        <ele>1112.53</ele>
        <time>2019-06-21T22:46:58.637000Z</time>
      </trkpt>
      <trkpt lat="37.849893198821725" lon="112.0112568524116">
        <ele>1111.41</ele>
        <time>2019-06-21T22:47:10.637000Z</time>
      </trkpt>
      <trkpt lat="37.84994315441379" lon="112.01087279547593">
        <ele>1107.67</ele>
        <time>2019-06-21T22:47:22.637000Z</time>
      </trkpt>
      <trkpt lat="37.84995825029197" lon="112.01048066913907">
        <ele>1111.94</ele>
        <time>2019-06-21T22:47:34.637000Z</time>
      </trkpt>
      <trkpt lat="37.84997675958723" lon="112.01013267772045">
        <ele>1107.14</ele>
        <time>2019-06-21T22:47:46.637000Z</time>
      </trkpt>
      <trkpt lat="37.850005835288144" lon="112.00979875646324">
        <ele>1104.22</ele>
        <time>2019-06-21T22:47:58.537000Z</time>
      </trkpt>
      <trkpt lat="37.849946646440344" lon="112.00940280422475">
        <ele>1108.89</ele>
        <time>2019-06-21T22:48:10.637000Z</time>
      </trkpt>
      <trkpt lat="37.84979410254786" lon="112.00911893697675">
        <ele>1114.7</ele>
        <time>2019-06-21T22:48:19.637000Z</time>
      </trkpt>
      <trkpt lat="37.849563455309145" lon="112.00878581849268">
        <ele>1115.82</ele>
        <time>2019-06-21T22:48:31.637000Z</time>
      </trkpt>
      <trkpt lat="37.84933736851982" lon="112.00845566478958">
        <ele>1118.61</ele>
        <time>2019-06-21T22:48:43.637000Z</time>
      </trkpt>
      <trkpt lat="37.849236153643844" lon="112.00828750639236">
        <ele>1117.68</ele>
        <time>2019-06-21T22:48:49.537000Z</time>
      </trkpt>
      <trkpt lat="37.84911588297249" lon="112.0081390228009">
        <ele>1118.15</ele>
        <time>2019-06-21T22:48:55.537000Z</time>
      </trkpt>
      <trkpt lat="37.84892589809871" lon="112.0078246513658">
        <ele>1114.29</ele>
        <time>2019-06-21T22:49:07.637000Z</time>
      </trkpt>
      <trkpt lat="37.84872095329039" lon="112.00749982001015">
        <ele>1115.54</ele>
        <time>2019-06-21T22:49:19.637000Z</time>
      </trkpt>
      <trkpt lat="37.84853846216294" lon="112.00724736413149">
        <ele>1122.42</ele>
        <time>2019-06-21T22:49:28.537000Z</time>
      </trkpt>
      <trkpt lat="37.84837591655352" lon="112.00702081345189">
        <ele>1123.01</ele>
        <time>2019-06-21T22:49:37.637000Z</time>
      </trkpt>
      <trkpt lat="37.84824635880098" lon="112.00691783041545">
        <ele>1121.69</ele>
        <time>2019-06-21T22:49:43.637000Z</time>
      </trkpt>
      <trkpt lat="37.84789622537427" lon="112.00685663381861">
        <ele>1121.33</ele>
        <time>2019-06-21T22:49:55.537000Z</time>
      </trkpt>
      <trkpt lat="37.847583218513506" lon="112.00681567014644">
        <ele>1126.49</ele>
        <time>2019-06-21T22:50:07.637000Z</time>
      </trkpt>
      <trkpt lat="37.84729918736766" lon="112.00675129169733">
        <ele>1130.16</ele>
        <time>2019-06-21T22:50:19.637000Z</time>
      </trkpt>
      <trkpt lat="37.84694960235412" lon="112.00670927422331">
        <ele>1131.36</ele>
        <time>2019-06-21T22:50:31.637000Z</time>
      </trkpt>
      <trkpt lat="37.8466220278076" lon="112.0066910249931">
        <ele>1130.96</ele>
        <time>2019-06-21T22:50:43.537000Z</time>
      </trkpt>
      <trkpt lat="37.84631568627929" lon="112.0066579757409">
        <ele>1130.74</ele>
        <time>2019-06-21T22:50:55.637000Z</time>
      </trkpt>
      <trkpt lat="37.84600639796481" lon="112.0065868444537">
        <ele>1128.12</ele>
        <time>2019-06-21T22:51:07.637000Z</time>
      </trkpt>
      <trkpt lat="37.84577239361894" lon="112.00648451512399">
        <ele>1126.16</ele>
        <time>2019-06-21T22:51:16.637000Z</time>
      </trkpt>
      <trkpt lat="37.84546070680832" lon="112.0063754325416">
        <ele>1125.8</ele>
        <time>2019-06-21T22:51:28.637000Z</time>
      </trkpt>
      <trkpt lat="37.84515531489636" lon="112.00628561823558">
        <ele>1124.47</ele>
        <time>2019-06-21T22:51:40.637000Z</time>
      </trkpt>
      <trkpt lat="37.84483471257748" lon="112.00620458802321">
        <ele>1124.73</ele>
        <time>2019-06-21T22:51:52.637000Z</time>
      </trkpt>
      <trkpt lat="37.84460203741302" lon="112.00615047214811">
        <ele>1123.07</ele>
        <time>2019-06-21T22:52:01.637000Z</time>
      </trkpt>
      <trkpt lat="37.844444693191235" lon="112.00618008287475">
        <ele>1121.66</ele>
        <time>2019-06-21T22:52:07.637000Z</time>
      </trkpt>
      <trkpt lat="37.844164032722475" lon="112.0063036732399">
        <ele>1121.94</ele>
        <time>2019-06-21T22:52:19.637000Z</time>
      </trkpt>
      <trkpt lat="37.84408073463117" lon="112.00634687730403">
        <ele>1120.62</ele>
        <time>2019-06-21T22:52:22.637000Z</time>
      </trkpt>
      <trkpt lat="37.84377476718308" lon="112.00651263842667">
        <ele>1123.47</ele>
        <time>2019-06-21T22:52:34.637000Z</time>
      </trkpt>
      <trkpt lat="37.843511288251044" lon="112.00672068728939">
        <ele>1122.17</ele>
        <time>2019-06-21T22:52:46.637000Z</time>
      </trkpt>
      <trkpt lat="37.84322757663179" lon="112.00694428613535">
        <ele>1128.23</ele>
        <time>2019-06-21T22:52:58.537000Z</time>
      </trkpt>
      <trkpt lat="37.84295757777576" lon="112.00715510738266">
        <ele>1131.58</ele>
        <time>2019-06-21T22:53:10.637000Z</time>
      </trkpt>
      <trkpt lat="37.84268114698489" lon="112.00734538971068">
        <ele>1128.88</ele>
        <time>2019-06-21T22:53:22.637000Z</time>
      </trkpt>
      <trkpt lat="37.84239093660552" lon="112.0075526311414">
        <ele>1132.5</ele>
        <time>2019-06-21T22:53:34.637000Z</time>
      </trkpt>
      <trkpt lat="37.84210042833084" lon="112.00777626255392">
        <ele>1132.36</ele>
        <time>2019-06-21T22:53:46.637000Z</time>
      </trkpt>
      <trkpt lat="37.84180837395475" lon="112.00796264421535">
        <ele>1132.2</ele>
        <time>2019-06-21T22:53:58.637000Z</time>
      </trkpt>
      <trkpt lat="37.84158364829361" lon="112.0080843290299">
        <ele>1134.73</ele>
        <time>2019-06-21T22:54:07.637000Z</time>
      </trkpt>
      <trkpt lat="37.84126058167115" lon="112.0081570906728">
        <ele>1135.73</ele>
        <time>2019-06-21T22:54:19.537000Z</time>
      </trkpt>
      <trkpt lat="37.84093790914577" lon="112.00813922464484">
        <ele>1132.46</ele>
        <time>2019-06-21T22:54:31.637000Z</time>
      </trkpt>
      <trkpt lat="37.840594867946194" lon="112.00806083314966">
        <ele>1134.68</ele>
        <time>2019-06-21T22:54:43.637000Z</time>
      </trkpt>
      <trkpt lat="37.84025593158989" lon="112.00799190782058">
        <ele>1134.2</ele>
        <time>2019-06-21T22:54:55.637000Z</time>
      </trkpt>
      <trkpt lat="37.83992922341753" lon="112.00803177898844">
        <ele>1136.32</ele>
        <time>2019-06-21T22:55:07.637000Z</time>
      </trkpt>
      <trkpt lat="37.83961276953355" lon="112.0080941686539">
        <ele>1137.78</ele>
        <time>2019-06-21T22:55:19.637000Z</time>
      </trkpt>
      <trkpt lat="37.83929648913797" lon="112.00811672482996">
        <ele>1135.39</ele>
        <time>2019-06-21T22:55:31.537000Z</time>
      </trkpt>
      <trkpt lat="37.83896713136419" lon="112.00816217653501">
        <ele>1136.64</ele>
        <time>2019-06-21T22:55:43.637000Z</time>
      </trkpt>
      <trkpt lat="37.838620435729695" lon="112.00820796869789">
        <ele>1135.89</ele>
        <time>2019-06-21T22:55:55.537000Z</time>
      </trkpt>
      <trkpt lat="37.838452428876295" lon="112.00823434217735">
        <ele>1135.78</ele>
        <time>2019-06-21T22:56:01.637000Z</time>
      </trkpt>
      <trkpt lat="37.838122699138886" lon="112.00815212575426">
        <ele>1138.64</ele>
        <time>2019-06-21T22:56:13.537000Z</time>
      </trkpt>
      <trkpt lat="37.837787234910884" lon="112.00801716360276">
        <ele>1141.53</ele>
        <time>2019-06-21T22:56:25.637000Z</time>
      </trkpt>
      <trkpt lat="37.837460802117114" lon="112.0078926479122">
        <ele>1144.01</ele>
        <time>2019-06-21T22:56:37.637000Z</time>
      </trkpt>
      <trkpt lat="37.837150483340224" lon="112.00777302152086">
        <ele>1142.84</ele>
        <time>2019-06-21T22:56:49.637000Z</time>
      </trkpt>
      <trkpt lat="37.83681011321677" lon="112.00768443548601">
        <ele>1143.49</ele>
        <time>2019-06-21T22:57:10.537000Z</time>
      </trkpt>
      <trkpt lat="37.836547908112784" lon="112.00757491012142">
        <ele>1144.44</ele>
        <time>2019-06-21T22:57:31.637000Z</time>
      </trkpt>
      <trkpt lat="37.836279044074104" lon="112.00748815650542">
        <ele>1148.49</ele>
        <time>2019-06-21T22:57:49.637000Z</time>
      </trkpt>
      <trkpt lat="37.83597602050638" lon="112.00741177398731">
        <ele>1153.07</ele>
        <time>2019-06-21T22:58:13.637000Z</time>
      </trkpt>
      <trkpt lat="37.835745317867676" lon="112.00735491218659">
        <ele>1157.05</ele>
        <time>2019-06-21T22:58:31.637000Z</time>
      </trkpt>
      <trkpt lat="37.83559681697813" lon="112.00733678232137">
        <ele>1156.8</ele>
        <time>2019-06-21T22:58:43.637000Z</time>
      </trkpt>
      <trkpt lat="37.83552003571357" lon="112.0073087811">
        <ele>1156.95</ele>
        <time>2019-06-21T22:58:49.637000Z</time>
      </trkpt>
      <trkpt lat="37.83545564339627" lon="112.0072559780558">
        <ele>1155.74</ele>
        <time>2019-06-21T22:58:55.637000Z</time>
      </trkpt>
      <trkpt lat="37.83540204531683" lon="112.00706620560162">
        <ele>1156.0</ele>
        <time>2019-06-21T22:59:07.637000Z</time>
      </trkpt>
      <trkpt lat="37.83536390218385" lon="112.00699163093559">
        <ele>1155.72</ele>
        <time>2019-06-21T22:59:13.637000Z</time>
      </trkpt>
      <trkpt lat="37.83529771952236" lon="112.00692826731834">
        <ele>1156.09</ele>
        <time>2019-06-21T22:59:19.637000Z</time>
      </trkpt>
      <trkpt lat="37.835231157958994" lon="112.00689126548102">
        <ele>1155.11</ele>
        <time>2019-06-21T22:59:25.637000Z</time>
      </trkpt>
      <trkpt lat="37.83500599770889" lon="112.00688895744328">
        <ele>1160.48</ele>
        <time>2019-06-21T22:59:43.537000Z</time>
      </trkpt>
      <trkpt lat="37.83485429025437" lon="112.00695349316901">
        <ele>1156.25</ele>
        <time>2019-06-21T22:59:55.637000Z</time>
      </trkpt>
      <trkpt lat="37.834631301268104" lon="112.00698175715621">
        <ele>1154.4</ele>
        <time>2019-06-21T23:00:04.637000Z</time>
      </trkpt>
      <trkpt lat="37.83440672644826" lon="112.00693714891855">
        <ele>1153.38</ele>
        <time>2019-06-21T23:00:13.637000Z</time>
      </trkpt>
      <trkpt lat="37.8341290195868" lon="112.0068298887036">
        <ele>1152.35</ele>
        <time>2019-06-21T23:00:25.637000Z</time>
      </trkpt>
      <trkpt lat="37.83384887928526" lon="112.00670010920786">
        <ele>1155.36</ele>
        <time>2019-06-21T23:00:37.637000Z</time>
      </trkpt>
      <trkpt lat="37.833557355084146" lon="112.00658741135118">
        <ele>1154.78</ele>
        <time>2019-06-21T23:00:49.637000Z</time>
      </trkpt>
      <trkpt lat="37.83322893571307" lon="112.00647649402448">
        <ele>1160.21</ele>
        <time>2019-06-21T23:01:01.637000Z</time>
      </trkpt>
      <trkpt lat="37.83293667147913" lon="112.00636722844249">
        <ele>1158.25</ele>
        <time>2019-06-21T23:01:13.637000Z</time>
      </trkpt>
      <trkpt lat="37.83263632181937" lon="112.00625328586403">
        <ele>1158.18</ele>
        <time>2019-06-21T23:01:25.537000Z</time>
      </trkpt>
      <trkpt lat="37.83232700555756" lon="112.00614643327795">
        <ele>1142.11</ele>
        <time>2019-06-21T23:01:37.637000Z</time>
      </trkpt>
      <trkpt lat="37.83199935478644" lon="112.00611702444589">
        <ele>1159.6</ele>
        <time>2019-06-21T23:01:49.637000Z</time>
      </trkpt>
      <trkpt lat="37.83181358788228" lon="112.00612670212453">
        <ele>1158.53</ele>
        <time>2019-06-21T23:01:55.637000Z</time>
      </trkpt>
      <trkpt lat="37.831479354407485" lon="112.00609489863956">
        <ele>1157.96</ele>
        <time>2019-06-21T23:02:07.637000Z</time>
      </trkpt>
      <trkpt lat="37.83138823076049" lon="112.00608935063886">
        <ele>1159.47</ele>
        <time>2019-06-21T23:02:10.637000Z</time>
      </trkpt>
      <trkpt lat="37.8311093101532" lon="112.00613187129703">
        <ele>1162.37</ele>
        <time>2019-06-21T23:02:19.637000Z</time>
      </trkpt>
      <trkpt lat="37.83077488243669" lon="112.00615819793512">
        <ele>1161.5</ele>
        <time>2019-06-21T23:02:31.637000Z</time>
      </trkpt>
      <trkpt lat="37.83047332990279" lon="112.00615300797068">
        <ele>1163.33</ele>
        <time>2019-06-21T23:02:43.637000Z</time>
      </trkpt>
      <trkpt lat="37.830155477052315" lon="112.00612368860764">
        <ele>1165.77</ele>
        <time>2019-06-21T23:02:55.637000Z</time>
      </trkpt>
      <trkpt lat="37.82981293529308" lon="112.00611155463605">
        <ele>1164.49</ele>
        <time>2019-06-21T23:03:07.637000Z</time>
      </trkpt>
      <trkpt lat="37.82949437770804" lon="112.0061165462699">
        <ele>1164.08</ele>
        <time>2019-06-21T23:03:19.637000Z</time>
      </trkpt>
      <trkpt lat="37.8291887035513" lon="112.00613102635667">
        <ele>1167.01</ele>
        <time>2019-06-21T23:03:31.637000Z</time>
      </trkpt>
      <trkpt lat="37.82886638982968" lon="112.00614438108985">
        <ele>1167.33</ele>
        <time>2019-06-21T23:03:43.637000Z</time>
      </trkpt>
      <trkpt lat="37.828525292002986" lon="112.00615082787318">
        <ele>1167.64</ele>
        <time>2019-06-21T23:03:55.637000Z</time>
      </trkpt>
      <trkpt lat="37.82820983598149" lon="112.00618895630278">
        <ele>1164.62</ele>
        <time>2019-06-21T23:04:07.637000Z</time>
      </trkpt>
      <trkpt lat="37.828030075933576" lon="112.00622455851719">
        <ele>1165.51</ele>
        <time>2019-06-21T23:04:13.537000Z</time>
      </trkpt>
      <trkpt lat="37.82770237793236" lon="112.00625675532352">
        <ele>1169.21</ele>
        <time>2019-06-21T23:04:37.637000Z</time>
      </trkpt>
      <trkpt lat="37.827429298015126" lon="112.00626394832669">
        <ele>1169.1</ele>
        <time>2019-06-21T23:04:58.637000Z</time>
      </trkpt>
      <trkpt lat="37.827137781165256" lon="112.0063527766015">
        <ele>1174.29</ele>
        <time>2019-06-21T23:05:19.637000Z</time>
      </trkpt>
      <trkpt lat="37.826846291788044" lon="112.00637440068787">
        <ele>1177.22</ele>
        <time>2019-06-21T23:05:34.637000Z</time>
      </trkpt>
      <trkpt lat="37.82652203459074" lon="112.00642482726964">
        <ele>1179.1</ele>
        <time>2019-06-21T23:05:46.537000Z</time>
      </trkpt>
      <trkpt lat="37.82619830976646" lon="112.00649734151894">
        <ele>1183.15</ele>
        <time>2019-06-21T23:05:58.637000Z</time>
      </trkpt>
      <trkpt lat="37.82587666077624" lon="112.00650703455281">
        <ele>1183.3</ele>
        <time>2019-06-21T23:06:10.637000Z</time>
      </trkpt>
      <trkpt lat="37.82557144550015" lon="112.00648994478192">
        <ele>1183.07</ele>
        <time>2019-06-21T23:06:22.537000Z</time>
      </trkpt>
      <trkpt lat="37.82524652917779" lon="112.00642876877832">
        <ele>1183.05</ele>
        <time>2019-06-21T23:06:34.637000Z</time>
      </trkpt>
      <trkpt lat="37.82492322402578" lon="112.00633476915202">
        <ele>1186.2</ele>
        <time>2019-06-21T23:06:46.637000Z</time>
      </trkpt>
      <trkpt lat="37.824567475944036" lon="112.00627821424956">
        <ele>1184.98</ele>
        <time>2019-06-21T23:06:58.637000Z</time>
      </trkpt>
      <trkpt lat="37.824226679046774" lon="112.0062075011079">
        <ele>1178.22</ele>
        <time>2019-06-21T23:07:10.637000Z</time>
      </trkpt>
      <trkpt lat="37.82388860752805" lon="112.00611968331431">
        <ele>1182.17</ele>
        <time>2019-06-21T23:07:22.537000Z</time>
      </trkpt>
      <trkpt lat="37.823552665115386" lon="112.00607788781812">
        <ele>1183.84</ele>
        <time>2019-06-21T23:07:34.637000Z</time>
      </trkpt>
      <trkpt lat="37.823190801838756" lon="112.0061028150441">
        <ele>1184.61</ele>
        <time>2019-06-21T23:07:46.537000Z</time>
      </trkpt>
      <trkpt lat="37.82283732991492" lon="112.0061282007557">
        <ele>1184.54</ele>
        <time>2019-06-21T23:07:58.637000Z</time>
      </trkpt>
      <trkpt lat="37.822629481580364" lon="112.00609360243799">
        <ele>1186.4</ele>
        <time>2019-06-21T23:08:07.637000Z</time>
      </trkpt>
      <trkpt lat="37.822568615513106" lon="112.00606552256475">
        <ele>1187.66</ele>
        <time>2019-06-21T23:08:10.637000Z</time>
      </trkpt>
      <trkpt lat="37.822304498565146" lon="112.00591405126484">
        <ele>1188.45</ele>
        <time>2019-06-21T23:08:22.537000Z</time>
      </trkpt>
      <trkpt lat="37.82201331437018" lon="112.00570847550384">
        <ele>1187.09</ele>
        <time>2019-06-21T23:08:43.637000Z</time>
      </trkpt>
      <trkpt lat="37.82176222786737" lon="112.00552168707365">
        <ele>1189.23</ele>
        <time>2019-06-21T23:08:55.637000Z</time>
      </trkpt>
      <trkpt lat="37.821504300415924" lon="112.00532395548824">
        <ele>1188.37</ele>
        <time>2019-06-21T23:09:07.637000Z</time>
      </trkpt>
      <trkpt lat="37.82123811160504" lon="112.00509757141171">
        <ele>1187.66</ele>
        <time>2019-06-21T23:09:19.637000Z</time>
      </trkpt>
      <trkpt lat="37.82111275320959" lon="112.0050150996852">
        <ele>1190.42</ele>
        <time>2019-06-21T23:09:25.637000Z</time>
      </trkpt>
      <trkpt lat="37.82101024836171" lon="112.00492348119859">
        <ele>1191.36</ele>
        <time>2019-06-21T23:09:34.937000Z</time>
      </trkpt>
      <trkpt lat="37.820965967762014" lon="112.0049045306099">
        <ele>1192.94</ele>
        <time>2019-06-21T23:09:37.637000Z</time>
      </trkpt>
      <trkpt lat="37.82075622302164" lon="112.00474912444399">
        <ele>1201.28</ele>
        <time>2019-06-21T23:09:55.637000Z</time>
      </trkpt>
      <trkpt lat="37.820534365622564" lon="112.00449450356359">
        <ele>1207.5</ele>
        <time>2019-06-21T23:10:19.637000Z</time>
      </trkpt>
      <trkpt lat="37.82048501397374" lon="112.00443600111144">
        <ele>1208.29</ele>
        <time>2019-06-21T23:10:25.537000Z</time>
      </trkpt>
      <trkpt lat="37.82049439553572" lon="112.00449234382852">
        <ele>1209.55</ele>
        <time>2019-06-21T23:10:34.637000Z</time>
      </trkpt>
      <trkpt lat="37.820735063526044" lon="112.00476687556085">
        <ele>1208.86</ele>
        <time>2019-06-21T23:11:07.637000Z</time>
      </trkpt>
      <trkpt lat="37.82096999843525" lon="112.00492682175101">
        <ele>1205.82</ele>
        <time>2019-06-21T23:11:31.537000Z</time>
      </trkpt>
      <trkpt lat="37.82121131231995" lon="112.00504895601811">
        <ele>1203.84</ele>
        <time>2019-06-21T23:11:55.637000Z</time>
      </trkpt>
      <trkpt lat="37.821251713878404" lon="112.00509843831134">
        <ele>1204.11</ele>
        <time>2019-06-21T23:12:01.537000Z</time>
      </trkpt>
      <trkpt lat="37.821484343604205" lon="112.00524505147578">
        <ele>1201.89</ele>
        <time>2019-06-21T23:12:19.637000Z</time>
      </trkpt>
      <trkpt lat="37.821634359022426" lon="112.00538166306087">
        <ele>1201.5</ele>
        <time>2019-06-21T23:12:25.637000Z</time>
      </trkpt>
      <trkpt lat="37.821836461439645" lon="112.00562626238323">
        <ele>1204.77</ele>
        <time>2019-06-21T23:12:34.637000Z</time>
      </trkpt>
      <trkpt lat="37.82211837802399" lon="112.00581173058161">
        <ele>1201.44</ele>
        <time>2019-06-21T23:12:46.537000Z</time>
      </trkpt>
      <trkpt lat="37.82236612338128" lon="112.00595840700062">
        <ele>1202.1</ele>
        <time>2019-06-21T23:12:55.637000Z</time>
      </trkpt>
      <trkpt lat="37.822665859207845" lon="112.00611988180411">
        <ele>1200.56</ele>
        <time>2019-06-21T23:13:07.537000Z</time>
      </trkpt>
      <trkpt lat="37.822929993289904" lon="112.00616308789499">
        <ele>1198.03</ele>
        <time>2019-06-21T23:13:16.637000Z</time>
      </trkpt>
      <trkpt lat="37.823214260071865" lon="112.0061211268515">
        <ele>1191.02</ele>
        <time>2019-06-21T23:13:25.637000Z</time>
      </trkpt>
      <trkpt lat="37.823389882838384" lon="112.00608335678167">
        <ele>1195.2</ele>
        <time>2019-06-21T23:13:31.637000Z</time>
      </trkpt>
      <trkpt lat="37.823648686276464" lon="112.00606218541758">
        <ele>1190.65</ele>
        <time>2019-06-21T23:13:40.537000Z</time>
      </trkpt>
      <trkpt lat="37.82397582384514" lon="112.00612680440659">
        <ele>1190.09</ele>
        <time>2019-06-21T23:13:52.637000Z</time>
      </trkpt>
      <trkpt lat="37.82423248913524" lon="112.00621581862737">
        <ele>1189.88</ele>
        <time>2019-06-21T23:14:01.637000Z</time>
      </trkpt>
      <trkpt lat="37.824554680305305" lon="112.00627370482208">
        <ele>1188.59</ele>
        <time>2019-06-21T23:14:13.637000Z</time>
      </trkpt>
      <trkpt lat="37.82490395824449" lon="112.00635125002307">
        <ele>1190.04</ele>
        <time>2019-06-21T23:14:25.637000Z</time>
      </trkpt>
      <trkpt lat="37.82517696948323" lon="112.00641104514358">
        <ele>1189.9</ele>
        <time>2019-06-21T23:14:34.637000Z</time>
      </trkpt>
      <trkpt lat="37.82549564236631" lon="112.00649119501884">
        <ele>1191.23</ele>
        <time>2019-06-21T23:14:46.637000Z</time>
      </trkpt>
      <trkpt lat="37.82576826531016" lon="112.0064983522179">
        <ele>1188.11</ele>
        <time>2019-06-21T23:14:55.537000Z</time>
      </trkpt>
      <trkpt lat="37.82606160456887" lon="112.00652510210516">
        <ele>1186.69</ele>
        <time>2019-06-21T23:15:04.637000Z</time>
      </trkpt>
      <trkpt lat="37.82634408161769" lon="112.00649264943452">
        <ele>1187.65</ele>
        <time>2019-06-21T23:15:13.537000Z</time>
      </trkpt>
      <trkpt lat="37.826517169243026" lon="112.00643653383291">
        <ele>1184.63</ele>
        <time>2019-06-21T23:15:19.637000Z</time>
      </trkpt>
      <trkpt lat="37.826818113406816" lon="112.0063983135056">
        <ele>1185.08</ele>
        <time>2019-06-21T23:15:28.637000Z</time>
      </trkpt>
      <trkpt lat="37.827167686519196" lon="112.00636230306698">
        <ele>1181.6</ele>
        <time>2019-06-21T23:15:40.637000Z</time>
      </trkpt>
      <trkpt lat="37.827455426599954" lon="112.00634140099035">
        <ele>1181.11</ele>
        <time>2019-06-21T23:15:49.637000Z</time>
      </trkpt>
      <trkpt lat="37.82773547420181" lon="112.00630694668969">
        <ele>1178.92</ele>
        <time>2019-06-21T23:15:58.637000Z</time>
      </trkpt>
      <trkpt lat="37.82804998078753" lon="112.00625769209144">
        <ele>1176.34</ele>
        <time>2019-06-21T23:16:10.637000Z</time>
      </trkpt>
      <trkpt lat="37.828212960900785" lon="112.00622403964665">
        <ele>1176.95</ele>
        <time>2019-06-21T23:16:16.637000Z</time>
      </trkpt>
      <trkpt lat="37.82851763871599" lon="112.00619910915077">
        <ele>1178.01</ele>
        <time>2019-06-21T23:16:25.637000Z</time>
      </trkpt>
      <trkpt lat="37.82882730866668" lon="112.00617713790852">
        <ele>1175.0</ele>
        <time>2019-06-21T23:16:34.637000Z</time>
      </trkpt>
      <trkpt lat="37.82918684745289" lon="112.00615517778908">
        <ele>1174.18</ele>
        <time>2019-06-21T23:16:46.637000Z</time>
      </trkpt>
      <trkpt lat="37.829539050453405" lon="112.00615702545905">
        <ele>1174.83</ele>
        <time>2019-06-21T23:16:58.637000Z</time>
      </trkpt>
      <trkpt lat="37.82981923828039" lon="112.0061621124728">
        <ele>1169.05</ele>
        <time>2019-06-21T23:17:07.637000Z</time>
      </trkpt>
      <trkpt lat="37.830127860435084" lon="112.00616005577078">
        <ele>1171.76</ele>
        <time>2019-06-21T23:17:16.537000Z</time>
      </trkpt>
      <trkpt lat="37.83043102827964" lon="112.00619088962571">
        <ele>1171.09</ele>
        <time>2019-06-21T23:17:25.637000Z</time>
      </trkpt>
      <trkpt lat="37.830787379318835" lon="112.00618464507208">
        <ele>1166.47</ele>
        <time>2019-06-21T23:17:37.637000Z</time>
      </trkpt>
      <trkpt lat="37.831144795382194" lon="112.0061505790583">
        <ele>1167.85</ele>
        <time>2019-06-21T23:17:49.537000Z</time>
      </trkpt>
      <trkpt lat="37.83144431182077" lon="112.0061455310363">
        <ele>1168.97</ele>
        <time>2019-06-21T23:17:58.637000Z</time>
      </trkpt>
      <trkpt lat="37.83173750257283" lon="112.00611715786499">
        <ele>1170.27</ele>
        <time>2019-06-21T23:18:07.537000Z</time>
      </trkpt>
      <trkpt lat="37.83202303315907" lon="112.00611907713686">
        <ele>1169.08</ele>
        <time>2019-06-21T23:18:16.637000Z</time>
      </trkpt>
      <trkpt lat="37.832369948268564" lon="112.0061380690923">
        <ele>1168.08</ele>
        <time>2019-06-21T23:18:28.637000Z</time>
      </trkpt>
      <trkpt lat="37.832698957280364" lon="112.00625960415462">
        <ele>1165.28</ele>
        <time>2019-06-21T23:18:40.637000Z</time>
      </trkpt>
      <trkpt lat="37.83301999279426" lon="112.00641718133664">
        <ele>1166.44</ele>
        <time>2019-06-21T23:18:52.637000Z</time>
      </trkpt>
      <trkpt lat="37.83335322813952" lon="112.00652233224822">
        <ele>1164.54</ele>
        <time>2019-06-21T23:19:04.637000Z</time>
      </trkpt>
      <trkpt lat="37.83361716851901" lon="112.00660868805748">
        <ele>1162.33</ele>
        <time>2019-06-21T23:19:13.637000Z</time>
      </trkpt>
      <trkpt lat="37.83393987091247" lon="112.00672529470465">
        <ele>1163.25</ele>
        <time>2019-06-21T23:19:25.637000Z</time>
      </trkpt>
      <trkpt lat="37.83421467573182" lon="112.00681832434027">
        <ele>1159.41</ele>
        <time>2019-06-21T23:19:34.537000Z</time>
      </trkpt>
      <trkpt lat="37.83449286299826" lon="112.00690771680304">
        <ele>1159.5</ele>
        <time>2019-06-21T23:19:43.637000Z</time>
      </trkpt>
      <trkpt lat="37.83469344412716" lon="112.0069545271557">
        <ele>1156.51</ele>
        <time>2019-06-21T23:19:49.537000Z</time>
      </trkpt>
      <trkpt lat="37.83479997124172" lon="112.0069568269506">
        <ele>1156.82</ele>
        <time>2019-06-21T23:19:52.637000Z</time>
      </trkpt>
      <trkpt lat="37.83500549406424" lon="112.00689359396156">
        <ele>1156.93</ele>
        <time>2019-06-21T23:19:58.637000Z</time>
      </trkpt>
      <trkpt lat="37.83510854979411" lon="112.00688147592264">
        <ele>1156.4</ele>
        <time>2019-06-21T23:20:01.537000Z</time>
      </trkpt>
      <trkpt lat="37.83520024744367" lon="112.00686996705646">
        <ele>1156.61</ele>
        <time>2019-06-21T23:20:04.637000Z</time>
      </trkpt>
      <trkpt lat="37.835285031501826" lon="112.00688314262177">
        <ele>1157.09</ele>
        <time>2019-06-21T23:20:07.537000Z</time>
      </trkpt>
      <trkpt lat="37.83536343516645" lon="112.00693371360741">
        <ele>1156.25</ele>
        <time>2019-06-21T23:20:10.637000Z</time>
      </trkpt>
      <trkpt lat="37.83546451063822" lon="112.00718077345908">
        <ele>1152.62</ele>
        <time>2019-06-21T23:20:19.637000Z</time>
      </trkpt>
      <trkpt lat="37.83552035225691" lon="112.00724068157018">
        <ele>1151.31</ele>
        <time>2019-06-21T23:20:22.537000Z</time>
      </trkpt>
      <trkpt lat="37.83556824510171" lon="112.00731287063334">
        <ele>1150.84</ele>
        <time>2019-06-21T23:20:25.637000Z</time>
      </trkpt>
      <trkpt lat="37.8356334069237" lon="112.00735943242344">
        <ele>1151.69</ele>
        <time>2019-06-21T23:20:28.637000Z</time>
      </trkpt>
      <trkpt lat="37.83570151718812" lon="112.00740453364249">
        <ele>1154.12</ele>
        <time>2019-06-21T23:20:31.637000Z</time>
      </trkpt>
      <trkpt lat="37.835903904863486" lon="112.00744254410546">
        <ele>1155.61</ele>
        <time>2019-06-21T23:20:37.637000Z</time>
      </trkpt>
      <trkpt lat="37.836106476777324" lon="112.00748001687779">
        <ele>1155.24</ele>
        <time>2019-06-21T23:20:43.537000Z</time>
      </trkpt>
      <trkpt lat="37.836380112904344" lon="112.00754595427496">
        <ele>1155.24</ele>
        <time>2019-06-21T23:20:52.637000Z</time>
      </trkpt>
      <trkpt lat="37.83664768124306" lon="112.00762108694428">
        <ele>1155.92</ele>
        <time>2019-06-21T23:21:01.637000Z</time>
      </trkpt>
      <trkpt lat="37.83690831834923" lon="112.0077144384924">
        <ele>1154.26</ele>
        <time>2019-06-21T23:21:10.637000Z</time>
      </trkpt>
      <trkpt lat="37.83726202845881" lon="112.00783646423618">
        <ele>1156.47</ele>
        <time>2019-06-21T23:21:22.637000Z</time>
      </trkpt>
      <trkpt lat="37.837537522477135" lon="112.00794861244238">
        <ele>1155.73</ele>
        <time>2019-06-21T23:21:31.637000Z</time>
      </trkpt>
      <trkpt lat="37.8378208274186" lon="112.00803980195364">
        <ele>1153.69</ele>
        <time>2019-06-21T23:21:40.637000Z</time>
      </trkpt>
      <trkpt lat="37.838010128966836" lon="112.008088019956">
        <ele>1154.79</ele>
        <time>2019-06-21T23:21:46.537000Z</time>
      </trkpt>
      <trkpt lat="37.83828590454903" lon="112.00820336568137">
        <ele>1151.25</ele>
        <time>2019-06-21T23:21:55.637000Z</time>
      </trkpt>
      <trkpt lat="37.838488820281704" lon="112.0082505832593">
        <ele>1149.04</ele>
        <time>2019-06-21T23:22:01.637000Z</time>
      </trkpt>
      <trkpt lat="37.8387846894887" lon="112.00823402253201">
        <ele>1148.0</ele>
        <time>2019-06-21T23:22:10.637000Z</time>
      </trkpt>
      <trkpt lat="37.83911082118172" lon="112.00818262550641">
        <ele>1145.23</ele>
        <time>2019-06-21T23:22:19.637000Z</time>
      </trkpt>
      <trkpt lat="37.83931365949543" lon="112.0081536610348">
        <ele>1144.76</ele>
        <time>2019-06-21T23:22:25.637000Z</time>
      </trkpt>
      <trkpt lat="37.83961585134504" lon="112.00813275491751">
        <ele>1146.99</ele>
        <time>2019-06-21T23:22:34.637000Z</time>
      </trkpt>
      <trkpt lat="37.83971386782514" lon="112.00812480928765">
        <ele>1146.74</ele>
        <time>2019-06-21T23:22:37.537000Z</time>
      </trkpt>
      <trkpt lat="37.83979389534907" lon="112.00810302906613">
        <ele>1144.02</ele>
        <time>2019-06-21T23:22:40.537000Z</time>
      </trkpt>
      <trkpt lat="37.84000263677989" lon="112.00809244507504">
        <ele>1144.75</ele>
        <time>2019-06-21T23:22:46.537000Z</time>
      </trkpt>
      <trkpt lat="37.84007929632884" lon="112.00806710970927">
        <ele>1143.85</ele>
        <time>2019-06-21T23:22:49.637000Z</time>
      </trkpt>
      <trkpt lat="37.840181505262905" lon="112.00804859491971">
        <ele>1145.04</ele>
        <time>2019-06-21T23:22:52.637000Z</time>
      </trkpt>
      <trkpt lat="37.840385897239514" lon="112.00802911816504">
        <ele>1147.89</ele>
        <time>2019-06-21T23:22:58.637000Z</time>
      </trkpt>
      <trkpt lat="37.84061295850725" lon="112.00808427022662">
        <ele>1143.52</ele>
        <time>2019-06-21T23:23:07.537000Z</time>
      </trkpt>
      <trkpt lat="37.84090745845369" lon="112.00813671554585">
        <ele>1145.62</ele>
        <time>2019-06-21T23:23:16.637000Z</time>
      </trkpt>
      <trkpt lat="37.84109373844162" lon="112.00817730793139">
        <ele>1144.91</ele>
        <time>2019-06-21T23:23:22.537000Z</time>
      </trkpt>
      <trkpt lat="37.84130070202639" lon="112.00818334139504">
        <ele>1145.41</ele>
        <time>2019-06-21T23:23:28.637000Z</time>
      </trkpt>
      <trkpt lat="37.84159088284385" lon="112.00813287594168">
        <ele>1144.6</ele>
        <time>2019-06-21T23:23:37.637000Z</time>
      </trkpt>
      <trkpt lat="37.84193071275005" lon="112.0079704312935">
        <ele>1140.39</ele>
        <time>2019-06-21T23:23:49.637000Z</time>
      </trkpt>
      <trkpt lat="37.84218166468389" lon="112.00778900529049">
        <ele>1140.18</ele>
        <time>2019-06-21T23:23:58.637000Z</time>
      </trkpt>
      <trkpt lat="37.84242529329854" lon="112.00762764937076">
        <ele>1136.08</ele>
        <time>2019-06-21T23:24:07.637000Z</time>
      </trkpt>
      <trkpt lat="37.84267855366637" lon="112.00741339108677">
        <ele>1137.97</ele>
        <time>2019-06-21T23:24:16.637000Z</time>
      </trkpt>
      <trkpt lat="37.842852733424" lon="112.00730129628027">
        <ele>1137.42</ele>
        <time>2019-06-21T23:24:22.637000Z</time>
      </trkpt>
      <trkpt lat="37.84310833650268" lon="112.00708160744965">
        <ele>1137.97</ele>
        <time>2019-06-21T23:24:31.637000Z</time>
      </trkpt>
      <trkpt lat="37.84327768479351" lon="112.00697766597442">
        <ele>1135.77</ele>
        <time>2019-06-21T23:24:37.637000Z</time>
      </trkpt>
      <trkpt lat="37.843449804553515" lon="112.00683585817276">
        <ele>1137.81</ele>
        <time>2019-06-21T23:24:43.637000Z</time>
      </trkpt>
      <trkpt lat="37.84361527215514" lon="112.00667993430777">
        <ele>1138.2</ele>
        <time>2019-06-21T23:24:49.637000Z</time>
      </trkpt>
      <trkpt lat="37.84379479054877" lon="112.00657252566597">
        <ele>1138.32</ele>
        <time>2019-06-21T23:24:55.637000Z</time>
      </trkpt>
      <trkpt lat="37.84396261182741" lon="112.00641251161886">
        <ele>1139.68</ele>
        <time>2019-06-21T23:25:01.637000Z</time>
      </trkpt>
      <trkpt lat="37.844243752386895" lon="112.00625831613164">
        <ele>1141.26</ele>
        <time>2019-06-21T23:25:10.637000Z</time>
      </trkpt>
      <trkpt lat="37.84444327541578" lon="112.00617886153216">
        <ele>1139.84</ele>
        <time>2019-06-21T23:25:16.637000Z</time>
      </trkpt>
      <trkpt lat="37.84453364075538" lon="112.00613475285586">
        <ele>1139.36</ele>
        <time>2019-06-21T23:25:19.637000Z</time>
      </trkpt>
      <trkpt lat="37.84463833533472" lon="112.00611744226134">
        <ele>1139.08</ele>
        <time>2019-06-21T23:25:22.537000Z</time>
      </trkpt>
      <trkpt lat="37.84491344225364" lon="112.00618206239392">
        <ele>1136.57</ele>
        <time>2019-06-21T23:25:31.637000Z</time>
      </trkpt>
      <trkpt lat="37.845005657953436" lon="112.0062103634369">
        <ele>1134.91</ele>
        <time>2019-06-21T23:25:34.637000Z</time>
      </trkpt>
      <trkpt lat="37.845323976789196" lon="112.0063031468614">
        <ele>1135.82</ele>
        <time>2019-06-21T23:25:43.637000Z</time>
      </trkpt>
      <trkpt lat="37.845616371817016" lon="112.0064197892796">
        <ele>1135.38</ele>
        <time>2019-06-21T23:25:52.637000Z</time>
      </trkpt>
      <trkpt lat="37.845899248847836" lon="112.00653123886839">
        <ele>1131.6</ele>
        <time>2019-06-21T23:26:01.637000Z</time>
      </trkpt>
      <trkpt lat="37.84615385117482" lon="112.0066207634215">
        <ele>1130.14</ele>
        <time>2019-06-21T23:26:10.637000Z</time>
      </trkpt>
      <trkpt lat="37.846459434936165" lon="112.00666171009019">
        <ele>1132.01</ele>
        <time>2019-06-21T23:26:19.537000Z</time>
      </trkpt>
      <trkpt lat="37.846654749933954" lon="112.00665991036102">
        <ele>1131.44</ele>
        <time>2019-06-21T23:26:25.537000Z</time>
      </trkpt>
      <trkpt lat="37.84698595421975" lon="112.0067050318123">
        <ele>1130.32</ele>
        <time>2019-06-21T23:26:34.637000Z</time>
      </trkpt>
      <trkpt lat="37.847287822616664" lon="112.00673205301864">
        <ele>1129.2</ele>
        <time>2019-06-21T23:26:43.637000Z</time>
      </trkpt>
      <trkpt lat="37.84759957760568" lon="112.00677189269265">
        <ele>1129.14</ele>
        <time>2019-06-21T23:26:52.637000Z</time>
      </trkpt>
      <trkpt lat="37.847903529001286" lon="112.00681632799511">
        <ele>1127.08</ele>
        <time>2019-06-21T23:27:01.537000Z</time>
      </trkpt>
      <trkpt lat="37.84819952107585" lon="112.00688826311192">
        <ele>1124.28</ele>
        <time>2019-06-21T23:27:10.537000Z</time>
      </trkpt>
      <trkpt lat="37.84835105452719" lon="112.00704013100219">
        <ele>1124.11</ele>
        <time>2019-06-21T23:27:16.537000Z</time>
      </trkpt>
      <trkpt lat="37.84841359346325" lon="112.0071270697957">
        <ele>1124.35</ele>
        <time>2019-06-21T23:27:19.637000Z</time>
      </trkpt>
      <trkpt lat="37.84849487022693" lon="112.00724047612177">
        <ele>1125.1</ele>
        <time>2019-06-21T23:27:22.637000Z</time>
      </trkpt>
      <trkpt lat="37.84857065965221" lon="112.00734986269724">
        <ele>1125.39</ele>
        <time>2019-06-21T23:27:25.637000Z</time>
      </trkpt>
      <trkpt lat="37.84878074689869" lon="112.0076680588225">
        <ele>1124.84</ele>
        <time>2019-06-21T23:27:34.637000Z</time>
      </trkpt>
      <trkpt lat="37.8490072138617" lon="112.00799282287258">
        <ele>1124.82</ele>
        <time>2019-06-21T23:27:43.637000Z</time>
      </trkpt>
      <trkpt lat="37.849212304477646" lon="112.00831301992633">
        <ele>1125.54</ele>
        <time>2019-06-21T23:27:52.637000Z</time>
      </trkpt>
      <trkpt lat="37.84943767393017" lon="112.00863617926471">
        <ele>1122.09</ele>
        <time>2019-06-21T23:28:01.637000Z</time>
      </trkpt>
      <trkpt lat="37.84965940738084" lon="112.00898355960848">
        <ele>1121.6</ele>
        <time>2019-06-21T23:28:10.537000Z</time>
      </trkpt>
      <trkpt lat="37.84980037639353" lon="112.00921806564398">
        <ele>1122.11</ele>
        <time>2019-06-21T23:28:16.637000Z</time>
      </trkpt>
      <trkpt lat="37.849874799187354" lon="112.0094632488827">
        <ele>1121.39</ele>
        <time>2019-06-21T23:28:22.637000Z</time>
      </trkpt>
      <trkpt lat="37.84991425378384" lon="112.00986442991396">
        <ele>1120.57</ele>
        <time>2019-06-21T23:28:31.637000Z</time>
      </trkpt>
      <trkpt lat="37.84989620110659" lon="112.0102187698627">
        <ele>1112.71</ele>
        <time>2019-06-21T23:28:40.637000Z</time>
      </trkpt>
      <trkpt lat="37.84986310988601" lon="112.01058626859442">
        <ele>1113.19</ele>
        <time>2019-06-21T23:28:49.637000Z</time>
      </trkpt>
      <trkpt lat="37.8498316468789" lon="112.01101604731362">
        <ele>1116.26</ele>
        <time>2019-06-21T23:28:58.637000Z</time>
      </trkpt>
      <trkpt lat="37.84980982730441" lon="112.01142888630413">
        <ele>1117.66</ele>
        <time>2019-06-21T23:29:07.637000Z</time>
      </trkpt>
      <trkpt lat="37.84978855746569" lon="112.011852691389">
        <ele>1116.7</ele>
        <time>2019-06-21T23:29:16.637000Z</time>
      </trkpt>
      <trkpt lat="37.84975596600811" lon="112.01225329908131">
        <ele>1116.41</ele>
        <time>2019-06-21T23:29:25.537000Z</time>
      </trkpt>
      <trkpt lat="37.84970601102344" lon="112.01267300899721">
        <ele>1115.23</ele>
        <time>2019-06-21T23:29:34.637000Z</time>
      </trkpt>
      <trkpt lat="37.849656254618495" lon="112.01310724665389">
        <ele>1114.88</ele>
        <time>2019-06-21T23:29:43.537000Z</time>
      </trkpt>
      <trkpt lat="37.84961606147548" lon="112.01357290128783">
        <ele>1119.05</ele>
        <time>2019-06-21T23:29:52.637000Z</time>
      </trkpt>
      <trkpt lat="37.8495763429061" lon="112.01399718493643">
        <ele>1117.76</ele>
        <time>2019-06-21T23:30:01.537000Z</time>
      </trkpt>
      <trkpt lat="37.84954593322681" lon="112.01443609753407">
        <ele>1119.27</ele>
        <time>2019-06-21T23:30:10.637000Z</time>
      </trkpt>
      <trkpt lat="37.849521431127485" lon="112.01477407371908">
        <ele>1120.78</ele>
        <time>2019-06-21T23:30:16.637000Z</time>
      </trkpt>
      <trkpt lat="37.84945912456794" lon="112.01526957473727">
        <ele>1118.95</ele>
        <time>2019-06-21T23:30:25.537000Z</time>
      </trkpt>
      <trkpt lat="37.84940353099764" lon="112.0156831111518">
        <ele>1121.24</ele>
        <time>2019-06-21T23:30:34.637000Z</time>
      </trkpt>
      <trkpt lat="37.84935121414039" lon="112.01597987986291">
        <ele>1119.13</ele>
        <time>2019-06-21T23:30:40.637000Z</time>
      </trkpt>
      <trkpt lat="37.849309930073034" lon="112.0164399174339">
        <ele>1117.24</ele>
        <time>2019-06-21T23:30:49.637000Z</time>
      </trkpt>
      <trkpt lat="37.849279200414415" lon="112.01690103778785">
        <ele>1117.03</ele>
        <time>2019-06-21T23:30:58.537000Z</time>
      </trkpt>
      <trkpt lat="37.84925027431783" lon="112.01719855323131">
        <ele>1117.03</ele>
        <time>2019-06-21T23:31:04.637000Z</time>
      </trkpt>
      <trkpt lat="37.84919237778678" lon="112.01765487547564">
        <ele>1114.61</ele>
        <time>2019-06-21T23:31:13.637000Z</time>
      </trkpt>
      <trkpt lat="37.84915483472638" lon="112.01801851350606">
        <ele>1116.95</ele>
        <time>2019-06-21T23:31:19.637000Z</time>
      </trkpt>
      <trkpt lat="37.84920518859408" lon="112.01761872763939">
        <ele>1112.58</ele>
        <time>2019-06-21T23:32:13.637000Z</time>
      </trkpt>
      <trkpt lat="37.84924214980224" lon="112.01722131259733">
        <ele>1109.86</ele>
        <time>2019-06-21T23:32:37.537000Z</time>
      </trkpt>
      <trkpt lat="37.84928979631464" lon="112.01687103480864">
        <ele>1111.75</ele>
        <time>2019-06-21T23:32:58.637000Z</time>
      </trkpt>
      <trkpt lat="37.849323733166706" lon="112.01651752753864">
        <ele>1111.07</ele>
        <time>2019-06-21T23:33:22.537000Z</time>
      </trkpt>
      <trkpt lat="37.84935982070247" lon="112.01616423110639">
        <ele>1109.12</ele>
        <time>2019-06-21T23:33:46.637000Z</time>
      </trkpt>
      <trkpt lat="37.8494201135561" lon="112.01575066763907">
        <ele>1112.6</ele>
        <time>2019-06-21T23:34:16.637000Z</time>
      </trkpt>
      <trkpt lat="37.84946363395063" lon="112.01552810923329">
        <ele>1114.18</ele>
        <time>2019-06-21T23:34:34.637000Z</time>
      </trkpt>
      <trkpt lat="37.84949395769276" lon="112.01510879710325">
        <ele>1112.24</ele>
        <time>2019-06-21T23:35:04.637000Z</time>
      </trkpt>
      <trkpt lat="37.849540342939385" lon="112.01469614679402">
        <ele>1111.72</ele>
        <time>2019-06-21T23:35:34.637000Z</time>
      </trkpt>
      <trkpt lat="37.84956947786435" lon="112.01426842603199">
        <ele>1113.56</ele>
        <time>2019-06-21T23:36:04.637000Z</time>
      </trkpt>
      <trkpt lat="37.84959072992081" lon="112.01391881547725">
        <ele>1114.07</ele>
        <time>2019-06-21T23:36:28.537000Z</time>
      </trkpt>
      <trkpt lat="37.84961964673736" lon="112.01349251711132">
        <ele>1115.08</ele>
        <time>2019-06-21T23:36:58.637000Z</time>
      </trkpt>
      <trkpt lat="37.84964170006466" lon="112.01314041810465">
        <ele>1113.88</ele>
        <time>2019-06-21T23:37:22.637000Z</time>
      </trkpt>
      <trkpt lat="37.849697299725925" lon="112.01272846324738">
        <ele>1111.42</ele>
        <time>2019-06-21T23:37:52.637000Z</time>
      </trkpt>
      <trkpt lat="37.84971410298615" lon="112.012354973888">
        <ele>1110.39</ele>
        <time>2019-06-21T23:38:16.637000Z</time>
      </trkpt>
      <trkpt lat="37.84973826830677" lon="112.0120004573238">
        <ele>1113.27</ele>
        <time>2019-06-21T23:38:40.637000Z</time>
      </trkpt>
      <trkpt lat="37.84977559125808" lon="112.01174945175926">
        <ele>1116.83</ele>
        <time>2019-06-21T23:38:58.537000Z</time>
      </trkpt>
      <trkpt lat="37.84979739781415" lon="112.01139611678768">
        <ele>1116.1</ele>
        <time>2019-06-21T23:39:22.537000Z</time>
      </trkpt>
      <trkpt lat="37.84980952433907" lon="112.01103176171128">
        <ele>1113.81</ele>
        <time>2019-06-21T23:39:46.537000Z</time>
      </trkpt>
      <trkpt lat="37.849848508229236" lon="112.01061242222185">
        <ele>1115.19</ele>
        <time>2019-06-21T23:40:16.537000Z</time>
      </trkpt>
      <trkpt lat="37.84986963700372" lon="112.01025981005272">
        <ele>1118.02</ele>
        <time>2019-06-21T23:40:40.637000Z</time>
      </trkpt>
      <trkpt lat="37.84987059697016" lon="112.00991645972819">
        <ele>1115.0</ele>
        <time>2019-06-21T23:41:04.637000Z</time>
      </trkpt>
      <trkpt lat="37.84986114388878" lon="112.00950663468547">
        <ele>1117.16</ele>
        <time>2019-06-21T23:41:28.637000Z</time>
      </trkpt>
      <trkpt lat="37.84982240402576" lon="112.0093268300001">
        <ele>1116.52</ele>
        <time>2019-06-21T23:41:34.637000Z</time>
      </trkpt>
      <trkpt lat="37.84969132444822" lon="112.00903466723902">
        <ele>1116.73</ele>
        <time>2019-06-21T23:41:43.637000Z</time>
      </trkpt>
      <trkpt lat="37.84950650356142" lon="112.00876235683725">
        <ele>1118.34</ele>
        <time>2019-06-21T23:41:55.637000Z</time>
      </trkpt>
      <trkpt lat="37.84930479072982" lon="112.00852112603933">
        <ele>1112.18</ele>
        <time>2019-06-21T23:42:07.537000Z</time>
      </trkpt>
      <trkpt lat="37.84909658210832" lon="112.00818874495391">
        <ele>1113.15</ele>
        <time>2019-06-21T23:42:19.537000Z</time>
      </trkpt>
      <trkpt lat="37.84894959254769" lon="112.00790108817442">
        <ele>1119.37</ele>
        <time>2019-06-21T23:42:28.537000Z</time>
      </trkpt>
      <trkpt lat="37.84884050277307" lon="112.0077218583904">
        <ele>1118.7</ele>
        <time>2019-06-21T23:42:34.537000Z</time>
      </trkpt>
      <trkpt lat="37.84866175567026" lon="112.00748798117382">
        <ele>1110.73</ele>
        <time>2019-06-21T23:42:52.537000Z</time>
      </trkpt>
      <trkpt lat="37.84841702909855" lon="112.00717758049065">
        <ele>1109.03</ele>
        <time>2019-06-21T23:43:22.637000Z</time>
      </trkpt>
      <trkpt lat="37.84833379248222" lon="112.00702171070122">
        <ele>1112.22</ele>
        <time>2019-06-21T23:43:31.537000Z</time>
      </trkpt>
      <trkpt lat="37.84829569006719" lon="112.00697870394747">
        <ele>1115.38</ele>
        <time>2019-06-21T23:43:34.637000Z</time>
      </trkpt>
      <trkpt lat="37.848112876212134" lon="112.00687344288397">
        <ele>1114.84</ele>
        <time>2019-06-21T23:43:43.537000Z</time>
      </trkpt>
      <trkpt lat="37.84780912255297" lon="112.0068491829369">
        <ele>1115.36</ele>
        <time>2019-06-21T23:43:55.537000Z</time>
      </trkpt>
      <trkpt lat="37.84749119824959" lon="112.00677752951917">
        <ele>1115.61</ele>
        <time>2019-06-21T23:44:07.637000Z</time>
      </trkpt>
      <trkpt lat="37.84712994831647" lon="112.00672959097261">
        <ele>1116.11</ele>
        <time>2019-06-21T23:44:19.537000Z</time>
      </trkpt>
      <trkpt lat="37.846859693004255" lon="112.00669339250659">
        <ele>1115.54</ele>
        <time>2019-06-21T23:44:28.537000Z</time>
      </trkpt>
      <trkpt lat="37.84658475698097" lon="112.00664139082461">
        <ele>1120.63</ele>
        <time>2019-06-21T23:44:37.537000Z</time>
      </trkpt>
      <trkpt lat="37.84650224149895" lon="112.00660396918863">
        <ele>1121.34</ele>
        <time>2019-06-21T23:44:40.537000Z</time>
      </trkpt>
      <trkpt lat="37.846398015525594" lon="112.00658075086874">
        <ele>1122.86</ele>
        <time>2019-06-21T23:44:46.537000Z</time>
      </trkpt>
      <trkpt lat="37.846372765058064" lon="112.00656293407894">
        <ele>1123.64</ele>
        <time>2019-06-21T23:45:01.637000Z</time>
      </trkpt>
      <trkpt lat="37.84669208415039" lon="112.00659738827005">
        <ele>1128.95</ele>
        <time>2019-06-21T23:45:16.637000Z</time>
      </trkpt>
      <trkpt lat="37.84697128619656" lon="112.0066442886604">
        <ele>1128.48</ele>
        <time>2019-06-21T23:45:34.637000Z</time>
      </trkpt>
      <trkpt lat="37.84726749806805" lon="112.00668619858017">
        <ele>1127.48</ele>
        <time>2019-06-21T23:45:46.637000Z</time>
      </trkpt>
      <trkpt lat="37.84760856084612" lon="112.00676926863902">
        <ele>1126.27</ele>
        <time>2019-06-21T23:45:58.637000Z</time>
      </trkpt>
      <trkpt lat="37.84792955073586" lon="112.00681844579557">
        <ele>1127.29</ele>
        <time>2019-06-21T23:46:10.537000Z</time>
      </trkpt>
      <trkpt lat="37.84807011392352" lon="112.0068343137654">
        <ele>1122.81</ele>
        <time>2019-06-21T23:46:16.637000Z</time>
      </trkpt>
      <trkpt lat="37.848214681799426" lon="112.00689690570917">
        <ele>1122.26</ele>
        <time>2019-06-21T23:46:22.537000Z</time>
      </trkpt>
      <trkpt lat="37.84847276896649" lon="112.0071872146443">
        <ele>1124.69</ele>
        <time>2019-06-21T23:46:34.637000Z</time>
      </trkpt>
      <trkpt lat="37.848646789266255" lon="112.0074157700027">
        <ele>1125.06</ele>
        <time>2019-06-21T23:46:43.637000Z</time>
      </trkpt>
      <trkpt lat="37.848859621256864" lon="112.00776435009135">
        <ele>1133.12</ele>
        <time>2019-06-21T23:46:55.637000Z</time>
      </trkpt>
      <trkpt lat="37.84903214287206" lon="112.00802942253803">
        <ele>1129.43</ele>
        <time>2019-06-21T23:47:04.637000Z</time>
      </trkpt>
      <trkpt lat="37.84925501201188" lon="112.00834378069531">
        <ele>1130.58</ele>
        <time>2019-06-21T23:47:16.637000Z</time>
      </trkpt>
      <trkpt lat="37.849374560373" lon="112.00854579081822">
        <ele>1136.02</ele>
        <time>2019-06-21T23:47:22.637000Z</time>
      </trkpt>
      <trkpt lat="37.849481589574914" lon="112.0087689748726">
        <ele>1138.33</ele>
        <time>2019-06-21T23:47:28.637000Z</time>
      </trkpt>
      <trkpt lat="37.84970853556113" lon="112.0091062318991">
        <ele>1130.77</ele>
        <time>2019-06-21T23:47:40.637000Z</time>
      </trkpt>
      <trkpt lat="37.84976471034486" lon="112.00919351758012">
        <ele>1132.62</ele>
        <time>2019-06-21T23:47:43.637000Z</time>
      </trkpt>
      <trkpt lat="37.84984153253715" lon="112.00939069792638">
        <ele>1132.14</ele>
        <time>2019-06-21T23:47:49.637000Z</time>
      </trkpt>
      <trkpt lat="37.84986413601497" lon="112.00972272606813">
        <ele>1131.85</ele>
        <time>2019-06-21T23:47:58.637000Z</time>
      </trkpt>
      <trkpt lat="37.84985661476214" lon="112.00984297832959">
        <ele>1132.02</ele>
        <time>2019-06-21T23:48:01.637000Z</time>
      </trkpt>
      <trkpt lat="37.84985138544506" lon="112.00996189594969">
        <ele>1130.42</ele>
        <time>2019-06-21T23:48:04.537000Z</time>
      </trkpt>
      <trkpt lat="37.84985329613442" lon="112.01007638670535">
        <ele>1129.12</ele>
        <time>2019-06-21T23:48:07.637000Z</time>
      </trkpt>
      <trkpt lat="37.8498398335047" lon="112.01043080037728">
        <ele>1127.48</ele>
        <time>2019-06-21T23:48:16.637000Z</time>
      </trkpt>
      <trkpt lat="37.849798789301374" lon="112.01086906354368">
        <ele>1122.52</ele>
        <time>2019-06-21T23:48:28.537000Z</time>
      </trkpt>
      <trkpt lat="37.849760553045336" lon="112.01123704728018">
        <ele>1121.65</ele>
        <time>2019-06-21T23:48:37.637000Z</time>
      </trkpt>
      <trkpt lat="37.849755113832266" lon="112.01165240356015">
        <ele>1121.25</ele>
        <time>2019-06-21T23:48:46.537000Z</time>
      </trkpt>
      <trkpt lat="37.849725150015466" lon="112.01204324603667">
        <ele>1113.52</ele>
        <time>2019-06-21T23:48:55.637000Z</time>
      </trkpt>
      <trkpt lat="37.849707717747194" lon="112.01250697713783">
        <ele>1107.9</ele>
        <time>2019-06-21T23:49:07.537000Z</time>
      </trkpt>
      <trkpt lat="37.849684313663545" lon="112.01286587979513">
        <ele>1108.6</ele>
        <time>2019-06-21T23:49:16.637000Z</time>
      </trkpt>
      <trkpt lat="37.849644808169586" lon="112.01322378707783">
        <ele>1109.18</ele>
        <time>2019-06-21T23:49:25.637000Z</time>
      </trkpt>
      <trkpt lat="37.849609992692706" lon="112.01360605457212">
        <ele>1115.08</ele>
        <time>2019-06-21T23:49:34.537000Z</time>
      </trkpt>
      <trkpt lat="37.849582994665454" lon="112.01395963086998">
        <ele>1112.78</ele>
        <time>2019-06-21T23:49:43.637000Z</time>
      </trkpt>
      <trkpt lat="37.84954906343827" lon="112.01442571684234">
        <ele>1112.65</ele>
        <time>2019-06-21T23:49:55.637000Z</time>
      </trkpt>
      <trkpt lat="37.84951424805528" lon="112.01483113306824">
        <ele>1113.89</ele>
        <time>2019-06-21T23:50:04.637000Z</time>
      </trkpt>
      <trkpt lat="37.84947849460262" lon="112.01521294789542">
        <ele>1114.29</ele>
        <time>2019-06-21T23:50:13.537000Z</time>
      </trkpt>
      <trkpt lat="37.84943124798164" lon="112.01558359078608">
        <ele>1111.1</ele>
        <time>2019-06-21T23:50:22.537000Z</time>
      </trkpt>
      <trkpt lat="37.84937576562527" lon="112.01600653838457">
        <ele>1114.32</ele>
        <time>2019-06-21T23:50:31.537000Z</time>
      </trkpt>
      <trkpt lat="37.84932710620204" lon="112.01637132557349">
        <ele>1113.06</ele>
        <time>2019-06-21T23:50:40.537000Z</time>
      </trkpt>
      <trkpt lat="37.849288629507384" lon="112.01679741870493">
        <ele>1112.82</ele>
        <time>2019-06-21T23:50:58.637000Z</time>
      </trkpt>
      <trkpt lat="37.84927891881904" lon="112.01700257259276">
        <ele>1112.53</ele>
        <time>2019-06-21T23:51:13.637000Z</time>
      </trkpt>
      <trkpt lat="37.84924195300007" lon="112.0171507830021">
        <ele>1111.6</ele>
        <time>2019-06-21T23:51:22.637000Z</time>
      </trkpt>
      <trkpt lat="37.8491968679361" lon="112.01751052272324">
        <ele>1110.91</ele>
        <time>2019-06-21T23:51:43.637000Z</time>
      </trkpt>
      <trkpt lat="37.84918466365937" lon="112.01767011498164">
        <ele>1109.33</ele>
        <time>2019-06-21T23:51:52.537000Z</time>
      </trkpt>
      <trkpt lat="37.84913656767039" lon="112.01791145924174">
        <ele>1108.6</ele>
        <time>2019-06-21T23:52:07.637000Z</time>
      </trkpt>
      <trkpt lat="37.849142923978924" lon="112.01801246228065">
        <ele>1107.53</ele>
        <time>2019-06-21T23:52:13.537000Z</time>
      </trkpt>
      <trkpt lat="37.84913125875634" lon="112.01837336308996">
        <ele>1110.31</ele>
        <time>2019-06-21T23:52:34.537000Z</time>
      </trkpt>
      <trkpt lat="37.8491017774226" lon="112.01869114140578">
        <ele>1110.78</ele>
        <time>2019-06-21T23:52:49.537000Z</time>
      </trkpt>
      <trkpt lat="37.84909927275449" lon="112.01886022307399">
        <ele>1110.58</ele>
        <time>2019-06-21T23:52:58.637000Z</time>
      </trkpt>
      <trkpt lat="37.849079953857164" lon="112.01922487047179">
        <ele>1109.69</ele>
        <time>2019-06-21T23:53:19.637000Z</time>
      </trkpt>
      <trkpt lat="37.84903712697701" lon="112.01943978315732">
        <ele>1109.37</ele>
        <time>2019-06-21T23:53:31.637000Z</time>
      </trkpt>
      <trkpt lat="37.84904125220955" lon="112.01953775326596">
        <ele>1108.87</ele>
        <time>2019-06-21T23:53:37.537000Z</time>
      </trkpt>
      <trkpt lat="37.849024268308085" lon="112.01990900728134">
        <ele>1106.31</ele>
        <time>2019-06-21T23:53:58.637000Z</time>
      </trkpt>
      <trkpt lat="37.849032816669336" lon="112.0200059344219">
        <ele>1104.99</ele>
        <time>2019-06-21T23:54:04.637000Z</time>
      </trkpt>
      <trkpt lat="37.849015319988986" lon="112.02010691234092">
        <ele>1105.44</ele>
        <time>2019-06-21T23:54:10.537000Z</time>
      </trkpt>
      <trkpt lat="37.84904833671591" lon="112.02022324196759">
        <ele>1105.08</ele>
        <time>2019-06-21T23:54:16.637000Z</time>
      </trkpt>
      <trkpt lat="37.849066115281" lon="112.02032794845343">
        <ele>1105.35</ele>
        <time>2019-06-21T23:54:22.537000Z</time>
      </trkpt>
      <trkpt lat="37.849095551699925" lon="112.02069285408007">
        <ele>1106.46</ele>
        <time>2019-06-21T23:54:43.537000Z</time>
      </trkpt>
      <trkpt lat="37.849079184248254" lon="112.02080376285086">
        <ele>1106.85</ele>
        <time>2019-06-21T23:54:49.637000Z</time>
      </trkpt>
      <trkpt lat="37.84908663090492" lon="112.02115930180756">
        <ele>1105.65</ele>
        <time>2019-06-21T23:55:07.637000Z</time>
      </trkpt>
      <trkpt lat="37.849078514032286" lon="112.021524351484">
        <ele>1105.93</ele>
        <time>2019-06-21T23:55:28.637000Z</time>
      </trkpt>
      <trkpt lat="37.8490723599029" lon="112.02190638483452">
        <ele>1104.34</ele>
        <time>2019-06-21T23:55:52.537000Z</time>
      </trkpt>
      <trkpt lat="37.8490741011113" lon="112.02232563535594">
        <ele>1101.06</ele>
        <time>2019-06-21T23:56:07.537000Z</time>
      </trkpt>
      <trkpt lat="37.84906091013239" lon="112.02273998606148">
        <ele>1099.86</ele>
        <time>2019-06-21T23:56:19.537000Z</time>
      </trkpt>
      <trkpt lat="37.84908040108059" lon="112.02319473978737">
        <ele>1100.05</ele>
        <time>2019-06-21T23:56:31.537000Z</time>
      </trkpt>
      <trkpt lat="37.84903579697719" lon="112.02361086141512">
        <ele>1106.16</ele>
        <time>2019-06-21T23:56:40.637000Z</time>
      </trkpt>
      <trkpt lat="37.84903422705059" lon="112.0236971663906">
        <ele>1104.68</ele>
        <time>2019-06-21T23:56:43.537000Z</time>
      </trkpt>
      <trkpt lat="37.849037765517764" lon="112.02403082492414">
        <ele>1106.36</ele>
        <time>2019-06-21T23:56:58.637000Z</time>
      </trkpt>
      <trkpt lat="37.84903021928107" lon="112.02426244619518">
        <ele>1103.79</ele>
        <time>2019-06-21T23:57:19.537000Z</time>
      </trkpt>
      <trkpt lat="37.849074232567226" lon="112.02451118122168">
        <ele>1105.38</ele>
        <time>2019-06-21T23:57:31.537000Z</time>
      </trkpt>
      <trkpt lat="37.849066188307084" lon="112.02465511160247">
        <ele>1106.53</ele>
        <time>2019-06-21T23:57:40.537000Z</time>
      </trkpt>
      <trkpt lat="37.84904195801014" lon="112.02501944561975">
        <ele>1102.54</ele>
        <time>2019-06-21T23:57:58.637000Z</time>
      </trkpt>
      <trkpt lat="37.849034395481624" lon="112.02508672104885">
        <ele>1102.72</ele>
        <time>2019-06-21T23:58:01.637000Z</time>
      </trkpt>
      <trkpt lat="37.84900450748474" lon="112.02516534083585">
        <ele>1104.68</ele>
        <time>2019-06-21T23:58:07.537000Z</time>
      </trkpt>
      <trkpt lat="37.848968668538234" lon="112.02540973106706">
        <ele>1107.1</ele>
        <time>2019-06-21T23:58:22.637000Z</time>
      </trkpt>
      <trkpt lat="37.848983081016385" lon="112.02546446319388">
        <ele>1105.24</ele>
        <time>2019-06-21T23:58:25.637000Z</time>
      </trkpt>
      <trkpt lat="37.848996003409276" lon="112.02565706605584">
        <ele>1107.77</ele>
        <time>2019-06-21T23:58:37.637000Z</time>
      </trkpt>
      <trkpt lat="37.848942932133625" lon="112.02587452529812">
        <ele>1109.69</ele>
        <time>2019-06-21T23:58:49.637000Z</time>
      </trkpt>
      <trkpt lat="37.848892217808505" lon="112.02618381035397">
        <ele>1104.47</ele>
        <time>2019-06-21T23:59:07.537000Z</time>
      </trkpt>
      <trkpt lat="37.84887561848451" lon="112.02625746071271">
        <ele>1103.28</ele>
        <time>2019-06-21T23:59:13.637000Z</time>
      </trkpt>
      <trkpt lat="37.848871579669556" lon="112.0264572631126">
        <ele>1101.24</ele>
        <time>2019-06-21T23:59:25.537000Z</time>
      </trkpt>
      <trkpt lat="37.848822055387636" lon="112.02651503331681">
        <ele>1098.69</ele>
        <time>2019-06-21T23:59:31.637000Z</time>
      </trkpt>
      <trkpt lat="37.84869813154942" lon="112.0265281433462">
        <ele>1093.46</ele>
        <time>2019-06-21T23:59:43.637000Z</time>
      </trkpt>
      <trkpt lat="37.84860456966337" lon="112.02651167365717">
        <ele>1092.37</ele>
        <time>2019-06-21T23:59:49.537000Z</time>
      </trkpt>
      <trkpt lat="37.84854476591607" lon="112.02651147360656">
        <ele>1092.67</ele>
        <time>2019-06-21T23:59:52.637000Z</time>
      </trkpt>
      <trkpt lat="37.84826549713392" lon="112.02651832776715">
        <ele>1096.08</ele>
        <time>2019-06-22T00:00:01.637000Z</time>
      </trkpt>
      <trkpt lat="37.8479901037863" lon="112.02648868279938">
        <ele>1093.97</ele>
        <time>2019-06-22T00:00:10.537000Z</time>
      </trkpt>
      <trkpt lat="37.84789803974452" lon="112.02649973041947">
        <ele>1093.45</ele>
        <time>2019-06-22T00:00:13.637000Z</time>
      </trkpt>
      <trkpt lat="37.84783539736618" lon="112.02654882193882">
        <ele>1095.97</ele>
        <time>2019-06-22T00:00:16.537000Z</time>
      </trkpt>
      <trkpt lat="37.8477279957503" lon="112.02675407026031">
        <ele>1104.05</ele>
        <time>2019-06-22T00:00:25.537000Z</time>
      </trkpt>
      <trkpt lat="37.84772675847827" lon="112.02684395893571">
        <ele>1104.48</ele>
        <time>2019-06-22T00:00:28.637000Z</time>
      </trkpt>
      <trkpt lat="37.84766601979451" lon="112.02692171492228">
        <ele>1104.47</ele>
        <time>2019-06-22T00:00:34.537000Z</time>
      </trkpt>
      <trkpt lat="37.847635583858434" lon="112.0270178343152">
        <ele>1104.71</ele>
        <time>2019-06-22T00:00:40.537000Z</time>
      </trkpt>
      <trkpt lat="37.84765326596629" lon="112.02710011054832">
        <ele>1104.99</ele>
        <time>2019-06-22T00:00:46.537000Z</time>
      </trkpt>
      <trkpt lat="37.84750645020347" lon="112.02733255848828">
        <ele>1109.12</ele>
        <time>2019-06-22T00:01:04.537000Z</time>
      </trkpt>
      <trkpt lat="37.847409842933786" lon="112.02768645091518">
        <ele>1109.88</ele>
        <time>2019-06-22T00:01:28.537000Z</time>
      </trkpt>
      <trkpt lat="37.84736156679317" lon="112.02791148724481">
        <ele>1108.16</ele>
        <time>2019-06-22T00:01:43.537000Z</time>
      </trkpt>
      <trkpt lat="37.84736858462253" lon="112.02809499481641">
        <ele>1106.65</ele>
        <time>2019-06-22T00:01:55.537000Z</time>
      </trkpt>
      <trkpt lat="37.84740744275204" lon="112.02827923244416">
        <ele>1102.48</ele>
        <time>2019-06-22T00:02:07.537000Z</time>
      </trkpt>
      <trkpt lat="37.84739568053289" lon="112.0283953165997">
        <ele>1095.56</ele>
        <time>2019-06-22T00:02:13.537000Z</time>
      </trkpt>
      <trkpt lat="37.8474158795366" lon="112.02858356557574">
        <ele>1096.18</ele>
        <time>2019-06-22T00:02:25.537000Z</time>
      </trkpt>
      <trkpt lat="37.847404004884844" lon="112.02868284642982">
        <ele>1102.7</ele>
        <time>2019-06-22T00:02:31.537000Z</time>
      </trkpt>
      <trkpt lat="37.847411847801766" lon="112.02876607379027">
        <ele>1098.48</ele>
        <time>2019-06-22T00:02:37.537000Z</time>
      </trkpt>
      <trkpt lat="37.84738787742352" lon="112.02884976662165">
        <ele>1097.23</ele>
        <time>2019-06-22T00:02:43.537000Z</time>
      </trkpt>
      <trkpt lat="37.84740971183864" lon="112.0291121067447">
        <ele>1098.88</ele>
        <time>2019-06-22T00:03:10.537000Z</time>
      </trkpt>
    </trkseg>
  </trk>
</gpx>