<?xml version="1.0" encoding="UTF-8"?>
<gpx xmlns="http://www.topografix.com/GPX/1/1" xmlns:gpxtpx="http://www.garmin.com/xmlschemas/TrackPointExtension/v1" xmlns:xsi="http://www.w3.org/2001/XMLSchema-instance" xsi:schemaLocation="http://www.topografix.com/GPX/1/1 http://www.topografix.com/GPX/1/1/gpx.xsd" version="1.1" creator="gpx.py -- https://github.com/tkrajina/gpxpy">
  <trk>
    <name>gpx from keep</name>
    <type>Run</type>
    <trkseg>
      <trkpt lat="37.847332955626236" lon="112.0292945095693">
        <ele>1136.9</ele>
        <time>2017-08-28T08:49:02.500000Z</time>
      </trkpt>
      <trkpt lat="37.847384619900616" lon="112.02871436077369">
        <ele>1131.0</ele>
        <time>2017-08-28T08:49:05.600000Z</time>
      </trkpt>
      <trkpt lat="37.84734451443367" lon="112.02837602216024">
        <ele>1129.8</ele>
        <time>2017-08-28T08:49:17.600000Z</time>
      </trkpt>
      <trkpt lat="37.84737604567412" lon="112.02814072191987">
        <ele>1130.9</ele>
        <time>2017-08-28T08:49:26.600000Z</time>
      </trkpt>
      <trkpt lat="37.847384450510646" lon="112.02782564302623">
        <ele>1131.09</ele>
        <time>2017-08-28T08:49:38.600000Z</time>
      </trkpt>
      <trkpt lat="37.8474441931318" lon="112.02769906474171">
        <ele>1130.8</ele>
        <time>2017-08-28T08:49:44.600000Z</time>
      </trkpt>
      <trkpt lat="37.8474628525204" lon="112.027617386566">
        <ele>1130.2</ele>
        <time>2017-08-28T08:49:47.600000Z</time>
      </trkpt>
      <trkpt lat="37.84749937126647" lon="112.02755409700636">
        <ele>1129.3</ele>
        <time>2017-08-28T08:49:50.600000Z</time>
      </trkpt>
      <trkpt lat="37.847542655526176" lon="112.02739236365755">
        <ele>1129.2</ele>
        <time>2017-08-28T08:49:56.600000Z</time>
      </trkpt>
      <trkpt lat="37.84757757751766" lon="112.02731717510513">
        <ele>1126.59</ele>
        <time>2017-08-28T08:49:59.600000Z</time>
      </trkpt>
      <trkpt lat="37.84759753840014" lon="112.02715220051354">
        <ele>1126.2</ele>
        <time>2017-08-28T08:50:05.600000Z</time>
      </trkpt>
      <trkpt lat="37.847724246945454" lon="112.02683576577137">
        <ele>1125.7</ele>
        <time>2017-08-28T08:50:17.600000Z</time>
      </trkpt>
      <trkpt lat="37.84783747645066" lon="112.02669566322561">
        <ele>1125.7</ele>
        <time>2017-08-28T08:50:23.600000Z</time>
      </trkpt>
      <trkpt lat="37.847845849986626" lon="112.02660560539312">
        <ele>1124.2</ele>
        <time>2017-08-28T08:50:26.600000Z</time>
      </trkpt>
      <trkpt lat="37.847889205332095" lon="112.02652230461841">
        <ele>1123.7</ele>
        <time>2017-08-28T08:50:29.600000Z</time>
      </trkpt>
      <trkpt lat="37.84804909030157" lon="112.02649064396279">
        <ele>1124.2</ele>
        <time>2017-08-28T08:50:36.600000Z</time>
      </trkpt>
      <trkpt lat="37.848375860350956" lon="112.02655226494511">
        <ele>1123.7</ele>
        <time>2017-08-28T08:50:52.600000Z</time>
      </trkpt>
      <trkpt lat="37.848519174202885" lon="112.02652871944353">
        <ele>1123.7</ele>
        <time>2017-08-28T08:50:58.600000Z</time>
      </trkpt>
      <trkpt lat="37.84869404850942" lon="112.02657548454532">
        <ele>1121.2</ele>
        <time>2017-08-28T08:51:04.600000Z</time>
      </trkpt>
      <trkpt lat="37.84882068187572" lon="112.02639373403294">
        <ele>1119.9</ele>
        <time>2017-08-28T08:51:13.600000Z</time>
      </trkpt>
      <trkpt lat="37.84886893242498" lon="112.02620225830583">
        <ele>1119.4</ele>
        <time>2017-08-28T08:51:22.600000Z</time>
      </trkpt>
      <trkpt lat="37.848934182929504" lon="112.0261503266228">
        <ele>1119.4</ele>
        <time>2017-08-28T08:51:25.600000Z</time>
      </trkpt>
      <trkpt lat="37.848980790787344" lon="112.02606864932677">
        <ele>1119.3</ele>
        <time>2017-08-28T08:51:28.600000Z</time>
      </trkpt>
      <trkpt lat="37.84902063679194" lon="112.02577197800223">
        <ele>1118.9</ele>
        <time>2017-08-28T08:51:37.600000Z</time>
      </trkpt>
      <trkpt lat="37.84900567540793" lon="112.02568354830653">
        <ele>1118.4</ele>
        <time>2017-08-28T08:51:40.600000Z</time>
      </trkpt>
      <trkpt lat="37.84901400374332" lon="112.0254052737065">
        <ele>1117.5</ele>
        <time>2017-08-28T08:51:49.600000Z</time>
      </trkpt>
      <trkpt lat="37.84903407305261" lon="112.02530521239912">
        <ele>1117.3</ele>
        <time>2017-08-28T08:51:52.600000Z</time>
      </trkpt>
      <trkpt lat="37.849017269884804" lon="112.02519542043217">
        <ele>1117.2</ele>
        <time>2017-08-28T08:51:55.600000Z</time>
      </trkpt>
      <trkpt lat="37.84903407654082" lon="112.0249706005357">
        <ele>1117.2</ele>
        <time>2017-08-28T08:52:01.600000Z</time>
      </trkpt>
      <trkpt lat="37.84911016505178" lon="112.02485940485938">
        <ele>1117.4</ele>
        <time>2017-08-28T08:52:04.600000Z</time>
      </trkpt>
      <trkpt lat="37.849105113916444" lon="112.02473408564205">
        <ele>1117.59</ele>
        <time>2017-08-28T08:52:07.600000Z</time>
      </trkpt>
      <trkpt lat="37.849027161067355" lon="112.02453341832002">
        <ele>1118.9</ele>
        <time>2017-08-28T08:52:13.600000Z</time>
      </trkpt>
      <trkpt lat="37.84902223235251" lon="112.0244482359751">
        <ele>1118.9</ele>
        <time>2017-08-28T08:52:16.600000Z</time>
      </trkpt>
      <trkpt lat="37.848985527979536" lon="112.02437522661923">
        <ele>1118.7</ele>
        <time>2017-08-28T08:52:19.600000Z</time>
      </trkpt>
      <trkpt lat="37.84897895373982" lon="112.02429680540259">
        <ele>1118.9</ele>
        <time>2017-08-28T08:52:22.600000Z</time>
      </trkpt>
      <trkpt lat="37.84894719229074" lon="112.02420162138503">
        <ele>1119.2</ele>
        <time>2017-08-28T08:52:25.600000Z</time>
      </trkpt>
      <trkpt lat="37.848955375462275" lon="112.0237784165385">
        <ele>1121.5</ele>
        <time>2017-08-28T08:52:37.600000Z</time>
      </trkpt>
      <trkpt lat="37.84898039463608" lon="112.0236551040544">
        <ele>1122.3</ele>
        <time>2017-08-28T08:52:40.600000Z</time>
      </trkpt>
      <trkpt lat="37.84905359289353" lon="112.02347337688046">
        <ele>1125.0</ele>
        <time>2017-08-28T08:52:46.600000Z</time>
      </trkpt>
      <trkpt lat="37.849076807479086" lon="112.02311318526702">
        <ele>1127.2</ele>
        <time>2017-08-28T08:52:58.600000Z</time>
      </trkpt>
      <trkpt lat="37.84908048120599" lon="112.02275651521221">
        <ele>1125.4</ele>
        <time>2017-08-28T08:53:07.600000Z</time>
      </trkpt>
      <trkpt lat="37.84907676026297" lon="112.02232629981424">
        <ele>1123.59</ele>
        <time>2017-08-28T08:53:19.600000Z</time>
      </trkpt>
      <trkpt lat="37.849091903477195" lon="112.0221445868488">
        <ele>1123.0</ele>
        <time>2017-08-28T08:53:25.600000Z</time>
      </trkpt>
      <trkpt lat="37.849080355894266" lon="112.0217014009524">
        <ele>1123.4</ele>
        <time>2017-08-28T08:53:37.600000Z</time>
      </trkpt>
      <trkpt lat="37.84909363495597" lon="112.02150779400881">
        <ele>1122.7</ele>
        <time>2017-08-28T08:53:43.600000Z</time>
      </trkpt>
      <trkpt lat="37.84908198001684" lon="112.02130472726446">
        <ele>1122.8</ele>
        <time>2017-08-28T08:53:49.600000Z</time>
      </trkpt>
      <trkpt lat="37.84909341811024" lon="112.02099133808042">
        <ele>1122.2</ele>
        <time>2017-08-28T08:53:58.600000Z</time>
      </trkpt>
      <trkpt lat="37.84913496710381" lon="112.02077934498513">
        <ele>1122.2</ele>
        <time>2017-08-28T08:54:04.600000Z</time>
      </trkpt>
      <trkpt lat="37.849073420144585" lon="112.02036944014789">
        <ele>1119.4</ele>
        <time>2017-08-28T08:54:16.600000Z</time>
      </trkpt>
      <trkpt lat="37.84906661834555" lon="112.02027777917233">
        <ele>1119.3</ele>
        <time>2017-08-28T08:54:19.600000Z</time>
      </trkpt>
      <trkpt lat="37.84914825022658" lon="112.02009282417087">
        <ele>1118.9</ele>
        <time>2017-08-28T08:54:25.600000Z</time>
      </trkpt>
      <trkpt lat="37.849233199804985" lon="112.01968939872773">
        <ele>1116.9</ele>
        <time>2017-08-28T08:54:37.600000Z</time>
      </trkpt>
      <trkpt lat="37.84924647765666" lon="112.01949931761523">
        <ele>1115.59</ele>
        <time>2017-08-28T08:54:46.600000Z</time>
      </trkpt>
      <trkpt lat="37.84923829776586" lon="112.0194160408191">
        <ele>1115.09</ele>
        <time>2017-08-28T08:54:49.600000Z</time>
      </trkpt>
      <trkpt lat="37.84923653030527" lon="112.01897775421907">
        <ele>1114.7</ele>
        <time>2017-08-28T08:55:01.600000Z</time>
      </trkpt>
      <trkpt lat="37.849224838562655" lon="112.01888934180906">
        <ele>1114.9</ele>
        <time>2017-08-28T08:55:04.600000Z</time>
      </trkpt>
      <trkpt lat="37.84923957531913" lon="112.01846917444915">
        <ele>1117.2</ele>
        <time>2017-08-28T08:55:16.600000Z</time>
      </trkpt>
      <trkpt lat="37.849236471242115" lon="112.01822070066879">
        <ele>1119.5</ele>
        <time>2017-08-28T08:55:25.600000Z</time>
      </trkpt>
      <trkpt lat="37.84928641985056" lon="112.01821096123328">
        <ele>1116.09</ele>
        <time>2017-08-28T08:55:28.600000Z</time>
      </trkpt>
      <trkpt lat="37.84933473103553" lon="112.0181076728824">
        <ele>1113.4</ele>
        <time>2017-08-28T08:55:34.600000Z</time>
      </trkpt>
      <trkpt lat="37.84934142494614" lon="112.0180425122802">
        <ele>1112.3</ele>
        <time>2017-08-28T08:55:37.600000Z</time>
      </trkpt>
      <trkpt lat="37.84930472188432" lon="112.01787596763924">
        <ele>1113.4</ele>
        <time>2017-08-28T08:55:46.600000Z</time>
      </trkpt>
      <trkpt lat="37.84931969137034" lon="112.01747257399545">
        <ele>1115.0</ele>
        <time>2017-08-28T08:56:04.600000Z</time>
      </trkpt>
      <trkpt lat="37.84930464414304" lon="112.01732414376254">
        <ele>1114.0</ele>
        <time>2017-08-28T08:56:10.600000Z</time>
      </trkpt>
      <trkpt lat="37.84935962368765" lon="112.01687722214633">
        <ele>1116.09</ele>
        <time>2017-08-28T08:56:25.600000Z</time>
      </trkpt>
      <trkpt lat="37.84939955170554" lon="112.01647735014937">
        <ele>1117.0</ele>
        <time>2017-08-28T08:56:37.600000Z</time>
      </trkpt>
      <trkpt lat="37.849442995972154" lon="112.01608234803541">
        <ele>1120.59</ele>
        <time>2017-08-28T08:56:49.600000Z</time>
      </trkpt>
      <trkpt lat="37.849524426793586" lon="112.01568734505652">
        <ele>1129.59</ele>
        <time>2017-08-28T08:57:01.600000Z</time>
      </trkpt>
      <trkpt lat="37.84958600301733" lon="112.01531046182983">
        <ele>1132.2</ele>
        <time>2017-08-28T08:57:13.600000Z</time>
      </trkpt>
      <trkpt lat="37.849602905224245" lon="112.01509201388542">
        <ele>1134.09</ele>
        <time>2017-08-28T08:57:19.600000Z</time>
      </trkpt>
      <trkpt lat="37.84958803540963" lon="112.01497873782296">
        <ele>1135.3</ele>
        <time>2017-08-28T08:57:22.600000Z</time>
      </trkpt>
      <trkpt lat="37.84961936732354" lon="112.01455374196442">
        <ele>1137.09</ele>
        <time>2017-08-28T08:57:34.600000Z</time>
      </trkpt>
      <trkpt lat="37.849644143501806" lon="112.01414524208123">
        <ele>1136.9</ele>
        <time>2017-08-28T08:57:46.600000Z</time>
      </trkpt>
      <trkpt lat="37.849677671451175" lon="112.01371349509921">
        <ele>1136.9</ele>
        <time>2017-08-28T08:57:58.600000Z</time>
      </trkpt>
      <trkpt lat="37.84970443375573" lon="112.0132768867309">
        <ele>1136.4</ele>
        <time>2017-08-28T08:58:10.600000Z</time>
      </trkpt>
      <trkpt lat="37.84976433835177" lon="112.01282676137427">
        <ele>1135.2</ele>
        <time>2017-08-28T08:58:22.600000Z</time>
      </trkpt>
      <trkpt lat="37.8497843876036" lon="112.01246180132229">
        <ele>1135.0</ele>
        <time>2017-08-28T08:58:31.600000Z</time>
      </trkpt>
      <trkpt lat="37.84977915822593" lon="112.01211360780228">
        <ele>1133.9</ele>
        <time>2017-08-28T08:58:40.600000Z</time>
      </trkpt>
      <trkpt lat="37.849834342998044" lon="112.01170323259808">
        <ele>1132.09</ele>
        <time>2017-08-28T08:58:52.600000Z</time>
      </trkpt>
      <trkpt lat="37.8498640498603" lon="112.01128502406831">
        <ele>1131.8</ele>
        <time>2017-08-28T08:59:04.600000Z</time>
      </trkpt>
      <trkpt lat="37.849899033278874" lon="112.01101171512595">
        <ele>1131.2</ele>
        <time>2017-08-28T08:59:13.600000Z</time>
      </trkpt>
      <trkpt lat="37.84988417708157" lon="112.0108035628736">
        <ele>1133.3</ele>
        <time>2017-08-28T08:59:19.600000Z</time>
      </trkpt>
      <trkpt lat="37.849887282617125" lon="112.01039158206699">
        <ele>1140.3</ele>
        <time>2017-08-28T08:59:31.600000Z</time>
      </trkpt>
      <trkpt lat="37.84989895813562" lon="112.01020343314636">
        <ele>1142.9</ele>
        <time>2017-08-28T08:59:37.600000Z</time>
      </trkpt>
      <trkpt lat="37.84986577209346" lon="112.00986309713383">
        <ele>1146.7</ele>
        <time>2017-08-28T08:59:46.600000Z</time>
      </trkpt>
      <trkpt lat="37.84983070674139" lon="112.00951654593216">
        <ele>1150.59</ele>
        <time>2017-08-28T08:59:55.600000Z</time>
      </trkpt>
      <trkpt lat="37.84977219831072" lon="112.00930002442718">
        <ele>1152.7</ele>
        <time>2017-08-28T09:00:01.600000Z</time>
      </trkpt>
      <trkpt lat="37.84964730915309" lon="112.00905296534786">
        <ele>1152.4</ele>
        <time>2017-08-28T09:00:10.600000Z</time>
      </trkpt>
      <trkpt lat="37.84959245279385" lon="112.00888645433096">
        <ele>1144.3</ele>
        <time>2017-08-28T09:00:16.600000Z</time>
      </trkpt>
      <trkpt lat="37.84949574130844" lon="112.00874481817733">
        <ele>1142.9</ele>
        <time>2017-08-28T09:00:22.600000Z</time>
      </trkpt>
      <trkpt lat="37.849460746229546" lon="112.00865156212018">
        <ele>1142.59</ele>
        <time>2017-08-28T09:00:25.600000Z</time>
      </trkpt>
      <trkpt lat="37.84925719765008" lon="112.00830638960979">
        <ele>1143.59</ele>
        <time>2017-08-28T09:00:37.600000Z</time>
      </trkpt>
      <trkpt lat="37.84910039371809" lon="112.00802662999705">
        <ele>1138.4</ele>
        <time>2017-08-28T09:00:48.500000Z</time>
      </trkpt>
      <trkpt lat="37.84905567230189" lon="112.00791986035252">
        <ele>1135.9</ele>
        <time>2017-08-28T09:00:51.600000Z</time>
      </trkpt>
      <trkpt lat="37.848842265779034" lon="112.00760631979922">
        <ele>1131.59</ele>
        <time>2017-08-28T09:01:03.600000Z</time>
      </trkpt>
      <trkpt lat="37.84862560389807" lon="112.00729305143196">
        <ele>1132.09</ele>
        <time>2017-08-28T09:01:15.600000Z</time>
      </trkpt>
      <trkpt lat="37.848513982700034" lon="112.00714817680311">
        <ele>1131.9</ele>
        <time>2017-08-28T09:01:21.600000Z</time>
      </trkpt>
      <trkpt lat="37.84831379718954" lon="112.00695141307173">
        <ele>1131.2</ele>
        <time>2017-08-28T09:01:30.600000Z</time>
      </trkpt>
      <trkpt lat="37.84823879262028" lon="112.00690141426772">
        <ele>1131.3</ele>
        <time>2017-08-28T09:01:33.600000Z</time>
      </trkpt>
      <trkpt lat="37.847992319105565" lon="112.00685143595643">
        <ele>1132.7</ele>
        <time>2017-08-28T09:01:42.600000Z</time>
      </trkpt>
      <trkpt lat="37.84767065291903" lon="112.00681471192459">
        <ele>1134.4</ele>
        <time>2017-08-28T09:01:54.600000Z</time>
      </trkpt>
      <trkpt lat="37.84749896176099" lon="112.00679824339247">
        <ele>1139.5</ele>
        <time>2017-08-28T09:02:00.600000Z</time>
      </trkpt>
      <trkpt lat="37.84720564648729" lon="112.00671637398976">
        <ele>1140.7</ele>
        <time>2017-08-28T09:02:12.600000Z</time>
      </trkpt>
      <trkpt lat="37.8469523179882" lon="112.00659962979121">
        <ele>1135.7</ele>
        <time>2017-08-28T09:02:24.600000Z</time>
      </trkpt>
      <trkpt lat="37.84682054516109" lon="112.00657126286761">
        <ele>1135.9</ele>
        <time>2017-08-28T09:02:30.600000Z</time>
      </trkpt>
      <trkpt lat="37.84677206416083" lon="112.0065431563304">
        <ele>1132.4</ele>
        <time>2017-08-28T09:02:33.600000Z</time>
      </trkpt>
      <trkpt lat="37.846555647841825" lon="112.0065129073507">
        <ele>1128.7</ele>
        <time>2017-08-28T09:02:42.600000Z</time>
      </trkpt>
      <trkpt lat="37.84628047769158" lon="112.00653321347146">
        <ele>1125.3</ele>
        <time>2017-08-28T09:02:51.600000Z</time>
      </trkpt>
      <trkpt lat="37.845985361025306" lon="112.00650973164647">
        <ele>1123.3</ele>
        <time>2017-08-28T09:03:00.600000Z</time>
      </trkpt>
      <trkpt lat="37.845620671292075" lon="112.00643462883635">
        <ele>1129.2</ele>
        <time>2017-08-28T09:03:12.600000Z</time>
      </trkpt>
      <trkpt lat="37.845438981391766" lon="112.0064049163772">
        <ele>1133.2</ele>
        <time>2017-08-28T09:03:18.600000Z</time>
      </trkpt>
      <trkpt lat="37.84514569184088" lon="112.0063146678019">
        <ele>1141.09</ele>
        <time>2017-08-28T09:03:27.600000Z</time>
      </trkpt>
      <trkpt lat="37.84487537841882" lon="112.00625306941359">
        <ele>1144.8</ele>
        <time>2017-08-28T09:03:36.600000Z</time>
      </trkpt>
      <trkpt lat="37.844712158780425" lon="112.0062163267754">
        <ele>1148.3</ele>
        <time>2017-08-28T09:03:42.600000Z</time>
      </trkpt>
      <trkpt lat="37.844557175655595" lon="112.00623797002271">
        <ele>1149.4</ele>
        <time>2017-08-28T09:03:48.600000Z</time>
      </trkpt>
      <trkpt lat="37.844325548223914" lon="112.00630476414796">
        <ele>1154.7</ele>
        <time>2017-08-28T09:03:57.600000Z</time>
      </trkpt>
      <trkpt lat="37.84413043611632" lon="112.00631803260065">
        <ele>1162.59</ele>
        <time>2017-08-28T09:04:03.600000Z</time>
      </trkpt>
      <trkpt lat="37.84387868264365" lon="112.00640131812325">
        <ele>1168.8</ele>
        <time>2017-08-28T09:04:12.600000Z</time>
      </trkpt>
      <trkpt lat="37.84357714322243" lon="112.00662138694481">
        <ele>1169.59</ele>
        <time>2017-08-28T09:04:24.600000Z</time>
      </trkpt>
      <trkpt lat="37.84331052385401" lon="112.0068682131764">
        <ele>1173.5</ele>
        <time>2017-08-28T09:04:36.600000Z</time>
      </trkpt>
      <trkpt lat="37.843172109786295" lon="112.00697473270235">
        <ele>1175.2</ele>
        <time>2017-08-28T09:04:42.600000Z</time>
      </trkpt>
      <trkpt lat="37.84285553276189" lon="112.00714290500594">
        <ele>1177.5</ele>
        <time>2017-08-28T09:04:54.600000Z</time>
      </trkpt>
      <trkpt lat="37.84268724436424" lon="112.00725970044144">
        <ele>1175.3</ele>
        <time>2017-08-28T09:05:03.600000Z</time>
      </trkpt>
      <trkpt lat="37.84241390434763" lon="112.00748625620352">
        <ele>1174.59</ele>
        <time>2017-08-28T09:05:15.600000Z</time>
      </trkpt>
      <trkpt lat="37.84213562606961" lon="112.00773146509835">
        <ele>1172.4</ele>
        <time>2017-08-28T09:05:27.600000Z</time>
      </trkpt>
      <trkpt lat="37.84186385063281" lon="112.00788828070172">
        <ele>1172.3</ele>
        <time>2017-08-28T09:05:39.600000Z</time>
      </trkpt>
      <trkpt lat="37.84157722392018" lon="112.008021310586">
        <ele>1173.9</ele>
        <time>2017-08-28T09:05:52.600000Z</time>
      </trkpt>
      <trkpt lat="37.84132413994908" lon="112.00809648887589">
        <ele>1173.5</ele>
        <time>2017-08-28T09:06:01.600000Z</time>
      </trkpt>
      <trkpt lat="37.84112234419248" lon="112.00807650949892">
        <ele>1171.9</ele>
        <time>2017-08-28T09:06:10.600000Z</time>
      </trkpt>
      <trkpt lat="37.84102204338858" lon="112.00804813819431">
        <ele>1166.9</ele>
        <time>2017-08-28T09:06:16.600000Z</time>
      </trkpt>
      <trkpt lat="37.840797393555995" lon="112.00804978690186">
        <ele>1164.5</ele>
        <time>2017-08-28T09:06:25.600000Z</time>
      </trkpt>
      <trkpt lat="37.84066395848571" lon="112.00803304318211">
        <ele>1160.2</ele>
        <time>2017-08-28T09:06:31.600000Z</time>
      </trkpt>
      <trkpt lat="37.8403472456333" lon="112.00806470804363">
        <ele>1151.09</ele>
        <time>2017-08-28T09:06:43.600000Z</time>
      </trkpt>
      <trkpt lat="37.84002744919284" lon="112.0081298926116">
        <ele>1144.3</ele>
        <time>2017-08-28T09:06:55.600000Z</time>
      </trkpt>
      <trkpt lat="37.83968406408692" lon="112.00818994403073">
        <ele>1140.5</ele>
        <time>2017-08-28T09:07:07.600000Z</time>
      </trkpt>
      <trkpt lat="37.839618915233025" lon="112.00820157545603">
        <ele>1146.3</ele>
        <time>2017-08-28T09:07:22.600000Z</time>
      </trkpt>
      <trkpt lat="37.839828712441566" lon="112.00817641089948">
        <ele>1151.9</ele>
        <time>2017-08-28T09:07:31.600000Z</time>
      </trkpt>
      <trkpt lat="37.840048734740535" lon="112.0082715364356">
        <ele>1152.8</ele>
        <time>2017-08-28T09:07:43.600000Z</time>
      </trkpt>
      <trkpt lat="37.840300669222344" lon="112.00830962119103">
        <ele>1151.9</ele>
        <time>2017-08-28T09:07:52.600000Z</time>
      </trkpt>
      <trkpt lat="37.84049884814015" lon="112.00826823890866">
        <ele>1154.3</ele>
        <time>2017-08-28T09:07:58.600000Z</time>
      </trkpt>
      <trkpt lat="37.840648898153304" lon="112.00835472274784">
        <ele>1154.0</ele>
        <time>2017-08-28T09:08:07.800000Z</time>
      </trkpt>
      <trkpt lat="37.84100405786882" lon="112.00834981463667">
        <ele>1152.2</ele>
        <time>2017-08-28T09:08:20.600000Z</time>
      </trkpt>
      <trkpt lat="37.84129066008142" lon="112.00831653131421">
        <ele>1152.3</ele>
        <time>2017-08-28T09:08:29.600000Z</time>
      </trkpt>
      <trkpt lat="37.84155220327345" lon="112.00822486237783">
        <ele>1152.3</ele>
        <time>2017-08-28T09:08:38.600000Z</time>
      </trkpt>
      <trkpt lat="37.84176048090529" lon="112.00816320514643">
        <ele>1155.4</ele>
        <time>2017-08-28T09:08:44.600000Z</time>
      </trkpt>
      <trkpt lat="37.84206212479776" lon="112.0079980054909">
        <ele>1159.2</ele>
        <time>2017-08-28T09:08:53.600000Z</time>
      </trkpt>
      <trkpt lat="37.84223706590175" lon="112.00792472885767">
        <ele>1159.9</ele>
        <time>2017-08-28T09:08:59.600000Z</time>
      </trkpt>
      <trkpt lat="37.84237212479416" lon="112.00775982001244">
        <ele>1161.5</ele>
        <time>2017-08-28T09:09:05.600000Z</time>
      </trkpt>
      <trkpt lat="37.84245552539639" lon="112.00772331746454">
        <ele>1161.7</ele>
        <time>2017-08-28T09:09:08.600000Z</time>
      </trkpt>
      <trkpt lat="37.84253716637251" lon="112.00763978030132">
        <ele>1162.09</ele>
        <time>2017-08-28T09:09:11.600000Z</time>
      </trkpt>
      <trkpt lat="37.84270405275618" lon="112.00753812198721">
        <ele>1162.5</ele>
        <time>2017-08-28T09:09:17.600000Z</time>
      </trkpt>
      <trkpt lat="37.842937149564335" lon="112.00734157568786">
        <ele>1161.4</ele>
        <time>2017-08-28T09:09:26.600000Z</time>
      </trkpt>
      <trkpt lat="37.84314567730216" lon="112.00710475625806">
        <ele>1158.59</ele>
        <time>2017-08-28T09:09:35.600000Z</time>
      </trkpt>
      <trkpt lat="37.84339555782334" lon="112.0069211842081">
        <ele>1155.0</ele>
        <time>2017-08-28T09:09:44.600000Z</time>
      </trkpt>
      <trkpt lat="37.8436423384669" lon="112.00677653788634">
        <ele>1150.3</ele>
        <time>2017-08-28T09:09:56.600000Z</time>
      </trkpt>
      <trkpt lat="37.84386539941111" lon="112.00657972467427">
        <ele>1149.09</ele>
        <time>2017-08-28T09:10:05.600000Z</time>
      </trkpt>
      <trkpt lat="37.84411716981711" lon="112.00639966781962">
        <ele>1152.5</ele>
        <time>2017-08-28T09:10:14.600000Z</time>
      </trkpt>
      <trkpt lat="37.84437891945977" lon="112.00623961313843">
        <ele>1151.9</ele>
        <time>2017-08-28T09:10:23.600000Z</time>
      </trkpt>
      <trkpt lat="37.844467219713664" lon="112.00619797494073">
        <ele>1150.9</ele>
        <time>2017-08-28T09:10:26.600000Z</time>
      </trkpt>
      <trkpt lat="37.84480531566033" lon="112.00627470254453">
        <ele>1150.3</ele>
        <time>2017-08-28T09:10:38.600000Z</time>
      </trkpt>
      <trkpt lat="37.844997162451335" lon="112.00626467820558">
        <ele>1148.9</ele>
        <time>2017-08-28T09:10:44.600000Z</time>
      </trkpt>
      <trkpt lat="37.84534220386742" lon="112.0063778969035">
        <ele>1148.9</ele>
        <time>2017-08-28T09:10:56.600000Z</time>
      </trkpt>
      <trkpt lat="37.84567384170836" lon="112.0065278796162">
        <ele>1147.4</ele>
        <time>2017-08-28T09:11:08.600000Z</time>
      </trkpt>
      <trkpt lat="37.845805666728" lon="112.0066297710892">
        <ele>1144.09</ele>
        <time>2017-08-28T09:11:14.600000Z</time>
      </trkpt>
      <trkpt lat="37.84607869850576" lon="112.00668974760147">
        <ele>1142.4</ele>
        <time>2017-08-28T09:11:23.600000Z</time>
      </trkpt>
      <trkpt lat="37.846458895070754" lon="112.00665969770287">
        <ele>1144.7</ele>
        <time>2017-08-28T09:11:35.600000Z</time>
      </trkpt>
      <trkpt lat="37.84678389556563" lon="112.00666993075926">
        <ele>1144.59</ele>
        <time>2017-08-28T09:11:44.600000Z</time>
      </trkpt>
      <trkpt lat="37.84706570447691" lon="112.00669800951262">
        <ele>1144.09</ele>
        <time>2017-08-28T09:11:53.600000Z</time>
      </trkpt>
      <trkpt lat="37.847285677754854" lon="112.0067182566222">
        <ele>1143.09</ele>
        <time>2017-08-28T09:11:59.600000Z</time>
      </trkpt>
      <trkpt lat="37.84756549827047" lon="112.00677634021149">
        <ele>1142.09</ele>
        <time>2017-08-28T09:12:08.600000Z</time>
      </trkpt>
      <trkpt lat="37.84789397076808" lon="112.00689631947795">
        <ele>1135.09</ele>
        <time>2017-08-28T09:12:23.600000Z</time>
      </trkpt>
      <trkpt lat="37.84809737363111" lon="112.00701469199518">
        <ele>1135.4</ele>
        <time>2017-08-28T09:12:29.600000Z</time>
      </trkpt>
      <trkpt lat="37.84833213373829" lon="112.0072630816451">
        <ele>1134.4</ele>
        <time>2017-08-28T09:12:38.600000Z</time>
      </trkpt>
      <trkpt lat="37.84850559412474" lon="112.00741470699455">
        <ele>1136.4</ele>
        <time>2017-08-28T09:12:44.600000Z</time>
      </trkpt>
      <trkpt lat="37.84872238952566" lon="112.0076831035805">
        <ele>1136.9</ele>
        <time>2017-08-28T09:12:53.600000Z</time>
      </trkpt>
      <trkpt lat="37.84893725699137" lon="112.00796150319339">
        <ele>1140.4</ele>
        <time>2017-08-28T09:13:02.600000Z</time>
      </trkpt>
      <trkpt lat="37.849145589136754" lon="112.0082482846281">
        <ele>1144.4</ele>
        <time>2017-08-28T09:13:11.600000Z</time>
      </trkpt>
      <trkpt lat="37.84926584468996" lon="112.00840992038924">
        <ele>1146.9</ele>
        <time>2017-08-28T09:13:17.600000Z</time>
      </trkpt>
      <trkpt lat="37.84931898781063" lon="112.00851317570871">
        <ele>1148.4</ele>
        <time>2017-08-28T09:13:20.600000Z</time>
      </trkpt>
      <trkpt lat="37.84950543429924" lon="112.00876995675988">
        <ele>1146.3</ele>
        <time>2017-08-28T09:13:29.600000Z</time>
      </trkpt>
      <trkpt lat="37.84970214844807" lon="112.00904133499283">
        <ele>1142.59</ele>
        <time>2017-08-28T09:13:38.600000Z</time>
      </trkpt>
      <trkpt lat="37.84981739513125" lon="112.009338134474">
        <ele>1139.3</ele>
        <time>2017-08-28T09:13:47.600000Z</time>
      </trkpt>
      <trkpt lat="37.849855736340835" lon="112.00976983634233">
        <ele>1138.8</ele>
        <time>2017-08-28T09:13:59.600000Z</time>
      </trkpt>
      <trkpt lat="37.849830839795835" lon="112.0102099291201">
        <ele>1138.4</ele>
        <time>2017-08-28T09:14:11.600000Z</time>
      </trkpt>
      <trkpt lat="37.849839014519596" lon="112.01056811188231">
        <ele>1139.3</ele>
        <time>2017-08-28T09:14:20.600000Z</time>
      </trkpt>
      <trkpt lat="37.849834220247565" lon="112.01090845674742">
        <ele>1139.7</ele>
        <time>2017-08-28T09:14:29.600000Z</time>
      </trkpt>
      <trkpt lat="37.849794099495305" lon="112.01126854219126">
        <ele>1141.5</ele>
        <time>2017-08-28T09:14:38.600000Z</time>
      </trkpt>
      <trkpt lat="37.84975270643597" lon="112.01169351033545">
        <ele>1139.7</ele>
        <time>2017-08-28T09:14:50.600000Z</time>
      </trkpt>
      <trkpt lat="37.849717744821994" lon="112.01205360055833">
        <ele>1138.59</ele>
        <time>2017-08-28T09:14:59.600000Z</time>
      </trkpt>
      <trkpt lat="37.84970082168426" lon="112.01218201225768">
        <ele>1138.4</ele>
        <time>2017-08-28T09:15:02.600000Z</time>
      </trkpt>
      <trkpt lat="37.84970080481332" lon="112.0125618364812">
        <ele>1137.59</ele>
        <time>2017-08-28T09:15:11.600000Z</time>
      </trkpt>
      <trkpt lat="37.849700862162265" lon="112.01291679227072">
        <ele>1138.3</ele>
        <time>2017-08-28T09:15:20.600000Z</time>
      </trkpt>
      <trkpt lat="37.849664387795755" lon="112.01333339314071">
        <ele>1137.5</ele>
        <time>2017-08-28T09:15:32.600000Z</time>
      </trkpt>
      <trkpt lat="37.84963607820119" lon="112.01374215665484">
        <ele>1136.4</ele>
        <time>2017-08-28T09:15:44.600000Z</time>
      </trkpt>
      <trkpt lat="37.84960929727896" lon="112.01409198782127">
        <ele>1137.3</ele>
        <time>2017-08-28T09:15:53.600000Z</time>
      </trkpt>
      <trkpt lat="37.8495661862267" lon="112.01446047769734">
        <ele>1138.9</ele>
        <time>2017-08-28T09:16:02.600000Z</time>
      </trkpt>
      <trkpt lat="37.849569429318784" lon="112.0148438343569">
        <ele>1139.59</ele>
        <time>2017-08-28T09:16:11.600000Z</time>
      </trkpt>
      <trkpt lat="37.84954780510176" lon="112.01529046017168">
        <ele>1139.2</ele>
        <time>2017-08-28T09:16:23.600000Z</time>
      </trkpt>
      <trkpt lat="37.84949617681352" lon="112.01560380824294">
        <ele>1140.09</ele>
        <time>2017-08-28T09:16:32.600000Z</time>
      </trkpt>
      <trkpt lat="37.84944764553584" lon="112.01597366314549">
        <ele>1138.7</ele>
        <time>2017-08-28T09:16:44.600000Z</time>
      </trkpt>
      <trkpt lat="37.849377792851506" lon="112.01640057003935">
        <ele>1139.8</ele>
        <time>2017-08-28T09:16:59.600000Z</time>
      </trkpt>
      <trkpt lat="37.84934460886834" lon="112.01681395869164">
        <ele>1136.9</ele>
        <time>2017-08-28T09:17:11.600000Z</time>
      </trkpt>
      <trkpt lat="37.849328078721" lon="112.01699916051345">
        <ele>1135.9</ele>
        <time>2017-08-28T09:17:17.600000Z</time>
      </trkpt>
      <trkpt lat="37.849356278992644" lon="112.01662064739925">
        <ele>1133.5</ele>
        <time>2017-08-28T09:17:31.600000Z</time>
      </trkpt>
      <trkpt lat="37.84939794333362" lon="112.01627890516009">
        <ele>1130.9</ele>
        <time>2017-08-28T09:17:40.600000Z</time>
      </trkpt>
      <trkpt lat="37.84946296024565" lon="112.01583550824391">
        <ele>1131.2</ele>
        <time>2017-08-28T09:17:52.600000Z</time>
      </trkpt>
      <trkpt lat="37.849517637765096" lon="112.01540374242889">
        <ele>1131.3</ele>
        <time>2017-08-28T09:18:04.600000Z</time>
      </trkpt>
      <trkpt lat="37.84950439982147" lon="112.01528884324156">
        <ele>1131.0</ele>
        <time>2017-08-28T09:18:07.600000Z</time>
      </trkpt>
      <trkpt lat="37.84952439611984" lon="112.01493711117503">
        <ele>1131.7</ele>
        <time>2017-08-28T09:18:16.600000Z</time>
      </trkpt>
      <trkpt lat="37.8495793565023" lon="112.0145037320425">
        <ele>1135.09</ele>
        <time>2017-08-28T09:18:28.600000Z</time>
      </trkpt>
      <trkpt lat="37.84960288135562" lon="112.01405873589499">
        <ele>1136.5</ele>
        <time>2017-08-28T09:18:40.600000Z</time>
      </trkpt>
      <trkpt lat="37.84963616744187" lon="112.01361698699702">
        <ele>1135.4</ele>
        <time>2017-08-28T09:18:52.600000Z</time>
      </trkpt>
      <trkpt lat="37.84966942240201" lon="112.01318713728728">
        <ele>1133.59</ele>
        <time>2017-08-28T09:19:04.600000Z</time>
      </trkpt>
      <trkpt lat="37.84973760837673" lon="112.01278188815094">
        <ele>1132.59</ele>
        <time>2017-08-28T09:19:16.600000Z</time>
      </trkpt>
      <trkpt lat="37.84978767633172" lon="112.01235690989215">
        <ele>1131.2</ele>
        <time>2017-08-28T09:19:28.600000Z</time>
      </trkpt>
      <trkpt lat="37.849856012287205" lon="112.01190192585898">
        <ele>1132.0</ele>
        <time>2017-08-28T09:19:40.600000Z</time>
      </trkpt>
      <trkpt lat="37.849872482185994" lon="112.01155670723274">
        <ele>1132.2</ele>
        <time>2017-08-28T09:19:49.600000Z</time>
      </trkpt>
      <trkpt lat="37.84989250459819" lon="112.01120338052253">
        <ele>1132.4</ele>
        <time>2017-08-28T09:19:58.600000Z</time>
      </trkpt>
      <trkpt lat="37.84989729663279" lon="112.01086330413304">
        <ele>1134.9</ele>
        <time>2017-08-28T09:20:07.600000Z</time>
      </trkpt>
      <trkpt lat="37.84993080326431" lon="112.01063162808305">
        <ele>1137.4</ele>
        <time>2017-08-28T09:20:13.600000Z</time>
      </trkpt>
      <trkpt lat="37.84995554834343" lon="112.01033480519362">
        <ele>1139.7</ele>
        <time>2017-08-28T09:20:22.600000Z</time>
      </trkpt>
      <trkpt lat="37.849940758726014" lon="112.009919856418">
        <ele>1141.59</ele>
        <time>2017-08-28T09:20:34.600000Z</time>
      </trkpt>
      <trkpt lat="37.849897202044055" lon="112.00950842829398">
        <ele>1142.3</ele>
        <time>2017-08-28T09:20:46.600000Z</time>
      </trkpt>
      <trkpt lat="37.84973558466752" lon="112.0091113441916">
        <ele>1146.7</ele>
        <time>2017-08-28T09:20:58.600000Z</time>
      </trkpt>
      <trkpt lat="37.84956738834616" lon="112.0088296900758">
        <ele>1148.3</ele>
        <time>2017-08-28T09:21:07.600000Z</time>
      </trkpt>
      <trkpt lat="37.849375548972716" lon="112.0085615560247">
        <ele>1149.5</ele>
        <time>2017-08-28T09:21:16.600000Z</time>
      </trkpt>
      <trkpt lat="37.84920381319757" lon="112.00828477056065">
        <ele>1150.3</ele>
        <time>2017-08-28T09:21:25.600000Z</time>
      </trkpt>
      <trkpt lat="37.848990710226296" lon="112.00795987491487">
        <ele>1151.4</ele>
        <time>2017-08-28T09:21:37.600000Z</time>
      </trkpt>
      <trkpt lat="37.84877056487595" lon="112.00763146764626">
        <ele>1154.59</ele>
        <time>2017-08-28T09:21:49.600000Z</time>
      </trkpt>
      <trkpt lat="37.84855214346126" lon="112.00727116479776">
        <ele>1155.59</ele>
        <time>2017-08-28T09:22:01.600000Z</time>
      </trkpt>
      <trkpt lat="37.84837402233547" lon="112.00704466368379">
        <ele>1156.09</ele>
        <time>2017-08-28T09:22:10.600000Z</time>
      </trkpt>
      <trkpt lat="37.84823405165084" lon="112.00694466477967">
        <ele>1157.0</ele>
        <time>2017-08-28T09:22:16.600000Z</time>
      </trkpt>
      <trkpt lat="37.84790060611504" lon="112.0068546906409">
        <ele>1156.0</ele>
        <time>2017-08-28T09:22:28.600000Z</time>
      </trkpt>
      <trkpt lat="37.84756555638271" lon="112.00684797281599">
        <ele>1151.9</ele>
        <time>2017-08-28T09:22:40.600000Z</time>
      </trkpt>
      <trkpt lat="37.84721899398886" lon="112.00678962681853">
        <ele>1150.2</ele>
        <time>2017-08-28T09:22:52.600000Z</time>
      </trkpt>
      <trkpt lat="37.84691041450992" lon="112.00673154664767">
        <ele>1149.09</ele>
        <time>2017-08-28T09:23:04.600000Z</time>
      </trkpt>
      <trkpt lat="37.84662049202903" lon="112.00669481888664">
        <ele>1148.3</ele>
        <time>2017-08-28T09:23:13.600000Z</time>
      </trkpt>
      <trkpt lat="37.84634551669704" lon="112.00664970971485">
        <ele>1148.4</ele>
        <time>2017-08-28T09:23:22.600000Z</time>
      </trkpt>
      <trkpt lat="37.846012338334994" lon="112.0065613577722">
        <ele>1148.7</ele>
        <time>2017-08-28T09:23:34.600000Z</time>
      </trkpt>
      <trkpt lat="37.84592562340832" lon="112.00652622772043">
        <ele>1148.8</ele>
        <time>2017-08-28T09:23:37.600000Z</time>
      </trkpt>
      <trkpt lat="37.84586565394733" lon="112.0065294786015">
        <ele>1149.0</ele>
        <time>2017-08-28T09:23:40.600000Z</time>
      </trkpt>
      <trkpt lat="37.8456038153527" lon="112.00644625419156">
        <ele>1149.3</ele>
        <time>2017-08-28T09:23:50.800000Z</time>
      </trkpt>
      <trkpt lat="37.84533867682182" lon="112.00637789732416">
        <ele>1149.8</ele>
        <time>2017-08-28T09:24:00.600000Z</time>
      </trkpt>
      <trkpt lat="37.845062374329615" lon="112.0063230573453">
        <ele>1150.9</ele>
        <time>2017-08-28T09:24:10.200000Z</time>
      </trkpt>
      <trkpt lat="37.844937340193226" lon="112.00630955676293">
        <ele>1151.7</ele>
        <time>2017-08-28T09:24:13.600000Z</time>
      </trkpt>
      <trkpt lat="37.844667006656294" lon="112.00625471612157">
        <ele>1152.5</ele>
        <time>2017-08-28T09:24:22.600000Z</time>
      </trkpt>
      <trkpt lat="37.84449364936434" lon="112.00625122277019">
        <ele>1153.2</ele>
        <time>2017-08-28T09:24:28.600000Z</time>
      </trkpt>
      <trkpt lat="37.844218828696064" lon="112.00633640313474">
        <ele>1155.7</ele>
        <time>2017-08-28T09:24:37.600000Z</time>
      </trkpt>
      <trkpt lat="37.84393058018473" lon="112.00646645672596">
        <ele>1157.3</ele>
        <time>2017-08-28T09:24:49.600000Z</time>
      </trkpt>
      <trkpt lat="37.84386537614563" lon="112.00649646897031">
        <ele>1156.9</ele>
        <time>2017-08-28T09:24:52.600000Z</time>
      </trkpt>
      <trkpt lat="37.843790572349505" lon="112.00656135246032">
        <ele>1157.0</ele>
        <time>2017-08-28T09:24:55.600000Z</time>
      </trkpt>
      <trkpt lat="37.84375404276484" lon="112.0066197439796">
        <ele>1157.59</ele>
        <time>2017-08-28T09:24:58.600000Z</time>
      </trkpt>
      <trkpt lat="37.84352036218331" lon="112.00682953353986">
        <ele>1158.3</ele>
        <time>2017-08-28T09:25:07.700000Z</time>
      </trkpt>
      <trkpt lat="37.84326050324801" lon="112.00699283309349">
        <ele>1159.4</ele>
        <time>2017-08-28T09:25:16.600000Z</time>
      </trkpt>
      <trkpt lat="37.84299722503476" lon="112.00721127735112">
        <ele>1160.2</ele>
        <time>2017-08-28T09:25:28.600000Z</time>
      </trkpt>
      <trkpt lat="37.84284549630514" lon="112.00732482716296">
        <ele>1160.5</ele>
        <time>2017-08-28T09:25:34.600000Z</time>
      </trkpt>
      <trkpt lat="37.842790503663096" lon="112.00738808718884">
        <ele>1160.8</ele>
        <time>2017-08-28T09:25:37.600000Z</time>
      </trkpt>
      <trkpt lat="37.84272555604274" lon="112.00742323577722">
        <ele>1161.2</ele>
        <time>2017-08-28T09:25:40.600000Z</time>
      </trkpt>
      <trkpt lat="37.842598976081646" lon="112.0075648956839">
        <ele>1161.5</ele>
        <time>2017-08-28T09:25:46.600000Z</time>
      </trkpt>
      <trkpt lat="37.842283939206666" lon="112.00776307432204">
        <ele>1162.4</ele>
        <time>2017-08-28T09:25:58.600000Z</time>
      </trkpt>
      <trkpt lat="37.842163985072546" lon="112.00786634928463">
        <ele>1160.4</ele>
        <time>2017-08-28T09:26:04.600000Z</time>
      </trkpt>
      <trkpt lat="37.8419072304629" lon="112.00798991447662">
        <ele>1159.7</ele>
        <time>2017-08-28T09:26:13.600000Z</time>
      </trkpt>
      <trkpt lat="37.841645430847095" lon="112.0080764470791">
        <ele>1161.7</ele>
        <time>2017-08-28T09:26:22.600000Z</time>
      </trkpt>
      <trkpt lat="37.84134542540398" lon="112.00814649500587">
        <ele>1162.5</ele>
        <time>2017-08-28T09:26:34.600000Z</time>
      </trkpt>
      <trkpt lat="37.84106054460501" lon="112.00814815090482">
        <ele>1162.3</ele>
        <time>2017-08-28T09:26:46.600000Z</time>
      </trkpt>
      <trkpt lat="37.84075731880005" lon="112.00811466775812">
        <ele>1162.5</ele>
        <time>2017-08-28T09:26:58.600000Z</time>
      </trkpt>
      <trkpt lat="37.84061058390864" lon="112.00809981782808">
        <ele>1162.9</ele>
        <time>2017-08-28T09:27:04.600000Z</time>
      </trkpt>
      <trkpt lat="37.84038725635657" lon="112.00802145257892">
        <ele>1163.3</ele>
        <time>2017-08-28T09:27:10.600000Z</time>
      </trkpt>
      <trkpt lat="37.84011707613623" lon="112.00800634708217">
        <ele>1163.09</ele>
        <time>2017-08-28T09:27:19.600000Z</time>
      </trkpt>
      <trkpt lat="37.83990394464874" lon="112.00805800301706">
        <ele>1163.7</ele>
        <time>2017-08-28T09:27:28.700000Z</time>
      </trkpt>
      <trkpt lat="37.839840596474566" lon="112.00810288319454">
        <ele>1164.4</ele>
        <time>2017-08-28T09:27:31.600000Z</time>
      </trkpt>
      <trkpt lat="37.83969398970667" lon="112.00813642001444">
        <ele>1164.9</ele>
        <time>2017-08-28T09:27:37.600000Z</time>
      </trkpt>
      <trkpt lat="37.83940904039056" lon="112.00816132320487">
        <ele>1165.8</ele>
        <time>2017-08-28T09:27:46.600000Z</time>
      </trkpt>
      <trkpt lat="37.8397390416077" lon="112.0081315489289">
        <ele>1168.0</ele>
        <time>2017-08-28T09:28:04.600000Z</time>
      </trkpt>
      <trkpt lat="37.83986228048139" lon="112.00810990885148">
        <ele>1168.8</ele>
        <time>2017-08-28T09:28:10.600000Z</time>
      </trkpt>
      <trkpt lat="37.840137384369434" lon="112.00801986049362">
        <ele>1169.7</ele>
        <time>2017-08-28T09:28:20.600000Z</time>
      </trkpt>
      <trkpt lat="37.84042248746488" lon="112.0080346938959">
        <ele>1167.2</ele>
        <time>2017-08-28T09:28:29.600000Z</time>
      </trkpt>
      <trkpt lat="37.840632422429685" lon="112.00805467229038">
        <ele>1167.59</ele>
        <time>2017-08-28T09:28:38.600000Z</time>
      </trkpt>
      <trkpt lat="37.840724021264776" lon="112.00808980256181">
        <ele>1167.2</ele>
        <time>2017-08-28T09:28:41.600000Z</time>
      </trkpt>
      <trkpt lat="37.84089388639333" lon="112.00808140246558">
        <ele>1167.2</ele>
        <time>2017-08-28T09:28:47.600000Z</time>
      </trkpt>
      <trkpt lat="37.84095579960833" lon="112.0080630135263">
        <ele>1167.3</ele>
        <time>2017-08-28T09:28:50.600000Z</time>
      </trkpt>
      <trkpt lat="37.84111570946732" lon="112.00811813911412">
        <ele>1167.09</ele>
        <time>2017-08-28T09:28:56.600000Z</time>
      </trkpt>
      <trkpt lat="37.8414074274704" lon="112.00809810083932">
        <ele>1165.2</ele>
        <time>2017-08-28T09:29:05.600000Z</time>
      </trkpt>
      <trkpt lat="37.84168899345725" lon="112.00802481136601">
        <ele>1163.09</ele>
        <time>2017-08-28T09:29:14.600000Z</time>
      </trkpt>
      <trkpt lat="37.84192566057933" lon="112.00790476261339">
        <ele>1161.4</ele>
        <time>2017-08-28T09:29:23.600000Z</time>
      </trkpt>
      <trkpt lat="37.84212397895253" lon="112.00772497891654">
        <ele>1159.0</ele>
        <time>2017-08-28T09:29:32.600000Z</time>
      </trkpt>
      <trkpt lat="37.842210676177515" lon="112.00767468991499">
        <ele>1158.7</ele>
        <time>2017-08-28T09:29:35.600000Z</time>
      </trkpt>
      <trkpt lat="37.84234046752722" lon="112.00754789669612">
        <ele>1158.0</ele>
        <time>2017-08-28T09:29:41.600000Z</time>
      </trkpt>
      <trkpt lat="37.84255386130185" lon="112.0074081186662">
        <ele>1156.7</ele>
        <time>2017-08-28T09:29:50.600000Z</time>
      </trkpt>
      <trkpt lat="37.84280051428127" lon="112.00721481489174">
        <ele>1156.7</ele>
        <time>2017-08-28T09:29:59.600000Z</time>
      </trkpt>
      <trkpt lat="37.84288373863606" lon="112.00714641571157">
        <ele>1156.59</ele>
        <time>2017-08-28T09:30:02.600000Z</time>
      </trkpt>
      <trkpt lat="37.842983995351524" lon="112.00709828803487">
        <ele>1155.59</ele>
        <time>2017-08-28T09:30:05.600000Z</time>
      </trkpt>
      <trkpt lat="37.84325905040749" lon="112.00684280999154">
        <ele>1156.09</ele>
        <time>2017-08-28T09:30:16.600000Z</time>
      </trkpt>
      <trkpt lat="37.84351045309875" lon="112.0066949195451">
        <ele>1152.8</ele>
        <time>2017-08-28T09:30:25.600000Z</time>
      </trkpt>
      <trkpt lat="37.84373220758579" lon="112.00648134746183">
        <ele>1150.8</ele>
        <time>2017-08-28T09:30:35.600000Z</time>
      </trkpt>
      <trkpt lat="37.84404556978186" lon="112.00629993196034">
        <ele>1151.8</ele>
        <time>2017-08-28T09:30:47.700000Z</time>
      </trkpt>
      <trkpt lat="37.84434040501081" lon="112.00614473912103">
        <ele>1150.3</ele>
        <time>2017-08-28T09:30:59.600000Z</time>
      </trkpt>
      <trkpt lat="37.844545488442066" lon="112.00606308131553">
        <ele>1145.59</ele>
        <time>2017-08-28T09:31:05.600000Z</time>
      </trkpt>
      <trkpt lat="37.844815388116686" lon="112.00608143014124">
        <ele>1141.9</ele>
        <time>2017-08-28T09:31:14.600000Z</time>
      </trkpt>
      <trkpt lat="37.845093791556216" lon="112.00615951628772">
        <ele>1142.09</ele>
        <time>2017-08-28T09:31:23.600000Z</time>
      </trkpt>
      <trkpt lat="37.84536405013051" lon="112.00623949565363">
        <ele>1145.4</ele>
        <time>2017-08-28T09:31:32.600000Z</time>
      </trkpt>
      <trkpt lat="37.845620657827816" lon="112.00634812958711">
        <ele>1147.4</ele>
        <time>2017-08-28T09:31:41.600000Z</time>
      </trkpt>
      <trkpt lat="37.84588056251535" lon="112.0064429774589">
        <ele>1149.9</ele>
        <time>2017-08-28T09:31:50.600000Z</time>
      </trkpt>
      <trkpt lat="37.84604207556114" lon="112.00650621084401">
        <ele>1152.0</ele>
        <time>2017-08-28T09:31:56.600000Z</time>
      </trkpt>
      <trkpt lat="37.84620050607796" lon="112.0065113278481">
        <ele>1153.7</ele>
        <time>2017-08-28T09:32:02.600000Z</time>
      </trkpt>
      <trkpt lat="37.84647896890609" lon="112.00656968174707">
        <ele>1153.0</ele>
        <time>2017-08-28T09:32:11.600000Z</time>
      </trkpt>
      <trkpt lat="37.84677219133155" lon="112.00659154195026">
        <ele>1151.7</ele>
        <time>2017-08-28T09:32:20.600000Z</time>
      </trkpt>
      <trkpt lat="37.84710714265212" lon="112.00663123770843">
        <ele>1148.7</ele>
        <time>2017-08-28T09:32:32.600000Z</time>
      </trkpt>
      <trkpt lat="37.84745372906614" lon="112.0066814742366">
        <ele>1146.3</ele>
        <time>2017-08-28T09:32:44.600000Z</time>
      </trkpt>
      <trkpt lat="37.847760729840324" lon="112.00672306555569">
        <ele>1146.59</ele>
        <time>2017-08-28T09:32:53.600000Z</time>
      </trkpt>
      <trkpt lat="37.848103770085736" lon="112.00677979004668">
        <ele>1144.09</ele>
        <time>2017-08-28T09:33:05.600000Z</time>
      </trkpt>
      <trkpt lat="37.848282301422614" lon="112.00686816069897">
        <ele>1144.3</ele>
        <time>2017-08-28T09:33:11.600000Z</time>
      </trkpt>
      <trkpt lat="37.84836241666792" lon="112.00693302603875">
        <ele>1144.5</ele>
        <time>2017-08-28T09:33:14.600000Z</time>
      </trkpt>
      <trkpt lat="37.84858874966754" lon="112.00727818858196">
        <ele>1143.2</ele>
        <time>2017-08-28T09:33:26.600000Z</time>
      </trkpt>
      <trkpt lat="37.84881050705922" lon="112.00761145957264">
        <ele>1143.4</ele>
        <time>2017-08-28T09:33:38.600000Z</time>
      </trkpt>
      <trkpt lat="37.84899216130124" lon="112.00792797741947">
        <ele>1143.4</ele>
        <time>2017-08-28T09:33:50.600000Z</time>
      </trkpt>
      <trkpt lat="37.849187243177695" lon="112.00829153048244">
        <ele>1144.4</ele>
        <time>2017-08-28T09:34:02.600000Z</time>
      </trkpt>
      <trkpt lat="37.84935741981222" lon="112.0085450687369">
        <ele>1144.7</ele>
        <time>2017-08-28T09:34:11.600000Z</time>
      </trkpt>
      <trkpt lat="37.84957396927745" lon="112.00889808031451">
        <ele>1145.59</ele>
        <time>2017-08-28T09:34:23.600000Z</time>
      </trkpt>
      <trkpt lat="37.849688819880576" lon="112.00905296039065">
        <ele>1144.0</ele>
        <time>2017-08-28T09:34:29.600000Z</time>
      </trkpt>
      <trkpt lat="37.84983421314401" lon="112.00943139376378">
        <ele>1141.2</ele>
        <time>2017-08-28T09:34:41.600000Z</time>
      </trkpt>
      <trkpt lat="37.84986385135688" lon="112.0095014038754">
        <ele>1140.3</ele>
        <time>2017-08-28T09:34:44.600000Z</time>
      </trkpt>
      <trkpt lat="37.849854263411544" lon="112.00990175497232">
        <ele>1139.5</ele>
        <time>2017-08-28T09:34:56.600000Z</time>
      </trkpt>
      <trkpt lat="37.849859080899876" lon="112.01001664264257">
        <ele>1139.5</ele>
        <time>2017-08-28T09:34:59.600000Z</time>
      </trkpt>
      <trkpt lat="37.84984571987358" lon="112.01013180304315">
        <ele>1139.2</ele>
        <time>2017-08-28T09:35:02.600000Z</time>
      </trkpt>
      <trkpt lat="37.84988400983568" lon="112.01048998170451">
        <ele>1139.4</ele>
        <time>2017-08-28T09:35:11.600000Z</time>
      </trkpt>
      <trkpt lat="37.84990402173523" lon="112.01060486876491">
        <ele>1140.0</ele>
        <time>2017-08-28T09:35:14.600000Z</time>
      </trkpt>
      <trkpt lat="37.84990581403736" lon="112.01082680862007">
        <ele>1141.09</ele>
        <time>2017-08-28T09:35:20.600000Z</time>
      </trkpt>
      <trkpt lat="37.84985080069018" lon="112.01117662270555">
        <ele>1141.09</ele>
        <time>2017-08-28T09:35:29.600000Z</time>
      </trkpt>
      <trkpt lat="37.849819406212895" lon="112.01161510558367">
        <ele>1141.09</ele>
        <time>2017-08-28T09:35:41.600000Z</time>
      </trkpt>
      <trkpt lat="37.84976440088654" lon="112.01196357323226">
        <ele>1140.09</ele>
        <time>2017-08-28T09:35:50.600000Z</time>
      </trkpt>
      <trkpt lat="37.84970071688372" lon="112.0124050403784">
        <ele>1136.9</ele>
        <time>2017-08-28T09:36:02.600000Z</time>
      </trkpt>
      <trkpt lat="37.84967098972648" lon="112.01264537472998">
        <ele>1136.4</ele>
        <time>2017-08-28T09:36:08.600000Z</time>
      </trkpt>
      <trkpt lat="37.84964424716983" lon="112.01307359678717">
        <ele>1135.8</ele>
        <time>2017-08-28T09:36:20.600000Z</time>
      </trkpt>
      <trkpt lat="37.84963087358174" lon="112.01347694941212">
        <ele>1135.7</ele>
        <time>2017-08-28T09:36:32.600000Z</time>
      </trkpt>
      <trkpt lat="37.84960271509846" lon="112.01383353740334">
        <ele>1134.5</ele>
        <time>2017-08-28T09:36:42.600000Z</time>
      </trkpt>
      <trkpt lat="37.84956101917748" lon="112.01427555971556">
        <ele>1132.4</ele>
        <time>2017-08-28T09:36:54.600000Z</time>
      </trkpt>
      <trkpt lat="37.84952612143478" lon="112.01461863715565">
        <ele>1131.59</ele>
        <time>2017-08-28T09:37:03.600000Z</time>
      </trkpt>
      <trkpt lat="37.849527675897164" lon="112.01483383634347">
        <ele>1131.2</ele>
        <time>2017-08-28T09:37:09.600000Z</time>
      </trkpt>
      <trkpt lat="37.84954617218712" lon="112.0149122361686">
        <ele>1131.3</ele>
        <time>2017-08-28T09:37:12.600000Z</time>
      </trkpt>
      <trkpt lat="37.849512781408016" lon="112.01520395103785">
        <ele>1132.0</ele>
        <time>2017-08-28T09:37:21.600000Z</time>
      </trkpt>
      <trkpt lat="37.849524548633156" lon="112.0152636978772">
        <ele>1132.3</ele>
        <time>2017-08-28T09:37:24.600000Z</time>
      </trkpt>
      <trkpt lat="37.8494811784651" lon="112.01563057532665">
        <ele>1131.4</ele>
        <time>2017-08-28T09:37:36.600000Z</time>
      </trkpt>
      <trkpt lat="37.849412846206114" lon="112.01599881067844">
        <ele>1130.5</ele>
        <time>2017-08-28T09:37:45.600000Z</time>
      </trkpt>
      <trkpt lat="37.84934645034839" lon="112.01645059068733">
        <ele>1128.0</ele>
        <time>2017-08-28T09:37:57.600000Z</time>
      </trkpt>
      <trkpt lat="37.8493246470415" lon="112.01667715706375">
        <ele>1126.59</ele>
        <time>2017-08-28T09:38:03.600000Z</time>
      </trkpt>
      <trkpt lat="37.84926131949" lon="112.01690886658542">
        <ele>1126.3</ele>
        <time>2017-08-28T09:38:12.600000Z</time>
      </trkpt>
      <trkpt lat="37.84925634864036" lon="112.01713218907287">
        <ele>1126.0</ele>
        <time>2017-08-28T09:38:24.600000Z</time>
      </trkpt>
      <trkpt lat="37.849188109670976" lon="112.01747096755004">
        <ele>1123.7</ele>
        <time>2017-08-28T09:38:42.600000Z</time>
      </trkpt>
      <trkpt lat="37.849122873305014" lon="112.01780407074425">
        <ele>1119.2</ele>
        <time>2017-08-28T09:39:06.600000Z</time>
      </trkpt>
      <trkpt lat="37.84910306743371" lon="112.0179008659671">
        <ele>1117.59</ele>
        <time>2017-08-28T09:39:12.600000Z</time>
      </trkpt>
      <trkpt lat="37.84911145574374" lon="112.0181025625572">
        <ele>1116.4</ele>
        <time>2017-08-28T09:39:24.600000Z</time>
      </trkpt>
      <trkpt lat="37.849133128644056" lon="112.0182109796052">
        <ele>1115.7</ele>
        <time>2017-08-28T09:39:33.600000Z</time>
      </trkpt>
      <trkpt lat="37.84908330162849" lon="112.01856571730248">
        <ele>1116.3</ele>
        <time>2017-08-28T09:39:51.600000Z</time>
      </trkpt>
      <trkpt lat="37.84906983880805" lon="112.01901589765326">
        <ele>1118.0</ele>
        <time>2017-08-28T09:40:03.600000Z</time>
      </trkpt>
      <trkpt lat="37.84907644452647" lon="112.01937279911617">
        <ele>1122.59</ele>
        <time>2017-08-28T09:40:18.600000Z</time>
      </trkpt>
      <trkpt lat="37.84909177327482" lon="112.0196177639751">
        <ele>1125.09</ele>
        <time>2017-08-28T09:40:33.600000Z</time>
      </trkpt>
      <trkpt lat="37.84906164673028" lon="112.02001442239762">
        <ele>1126.4</ele>
        <time>2017-08-28T09:40:45.600000Z</time>
      </trkpt>
      <trkpt lat="37.84902824476473" lon="112.02041946758612">
        <ele>1126.4</ele>
        <time>2017-08-28T09:40:57.600000Z</time>
      </trkpt>
      <trkpt lat="37.849036778912165" lon="112.02076962264668">
        <ele>1125.09</ele>
        <time>2017-08-28T09:41:09.600000Z</time>
      </trkpt>
      <trkpt lat="37.84907184959828" lon="112.02113978717907">
        <ele>1125.8</ele>
        <time>2017-08-28T09:41:18.600000Z</time>
      </trkpt>
      <trkpt lat="37.84905683466228" lon="112.02157134196132">
        <ele>1125.8</ele>
        <time>2017-08-28T09:41:30.600000Z</time>
      </trkpt>
      <trkpt lat="37.849046987670945" lon="112.02199965666043">
        <ele>1125.7</ele>
        <time>2017-08-28T09:41:42.600000Z</time>
      </trkpt>
      <trkpt lat="37.84908362480563" lon="112.02239633375443">
        <ele>1125.09</ele>
        <time>2017-08-28T09:41:57.600000Z</time>
      </trkpt>
      <trkpt lat="37.84906512075012" lon="112.02281844046867">
        <ele>1123.7</ele>
        <time>2017-08-28T09:42:09.600000Z</time>
      </trkpt>
      <trkpt lat="37.84907369736383" lon="112.0229582407525">
        <ele>1123.5</ele>
        <time>2017-08-28T09:42:15.600000Z</time>
      </trkpt>
      <trkpt lat="37.84904711121557" lon="112.02326002209107">
        <ele>1121.9</ele>
        <time>2017-08-28T09:42:30.600000Z</time>
      </trkpt>
      <trkpt lat="37.849057208659644" lon="112.02354152072178">
        <ele>1121.0</ele>
        <time>2017-08-28T09:42:45.600000Z</time>
      </trkpt>
      <trkpt lat="37.84899891043264" lon="112.02373162936932">
        <ele>1121.3</ele>
        <time>2017-08-28T09:42:54.600000Z</time>
      </trkpt>
      <trkpt lat="37.848985233135686" lon="112.0238749516213">
        <ele>1121.2</ele>
        <time>2017-08-28T09:43:03.600000Z</time>
      </trkpt>
      <trkpt lat="37.84901701114491" lon="112.02396364464981">
        <ele>1121.7</ele>
        <time>2017-08-28T09:43:09.600000Z</time>
      </trkpt>
      <trkpt lat="37.84897736119253" lon="112.02418160671871">
        <ele>1122.09</ele>
        <time>2017-08-28T09:43:21.600000Z</time>
      </trkpt>
      <trkpt lat="37.84903898185454" lon="112.02447527614056">
        <ele>1122.0</ele>
        <time>2017-08-28T09:43:36.600000Z</time>
      </trkpt>
      <trkpt lat="37.84901729192566" lon="112.02457181950729">
        <ele>1122.0</ele>
        <time>2017-08-28T09:43:42.600000Z</time>
      </trkpt>
      <trkpt lat="37.84903399086176" lon="112.02492526195478">
        <ele>1122.9</ele>
        <time>2017-08-28T09:44:01.600000Z</time>
      </trkpt>
      <trkpt lat="37.848965603456186" lon="112.02513701423352">
        <ele>1124.3</ele>
        <time>2017-08-28T09:44:16.600000Z</time>
      </trkpt>
      <trkpt lat="37.84897916355452" lon="112.0252419386723">
        <ele>1124.3</ele>
        <time>2017-08-28T09:44:22.600000Z</time>
      </trkpt>
      <trkpt lat="37.84897395925253" lon="112.02536363234441">
        <ele>1124.7</ele>
        <time>2017-08-28T09:44:28.600000Z</time>
      </trkpt>
      <trkpt lat="37.84900726880111" lon="112.02549018961528">
        <ele>1124.9</ele>
        <time>2017-08-28T09:44:34.600000Z</time>
      </trkpt>
      <trkpt lat="37.84900889638063" lon="112.02559349409006">
        <ele>1125.09</ele>
        <time>2017-08-28T09:44:40.600000Z</time>
      </trkpt>
      <trkpt lat="37.849064103446246" lon="112.02575033813858">
        <ele>1124.4</ele>
        <time>2017-08-28T09:44:52.600000Z</time>
      </trkpt>
      <trkpt lat="37.849040810640155" lon="112.02594207846278">
        <ele>1123.5</ele>
        <time>2017-08-28T09:45:04.600000Z</time>
      </trkpt>
      <trkpt lat="37.848914049317855" lon="112.02617196396535">
        <ele>1122.59</ele>
        <time>2017-08-28T09:45:19.600000Z</time>
      </trkpt>
      <trkpt lat="37.84890561334445" lon="112.02628554857505">
        <ele>1122.0</ele>
        <time>2017-08-28T09:45:25.600000Z</time>
      </trkpt>
      <trkpt lat="37.8489407103031" lon="112.02635207208806">
        <ele>1121.8</ele>
        <time>2017-08-28T09:45:28.600000Z</time>
      </trkpt>
      <trkpt lat="37.84892888734935" lon="112.02641211085619">
        <ele>1121.9</ele>
        <time>2017-08-28T09:45:31.600000Z</time>
      </trkpt>
      <trkpt lat="37.84888067418626" lon="112.026485405647">
        <ele>1121.59</ele>
        <time>2017-08-28T09:45:37.600000Z</time>
      </trkpt>
      <trkpt lat="37.848707511752764" lon="112.02651057734056">
        <ele>1122.8</ele>
        <time>2017-08-28T09:45:49.600000Z</time>
      </trkpt>
      <trkpt lat="37.848599113133524" lon="112.02646218171252">
        <ele>1124.2</ele>
        <time>2017-08-28T09:45:58.600000Z</time>
      </trkpt>
      <trkpt lat="37.84834258260371" lon="112.02641218133557">
        <ele>1126.2</ele>
        <time>2017-08-28T09:46:16.600000Z</time>
      </trkpt>
      <trkpt lat="37.848220638193446" lon="112.02646033413465">
        <ele>1126.7</ele>
        <time>2017-08-28T09:46:25.600000Z</time>
      </trkpt>
    </trkseg>
  </trk>
</gpx>